<?xml version="1.0" encoding="UTF-8"?>
<kml xmlns="http://www.opengis.net/kml/2.2" xmlns:gx="http://www.google.com/kml/ext/2.2">
    <Document id="73545">
        <Placemark id="73547">
            <ExtendedData>
                <Data name="direction">
                    <value>https://maps.google.com?q=15.15212,74.15778&amp;t=h</value>
                </Data>
                <Data name="id">
                    <value>4770</value>
                </Data>
                <Data name="name">
                    <value>Asani</value>
                </Data>
                <Data name="taluka">
                    <value>Sanguem</value>
                </Data>
                <Data name="syno">
                    <value>27</value>
                </Data>
                <Data name="subdiv">
                    <value>1</value>
                </Data>
                <Data name="village">
                    <value>Curdem</value>
                </Data>
                <Data name="latitude">
                    <value>15.15212</value>
                </Data>
                <Data name="longitude">
                    <value>74.15778</value>
                </Data>
                <Data name="photo_1">
                    <value>DCIM/20220423041747677.jpg</value>
                </Data>
                <Data name="photo_2">
                    <value>DCIM/20220423041807698.jpg</value>
                </Data>
                <Data name="constituency">
                    <value>39 - Sanguem</value>
                </Data>
                <Data name="status">
                    <value>Completed</value>
                </Data>
                <Data name="panchayat">
                    <value>Curdi</value>
                </Data>
                <Data name="wb_type">
                    <value>Pond</value>
                </Data>
                <Data name="owner_type">
                    <value>Private</value>
                </Data>
                <Data name="purpose">
                    <value>Irrigation</value>
                </Data>
                <Data name="construction">
                    <value>Natural/Man Made</value>
                </Data>
                <Data name="condition">
                    <value>Good</value>
                </Data>
                <Data name="print_order">
                    <value>015</value>
                </Data>
                <Data name="wb_id">
                    <value>Sg/Curd/06</value>
                </Data>
                <Data name="storage_capacity">
                    <value>135.0</value>
                </Data>
                <Data name="wb_surface_id">
                    <value>3818</value>
                </Data>
                <Data name="created_at">
                    <value>2022-04-23 00:00:00</value>
                </Data>
                <Data name="updated_at">
                    <value>2023-07-22 14:03:14.307690</value>
                </Data>
                <Data name="book_id">
                    <value>1</value>
                </Data>
                <Data name="owners">
                    <value>S. Kantilal and Co. Pvt. Ltd.</value>
                </Data>
                <Data name="label_x">
                    <value>1007077.0</value>
                </Data>
                <Data name="label_y">
                    <value>987504.293957953</value>
                </Data>
            </ExtendedData>
            <Point id="73546">
                <coordinates>74.15778,15.152115,0.0</coordinates>
            </Point>
        </Placemark>
        <Placemark id="73579">
            <ExtendedData>
                <Data name="direction">
                    <value>https://maps.google.com?q=15.15106,74.16865&amp;t=h</value>
                </Data>
                <Data name="id">
                    <value>4014</value>
                </Data>
                <Data name="name">
                    <value>Talem</value>
                </Data>
                <Data name="taluka">
                    <value>Sanguem</value>
                </Data>
                <Data name="syno">
                    <value>32</value>
                </Data>
                <Data name="subdiv">
                    <value>1</value>
                </Data>
                <Data name="village">
                    <value>Curdem</value>
                </Data>
                <Data name="latitude">
                    <value>15.15106</value>
                </Data>
                <Data name="longitude">
                    <value>74.16865</value>
                </Data>
                <Data name="photo_1">
                    <value>DCIM/20220506042435869.jpg</value>
                </Data>
                <Data name="photo_2">
                    <value>DCIM/20220506042444581.jpg</value>
                </Data>
                <Data name="constituency">
                    <value>39 - Sanguem</value>
                </Data>
                <Data name="status">
                    <value>Completed</value>
                </Data>
                <Data name="panchayat">
                    <value>Curdi</value>
                </Data>
                <Data name="wb_type">
                    <value>Pond</value>
                </Data>
                <Data name="owner_type">
                    <value>Private</value>
                </Data>
                <Data name="purpose">
                    <value>Storage</value>
                </Data>
                <Data name="construction">
                    <value>Natural</value>
                </Data>
                <Data name="condition">
                    <value>Needs Maintenance</value>
                </Data>
                <Data name="print_order">
                    <value>014</value>
                </Data>
                <Data name="wb_id">
                    <value>Sg/Curd/02</value>
                </Data>
                <Data name="storage_capacity">
                    <value>9013.0</value>
                </Data>
                <Data name="wb_surface_id">
                    <value>2698</value>
                </Data>
                <Data name="created_at">
                    <value>2021-11-19 12:48:37</value>
                </Data>
                <Data name="updated_at">
                    <value>2023-07-22 14:03:14.307690</value>
                </Data>
                <Data name="book_id">
                    <value>1</value>
                </Data>
                <Data name="owners">
                    <value>Dr.Govind Sadashiv Prabhu Dessai
Jaganath Sadashiv Prabhu Dessai
Krishnanath Govind Prabhu Dessai
Rajendrababu alias Rajendra Sadashiv Pra bhu Dessai
Satish Sadashiv Prabhu Dessai
Subhash Sadashiv Prabhu Dessai</value>
                </Data>
                <Data name="label_x">
                    <value>1007077.0</value>
                </Data>
                <Data name="label_y">
                    <value>987854.293957953</value>
                </Data>
            </ExtendedData>
            <Point id="73578">
                <coordinates>74.168647653,15.15106161,0.0</coordinates>
            </Point>
        </Placemark>
    </Document>
</kml>
