<?xml version="1.0" encoding="UTF-8"?>
<kml xmlns="http://www.opengis.net/kml/2.2" xmlns:gx="http://www.google.com/kml/ext/2.2">
    <Document id="74451">
        <Placemark id="74453">
            <ExtendedData>
                <Data name="direction">
                    <value>https://maps.google.com?q=15.09003,74.22568&amp;t=h</value>
                </Data>
                <Data name="id">
                    <value>4054</value>
                </Data>
                <Data name="name">
                    <value>Kond</value>
                </Data>
                <Data name="taluka">
                    <value>Sanguem</value>
                </Data>
                <Data name="syno">
                    <value>142</value>
                </Data>
                <Data name="subdiv">
                    <value>7</value>
                </Data>
                <Data name="village">
                    <value>Neturlim</value>
                </Data>
                <Data name="latitude">
                    <value>15.09003</value>
                </Data>
                <Data name="longitude">
                    <value>74.22568</value>
                </Data>
                <Data name="photo_1">
                    <value>DCIM/20220419084339381.jpg</value>
                </Data>
                <Data name="photo_2">
                    <value>DCIM/20220419084355840.jpg</value>
                </Data>
                <Data name="constituency">
                    <value>39 - Sanguem</value>
                </Data>
                <Data name="status">
                    <value>Completed</value>
                </Data>
                <Data name="panchayat">
                    <value>Neturlim</value>
                </Data>
                <Data name="wb_type">
                    <value>Pond</value>
                </Data>
                <Data name="owner_type">
                    <value>Private</value>
                </Data>
                <Data name="purpose">
                    <value>Storage</value>
                </Data>
                <Data name="construction">
                    <value>Natural/Man Made</value>
                </Data>
                <Data name="condition">
                    <value>Good</value>
                </Data>
                <Data name="print_order">
                    <value>010</value>
                </Data>
                <Data name="wb_id">
                    <value>Sg/Netu/17</value>
                </Data>
                <Data name="storage_capacity">
                    <value>55.0</value>
                </Data>
                <Data name="wb_surface_id">
                    <value>2735</value>
                </Data>
                <Data name="created_at">
                    <value>2021-11-23 08:06:06.118435</value>
                </Data>
                <Data name="updated_at">
                    <value>2023-07-22 14:03:14.307690</value>
                </Data>
                <Data name="book_id">
                    <value>2</value>
                </Data>
                <Data name="owners">
                    <value>Raghunath Damodar Prabhu Desai
Shripad Damodar Prabhu Desai</value>
                </Data>
                <Data name="label_x">
                    <value>1034452.0</value>
                </Data>
                <Data name="label_y">
                    <value>975149.327423708</value>
                </Data>
            </ExtendedData>
            <Point id="74452">
                <coordinates>74.22567776,15.090033047,0.0</coordinates>
            </Point>
        </Placemark>
        <Placemark id="74485">
            <ExtendedData>
                <Data name="direction">
                    <value>https://maps.google.com?q=15.09291,74.21474&amp;t=h</value>
                </Data>
                <Data name="id">
                    <value>4750</value>
                </Data>
                <Data name="name">
                    <value>--</value>
                </Data>
                <Data name="taluka">
                    <value>Sanguem</value>
                </Data>
                <Data name="syno">
                    <value>85</value>
                </Data>
                <Data name="subdiv">
                    <value>3</value>
                </Data>
                <Data name="village">
                    <value>Neturlim</value>
                </Data>
                <Data name="latitude">
                    <value>15.09291</value>
                </Data>
                <Data name="longitude">
                    <value>74.21474</value>
                </Data>
                <Data name="photo_1">
                    <value>DCIM/20220420031813888.jpg</value>
                </Data>
                <Data name="photo_2">
                    <value>DCIM/20220420084829786.jpg</value>
                </Data>
                <Data name="constituency">
                    <value>39 - Sanguem</value>
                </Data>
                <Data name="status">
                    <value>Completed</value>
                </Data>
                <Data name="panchayat">
                    <value>Neturlim</value>
                </Data>
                <Data name="wb_type">
                    <value>Pond</value>
                </Data>
                <Data name="owner_type">
                    <value>Private</value>
                </Data>
                <Data name="purpose">
                    <value>Irrigation</value>
                </Data>
                <Data name="construction">
                    <value>Natural/Man Made</value>
                </Data>
                <Data name="condition">
                    <value>Good</value>
                </Data>
                <Data name="print_order">
                    <value>011</value>
                </Data>
                <Data name="wb_id">
                    <value>Sg/Netu/19</value>
                </Data>
                <Data name="storage_capacity">
                    <value>43.0</value>
                </Data>
                <Data name="wb_surface_id">
                    <value>3832</value>
                </Data>
                <Data name="created_at">
                    <value>2022-04-20 00:00:00</value>
                </Data>
                <Data name="updated_at">
                    <value>2023-07-22 14:03:14.307690</value>
                </Data>
                <Data name="book_id">
                    <value>2</value>
                </Data>
                <Data name="owners">
                    <value>Raghunath D.P. Dessai
Shripad D.P. Dessai</value>
                </Data>
                <Data name="label_x">
                    <value>1034452.0</value>
                </Data>
                <Data name="label_y">
                    <value>977949.327423708</value>
                </Data>
            </ExtendedData>
            <Point id="74484">
                <coordinates>74.214738964,15.092910067,0.0</coordinates>
            </Point>
        </Placemark>
        <Placemark id="74517">
            <ExtendedData>
                <Data name="direction">
                    <value>https://maps.google.com?q=15.09087,74.21214&amp;t=h</value>
                </Data>
                <Data name="id">
                    <value>4393</value>
                </Data>
                <Data name="name">
                    <value>Madd Tican</value>
                </Data>
                <Data name="taluka">
                    <value>Sanguem</value>
                </Data>
                <Data name="syno">
                    <value>95</value>
                </Data>
                <Data name="subdiv">
                    <value>3</value>
                </Data>
                <Data name="village">
                    <value>Neturlim</value>
                </Data>
                <Data name="latitude">
                    <value>15.09087</value>
                </Data>
                <Data name="longitude">
                    <value>74.21214</value>
                </Data>
                <Data name="photo_1">
                    <value>DCIM/20220506072007647.jpg</value>
                </Data>
                <Data name="photo_2">
                    <value>DCIM/20220506072019431.jpg</value>
                </Data>
                <Data name="constituency">
                    <value>39 - Sanguem</value>
                </Data>
                <Data name="status">
                    <value>Completed</value>
                </Data>
                <Data name="panchayat">
                    <value>Neturlim</value>
                </Data>
                <Data name="wb_type">
                    <value>Pond</value>
                </Data>
                <Data name="owner_type">
                    <value>Private</value>
                </Data>
                <Data name="purpose">
                    <value>Irrigation</value>
                </Data>
                <Data name="construction">
                    <value>Man Made</value>
                </Data>
                <Data name="condition">
                    <value>Good</value>
                </Data>
                <Data name="print_order">
                    <value>006</value>
                </Data>
                <Data name="wb_id">
                    <value>Sg/Netu/11</value>
                </Data>
                <Data name="storage_capacity">
                    <value>96.0</value>
                </Data>
                <Data name="wb_surface_id">
                    <value>3480</value>
                </Data>
                <Data name="created_at">
                    <value>2022-02-16 04:01:03.161819</value>
                </Data>
                <Data name="updated_at">
                    <value>2023-07-22 14:03:14.307690</value>
                </Data>
                <Data name="book_id">
                    <value>2</value>
                </Data>
                <Data name="owners">
                    <value>Ashok Prabhakar Kudchedker  1/4
Datta Sinai Rajadhaksha  1/2
Laximikant Prabhakar Kudchedker  1/4</value>
                </Data>
                <Data name="label_x">
                    <value>1034452.0</value>
                </Data>
                <Data name="label_y">
                    <value>977599.327423708</value>
                </Data>
            </ExtendedData>
            <Point id="74516">
                <coordinates>74.212142898,15.090871777,0.0</coordinates>
            </Point>
        </Placemark>
        <Placemark id="74549">
            <ExtendedData>
                <Data name="direction">
                    <value>https://maps.google.com?q=15.09413,74.20913&amp;t=h</value>
                </Data>
                <Data name="id">
                    <value>734</value>
                </Data>
                <Data name="name">
                    <value>Budbudeache Talle; Burbutory Tican</value>
                </Data>
                <Data name="taluka">
                    <value>Sanguem</value>
                </Data>
                <Data name="syno">
                    <value>96</value>
                </Data>
                <Data name="subdiv">
                    <value>2</value>
                </Data>
                <Data name="village">
                    <value>Neturlim</value>
                </Data>
                <Data name="latitude">
                    <value>15.09413</value>
                </Data>
                <Data name="longitude">
                    <value>74.20913</value>
                </Data>
                <Data name="photo_1">
                    <value>DCIM/20220419104511371.jpg</value>
                </Data>
                <Data name="photo_2">
                    <value>DCIM/20220419104547146.jpg</value>
                </Data>
                <Data name="constituency">
                    <value>39 - Sanguem</value>
                </Data>
                <Data name="status">
                    <value>Completed</value>
                </Data>
                <Data name="panchayat">
                    <value>Neturlim</value>
                </Data>
                <Data name="wb_type">
                    <value>Temple Tank</value>
                </Data>
                <Data name="owner_type">
                    <value>Private</value>
                </Data>
                <Data name="purpose">
                    <value>Storage</value>
                </Data>
                <Data name="construction">
                    <value>Man Made</value>
                </Data>
                <Data name="condition">
                    <value>Good</value>
                </Data>
                <Data name="print_order">
                    <value>052</value>
                </Data>
                <Data name="wb_id">
                    <value>Sg/Netu/04</value>
                </Data>
                <Data name="storage_capacity">
                    <value>1343.0</value>
                </Data>
                <Data name="wb_surface_id">
                    <value>2320</value>
                </Data>
                <Data name="created_at">
                    <value>2020-02-28 15:24:34</value>
                </Data>
                <Data name="updated_at">
                    <value>2023-07-22 14:03:14.307690</value>
                </Data>
                <Data name="book_id">
                    <value>2</value>
                </Data>
                <Data name="owners">
                    <value>Gopinath Dev of Netorlim</value>
                </Data>
                <Data name="label_x">
                    <value>1006898.0</value>
                </Data>
                <Data name="label_y">
                    <value>964604.443516674</value>
                </Data>
            </ExtendedData>
            <Point id="74548">
                <coordinates>74.209133961,15.094134016,0.0</coordinates>
            </Point>
        </Placemark>
        <Placemark id="74581">
            <ExtendedData>
                <Data name="direction">
                    <value>https://maps.google.com?q=15.09397,74.21407&amp;t=h</value>
                </Data>
                <Data name="id">
                    <value>4749</value>
                </Data>
                <Data name="name">
                    <value>--</value>
                </Data>
                <Data name="taluka">
                    <value>Sanguem</value>
                </Data>
                <Data name="syno">
                    <value>85</value>
                </Data>
                <Data name="subdiv">
                    <value>3</value>
                </Data>
                <Data name="village">
                    <value>Neturlim</value>
                </Data>
                <Data name="latitude">
                    <value>15.09397</value>
                </Data>
                <Data name="longitude">
                    <value>74.21407</value>
                </Data>
                <Data name="photo_1">
                    <value>DCIM/20220420030303155.jpg</value>
                </Data>
                <Data name="photo_2">
                    <value>DCIM/20220420083323595.jpg</value>
                </Data>
                <Data name="constituency">
                    <value>39 - Sanguem</value>
                </Data>
                <Data name="status">
                    <value>Completed</value>
                </Data>
                <Data name="panchayat">
                    <value>Neturlim</value>
                </Data>
                <Data name="wb_type">
                    <value>Tank</value>
                </Data>
                <Data name="owner_type">
                    <value>Private</value>
                </Data>
                <Data name="purpose">
                    <value>Irrigation</value>
                </Data>
                <Data name="construction">
                    <value>Man Made</value>
                </Data>
                <Data name="condition">
                    <value>Good</value>
                </Data>
                <Data name="print_order">
                    <value>058</value>
                </Data>
                <Data name="wb_id">
                    <value>Sg/Netu/08</value>
                </Data>
                <Data name="storage_capacity">
                    <value>212.0</value>
                </Data>
                <Data name="wb_surface_id">
                    <value>3831</value>
                </Data>
                <Data name="created_at">
                    <value>2022-04-20 00:00:00</value>
                </Data>
                <Data name="updated_at">
                    <value>2023-07-22 14:03:14.307690</value>
                </Data>
                <Data name="book_id">
                    <value>2</value>
                </Data>
                <Data name="owners">
                    <value>Raghunath D.P. Dessai
Shripad D.P. Dessai</value>
                </Data>
                <Data name="label_x">
                    <value>1034452.0</value>
                </Data>
                <Data name="label_y">
                    <value>978299.327423708</value>
                </Data>
            </ExtendedData>
            <Point id="74580">
                <coordinates>74.214065632,15.093970308,0.0</coordinates>
            </Point>
        </Placemark>
        <Placemark id="74613">
            <ExtendedData>
                <Data name="direction">
                    <value>https://maps.google.com?q=15.08888,74.22141&amp;t=h</value>
                </Data>
                <Data name="id">
                    <value>4744</value>
                </Data>
                <Data name="name">
                    <value>Harnulem Bagayat</value>
                </Data>
                <Data name="taluka">
                    <value>Sanguem</value>
                </Data>
                <Data name="syno">
                    <value>3</value>
                </Data>
                <Data name="subdiv">
                    <value>1</value>
                </Data>
                <Data name="village">
                    <value>Neturlim</value>
                </Data>
                <Data name="latitude">
                    <value>15.08888</value>
                </Data>
                <Data name="longitude">
                    <value>74.22141</value>
                </Data>
                <Data name="photo_1">
                    <value>DCIM/20220419094811268.jpg</value>
                </Data>
                <Data name="photo_2">
                    <value>DCIM/20220419094820074.jpg</value>
                </Data>
                <Data name="constituency">
                    <value>39 - Sanguem</value>
                </Data>
                <Data name="status">
                    <value>Completed</value>
                </Data>
                <Data name="panchayat">
                    <value>Neturlim</value>
                </Data>
                <Data name="wb_type">
                    <value>Tank</value>
                </Data>
                <Data name="owner_type">
                    <value>Private</value>
                </Data>
                <Data name="purpose">
                    <value>Storage</value>
                </Data>
                <Data name="construction">
                    <value>Man Made</value>
                </Data>
                <Data name="condition">
                    <value>Good</value>
                </Data>
                <Data name="print_order">
                    <value>057</value>
                </Data>
                <Data name="wb_id">
                    <value>Sg/Netu/07</value>
                </Data>
                <Data name="storage_capacity">
                    <value>362.0</value>
                </Data>
                <Data name="wb_surface_id">
                    <value>3846</value>
                </Data>
                <Data name="created_at">
                    <value>2022-04-19 00:00:00</value>
                </Data>
                <Data name="updated_at">
                    <value>2023-07-22 14:03:14.307690</value>
                </Data>
                <Data name="book_id">
                    <value>2</value>
                </Data>
                <Data name="owners">
                    <value>Anant Gajanan P. Desai
Anil Gajanan P. Desai
Arun Venktesh P. Desai
Ashok Vinayak P. Desai
Atchut Pandurang Prabhu Desai
Avaduth Sadashiv P. Desai
Balchandra Gajanan P. Desai
Damodar Raghunath P. Desai
Dattaram Raghunath P. Desai
Devadatta Purusottam P. Desai
Devidas Shripad P. Desai
Gajanan Pandurang P. Desai
Ganashyam Keshav Prabhu Desai
Gopalkrishna Shripad P. Desai
Gurudas Sadashiv Prabhu Desai
Kalidas Atchut P. Dessai
Kamalakant Atchut P. Desai
Kashinath Atchut P. Dessai
Manohar Sadashiv P. Desai
Modhukar Keshav Prabhu Desai
Pandurang Gajanan P. Desai
Prabhakar Sadashiv P. Desai
Purushottam Govind Prabhu Desai
Raghunath Damodar Prabhu Desai
Rajaram Gajanan P. Desai
Ramdas Vinayak P. Desai
Rohidas Gajanan P. Desai
Satchit Gajanan P. Desai
Shrikant Raghunath P. Desai
Shrinath Ramchandra Prabhu Desai
Shripad Damodar Prabhu Desai
Shripati Sadashiv P. Desai
Shubhas Gajanan P. Desai
Suhas Shrinivas P. Dessai
Sureshchandra Atchut P. Desai
Udaybhanu Purusottam P. Desai
Venktesh Ramakrishna Prabhu Desai
Vilas Vinayak P. Desai
Vishnudas Shripad P. Desai</value>
                </Data>
                <Data name="label_x">
                    <value>1034452.0</value>
                </Data>
                <Data name="label_y">
                    <value>976549.327423708</value>
                </Data>
            </ExtendedData>
            <Point id="74612">
                <coordinates>74.221411156,15.088878561,0.0</coordinates>
            </Point>
        </Placemark>
        <Placemark id="74645">
            <ExtendedData>
                <Data name="direction">
                    <value>https://maps.google.com?q=15.09095,74.22951&amp;t=h</value>
                </Data>
                <Data name="id">
                    <value>4060</value>
                </Data>
                <Data name="name">
                    <value>Namas</value>
                </Data>
                <Data name="taluka">
                    <value>Sanguem</value>
                </Data>
                <Data name="syno">
                    <value>128</value>
                </Data>
                <Data name="subdiv">
                    <value>3</value>
                </Data>
                <Data name="village">
                    <value>Neturlim</value>
                </Data>
                <Data name="latitude">
                    <value>15.09095</value>
                </Data>
                <Data name="longitude">
                    <value>74.22951</value>
                </Data>
                <Data name="photo_1">
                    <value>DCIM/20220419091351746.jpg</value>
                </Data>
                <Data name="photo_2">
                    <value>DCIM/20220419091400578.jpg</value>
                </Data>
                <Data name="constituency">
                    <value>39 - Sanguem</value>
                </Data>
                <Data name="status">
                    <value>Completed</value>
                </Data>
                <Data name="panchayat">
                    <value>Neturlim</value>
                </Data>
                <Data name="wb_type">
                    <value>Pond</value>
                </Data>
                <Data name="owner_type">
                    <value>Private</value>
                </Data>
                <Data name="purpose">
                    <value>Irrigation</value>
                </Data>
                <Data name="construction">
                    <value>Natural</value>
                </Data>
                <Data name="condition">
                    <value>Needs Maintenance</value>
                </Data>
                <Data name="print_order">
                    <value>013</value>
                </Data>
                <Data name="wb_id">
                    <value>Sg/Netu/21</value>
                </Data>
                <Data name="storage_capacity">
                    <value>27.0</value>
                </Data>
                <Data name="wb_surface_id">
                    <value>2740</value>
                </Data>
                <Data name="created_at">
                    <value>2021-11-23 09:30:36.835690</value>
                </Data>
                <Data name="updated_at">
                    <value>2023-07-22 14:03:14.307690</value>
                </Data>
                <Data name="book_id">
                    <value>2</value>
                </Data>
                <Data name="owners">
                    <value>Dhevasthan Bhakti Namas</value>
                </Data>
                <Data name="label_x">
                    <value>1034452.0</value>
                </Data>
                <Data name="label_y">
                    <value>974449.327423708</value>
                </Data>
            </ExtendedData>
            <Point id="74644">
                <coordinates>74.229511233,15.090949403,0.0</coordinates>
            </Point>
        </Placemark>
        <Placemark id="74677">
            <ExtendedData>
                <Data name="direction">
                    <value>https://maps.google.com?q=15.08646,74.20783&amp;t=h</value>
                </Data>
                <Data name="id">
                    <value>4392</value>
                </Data>
                <Data name="name">
                    <value>Nassem Deva</value>
                </Data>
                <Data name="taluka">
                    <value>Sanguem</value>
                </Data>
                <Data name="syno">
                    <value>80</value>
                </Data>
                <Data name="subdiv">
                    <value>4</value>
                </Data>
                <Data name="village">
                    <value>Neturlim</value>
                </Data>
                <Data name="latitude">
                    <value>15.08646</value>
                </Data>
                <Data name="longitude">
                    <value>74.20783</value>
                </Data>
                <Data name="photo_1">
                    <value>DCIM/20220419112142309.jpg</value>
                </Data>
                <Data name="photo_2">
                    <value>DCIM/20220419112208739.jpg</value>
                </Data>
                <Data name="constituency">
                    <value>39 - Sanguem</value>
                </Data>
                <Data name="status">
                    <value>Completed</value>
                </Data>
                <Data name="panchayat">
                    <value>Neturlim</value>
                </Data>
                <Data name="wb_type">
                    <value>Tank</value>
                </Data>
                <Data name="owner_type">
                    <value>Private</value>
                </Data>
                <Data name="purpose">
                    <value>Irrigation</value>
                </Data>
                <Data name="construction">
                    <value>Man Made</value>
                </Data>
                <Data name="condition">
                    <value>Good</value>
                </Data>
                <Data name="print_order">
                    <value>056</value>
                </Data>
                <Data name="wb_id">
                    <value>Sg/Netu/05</value>
                </Data>
                <Data name="storage_capacity">
                    <value>1043.0</value>
                </Data>
                <Data name="wb_surface_id">
                    <value>3479</value>
                </Data>
                <Data name="created_at">
                    <value>2022-02-16 04:00:42.657809</value>
                </Data>
                <Data name="updated_at">
                    <value>2023-07-22 14:03:14.307690</value>
                </Data>
                <Data name="book_id">
                    <value>2</value>
                </Data>
                <Data name="owners">
                    <value>Mr. Shantanu Narayan Desai
Mrs. Kiran Shantanu Desai</value>
                </Data>
                <Data name="label_x">
                    <value>1006898.0</value>
                </Data>
                <Data name="label_y">
                    <value>964254.443516674</value>
                </Data>
            </ExtendedData>
            <Point id="74676">
                <coordinates>74.207825031,15.086458663,0.0</coordinates>
            </Point>
        </Placemark>
        <Placemark id="74709">
            <ExtendedData>
                <Data name="direction">
                    <value>https://maps.google.com?q=15.08221,74.20633&amp;t=h</value>
                </Data>
                <Data name="id">
                    <value>4045</value>
                </Data>
                <Data name="name">
                    <value>Manem Sarad</value>
                </Data>
                <Data name="taluka">
                    <value>Sanguem</value>
                </Data>
                <Data name="syno">
                    <value>58</value>
                </Data>
                <Data name="subdiv">
                    <value>5</value>
                </Data>
                <Data name="village">
                    <value>Neturlim</value>
                </Data>
                <Data name="latitude">
                    <value>15.08221</value>
                </Data>
                <Data name="longitude">
                    <value>74.20633</value>
                </Data>
                <Data name="photo_1">
                    <value>DCIM/20220419110303288.jpg</value>
                </Data>
                <Data name="photo_2">
                    <value>DCIM/20220419110438203.jpg</value>
                </Data>
                <Data name="constituency">
                    <value>39 - Sanguem</value>
                </Data>
                <Data name="status">
                    <value>Completed</value>
                </Data>
                <Data name="panchayat">
                    <value>Neturlim</value>
                </Data>
                <Data name="wb_type">
                    <value>Lake</value>
                </Data>
                <Data name="owner_type">
                    <value>Private / Public</value>
                </Data>
                <Data name="purpose">
                    <value>Storage</value>
                </Data>
                <Data name="construction">
                    <value>Natural</value>
                </Data>
                <Data name="condition">
                    <value>Needs Maintenance</value>
                </Data>
                <Data name="print_order">
                    <value>002</value>
                </Data>
                <Data name="wb_id">
                    <value>Sg/Netu/01</value>
                </Data>
                <Data name="storage_capacity">
                    <value>4230.0</value>
                </Data>
                <Data name="wb_surface_id">
                    <value>2725</value>
                </Data>
                <Data name="created_at">
                    <value>2021-11-23 06:25:46.867434</value>
                </Data>
                <Data name="updated_at">
                    <value>2023-07-22 14:03:14.307690</value>
                </Data>
                <Data name="book_id">
                    <value>2</value>
                </Data>
                <Data name="owners">
                    <value>Government of Goa, The Executive Engineer, Div. XVIII(R) P.W.D.Ponda.
Govind Barkello Gaonkar</value>
                </Data>
                <Data name="label_x">
                    <value>1006898.0</value>
                </Data>
                <Data name="label_y">
                    <value>963904.4435166745</value>
                </Data>
            </ExtendedData>
            <Point id="74708">
                <coordinates>74.206329341,15.082205528,0.0</coordinates>
            </Point>
        </Placemark>
        <Placemark id="74741">
            <ExtendedData>
                <Data name="direction">
                    <value>https://maps.google.com?q=15.08122,74.21771&amp;t=h</value>
                </Data>
                <Data name="id">
                    <value>733</value>
                </Data>
                <Data name="name">
                    <value>Kummarko</value>
                </Data>
                <Data name="taluka">
                    <value>Sanguem</value>
                </Data>
                <Data name="syno">
                    <value>16</value>
                </Data>
                <Data name="subdiv">
                    <value>2</value>
                </Data>
                <Data name="village">
                    <value>Neturlim</value>
                </Data>
                <Data name="latitude">
                    <value>15.08122</value>
                </Data>
                <Data name="longitude">
                    <value>74.21771</value>
                </Data>
                <Data name="photo_1">
                    <value>DCIM/20220506070933547.jpg</value>
                </Data>
                <Data name="photo_2">
                    <value>DCIM/20220506070942216.jpg</value>
                </Data>
                <Data name="constituency">
                    <value>39 - Sanguem</value>
                </Data>
                <Data name="status">
                    <value>Completed</value>
                </Data>
                <Data name="panchayat">
                    <value>Neturlim</value>
                </Data>
                <Data name="wb_type">
                    <value>Tank</value>
                </Data>
                <Data name="owner_type">
                    <value>Private</value>
                </Data>
                <Data name="purpose">
                    <value>Irrigation</value>
                </Data>
                <Data name="construction">
                    <value>Natural/Man Made</value>
                </Data>
                <Data name="condition">
                    <value>Good</value>
                </Data>
                <Data name="print_order">
                    <value>055</value>
                </Data>
                <Data name="wb_id">
                    <value>Sg/Netu/03</value>
                </Data>
                <Data name="storage_capacity">
                    <value>1826.0</value>
                </Data>
                <Data name="wb_surface_id">
                    <value>2315</value>
                </Data>
                <Data name="created_at">
                    <value>2020-02-28 15:24:34</value>
                </Data>
                <Data name="updated_at">
                    <value>2023-07-22 14:03:14.307690</value>
                </Data>
                <Data name="book_id">
                    <value>2</value>
                </Data>
                <Data name="owners">
                    <value>Sandesh Umanath Kharangate
Tanaji Tukaram Vharkat</value>
                </Data>
                <Data name="label_x">
                    <value>1034452.0</value>
                </Data>
                <Data name="label_y">
                    <value>974099.327423708</value>
                </Data>
            </ExtendedData>
            <Point id="74740">
                <coordinates>74.21770918,15.08121546,0.0</coordinates>
            </Point>
        </Placemark>
        <Placemark id="74773">
            <ExtendedData>
                <Data name="direction">
                    <value>https://maps.google.com?q=15.08979,74.22367&amp;t=h</value>
                </Data>
                <Data name="id">
                    <value>4050</value>
                </Data>
                <Data name="name">
                    <value>Kandapem</value>
                </Data>
                <Data name="taluka">
                    <value>Sanguem</value>
                </Data>
                <Data name="syno">
                    <value>4</value>
                </Data>
                <Data name="subdiv">
                    <value>2</value>
                </Data>
                <Data name="village">
                    <value>Neturlim</value>
                </Data>
                <Data name="latitude">
                    <value>15.08979</value>
                </Data>
                <Data name="longitude">
                    <value>74.22367</value>
                </Data>
                <Data name="photo_1">
                    <value>DCIM/20220419094019213.jpg</value>
                </Data>
                <Data name="photo_2">
                    <value>DCIM/20220419094055541.jpg</value>
                </Data>
                <Data name="constituency">
                    <value>39 - Sanguem</value>
                </Data>
                <Data name="status">
                    <value>Completed</value>
                </Data>
                <Data name="panchayat">
                    <value>Neturlim</value>
                </Data>
                <Data name="wb_type">
                    <value>Pond</value>
                </Data>
                <Data name="owner_type">
                    <value>Private</value>
                </Data>
                <Data name="purpose">
                    <value>Irrigation</value>
                </Data>
                <Data name="construction">
                    <value>Man Made</value>
                </Data>
                <Data name="condition">
                    <value>Good</value>
                </Data>
                <Data name="print_order">
                    <value>009</value>
                </Data>
                <Data name="wb_id">
                    <value>Sg/Netu/16</value>
                </Data>
                <Data name="storage_capacity">
                    <value>60.0</value>
                </Data>
                <Data name="wb_surface_id">
                    <value>2730</value>
                </Data>
                <Data name="created_at">
                    <value>2021-11-23 08:00:24.846316</value>
                </Data>
                <Data name="updated_at">
                    <value>2023-07-22 14:03:14.307690</value>
                </Data>
                <Data name="book_id">
                    <value>2</value>
                </Data>
                <Data name="owners">
                    <value>Vinayak Shivram Shikerkar</value>
                </Data>
                <Data name="label_x">
                    <value>1034452.0</value>
                </Data>
                <Data name="label_y">
                    <value>976199.327423708</value>
                </Data>
            </ExtendedData>
            <Point id="74772">
                <coordinates>74.223665521,15.089793928,0.0</coordinates>
            </Point>
        </Placemark>
        <Placemark id="74805">
            <ExtendedData>
                <Data name="direction">
                    <value>https://maps.google.com?q=15.09064,74.22532&amp;t=h</value>
                </Data>
                <Data name="id">
                    <value>4055</value>
                </Data>
                <Data name="name">
                    <value>Borkoto</value>
                </Data>
                <Data name="taluka">
                    <value>Sanguem</value>
                </Data>
                <Data name="syno">
                    <value>142</value>
                </Data>
                <Data name="subdiv">
                    <value>3</value>
                </Data>
                <Data name="village">
                    <value>Neturlim</value>
                </Data>
                <Data name="latitude">
                    <value>15.09064</value>
                </Data>
                <Data name="longitude">
                    <value>74.22532</value>
                </Data>
                <Data name="photo_1">
                    <value>DCIM/20220419084611441.jpg</value>
                </Data>
                <Data name="photo_2">
                    <value>DCIM/20220419084642296.jpg</value>
                </Data>
                <Data name="constituency">
                    <value>39 - Sanguem</value>
                </Data>
                <Data name="status">
                    <value>Completed</value>
                </Data>
                <Data name="panchayat">
                    <value>Neturlim</value>
                </Data>
                <Data name="wb_type">
                    <value>Pond</value>
                </Data>
                <Data name="owner_type">
                    <value>Private</value>
                </Data>
                <Data name="purpose">
                    <value>Irrigation</value>
                </Data>
                <Data name="construction">
                    <value>Natural/Man Made</value>
                </Data>
                <Data name="condition">
                    <value>Good</value>
                </Data>
                <Data name="print_order">
                    <value>007</value>
                </Data>
                <Data name="wb_id">
                    <value>Sg/Netu/13</value>
                </Data>
                <Data name="storage_capacity">
                    <value>85.0</value>
                </Data>
                <Data name="wb_surface_id">
                    <value>2734</value>
                </Data>
                <Data name="created_at">
                    <value>2021-11-23 08:06:06.118435</value>
                </Data>
                <Data name="updated_at">
                    <value>2023-07-22 14:03:14.307690</value>
                </Data>
                <Data name="book_id">
                    <value>2</value>
                </Data>
                <Data name="owners">
                    <value>Raghunath Damodar Prabhu Desai
Shripad Damodar Prabhu Desai</value>
                </Data>
                <Data name="label_x">
                    <value>1034452.0</value>
                </Data>
                <Data name="label_y">
                    <value>975849.327423708</value>
                </Data>
            </ExtendedData>
            <Point id="74804">
                <coordinates>74.225315885,15.090640771,0.0</coordinates>
            </Point>
        </Placemark>
        <Placemark id="74837">
            <ExtendedData>
                <Data name="direction">
                    <value>https://maps.google.com?q=15.08951,74.22419&amp;t=h</value>
                </Data>
                <Data name="id">
                    <value>4051</value>
                </Data>
                <Data name="name">
                    <value>Kandapem</value>
                </Data>
                <Data name="taluka">
                    <value>Sanguem</value>
                </Data>
                <Data name="syno">
                    <value>4</value>
                </Data>
                <Data name="subdiv">
                    <value>2</value>
                </Data>
                <Data name="village">
                    <value>Neturlim</value>
                </Data>
                <Data name="latitude">
                    <value>15.08951</value>
                </Data>
                <Data name="longitude">
                    <value>74.22419</value>
                </Data>
                <Data name="photo_1">
                    <value>DCIM/20220419093628040.jpg</value>
                </Data>
                <Data name="photo_2">
                    <value>DCIM/20220419093710089.jpg</value>
                </Data>
                <Data name="constituency">
                    <value>39 - Sanguem</value>
                </Data>
                <Data name="status">
                    <value>Completed</value>
                </Data>
                <Data name="panchayat">
                    <value>Neturlim</value>
                </Data>
                <Data name="wb_type">
                    <value>Tank</value>
                </Data>
                <Data name="owner_type">
                    <value>Private</value>
                </Data>
                <Data name="purpose">
                    <value>Irrigation</value>
                </Data>
                <Data name="construction">
                    <value>Man Made</value>
                </Data>
                <Data name="condition">
                    <value>Good</value>
                </Data>
                <Data name="print_order">
                    <value>059</value>
                </Data>
                <Data name="wb_id">
                    <value>Sg/Netu/09</value>
                </Data>
                <Data name="storage_capacity">
                    <value>176.0</value>
                </Data>
                <Data name="wb_surface_id">
                    <value>2731</value>
                </Data>
                <Data name="created_at">
                    <value>2021-11-23 08:00:24.846316</value>
                </Data>
                <Data name="updated_at">
                    <value>2023-07-22 14:03:14.307690</value>
                </Data>
                <Data name="book_id">
                    <value>2</value>
                </Data>
                <Data name="owners">
                    <value>Vinayak Shivram Shikerkar</value>
                </Data>
                <Data name="label_x">
                    <value>1034452.0</value>
                </Data>
                <Data name="label_y">
                    <value>975499.327423708</value>
                </Data>
            </ExtendedData>
            <Point id="74836">
                <coordinates>74.22419466,15.089514852,0.0</coordinates>
            </Point>
        </Placemark>
        <Placemark id="74869">
            <ExtendedData>
                <Data name="direction">
                    <value>https://maps.google.com?q=15.11339,74.21121&amp;t=h</value>
                </Data>
                <Data name="id">
                    <value>4047</value>
                </Data>
                <Data name="name">
                    <value>Netorlicho Dongor</value>
                </Data>
                <Data name="taluka">
                    <value>Sanguem</value>
                </Data>
                <Data name="syno">
                    <value>103</value>
                </Data>
                <Data name="subdiv">
                    <value>1</value>
                </Data>
                <Data name="village">
                    <value>Neturlim</value>
                </Data>
                <Data name="latitude">
                    <value>15.11339</value>
                </Data>
                <Data name="longitude">
                    <value>74.21121</value>
                </Data>
                <Data name="photo_1">
                    <value>DCIM/20220420093646767.jpg</value>
                </Data>
                <Data name="photo_2">
                    <value>DCIM/20220420093734055.jpg</value>
                </Data>
                <Data name="constituency">
                    <value>39 - Sanguem</value>
                </Data>
                <Data name="status">
                    <value>Completed</value>
                </Data>
                <Data name="panchayat">
                    <value>Neturlim</value>
                </Data>
                <Data name="wb_type">
                    <value>Pond</value>
                </Data>
                <Data name="owner_type">
                    <value>Private</value>
                </Data>
                <Data name="purpose">
                    <value>Irrigation</value>
                </Data>
                <Data name="construction">
                    <value>Natural</value>
                </Data>
                <Data name="condition">
                    <value>Needs Maintenance</value>
                </Data>
                <Data name="print_order">
                    <value>004</value>
                </Data>
                <Data name="wb_id">
                    <value>Sg/Netu/02</value>
                </Data>
                <Data name="storage_capacity">
                    <value>4123.0</value>
                </Data>
                <Data name="wb_surface_id">
                    <value>2727</value>
                </Data>
                <Data name="created_at">
                    <value>2021-11-23 07:45:52.561347</value>
                </Data>
                <Data name="updated_at">
                    <value>2023-07-22 14:03:14.307690</value>
                </Data>
                <Data name="book_id">
                    <value>2</value>
                </Data>
                <Data name="owners">
                    <value>Audhuth V. Desai
Dattaprasad K. Desai
Jayanth V. Desai
Kiran K. Desai
Rajiv K. Desai</value>
                </Data>
                <Data name="label_x">
                    <value>1034452.0</value>
                </Data>
                <Data name="label_y">
                    <value>979699.327423708</value>
                </Data>
            </ExtendedData>
            <Point id="74868">
                <coordinates>74.211214879,15.113386795,0.0</coordinates>
            </Point>
        </Placemark>
        <Placemark id="74901">
            <ExtendedData>
                <Data name="direction">
                    <value>https://maps.google.com?q=15.09212,74.22931&amp;t=h</value>
                </Data>
                <Data name="id">
                    <value>4061</value>
                </Data>
                <Data name="name">
                    <value>Gaongan</value>
                </Data>
                <Data name="taluka">
                    <value>Sanguem</value>
                </Data>
                <Data name="syno">
                    <value>124</value>
                </Data>
                <Data name="subdiv">
                    <value>9</value>
                </Data>
                <Data name="village">
                    <value>Neturlim</value>
                </Data>
                <Data name="latitude">
                    <value>15.09212</value>
                </Data>
                <Data name="longitude">
                    <value>74.22931</value>
                </Data>
                <Data name="photo_1">
                    <value>DCIM/20220419092144242.jpg</value>
                </Data>
                <Data name="photo_2">
                    <value>DCIM/20220419092205952.jpg</value>
                </Data>
                <Data name="constituency">
                    <value>39 - Sanguem</value>
                </Data>
                <Data name="status">
                    <value>Completed</value>
                </Data>
                <Data name="panchayat">
                    <value>Neturlim</value>
                </Data>
                <Data name="wb_type">
                    <value>Pond</value>
                </Data>
                <Data name="owner_type">
                    <value>Private</value>
                </Data>
                <Data name="purpose">
                    <value>Irrigation</value>
                </Data>
                <Data name="construction">
                    <value>Man Made</value>
                </Data>
                <Data name="condition">
                    <value>Good</value>
                </Data>
                <Data name="print_order">
                    <value>012</value>
                </Data>
                <Data name="wb_id">
                    <value>Sg/Netu/20</value>
                </Data>
                <Data name="storage_capacity">
                    <value>32.0</value>
                </Data>
                <Data name="wb_surface_id">
                    <value>2741</value>
                </Data>
                <Data name="created_at">
                    <value>2021-11-23 09:31:07.310989</value>
                </Data>
                <Data name="updated_at">
                    <value>2023-07-22 14:03:14.307690</value>
                </Data>
                <Data name="book_id">
                    <value>2</value>
                </Data>
                <Data name="owners">
                    <value>Satu Mono Velip</value>
                </Data>
                <Data name="label_x">
                    <value>1034452.0</value>
                </Data>
                <Data name="label_y">
                    <value>974799.327423708</value>
                </Data>
            </ExtendedData>
            <Point id="74900">
                <coordinates>74.229306401,15.092120645,0.0</coordinates>
            </Point>
        </Placemark>
        <Placemark id="74933">
            <ExtendedData>
                <Data name="direction">
                    <value>https://maps.google.com?q=15.09538,74.22542&amp;t=h</value>
                </Data>
                <Data name="id">
                    <value>4741</value>
                </Data>
                <Data name="name">
                    <value>Zorishet</value>
                </Data>
                <Data name="taluka">
                    <value>Sanguem</value>
                </Data>
                <Data name="syno">
                    <value>121</value>
                </Data>
                <Data name="subdiv">
                    <value>4</value>
                </Data>
                <Data name="village">
                    <value>Neturlim</value>
                </Data>
                <Data name="latitude">
                    <value>15.09538</value>
                </Data>
                <Data name="longitude">
                    <value>74.22542</value>
                </Data>
                <Data name="photo_1">
                    <value>DCIM/20220419085357678.jpg</value>
                </Data>
                <Data name="photo_2">
                    <value>DCIM/20220419085418107.jpg</value>
                </Data>
                <Data name="constituency">
                    <value>39 - Sanguem</value>
                </Data>
                <Data name="status">
                    <value>Completed</value>
                </Data>
                <Data name="panchayat">
                    <value>Neturlim</value>
                </Data>
                <Data name="wb_type">
                    <value>Pond</value>
                </Data>
                <Data name="owner_type">
                    <value>Private</value>
                </Data>
                <Data name="purpose">
                    <value>Irrigation</value>
                </Data>
                <Data name="construction">
                    <value>Natural</value>
                </Data>
                <Data name="condition">
                    <value>Good</value>
                </Data>
                <Data name="print_order">
                    <value>008</value>
                </Data>
                <Data name="wb_id">
                    <value>Sg/Netu/15</value>
                </Data>
                <Data name="storage_capacity">
                    <value>71.0</value>
                </Data>
                <Data name="wb_surface_id">
                    <value>3824</value>
                </Data>
                <Data name="created_at">
                    <value>2022-04-19 00:00:00</value>
                </Data>
                <Data name="updated_at">
                    <value>2023-07-22 14:03:14.307690</value>
                </Data>
                <Data name="book_id">
                    <value>2</value>
                </Data>
                <Data name="owners">
                    <value>Archana Harichandra Naik</value>
                </Data>
                <Data name="label_x">
                    <value>1034452.0</value>
                </Data>
                <Data name="label_y">
                    <value>977249.327423708</value>
                </Data>
            </ExtendedData>
            <Point id="74932">
                <coordinates>74.225424584,15.095382244,0.0</coordinates>
            </Point>
        </Placemark>
        <Placemark id="74965">
            <ExtendedData>
                <Data name="direction">
                    <value>https://maps.google.com?q=15.08532,74.23031&amp;t=h</value>
                </Data>
                <Data name="id">
                    <value>4740</value>
                </Data>
                <Data name="name">
                    <value>Otem</value>
                </Data>
                <Data name="taluka">
                    <value>Sanguem</value>
                </Data>
                <Data name="syno">
                    <value>140</value>
                </Data>
                <Data name="subdiv">
                    <value>1</value>
                </Data>
                <Data name="village">
                    <value>Neturlim</value>
                </Data>
                <Data name="latitude">
                    <value>15.08532</value>
                </Data>
                <Data name="longitude">
                    <value>74.23031</value>
                </Data>
                <Data name="photo_1">
                    <value>DCIM/20220419080610136.jpg</value>
                </Data>
                <Data name="photo_2">
                    <value>DCIM/20220419080629712.jpg</value>
                </Data>
                <Data name="constituency">
                    <value>39 - Sanguem</value>
                </Data>
                <Data name="status">
                    <value>Completed</value>
                </Data>
                <Data name="panchayat">
                    <value>Neturlim</value>
                </Data>
                <Data name="wb_type">
                    <value>Pond</value>
                </Data>
                <Data name="owner_type">
                    <value>Public</value>
                </Data>
                <Data name="purpose">
                    <value>Animal Drinking</value>
                </Data>
                <Data name="construction">
                    <value>Man Made</value>
                </Data>
                <Data name="condition">
                    <value>Dry</value>
                </Data>
                <Data name="print_order">
                    <value>005</value>
                </Data>
                <Data name="wb_id">
                    <value>Sg/Netu/06</value>
                </Data>
                <Data name="storage_capacity">
                    <value>404.0</value>
                </Data>
                <Data name="wb_surface_id">
                    <value>3823</value>
                </Data>
                <Data name="created_at">
                    <value>2022-04-19 00:00:00</value>
                </Data>
                <Data name="updated_at">
                    <value>2023-07-22 14:03:14.307690</value>
                </Data>
                <Data name="book_id">
                    <value>2</value>
                </Data>
                <Data name="owners">
                    <value>Goverment of Goa Daman &amp; Diu Forest Depa rtment</value>
                </Data>
                <Data name="label_x">
                    <value>1034452.0</value>
                </Data>
                <Data name="label_y">
                    <value>973749.327423708</value>
                </Data>
            </ExtendedData>
            <Point id="74964">
                <coordinates>74.230306667,15.085316667,0.0</coordinates>
            </Point>
        </Placemark>
    </Document>
</kml>
