<?xml version="1.0" encoding="UTF-8"?>
<kml xmlns="http://www.opengis.net/kml/2.2" xmlns:gx="http://www.google.com/kml/ext/2.2">
    <Document id="75097">
        <Placemark id="75099">
            <ExtendedData>
                <Data name="direction">
                    <value>https://maps.google.com?q=15.13439,74.12106&amp;t=h</value>
                </Data>
                <Data name="id">
                    <value>742</value>
                </Data>
                <Data name="name">
                    <value>Zamali Mol; Katar Moal</value>
                </Data>
                <Data name="taluka">
                    <value>Sanguem</value>
                </Data>
                <Data name="syno">
                    <value>109</value>
                </Data>
                <Data name="subdiv">
                    <value>1</value>
                </Data>
                <Data name="village">
                    <value>Rivona</value>
                </Data>
                <Data name="latitude">
                    <value>15.13439</value>
                </Data>
                <Data name="longitude">
                    <value>74.12106</value>
                </Data>
                <Data name="photo_1">
                    <value>DCIM/20220423012742665.jpg</value>
                </Data>
                <Data name="photo_2">
                    <value>DCIM/20220423012753669.jpg</value>
                </Data>
                <Data name="constituency">
                    <value>39 - Sanguem</value>
                </Data>
                <Data name="status">
                    <value>Completed</value>
                </Data>
                <Data name="panchayat">
                    <value>Rivona</value>
                </Data>
                <Data name="wb_type">
                    <value>Pond</value>
                </Data>
                <Data name="owner_type">
                    <value>Public</value>
                </Data>
                <Data name="purpose">
                    <value>Storage</value>
                </Data>
                <Data name="construction">
                    <value>Man Made</value>
                </Data>
                <Data name="condition">
                    <value>Good</value>
                </Data>
                <Data name="print_order">
                    <value>018</value>
                </Data>
                <Data name="wb_id">
                    <value>Sg/Rivo/11</value>
                </Data>
                <Data name="storage_capacity">
                    <value>1162.0</value>
                </Data>
                <Data name="wb_surface_id">
                    <value>2345</value>
                </Data>
                <Data name="created_at">
                    <value>2020-02-28 15:24:34</value>
                </Data>
                <Data name="updated_at">
                    <value>2023-07-22 14:03:14.307690</value>
                </Data>
                <Data name="book_id">
                    <value>2</value>
                </Data>
                <Data name="owners">
                    <value>Forest Department</value>
                </Data>
                <Data name="label_x">
                    <value>1006898.0</value>
                </Data>
                <Data name="label_y">
                    <value>969504.443516674</value>
                </Data>
            </ExtendedData>
            <Point id="75098">
                <coordinates>74.121061496,15.134390375,0.0</coordinates>
            </Point>
        </Placemark>
        <Placemark id="75131">
            <ExtendedData>
                <Data name="direction">
                    <value>https://maps.google.com?q=15.17777,74.1095&amp;t=h</value>
                </Data>
                <Data name="id">
                    <value>4082</value>
                </Data>
                <Data name="name">
                    <value>Lokalatem Bhat</value>
                </Data>
                <Data name="taluka">
                    <value>Sanguem</value>
                </Data>
                <Data name="syno">
                    <value>38</value>
                </Data>
                <Data name="subdiv">
                    <value>4</value>
                </Data>
                <Data name="village">
                    <value>Rivona</value>
                </Data>
                <Data name="latitude">
                    <value>15.17777</value>
                </Data>
                <Data name="longitude">
                    <value>74.1095</value>
                </Data>
                <Data name="photo_1">
                    <value>DCIM/20220424041751730.jpg</value>
                </Data>
                <Data name="photo_2">
                    <value>DCIM/20220424041832366.jpg</value>
                </Data>
                <Data name="constituency">
                    <value>39 - Sanguem</value>
                </Data>
                <Data name="status">
                    <value>Completed</value>
                </Data>
                <Data name="panchayat">
                    <value>Rivona</value>
                </Data>
                <Data name="wb_type">
                    <value>Tank</value>
                </Data>
                <Data name="owner_type">
                    <value>Private</value>
                </Data>
                <Data name="purpose">
                    <value>Irrigation</value>
                </Data>
                <Data name="construction">
                    <value>Man Made</value>
                </Data>
                <Data name="condition">
                    <value>Good</value>
                </Data>
                <Data name="print_order">
                    <value>062</value>
                </Data>
                <Data name="wb_id">
                    <value>Sg/Rivo/15</value>
                </Data>
                <Data name="storage_capacity">
                    <value>349.0</value>
                </Data>
                <Data name="wb_surface_id">
                    <value>2778</value>
                </Data>
                <Data name="created_at">
                    <value>2021-11-23 11:25:07.254391</value>
                </Data>
                <Data name="updated_at">
                    <value>2023-07-22 14:03:14.307690</value>
                </Data>
                <Data name="book_id">
                    <value>2</value>
                </Data>
                <Data name="owners">
                    <value>Shrinivas Kusta Prabhu Dessai</value>
                </Data>
                <Data name="label_x">
                    <value>1008423.0</value>
                </Data>
                <Data name="label_y">
                    <value>984809.782571432</value>
                </Data>
            </ExtendedData>
            <Point id="75130">
                <coordinates>74.109500744,15.177772058,0.0</coordinates>
            </Point>
        </Placemark>
        <Placemark id="75163">
            <ExtendedData>
                <Data name="direction">
                    <value>https://maps.google.com?q=15.1509,74.09841&amp;t=h</value>
                </Data>
                <Data name="id">
                    <value>3755</value>
                </Data>
                <Data name="name">
                    <value>Vishnu Ghal</value>
                </Data>
                <Data name="taluka">
                    <value>Sanguem</value>
                </Data>
                <Data name="syno">
                    <value>164</value>
                </Data>
                <Data name="subdiv">
                    <value>1</value>
                </Data>
                <Data name="village">
                    <value>Rivona</value>
                </Data>
                <Data name="latitude">
                    <value>15.1509</value>
                </Data>
                <Data name="longitude">
                    <value>74.09841</value>
                </Data>
                <Data name="photo_1">
                    <value>DCIM/20220424014615309.jpg</value>
                </Data>
                <Data name="photo_2">
                    <value>DCIM/20220424014655599.jpg</value>
                </Data>
                <Data name="constituency">
                    <value>39 - Sanguem</value>
                </Data>
                <Data name="status">
                    <value>Completed</value>
                </Data>
                <Data name="panchayat">
                    <value>Rivona</value>
                </Data>
                <Data name="wb_type">
                    <value>Tank</value>
                </Data>
                <Data name="owner_type">
                    <value>Private</value>
                </Data>
                <Data name="purpose">
                    <value>Irrigation</value>
                </Data>
                <Data name="construction">
                    <value>Man Made</value>
                </Data>
                <Data name="condition">
                    <value>Good</value>
                </Data>
                <Data name="print_order">
                    <value>064</value>
                </Data>
                <Data name="wb_id">
                    <value>Sg/Rivo/17</value>
                </Data>
                <Data name="storage_capacity">
                    <value>227.0</value>
                </Data>
                <Data name="wb_surface_id">
                    <value>2367</value>
                </Data>
                <Data name="created_at">
                    <value>2021-05-24 06:08:36.183688</value>
                </Data>
                <Data name="updated_at">
                    <value>2023-07-22 14:03:14.307690</value>
                </Data>
                <Data name="book_id">
                    <value>2</value>
                </Data>
                <Data name="owners">
                    <value>Jaiwant Jagannath Parab Dessai alias Jaiwant Jagannath Prabhu Dessai</value>
                </Data>
                <Data name="label_x">
                    <value>1006898.0</value>
                </Data>
                <Data name="label_y">
                    <value>972304.443516674</value>
                </Data>
            </ExtendedData>
            <Point id="75162">
                <coordinates>74.098406096,15.150904511,0.0</coordinates>
            </Point>
        </Placemark>
        <Placemark id="75195">
            <ExtendedData>
                <Data name="direction">
                    <value>https://maps.google.com?q=15.17507,74.11022&amp;t=h</value>
                </Data>
                <Data name="id">
                    <value>4786</value>
                </Data>
                <Data name="name">
                    <value>Gharbhat</value>
                </Data>
                <Data name="taluka">
                    <value>Sanguem</value>
                </Data>
                <Data name="syno">
                    <value>38</value>
                </Data>
                <Data name="subdiv">
                    <value>26</value>
                </Data>
                <Data name="village">
                    <value>Rivona</value>
                </Data>
                <Data name="latitude">
                    <value>15.17507</value>
                </Data>
                <Data name="longitude">
                    <value>74.11022</value>
                </Data>
                <Data name="photo_1">
                    <value>DCIM/20220424052357048.jpg</value>
                </Data>
                <Data name="photo_2">
                    <value>DCIM/20220424052410566.jpg</value>
                </Data>
                <Data name="constituency">
                    <value>39 - Sanguem</value>
                </Data>
                <Data name="status">
                    <value>Completed</value>
                </Data>
                <Data name="panchayat">
                    <value>Rivona</value>
                </Data>
                <Data name="wb_type">
                    <value>Tank</value>
                </Data>
                <Data name="owner_type">
                    <value>Private</value>
                </Data>
                <Data name="purpose">
                    <value>Irrigation</value>
                </Data>
                <Data name="construction">
                    <value>Man Made</value>
                </Data>
                <Data name="condition">
                    <value>Needs Maintenance</value>
                </Data>
                <Data name="print_order">
                    <value>065</value>
                </Data>
                <Data name="wb_id">
                    <value>Sg/Rivo/24</value>
                </Data>
                <Data name="storage_capacity">
                    <value>84.0</value>
                </Data>
                <Data name="wb_surface_id">
                    <value>3842</value>
                </Data>
                <Data name="created_at">
                    <value>2022-04-24 00:00:00</value>
                </Data>
                <Data name="updated_at">
                    <value>2023-07-22 14:03:14.307690</value>
                </Data>
                <Data name="book_id">
                    <value>2</value>
                </Data>
                <Data name="owners">
                    <value>Premanand F.P.Dessai    1/4
Ramnath N.P.Dessai      1/8
Ranganath R.P.Dessai    1/4
Shridhar Uttam P.Dessai }
Vaman Uttam P.Dessai    } 1/8
Vithal N.P.Dessai       1/8
Yeshwant V.P.Dessai     1/8</value>
                </Data>
                <Data name="label_x">
                    <value>1008423.0</value>
                </Data>
                <Data name="label_y">
                    <value>984109.782571432</value>
                </Data>
            </ExtendedData>
            <Point id="75194">
                <coordinates>74.110216667,15.17507,0.0</coordinates>
            </Point>
        </Placemark>
        <Placemark id="75227">
            <ExtendedData>
                <Data name="direction">
                    <value>https://maps.google.com?q=15.17218,74.11028&amp;t=h</value>
                </Data>
                <Data name="id">
                    <value>4781</value>
                </Data>
                <Data name="name">
                    <value>Rama Bhat</value>
                </Data>
                <Data name="taluka">
                    <value>Sanguem</value>
                </Data>
                <Data name="syno">
                    <value>41</value>
                </Data>
                <Data name="subdiv">
                    <value>1</value>
                </Data>
                <Data name="village">
                    <value>Rivona</value>
                </Data>
                <Data name="latitude">
                    <value>15.17218</value>
                </Data>
                <Data name="longitude">
                    <value>74.11028</value>
                </Data>
                <Data name="photo_1">
                    <value>DCIM/20220424032151797.jpg</value>
                </Data>
                <Data name="photo_2">
                    <value>DCIM/20220424032210466.jpg</value>
                </Data>
                <Data name="constituency">
                    <value>39 - Sanguem</value>
                </Data>
                <Data name="status">
                    <value>Completed</value>
                </Data>
                <Data name="panchayat">
                    <value>Rivona</value>
                </Data>
                <Data name="wb_type">
                    <value>Tank</value>
                </Data>
                <Data name="owner_type">
                    <value>Private</value>
                </Data>
                <Data name="purpose">
                    <value>Irrigation</value>
                </Data>
                <Data name="construction">
                    <value>Man Made</value>
                </Data>
                <Data name="condition">
                    <value>Good</value>
                </Data>
                <Data name="print_order">
                    <value>060</value>
                </Data>
                <Data name="wb_id">
                    <value>Sg/Rivo/13</value>
                </Data>
                <Data name="storage_capacity">
                    <value>569.0</value>
                </Data>
                <Data name="wb_surface_id">
                    <value>3839</value>
                </Data>
                <Data name="created_at">
                    <value>2022-04-24 00:00:00</value>
                </Data>
                <Data name="updated_at">
                    <value>2023-07-22 14:03:14.307690</value>
                </Data>
                <Data name="book_id">
                    <value>2</value>
                </Data>
                <Data name="owners">
                    <value>Dattatraya Venkatesh Dev
Gangadhar Vithal Dev
Pandurang Dev Bhat</value>
                </Data>
                <Data name="label_x">
                    <value>1008423.0</value>
                </Data>
                <Data name="label_y">
                    <value>983059.782571432</value>
                </Data>
            </ExtendedData>
            <Point id="75226">
                <coordinates>74.110276667,15.172178333,0.0</coordinates>
            </Point>
        </Placemark>
        <Placemark id="75259">
            <ExtendedData>
                <Data name="direction">
                    <value>https://maps.google.com?q=15.16493,74.11117&amp;t=h</value>
                </Data>
                <Data name="id">
                    <value>5552</value>
                </Data>
                <Data name="name">
                    <value>Rivona Caves Tank</value>
                </Data>
                <Data name="taluka">
                    <value>Sanguem</value>
                </Data>
                <Data name="syno">
                    <value>59</value>
                </Data>
                <Data name="subdiv">
                    <value>4</value>
                </Data>
                <Data name="village">
                    <value>Rivona</value>
                </Data>
                <Data name="latitude">
                    <value>15.16493</value>
                </Data>
                <Data name="longitude">
                    <value>74.11117</value>
                </Data>
                <Data name="photo_1">
                    <value>DCIM/5552_1.jpg</value>
                </Data>
                <Data name="photo_2">
                    <value>DCIM/5552_2.jpg</value>
                </Data>
                <Data name="constituency">
                    <value>39 - Sanguem</value>
                </Data>
                <Data name="status">
                    <value>Completed</value>
                </Data>
                <Data name="panchayat">
                    <value>Rivona</value>
                </Data>
                <Data name="wb_type">
                    <value>Temple Tank</value>
                </Data>
                <Data name="owner_type">
                    <value>Private</value>
                </Data>
                <Data name="purpose">
                    <value>Storage</value>
                </Data>
                <Data name="construction">
                    <value>Man Made</value>
                </Data>
                <Data name="condition">
                    <value>Good</value>
                </Data>
                <Data name="print_order">
                    <value>054</value>
                </Data>
                <Data name="wb_id">
                    <value>Sg/Rivo/28</value>
                </Data>
                <Data name="storage_capacity">
                    <value>34.0</value>
                </Data>
                <Data name="wb_surface_id">
                    <value>4992</value>
                </Data>
                <Data name="created_at">
                    <value>2022-08-10 00:00:00</value>
                </Data>
                <Data name="updated_at">
                    <value>2023-07-22 14:03:14.307690</value>
                </Data>
                <Data name="book_id">
                    <value>2</value>
                </Data>
                <Data name="owners">
                    <value>1) Saunsthan Gokarn Partagali Jivottam math of Rivona
Jesuliano Dias
Alex Aselmo Fernandes
Pedro Fernandes
Irene Angela Braganca
Anuradha Vimlesh Gurav</value>
                </Data>
                <Data name="label_x">
                    <value>1006898.0</value>
                </Data>
                <Data name="label_y">
                    <value>973004.443516674</value>
                </Data>
            </ExtendedData>
            <Point id="75258">
                <coordinates>74.111165067,15.164934549,0.0</coordinates>
            </Point>
        </Placemark>
        <Placemark id="75291">
            <ExtendedData>
                <Data name="direction">
                    <value>https://maps.google.com?q=15.17201,74.10998&amp;t=h</value>
                </Data>
                <Data name="id">
                    <value>4083</value>
                </Data>
                <Data name="name">
                    <value>Rama Bhat</value>
                </Data>
                <Data name="taluka">
                    <value>Sanguem</value>
                </Data>
                <Data name="syno">
                    <value>41</value>
                </Data>
                <Data name="subdiv">
                    <value>1</value>
                </Data>
                <Data name="village">
                    <value>Rivona</value>
                </Data>
                <Data name="latitude">
                    <value>15.17201</value>
                </Data>
                <Data name="longitude">
                    <value>74.10998</value>
                </Data>
                <Data name="photo_1">
                    <value>DCIM/20220424032412210.jpg</value>
                </Data>
                <Data name="photo_2">
                    <value>DCIM/20220424032432332.jpg</value>
                </Data>
                <Data name="constituency">
                    <value>39 - Sanguem</value>
                </Data>
                <Data name="status">
                    <value>Completed</value>
                </Data>
                <Data name="panchayat">
                    <value>Rivona</value>
                </Data>
                <Data name="wb_type">
                    <value>Tank</value>
                </Data>
                <Data name="owner_type">
                    <value>Private</value>
                </Data>
                <Data name="purpose">
                    <value>Irrigation</value>
                </Data>
                <Data name="construction">
                    <value>Man Made</value>
                </Data>
                <Data name="condition">
                    <value>Good</value>
                </Data>
                <Data name="print_order">
                    <value>061</value>
                </Data>
                <Data name="wb_id">
                    <value>Sg/Rivo/14</value>
                </Data>
                <Data name="storage_capacity">
                    <value>484.0</value>
                </Data>
                <Data name="wb_surface_id">
                    <value>2758</value>
                </Data>
                <Data name="created_at">
                    <value>2021-11-23 11:25:07</value>
                </Data>
                <Data name="updated_at">
                    <value>2023-07-22 14:03:14.307690</value>
                </Data>
                <Data name="book_id">
                    <value>2</value>
                </Data>
                <Data name="owners">
                    <value>Dattatraya Venkatesh Dev
Gangadhar Vithal Dev
Pandurang Dev Bhat</value>
                </Data>
                <Data name="label_x">
                    <value>1008423.0</value>
                </Data>
                <Data name="label_y">
                    <value>982709.7825714324</value>
                </Data>
            </ExtendedData>
            <Point id="75290">
                <coordinates>74.109976871,15.172013368,0.0</coordinates>
            </Point>
        </Placemark>
        <Placemark id="75323">
            <ExtendedData>
                <Data name="direction">
                    <value>https://maps.google.com?q=15.13387,74.12257&amp;t=h</value>
                </Data>
                <Data name="id">
                    <value>743</value>
                </Data>
                <Data name="name">
                    <value>Kuinamol; Katar Moal</value>
                </Data>
                <Data name="taluka">
                    <value>Sanguem</value>
                </Data>
                <Data name="syno">
                    <value>109</value>
                </Data>
                <Data name="subdiv">
                    <value>1</value>
                </Data>
                <Data name="village">
                    <value>Rivona</value>
                </Data>
                <Data name="latitude">
                    <value>15.13387</value>
                </Data>
                <Data name="longitude">
                    <value>74.12257</value>
                </Data>
                <Data name="photo_1">
                    <value>DCIM/20220423013032494.jpg</value>
                </Data>
                <Data name="photo_2">
                    <value>DCIM/20220423013059598.jpg</value>
                </Data>
                <Data name="constituency">
                    <value>39 - Sanguem</value>
                </Data>
                <Data name="status">
                    <value>Completed</value>
                </Data>
                <Data name="panchayat">
                    <value>Rivona</value>
                </Data>
                <Data name="wb_type">
                    <value>Pond</value>
                </Data>
                <Data name="owner_type">
                    <value>Public</value>
                </Data>
                <Data name="purpose">
                    <value>Irrigation</value>
                </Data>
                <Data name="construction">
                    <value>Man Made</value>
                </Data>
                <Data name="condition">
                    <value>Good</value>
                </Data>
                <Data name="print_order">
                    <value>019</value>
                </Data>
                <Data name="wb_id">
                    <value>Sg/Rivo/12</value>
                </Data>
                <Data name="storage_capacity">
                    <value>898.0</value>
                </Data>
                <Data name="wb_surface_id">
                    <value>2346</value>
                </Data>
                <Data name="created_at">
                    <value>2020-02-28 15:24:34</value>
                </Data>
                <Data name="updated_at">
                    <value>2023-07-22 14:03:14.307690</value>
                </Data>
                <Data name="book_id">
                    <value>2</value>
                </Data>
                <Data name="owners">
                    <value>Forest Department</value>
                </Data>
                <Data name="label_x">
                    <value>1006898.0</value>
                </Data>
                <Data name="label_y">
                    <value>969154.443516674</value>
                </Data>
            </ExtendedData>
            <Point id="75322">
                <coordinates>74.122565565,15.133868004,0.0</coordinates>
            </Point>
        </Placemark>
        <Placemark id="75355">
            <ExtendedData>
                <Data name="direction">
                    <value>https://maps.google.com?q=15.1648,74.10781&amp;t=h</value>
                </Data>
                <Data name="id">
                    <value>3913</value>
                </Data>
                <Data name="name">
                    <value>Vimleshwar Temple Tank; Duval</value>
                </Data>
                <Data name="taluka">
                    <value>Sanguem</value>
                </Data>
                <Data name="syno">
                    <value>54</value>
                </Data>
                <Data name="subdiv">
                    <value>56</value>
                </Data>
                <Data name="village">
                    <value>Rivona</value>
                </Data>
                <Data name="latitude">
                    <value>15.1648</value>
                </Data>
                <Data name="longitude">
                    <value>74.10781</value>
                </Data>
                <Data name="photo_1">
                    <value>DCIM/20211015080609856.jpg</value>
                </Data>
                <Data name="photo_2">
                    <value>DCIM/20211015133631191.jpg</value>
                </Data>
                <Data name="constituency">
                    <value>39 - Sanguem</value>
                </Data>
                <Data name="status">
                    <value>Completed</value>
                </Data>
                <Data name="panchayat">
                    <value>Rivona</value>
                </Data>
                <Data name="wb_type">
                    <value>Temple Tank</value>
                </Data>
                <Data name="owner_type">
                    <value>Private</value>
                </Data>
                <Data name="purpose">
                    <value>Storage</value>
                </Data>
                <Data name="construction">
                    <value>Man Made</value>
                </Data>
                <Data name="condition">
                    <value>Good</value>
                </Data>
                <Data name="print_order">
                    <value>053</value>
                </Data>
                <Data name="wb_id">
                    <value>Sg/Rivo/22</value>
                </Data>
                <Data name="storage_capacity">
                    <value>95.0</value>
                </Data>
                <Data name="wb_surface_id">
                    <value>2657</value>
                </Data>
                <Data name="created_at">
                    <value>2021-10-15 00:00:00</value>
                </Data>
                <Data name="updated_at">
                    <value>2023-07-22 14:03:14.307690</value>
                </Data>
                <Data name="book_id">
                    <value>2</value>
                </Data>
                <Data name="owners">
                    <value>Wimbleshwar Devasthan of Rivona</value>
                </Data>
                <Data name="label_x">
                    <value>1006898.0</value>
                </Data>
                <Data name="label_y">
                    <value>973704.443516674</value>
                </Data>
            </ExtendedData>
            <Point id="75354">
                <coordinates>74.107814212,15.164795775,0.0</coordinates>
            </Point>
        </Placemark>
        <Placemark id="75387">
            <ExtendedData>
                <Data name="direction">
                    <value>https://maps.google.com?q=15.13693,74.11766&amp;t=h</value>
                </Data>
                <Data name="id">
                    <value>2821</value>
                </Data>
                <Data name="name">
                    <value>Zamali Mol; Katar Moal</value>
                </Data>
                <Data name="taluka">
                    <value>Sanguem</value>
                </Data>
                <Data name="syno">
                    <value>109</value>
                </Data>
                <Data name="subdiv">
                    <value>1</value>
                </Data>
                <Data name="village">
                    <value>Rivona</value>
                </Data>
                <Data name="latitude">
                    <value>15.13693</value>
                </Data>
                <Data name="longitude">
                    <value>74.11766</value>
                </Data>
                <Data name="photo_1">
                    <value>DCIM/20220506024102667.jpg</value>
                </Data>
                <Data name="photo_2">
                    <value>DCIM/20220506024110781.jpg</value>
                </Data>
                <Data name="constituency">
                    <value>39 - Sanguem</value>
                </Data>
                <Data name="status">
                    <value>Completed</value>
                </Data>
                <Data name="panchayat">
                    <value>Rivona</value>
                </Data>
                <Data name="wb_type">
                    <value>Pond</value>
                </Data>
                <Data name="owner_type">
                    <value>Public</value>
                </Data>
                <Data name="purpose">
                    <value>Storage</value>
                </Data>
                <Data name="construction">
                    <value>Man Made</value>
                </Data>
                <Data name="condition">
                    <value>N/A</value>
                </Data>
                <Data name="print_order">
                    <value>017</value>
                </Data>
                <Data name="wb_id">
                    <value>Sg/Rivo/09</value>
                </Data>
                <Data name="storage_capacity">
                    <value>3541.0</value>
                </Data>
                <Data name="wb_surface_id">
                    <value>535</value>
                </Data>
                <Data name="created_at">
                    <value>2020-04-23 04:11:32</value>
                </Data>
                <Data name="updated_at">
                    <value>2023-07-22 14:03:14.307690</value>
                </Data>
                <Data name="book_id">
                    <value>2</value>
                </Data>
                <Data name="owners">
                    <value>Forest Department</value>
                </Data>
                <Data name="label_x">
                    <value>1006898.0</value>
                </Data>
                <Data name="label_y">
                    <value>969854.443516674</value>
                </Data>
            </ExtendedData>
            <Point id="75386">
                <coordinates>74.117658618,15.136933348,0.0</coordinates>
            </Point>
        </Placemark>
        <Placemark id="75419">
            <ExtendedData>
                <Data name="direction">
                    <value>https://maps.google.com?q=15.17422,74.11026&amp;t=h</value>
                </Data>
                <Data name="id">
                    <value>4783</value>
                </Data>
                <Data name="name">
                    <value>Madade Agor or Gharbhat</value>
                </Data>
                <Data name="taluka">
                    <value>Sanguem</value>
                </Data>
                <Data name="syno">
                    <value>40</value>
                </Data>
                <Data name="subdiv">
                    <value>1</value>
                </Data>
                <Data name="village">
                    <value>Rivona</value>
                </Data>
                <Data name="latitude">
                    <value>15.17422</value>
                </Data>
                <Data name="longitude">
                    <value>74.11026</value>
                </Data>
                <Data name="photo_1">
                    <value>DCIM/20220424035844659.jpg</value>
                </Data>
                <Data name="photo_2">
                    <value>DCIM/20220424035854441.jpg</value>
                </Data>
                <Data name="constituency">
                    <value>39 - Sanguem</value>
                </Data>
                <Data name="status">
                    <value>Completed</value>
                </Data>
                <Data name="panchayat">
                    <value>Rivona</value>
                </Data>
                <Data name="wb_type">
                    <value>Tank</value>
                </Data>
                <Data name="owner_type">
                    <value>Private</value>
                </Data>
                <Data name="purpose">
                    <value>Irrigation</value>
                </Data>
                <Data name="construction">
                    <value>Man Made</value>
                </Data>
                <Data name="condition">
                    <value>Good</value>
                </Data>
                <Data name="print_order">
                    <value>063</value>
                </Data>
                <Data name="wb_id">
                    <value>Sg/Rivo/16</value>
                </Data>
                <Data name="storage_capacity">
                    <value>252.0</value>
                </Data>
                <Data name="wb_surface_id">
                    <value>3840</value>
                </Data>
                <Data name="created_at">
                    <value>2022-04-24 00:00:00</value>
                </Data>
                <Data name="updated_at">
                    <value>2023-07-22 14:03:14.307690</value>
                </Data>
                <Data name="book_id">
                    <value>2</value>
                </Data>
                <Data name="owners">
                    <value>1, Sarvotham Shivram Prabhu Dessai</value>
                </Data>
                <Data name="label_x">
                    <value>1008423.0</value>
                </Data>
                <Data name="label_y">
                    <value>983759.782571432</value>
                </Data>
            </ExtendedData>
            <Point id="75418">
                <coordinates>74.110256667,15.174223333,0.0</coordinates>
            </Point>
        </Placemark>
    </Document>
</kml>
