<?xml version="1.0" encoding="UTF-8"?>
<kml xmlns="http://www.opengis.net/kml/2.2" xmlns:gx="http://www.google.com/kml/ext/2.2">
    <Document id="75451">
        <Placemark id="75453">
            <ExtendedData>
                <Data name="direction">
                    <value>https://maps.google.com?q=15.29678,74.14102&amp;t=h</value>
                </Data>
                <Data name="id">
                    <value>4774</value>
                </Data>
                <Data name="name">
                    <value>Shilim mote Tembi</value>
                </Data>
                <Data name="taluka">
                    <value>Sanguem</value>
                </Data>
                <Data name="syno">
                    <value>75</value>
                </Data>
                <Data name="subdiv">
                    <value>9</value>
                </Data>
                <Data name="village">
                    <value>Santona</value>
                </Data>
                <Data name="latitude">
                    <value>15.29678</value>
                </Data>
                <Data name="longitude">
                    <value>74.14102</value>
                </Data>
                <Data name="photo_1">
                    <value>DCIM/20220422065215003.jpg</value>
                </Data>
                <Data name="photo_2">
                    <value>DCIM/20220422065322991.jpg</value>
                </Data>
                <Data name="constituency">
                    <value>39 - Sanguem</value>
                </Data>
                <Data name="status">
                    <value>Completed</value>
                </Data>
                <Data name="panchayat">
                    <value>Sanvordem(Sanguem)</value>
                </Data>
                <Data name="wb_type">
                    <value>Pond</value>
                </Data>
                <Data name="owner_type">
                    <value>Private</value>
                </Data>
                <Data name="purpose">
                    <value>Storage</value>
                </Data>
                <Data name="construction">
                    <value>Man Made</value>
                </Data>
                <Data name="condition">
                    <value>Good</value>
                </Data>
                <Data name="print_order">
                    <value>020</value>
                </Data>
                <Data name="wb_id">
                    <value>Sg/Sant/08</value>
                </Data>
                <Data name="storage_capacity">
                    <value>47.0</value>
                </Data>
                <Data name="wb_surface_id">
                    <value>3800</value>
                </Data>
                <Data name="created_at">
                    <value>2022-04-23 00:00:00</value>
                </Data>
                <Data name="updated_at">
                    <value>2023-07-22 14:03:14.307690</value>
                </Data>
                <Data name="book_id">
                    <value>2</value>
                </Data>
                <Data name="owners">
                    <value>Manuel Costa</value>
                </Data>
                <Data name="label_x">
                    <value>1008423.0</value>
                </Data>
                <Data name="label_y">
                    <value>994959.782571432</value>
                </Data>
            </ExtendedData>
            <Point id="75452">
                <coordinates>74.141023643,15.296784146,0.0</coordinates>
            </Point>
        </Placemark>
    </Document>
</kml>
