<?xml version="1.0" encoding="UTF-8"?>
<kml xmlns="http://www.opengis.net/kml/2.2" xmlns:gx="http://www.google.com/kml/ext/2.2">
    <Document id="75879">
        <Placemark id="75881">
            <ExtendedData>
                <Data name="direction">
                    <value>https://maps.google.com?q=15.21305,74.16468&amp;t=h</value>
                </Data>
                <Data name="id">
                    <value>4093</value>
                </Data>
                <Data name="name">
                    <value>--</value>
                </Data>
                <Data name="taluka">
                    <value>Sanguem</value>
                </Data>
                <Data name="syno">
                    <value>18</value>
                </Data>
                <Data name="subdiv">
                    <value>1</value>
                </Data>
                <Data name="village">
                    <value>Xelpem</value>
                </Data>
                <Data name="latitude">
                    <value>15.21305</value>
                </Data>
                <Data name="longitude">
                    <value>74.16468</value>
                </Data>
                <Data name="photo_1">
                    <value>DCIM/20220422084103121.jpg</value>
                </Data>
                <Data name="photo_2">
                    <value>DCIM/20220422084117165.jpg</value>
                </Data>
                <Data name="constituency">
                    <value>39 - Sanguem</value>
                </Data>
                <Data name="status">
                    <value>Completed</value>
                </Data>
                <Data name="panchayat">
                    <value>Uguem</value>
                </Data>
                <Data name="wb_type">
                    <value>Pond</value>
                </Data>
                <Data name="owner_type">
                    <value>Private</value>
                </Data>
                <Data name="purpose">
                    <value>Storage</value>
                </Data>
                <Data name="construction">
                    <value>Natural</value>
                </Data>
                <Data name="condition">
                    <value>Needs Maintenance</value>
                </Data>
                <Data name="print_order">
                    <value>025</value>
                </Data>
                <Data name="wb_id">
                    <value>Sg/Xelp/01</value>
                </Data>
                <Data name="storage_capacity">
                    <value>2649.0</value>
                </Data>
                <Data name="wb_surface_id">
                    <value>2768</value>
                </Data>
                <Data name="created_at">
                    <value>2021-11-24 01:13:30.838956</value>
                </Data>
                <Data name="updated_at">
                    <value>2023-07-22 14:03:14.307690</value>
                </Data>
                <Data name="book_id">
                    <value>2</value>
                </Data>
                <Data name="owners">
                    <value>Anant Purshottam Nadkarni
Baskar Sadashiu Sinai Nadkarni
Krishna Sinai Nadkarni
Shankar Sinai Nadkarni
Shivaram Govind Sinai Nadkarni
Shri Ajit Pandurang Narvekar
Shri Nagesh Rohidas Divkar
Shri Praveen Shrinavas Mhapsekar
Shri Rajendra Suryakant Belekar
Shri Surya Sadashiv Gaude
Shri Tulshidas Sudhakar Naik
Smt. Pujan Vipin Makwana
Smt. Revati Ashok Parab
Smt.Mamta Dattaram Phadte
Smt.Nirmala Kantilal Bhoring
Smt.Puja Vipin Makwana
Smt.Revati Ashok Parab
Smt.Vanita Harischandra Naik
Vithu Sinai Nadkarni</value>
                </Data>
                <Data name="label_x">
                    <value>1008423.0</value>
                </Data>
                <Data name="label_y">
                    <value>987959.782571432</value>
                </Data>
            </ExtendedData>
            <Point id="75880">
                <coordinates>74.164684482,15.213053614,0.0</coordinates>
            </Point>
        </Placemark>
    </Document>
</kml>
