<?xml version="1.0" encoding="UTF-8"?>
<kml xmlns="http://www.opengis.net/kml/2.2" xmlns:gx="http://www.google.com/kml/ext/2.2">
    <Document id="83979">
        <Placemark id="83981">
            <ExtendedData>
                <Data name="direction">
                    <value>https://maps.google.com?q=15.45061,73.89156&amp;t=h</value>
                </Data>
                <Data name="id">
                    <value>1045</value>
                </Data>
                <Data name="name">
                    <value>Batim Lake; Madiencho Lanso,Tolem</value>
                </Data>
                <Data name="taluka">
                    <value>Tiswadi</value>
                </Data>
                <Data name="syno">
                    <value>125</value>
                </Data>
                <Data name="subdiv">
                    <value>1-21</value>
                </Data>
                <Data name="village">
                    <value>Batim</value>
                </Data>
                <Data name="latitude">
                    <value>15.45061</value>
                </Data>
                <Data name="longitude">
                    <value>73.89156</value>
                </Data>
                <Data name="photo_1">
                    <value>DCIM/20230506105835509.jpg</value>
                </Data>
                <Data name="photo_2">
                    <value>DCIM/20230506105844930.jpg</value>
                </Data>
                <Data name="syno_pt_list">
                    <value/>
                </Data>
                <Data name="constituency">
                    <value>14 - St. Andre</value>
                </Data>
                <Data name="status">
                    <value>Completed</value>
                </Data>
                <Data name="panchayat">
                    <value>Batim</value>
                </Data>
                <Data name="wb_type">
                    <value>Lake</value>
                </Data>
                <Data name="owner_type">
                    <value>Communidade / Pvt</value>
                </Data>
                <Data name="purpose">
                    <value>Irrigation</value>
                </Data>
                <Data name="construction">
                    <value>Natural</value>
                </Data>
                <Data name="condition">
                    <value>Good</value>
                </Data>
                <Data name="print_order">
                    <value>003</value>
                </Data>
                <Data name="wb_id">
                    <value>Ti/Bati/01</value>
                </Data>
                <Data name="storage_capacity">
                    <value>412498.0</value>
                </Data>
                <Data name="wb_surface_id">
                    <value>1836</value>
                </Data>
                <Data name="created_at">
                    <value>2020-11-30 11:06:55</value>
                </Data>
                <Data name="updated_at">
                    <value>2023-07-22 14:03:14.307690</value>
                </Data>
                <Data name="book_id">
                    <value>1</value>
                </Data>
                <Data name="owners">
                    <value>Communidade of Batim.
Maria Linda Teresa Menezes.</value>
                </Data>
                <Data name="label_x">
                    <value>976176.0</value>
                </Data>
                <Data name="label_y">
                    <value>1003844.8666643695</value>
                </Data>
            </ExtendedData>
            <Point id="83980">
                <coordinates>73.89156215,15.450612126,0.0</coordinates>
            </Point>
        </Placemark>
    </Document>
</kml>
