<?xml version="1.0" encoding="UTF-8"?>
<kml xmlns="http://www.opengis.net/kml/2.2" xmlns:gx="http://www.google.com/kml/ext/2.2">
    <Document id="85367">
        <Placemark id="85369">
            <ExtendedData>
                <Data name="direction">
                    <value>https://maps.google.com?q=15.48688,73.92137&amp;t=h</value>
                </Data>
                <Data name="id">
                    <value>1100</value>
                </Data>
                <Data name="name">
                    <value>Palsabhat</value>
                </Data>
                <Data name="taluka">
                    <value>Tiswadi</value>
                </Data>
                <Data name="syno">
                    <value>4</value>
                </Data>
                <Data name="subdiv">
                    <value>2</value>
                </Data>
                <Data name="village">
                    <value>Carambolim</value>
                </Data>
                <Data name="latitude">
                    <value>15.48688</value>
                </Data>
                <Data name="longitude">
                    <value>73.92137</value>
                </Data>
                <Data name="photo_1">
                    <value>DCIM/20201126160615006.jpg</value>
                </Data>
                <Data name="photo_2">
                    <value>DCIM/20201126160624950.jpg</value>
                </Data>
                <Data name="syno_pt_list">
                    <value>4/2</value>
                </Data>
                <Data name="constituency">
                    <value>15 - Cumbarjua</value>
                </Data>
                <Data name="status">
                    <value>Completed</value>
                </Data>
                <Data name="panchayat">
                    <value>Carambolim</value>
                </Data>
                <Data name="wb_type">
                    <value>Tank</value>
                </Data>
                <Data name="owner_type">
                    <value>Public</value>
                </Data>
                <Data name="purpose">
                    <value>Irrigation</value>
                </Data>
                <Data name="construction">
                    <value>Man Made</value>
                </Data>
                <Data name="condition">
                    <value>Good</value>
                </Data>
                <Data name="print_order">
                    <value>104</value>
                </Data>
                <Data name="wb_id">
                    <value>Ti/Cabl/04</value>
                </Data>
                <Data name="storage_capacity">
                    <value>1737.0</value>
                </Data>
                <Data name="wb_surface_id">
                    <value>627</value>
                </Data>
                <Data name="created_at">
                    <value>2020-11-30 11:09:40.429000</value>
                </Data>
                <Data name="updated_at">
                    <value>2023-07-22 14:03:14.307690</value>
                </Data>
                <Data name="book_id">
                    <value>1</value>
                </Data>
                <Data name="owners">
                    <value>Director of Agriculture</value>
                </Data>
                <Data name="label_x">
                    <value>996824.0</value>
                </Data>
                <Data name="label_y">
                    <value>1006854.39998422</value>
                </Data>
            </ExtendedData>
            <Point id="85368">
                <coordinates>73.921365031,15.486878482,0.0</coordinates>
            </Point>
        </Placemark>
        <Placemark id="85402">
            <ExtendedData>
                <Data name="direction">
                    <value>https://maps.google.com?q=15.48913,73.92033&amp;t=h</value>
                </Data>
                <Data name="id">
                    <value>3331</value>
                </Data>
                <Data name="name">
                    <value>Ella / Palsabhat</value>
                </Data>
                <Data name="taluka">
                    <value>Tiswadi</value>
                </Data>
                <Data name="syno">
                    <value>5</value>
                </Data>
                <Data name="subdiv">
                    <value>0</value>
                </Data>
                <Data name="village">
                    <value>Carambolim</value>
                </Data>
                <Data name="latitude">
                    <value>15.48913</value>
                </Data>
                <Data name="longitude">
                    <value>73.92033</value>
                </Data>
                <Data name="photo_1">
                    <value>DCIM/20201126161511642.jpg</value>
                </Data>
                <Data name="photo_2">
                    <value>DCIM/20201126161523327.jpg</value>
                </Data>
                <Data name="syno_pt_list">
                    <value>/</value>
                </Data>
                <Data name="constituency">
                    <value>15 - Cumbarjua</value>
                </Data>
                <Data name="status">
                    <value>Completed</value>
                </Data>
                <Data name="panchayat">
                    <value>Carambolim</value>
                </Data>
                <Data name="wb_type">
                    <value>Tank</value>
                </Data>
                <Data name="owner_type">
                    <value>Communidade / Public</value>
                </Data>
                <Data name="purpose">
                    <value>Irrigation</value>
                </Data>
                <Data name="construction">
                    <value>Man Made</value>
                </Data>
                <Data name="condition">
                    <value>Good</value>
                </Data>
                <Data name="print_order">
                    <value>105</value>
                </Data>
                <Data name="wb_id">
                    <value>Ti/Cabl/05</value>
                </Data>
                <Data name="storage_capacity">
                    <value>495.0</value>
                </Data>
                <Data name="wb_surface_id">
                    <value>2170</value>
                </Data>
                <Data name="created_at">
                    <value>2020-11-30 10:38:19</value>
                </Data>
                <Data name="updated_at">
                    <value>2023-07-22 14:03:14.307690</value>
                </Data>
                <Data name="book_id">
                    <value>1</value>
                </Data>
                <Data name="owners">
                    <value>1- Arun Narayan Ghatkar
2- Atmaram Narayan Ghatkar
3- Mahabaleshwer Vinayak Ghatkar
4- Director of Agriculture
4-four</value>
                </Data>
                <Data name="label_x">
                    <value>996824.0</value>
                </Data>
                <Data name="label_y">
                    <value>1007104.39998422</value>
                </Data>
            </ExtendedData>
            <Point id="85401">
                <coordinates>73.920333759,15.489131597,0.0</coordinates>
            </Point>
        </Placemark>
        <Placemark id="85435">
            <ExtendedData>
                <Data name="direction">
                    <value>https://maps.google.com?q=15.49118,73.92733&amp;t=h</value>
                </Data>
                <Data name="id">
                    <value>1096</value>
                </Data>
                <Data name="name">
                    <value>Carambolim Lake; Tollem</value>
                </Data>
                <Data name="taluka">
                    <value>Tiswadi</value>
                </Data>
                <Data name="syno">
                    <value>22</value>
                </Data>
                <Data name="subdiv">
                    <value>1-12</value>
                </Data>
                <Data name="village">
                    <value>Carambolim</value>
                </Data>
                <Data name="latitude">
                    <value>15.49118</value>
                </Data>
                <Data name="longitude">
                    <value>73.92733</value>
                </Data>
                <Data name="photo_1">
                    <value>DCIM/20230429081557001.jpg</value>
                </Data>
                <Data name="photo_2">
                    <value>DCIM/20230429081624007.jpg</value>
                </Data>
                <Data name="syno_pt_list">
                    <value>8/11-16; 9/11-12; 10/1-14; 11/1,1-3,3-21-22-27; 12/2-28; 13/1-6,8-21-22-25; 17/15-A,15-B; 18/1-24; 19/1-20; 20/1-26; 21/3-A,3-B; 22/1-21; 23/1-22,24; 27/1-25,28; 28/1-22; 29/1-27; 30/1-17; 34/13; 35/0; 36/20-43,49-50; 109/1-B,1-B-5,1-B-6,&quot;1 (part)</value>
                </Data>
                <Data name="constituency">
                    <value>15 - Cumbarjua</value>
                </Data>
                <Data name="status">
                    <value>Cover</value>
                </Data>
                <Data name="panchayat">
                    <value>Carambolim</value>
                </Data>
                <Data name="wb_type">
                    <value>Lake</value>
                </Data>
                <Data name="owner_type">
                    <value>Communidade</value>
                </Data>
                <Data name="purpose">
                    <value>Storage</value>
                </Data>
                <Data name="construction">
                    <value>Natural</value>
                </Data>
                <Data name="condition">
                    <value>Good</value>
                </Data>
                <Data name="print_order">
                    <value>004</value>
                </Data>
                <Data name="wb_id">
                    <value>Ti/Cabl/01</value>
                </Data>
                <Data name="storage_capacity">
                    <value>1422479.0</value>
                </Data>
                <Data name="wb_surface_id">
                    <value>626</value>
                </Data>
                <Data name="created_at">
                    <value>2020-02-28 15:24:34</value>
                </Data>
                <Data name="updated_at">
                    <value>2023-09-12 05:13:15.233098</value>
                </Data>
                <Data name="book_id">
                    <value>1</value>
                </Data>
                <Data name="owners">
                    <value>Communidade of Carambolim</value>
                </Data>
                <Data name="label_x">
                    <value>996824.0</value>
                </Data>
                <Data name="label_y">
                    <value>1007604.39998422</value>
                </Data>
            </ExtendedData>
            <Point id="85434">
                <coordinates>73.927331256,15.491176645,0.0</coordinates>
            </Point>
        </Placemark>
        <Placemark id="85468">
            <ExtendedData>
                <Data name="direction">
                    <value>https://maps.google.com?q=15.49295,73.91983&amp;t=h</value>
                </Data>
                <Data name="id">
                    <value>3329</value>
                </Data>
                <Data name="name">
                    <value>Ella / Palsabhat</value>
                </Data>
                <Data name="taluka">
                    <value>Tiswadi</value>
                </Data>
                <Data name="syno">
                    <value>5</value>
                </Data>
                <Data name="subdiv">
                    <value>0</value>
                </Data>
                <Data name="village">
                    <value>Carambolim</value>
                </Data>
                <Data name="latitude">
                    <value>15.49295</value>
                </Data>
                <Data name="longitude">
                    <value>73.91983</value>
                </Data>
                <Data name="photo_1">
                    <value>DCIM/20201126155151346.jpg</value>
                </Data>
                <Data name="photo_2">
                    <value>DCIM/20201126155159743.jpg</value>
                </Data>
                <Data name="syno_pt_list">
                    <value>/</value>
                </Data>
                <Data name="constituency">
                    <value>15 - Cumbarjua</value>
                </Data>
                <Data name="status">
                    <value>Completed</value>
                </Data>
                <Data name="panchayat">
                    <value>Carambolim</value>
                </Data>
                <Data name="wb_type">
                    <value>Tank</value>
                </Data>
                <Data name="owner_type">
                    <value>Private / Public</value>
                </Data>
                <Data name="purpose">
                    <value>Irrigation</value>
                </Data>
                <Data name="construction">
                    <value>Man Made</value>
                </Data>
                <Data name="condition">
                    <value>Good</value>
                </Data>
                <Data name="print_order">
                    <value>102</value>
                </Data>
                <Data name="wb_id">
                    <value>Ti/Cabl/02</value>
                </Data>
                <Data name="storage_capacity">
                    <value>3993.0</value>
                </Data>
                <Data name="wb_surface_id">
                    <value>2169</value>
                </Data>
                <Data name="created_at">
                    <value>2020-11-30 10:38:19</value>
                </Data>
                <Data name="updated_at">
                    <value>2023-07-22 14:03:14.307690</value>
                </Data>
                <Data name="book_id">
                    <value>1</value>
                </Data>
                <Data name="owners">
                    <value>1- Arun Narayan Ghatkar
2- Atmaram Narayan Ghatkar
3- Mahabaleshwer Vinayak Ghatkar
4- Director of Agriculture
4-four</value>
                </Data>
                <Data name="label_x">
                    <value>996824.0</value>
                </Data>
                <Data name="label_y">
                    <value>1007354.39998422</value>
                </Data>
            </ExtendedData>
            <Point id="85467">
                <coordinates>73.919829297,15.492950303,0.0</coordinates>
            </Point>
        </Placemark>
        <Placemark id="85501">
            <ExtendedData>
                <Data name="direction">
                    <value>https://maps.google.com?q=15.48712,73.92014&amp;t=h</value>
                </Data>
                <Data name="id">
                    <value>1101</value>
                </Data>
                <Data name="name">
                    <value>Palsabhat</value>
                </Data>
                <Data name="taluka">
                    <value>Tiswadi</value>
                </Data>
                <Data name="syno">
                    <value>4</value>
                </Data>
                <Data name="subdiv">
                    <value>2</value>
                </Data>
                <Data name="village">
                    <value>Carambolim</value>
                </Data>
                <Data name="latitude">
                    <value>15.48712</value>
                </Data>
                <Data name="longitude">
                    <value>73.92014</value>
                </Data>
                <Data name="photo_1">
                    <value>DCIM/20201126160031373.jpg</value>
                </Data>
                <Data name="photo_2">
                    <value>DCIM/20201126160040603.jpg</value>
                </Data>
                <Data name="syno_pt_list">
                    <value>4/1-2</value>
                </Data>
                <Data name="constituency">
                    <value>15 - Cumbarjua</value>
                </Data>
                <Data name="status">
                    <value>Completed</value>
                </Data>
                <Data name="panchayat">
                    <value>Carambolim</value>
                </Data>
                <Data name="wb_type">
                    <value>Tank</value>
                </Data>
                <Data name="owner_type">
                    <value>Public</value>
                </Data>
                <Data name="purpose">
                    <value>Irrigation</value>
                </Data>
                <Data name="construction">
                    <value>Man Made</value>
                </Data>
                <Data name="condition">
                    <value>Good</value>
                </Data>
                <Data name="print_order">
                    <value>103</value>
                </Data>
                <Data name="wb_id">
                    <value>Ti/Cabl/03</value>
                </Data>
                <Data name="storage_capacity">
                    <value>2420.0</value>
                </Data>
                <Data name="wb_surface_id">
                    <value>628</value>
                </Data>
                <Data name="created_at">
                    <value>2020-11-30 11:09:35.538000</value>
                </Data>
                <Data name="updated_at">
                    <value>2023-07-22 14:03:14.307690</value>
                </Data>
                <Data name="book_id">
                    <value>1</value>
                </Data>
                <Data name="owners">
                    <value>Director of Agriculture</value>
                </Data>
                <Data name="label_x">
                    <value>996824.0</value>
                </Data>
                <Data name="label_y">
                    <value>1006604.39998422</value>
                </Data>
            </ExtendedData>
            <Point id="85500">
                <coordinates>73.920141838,15.487120261,0.0</coordinates>
            </Point>
        </Placemark>
    </Document>
</kml>
