<?xml version="1.0" encoding="UTF-8"?>
<kml xmlns="http://www.opengis.net/kml/2.2" xmlns:gx="http://www.google.com/kml/ext/2.2">
    <Document id="85534">
        <Placemark id="85536">
            <ExtendedData>
                <Data name="direction">
                    <value>https://maps.google.com?q=15.48767,73.88228&amp;t=h</value>
                </Data>
                <Data name="id">
                    <value>3325</value>
                </Data>
                <Data name="name">
                    <value>--</value>
                </Data>
                <Data name="taluka">
                    <value>Tiswadi</value>
                </Data>
                <Data name="syno">
                    <value>40</value>
                </Data>
                <Data name="subdiv">
                    <value>3</value>
                </Data>
                <Data name="village">
                    <value>Chimbel</value>
                </Data>
                <Data name="latitude">
                    <value>15.48767</value>
                </Data>
                <Data name="longitude">
                    <value>73.88228</value>
                </Data>
                <Data name="photo_1">
                    <value>DCIM/20201125150400863.jpg</value>
                </Data>
                <Data name="photo_2">
                    <value>DCIM/20201125150414299.jpg</value>
                </Data>
                <Data name="syno_pt_list">
                    <value>40/3</value>
                </Data>
                <Data name="constituency">
                    <value>13 - St. Cruz</value>
                </Data>
                <Data name="status">
                    <value>Completed</value>
                </Data>
                <Data name="panchayat">
                    <value>Chimbel</value>
                </Data>
                <Data name="wb_type">
                    <value>Tank</value>
                </Data>
                <Data name="owner_type">
                    <value>Public</value>
                </Data>
                <Data name="purpose">
                    <value>Irrigation</value>
                </Data>
                <Data name="construction">
                    <value>Man Made</value>
                </Data>
                <Data name="condition">
                    <value>Good</value>
                </Data>
                <Data name="print_order">
                    <value>115</value>
                </Data>
                <Data name="wb_id">
                    <value>Ti/Chim/07</value>
                </Data>
                <Data name="storage_capacity">
                    <value>178.0</value>
                </Data>
                <Data name="wb_surface_id">
                    <value>2164</value>
                </Data>
                <Data name="created_at">
                    <value>2020-11-30 10:38:19</value>
                </Data>
                <Data name="updated_at">
                    <value>2023-07-22 14:03:14.307690</value>
                </Data>
                <Data name="book_id">
                    <value>1</value>
                </Data>
                <Data name="owners">
                    <value>Agriculture Dpt. of Goa Daman &amp; Diu
Department of Information and Technology
Directorate of Health Services, Panaji   (Part)</value>
                </Data>
                <Data name="label_x">
                    <value>976176.0</value>
                </Data>
                <Data name="label_y">
                    <value>1013844.86666437</value>
                </Data>
            </ExtendedData>
            <Point id="85535">
                <coordinates>73.88228,15.48767,0.0</coordinates>
            </Point>
        </Placemark>
        <Placemark id="85569">
            <ExtendedData>
                <Data name="direction">
                    <value>https://maps.google.com?q=15.49473,73.87199&amp;t=h</value>
                </Data>
                <Data name="id">
                    <value>1127</value>
                </Data>
                <Data name="name">
                    <value>Ambali</value>
                </Data>
                <Data name="taluka">
                    <value>Tiswadi</value>
                </Data>
                <Data name="syno">
                    <value>5</value>
                </Data>
                <Data name="subdiv">
                    <value>9</value>
                </Data>
                <Data name="village">
                    <value>Chimbel</value>
                </Data>
                <Data name="latitude">
                    <value>15.49473</value>
                </Data>
                <Data name="longitude">
                    <value>73.87199</value>
                </Data>
                <Data name="photo_1">
                    <value>DCIM/20230429071407783.jpg</value>
                </Data>
                <Data name="photo_2">
                    <value>DCIM/20230429071415252.jpg</value>
                </Data>
                <Data name="syno_pt_list">
                    <value>5/9</value>
                </Data>
                <Data name="constituency">
                    <value>13 - St. Cruz</value>
                </Data>
                <Data name="status">
                    <value>Completed</value>
                </Data>
                <Data name="panchayat">
                    <value>Chimbel</value>
                </Data>
                <Data name="wb_type">
                    <value>Pond</value>
                </Data>
                <Data name="owner_type">
                    <value>Private</value>
                </Data>
                <Data name="purpose">
                    <value>Storage</value>
                </Data>
                <Data name="construction">
                    <value>Natural</value>
                </Data>
                <Data name="condition">
                    <value>Good</value>
                </Data>
                <Data name="print_order">
                    <value>048</value>
                </Data>
                <Data name="wb_id">
                    <value>Ti/Chim/09</value>
                </Data>
                <Data name="storage_capacity">
                    <value>107.0</value>
                </Data>
                <Data name="wb_surface_id">
                    <value>450</value>
                </Data>
                <Data name="created_at">
                    <value>2020-02-28 15:24:34</value>
                </Data>
                <Data name="updated_at">
                    <value>2023-07-22 14:03:14.307690</value>
                </Data>
                <Data name="book_id">
                    <value>1</value>
                </Data>
                <Data name="owners">
                    <value>Agnelo Sylvano A. A. E. Fernandes</value>
                </Data>
                <Data name="label_x">
                    <value>976176.0</value>
                </Data>
                <Data name="label_y">
                    <value>1015094.86666437</value>
                </Data>
            </ExtendedData>
            <Point id="85568">
                <coordinates>73.871994144,15.494733358,0.0</coordinates>
            </Point>
        </Placemark>
        <Placemark id="85602">
            <ExtendedData>
                <Data name="direction">
                    <value>https://maps.google.com?q=15.48816,73.87949&amp;t=h</value>
                </Data>
                <Data name="id">
                    <value>1132</value>
                </Data>
                <Data name="name">
                    <value>Ganesh Visarjan Tali; Sarang dongar</value>
                </Data>
                <Data name="taluka">
                    <value>Tiswadi</value>
                </Data>
                <Data name="syno">
                    <value>43</value>
                </Data>
                <Data name="subdiv">
                    <value>2</value>
                </Data>
                <Data name="village">
                    <value>Chimbel</value>
                </Data>
                <Data name="latitude">
                    <value>15.48816</value>
                </Data>
                <Data name="longitude">
                    <value>73.87949</value>
                </Data>
                <Data name="photo_1">
                    <value>DCIM/20230428133043014.jpg</value>
                </Data>
                <Data name="photo_2">
                    <value>DCIM/20230428133104340.jpg</value>
                </Data>
                <Data name="syno_pt_list">
                    <value>43/1-3</value>
                </Data>
                <Data name="constituency">
                    <value>13 - St. Cruz</value>
                </Data>
                <Data name="status">
                    <value>Completed</value>
                </Data>
                <Data name="panchayat">
                    <value>Chimbel</value>
                </Data>
                <Data name="wb_type">
                    <value>Tank</value>
                </Data>
                <Data name="owner_type">
                    <value>Private</value>
                </Data>
                <Data name="purpose">
                    <value>Storage</value>
                </Data>
                <Data name="construction">
                    <value>Man Made</value>
                </Data>
                <Data name="condition">
                    <value>Good</value>
                </Data>
                <Data name="print_order">
                    <value>114</value>
                </Data>
                <Data name="wb_id">
                    <value>Ti/Chim/06</value>
                </Data>
                <Data name="storage_capacity">
                    <value>352.0</value>
                </Data>
                <Data name="wb_surface_id">
                    <value>452</value>
                </Data>
                <Data name="created_at">
                    <value>2020-02-28 15:24:34</value>
                </Data>
                <Data name="updated_at">
                    <value>2023-07-22 14:03:14.307690</value>
                </Data>
                <Data name="book_id">
                    <value>1</value>
                </Data>
                <Data name="owners">
                    <value>2-Two
Gonsal D'Souza
Tukaram Monteiro</value>
                </Data>
                <Data name="label_x">
                    <value>976176.0</value>
                </Data>
                <Data name="label_y">
                    <value>1014094.86666437</value>
                </Data>
            </ExtendedData>
            <Point id="85601">
                <coordinates>73.879486678,15.488156171,0.0</coordinates>
            </Point>
        </Placemark>
        <Placemark id="85635">
            <ExtendedData>
                <Data name="direction">
                    <value>https://maps.google.com?q=15.48766,73.88251&amp;t=h</value>
                </Data>
                <Data name="id">
                    <value>3326</value>
                </Data>
                <Data name="name">
                    <value>--</value>
                </Data>
                <Data name="taluka">
                    <value>Tiswadi</value>
                </Data>
                <Data name="syno">
                    <value>40</value>
                </Data>
                <Data name="subdiv">
                    <value>3</value>
                </Data>
                <Data name="village">
                    <value>Chimbel</value>
                </Data>
                <Data name="latitude">
                    <value>15.48766</value>
                </Data>
                <Data name="longitude">
                    <value>73.88251</value>
                </Data>
                <Data name="photo_1">
                    <value>DCIM/20201125150634806.jpg</value>
                </Data>
                <Data name="photo_2">
                    <value>DCIM/20201125150641464.jpg</value>
                </Data>
                <Data name="syno_pt_list">
                    <value>40/3</value>
                </Data>
                <Data name="constituency">
                    <value>13 - St. Cruz</value>
                </Data>
                <Data name="status">
                    <value>Completed</value>
                </Data>
                <Data name="panchayat">
                    <value>Chimbel</value>
                </Data>
                <Data name="wb_type">
                    <value>Tank</value>
                </Data>
                <Data name="owner_type">
                    <value>Public</value>
                </Data>
                <Data name="purpose">
                    <value>Irrigation</value>
                </Data>
                <Data name="construction">
                    <value>Man Made</value>
                </Data>
                <Data name="condition">
                    <value>Good</value>
                </Data>
                <Data name="print_order">
                    <value>116</value>
                </Data>
                <Data name="wb_id">
                    <value>Ti/Chim/08</value>
                </Data>
                <Data name="storage_capacity">
                    <value>130.0</value>
                </Data>
                <Data name="wb_surface_id">
                    <value>2166</value>
                </Data>
                <Data name="created_at">
                    <value>2020-11-30 10:38:19</value>
                </Data>
                <Data name="updated_at">
                    <value>2023-07-22 14:03:14.307690</value>
                </Data>
                <Data name="book_id">
                    <value>1</value>
                </Data>
                <Data name="owners">
                    <value>Agriculture Dpt. of Goa Daman &amp; Diu
Department of Information and Technology
Directorate of Health Services, Panaji   (Part)</value>
                </Data>
                <Data name="label_x">
                    <value>976176.0</value>
                </Data>
                <Data name="label_y">
                    <value>1013594.86666437</value>
                </Data>
            </ExtendedData>
            <Point id="85634">
                <coordinates>73.882511667,15.487656667,0.0</coordinates>
            </Point>
        </Placemark>
        <Placemark id="85668">
            <ExtendedData>
                <Data name="direction">
                    <value>https://maps.google.com?q=15.48837,73.88024&amp;t=h</value>
                </Data>
                <Data name="id">
                    <value>1131</value>
                </Data>
                <Data name="name">
                    <value>--</value>
                </Data>
                <Data name="taluka">
                    <value>Tiswadi</value>
                </Data>
                <Data name="syno">
                    <value>40</value>
                </Data>
                <Data name="subdiv">
                    <value>2</value>
                </Data>
                <Data name="village">
                    <value>Chimbel</value>
                </Data>
                <Data name="latitude">
                    <value>15.48837</value>
                </Data>
                <Data name="longitude">
                    <value>73.88024</value>
                </Data>
                <Data name="photo_1">
                    <value>DCIM/20201125145648350.jpg</value>
                </Data>
                <Data name="photo_2">
                    <value>DCIM/20201125145701832.jpg</value>
                </Data>
                <Data name="syno_pt_list">
                    <value>40/1-3</value>
                </Data>
                <Data name="constituency">
                    <value>13 - St. Cruz</value>
                </Data>
                <Data name="status">
                    <value>Completed</value>
                </Data>
                <Data name="panchayat">
                    <value>Chimbel</value>
                </Data>
                <Data name="wb_type">
                    <value>Tank</value>
                </Data>
                <Data name="owner_type">
                    <value>Public</value>
                </Data>
                <Data name="purpose">
                    <value>Storage</value>
                </Data>
                <Data name="construction">
                    <value>Man Made</value>
                </Data>
                <Data name="condition">
                    <value>Good</value>
                </Data>
                <Data name="print_order">
                    <value>113</value>
                </Data>
                <Data name="wb_id">
                    <value>Ti/Chim/04</value>
                </Data>
                <Data name="storage_capacity">
                    <value>1635.0</value>
                </Data>
                <Data name="wb_surface_id">
                    <value>455</value>
                </Data>
                <Data name="created_at">
                    <value>2020-11-30 11:07:44.653000</value>
                </Data>
                <Data name="updated_at">
                    <value>2023-07-22 14:03:14.307690</value>
                </Data>
                <Data name="book_id">
                    <value>1</value>
                </Data>
                <Data name="owners">
                    <value>Government of Goa Daman and Diu</value>
                </Data>
                <Data name="label_x">
                    <value>976176.0</value>
                </Data>
                <Data name="label_y">
                    <value>1014594.86666437</value>
                </Data>
            </ExtendedData>
            <Point id="85667">
                <coordinates>73.880241613,15.488374614,0.0</coordinates>
            </Point>
        </Placemark>
        <Placemark id="85701">
            <ExtendedData>
                <Data name="direction">
                    <value>https://maps.google.com?q=15.49238,73.87414&amp;t=h</value>
                </Data>
                <Data name="id">
                    <value>1134</value>
                </Data>
                <Data name="name">
                    <value>Chimulkarin Temple Tank; Gaule Bhat</value>
                </Data>
                <Data name="taluka">
                    <value>Tiswadi</value>
                </Data>
                <Data name="syno">
                    <value>54</value>
                </Data>
                <Data name="subdiv">
                    <value>2</value>
                </Data>
                <Data name="village">
                    <value>Chimbel</value>
                </Data>
                <Data name="latitude">
                    <value>15.49238</value>
                </Data>
                <Data name="longitude">
                    <value>73.87414</value>
                </Data>
                <Data name="photo_1">
                    <value>DCIM/20230428132152807.jpg</value>
                </Data>
                <Data name="photo_2">
                    <value>DCIM/20230428132220860.jpg</value>
                </Data>
                <Data name="syno_pt_list">
                    <value>54/1-2</value>
                </Data>
                <Data name="constituency">
                    <value>13 - St. Cruz</value>
                </Data>
                <Data name="status">
                    <value>Completed</value>
                </Data>
                <Data name="panchayat">
                    <value>Chimbel</value>
                </Data>
                <Data name="wb_type">
                    <value>Temple Tank</value>
                </Data>
                <Data name="owner_type">
                    <value>Communidade / Pvt</value>
                </Data>
                <Data name="purpose">
                    <value>Storage</value>
                </Data>
                <Data name="construction">
                    <value>Man Made</value>
                </Data>
                <Data name="condition">
                    <value>Good</value>
                </Data>
                <Data name="print_order">
                    <value>098</value>
                </Data>
                <Data name="wb_id">
                    <value>Ti/Chim/05</value>
                </Data>
                <Data name="storage_capacity">
                    <value>1200.0</value>
                </Data>
                <Data name="wb_surface_id">
                    <value>451</value>
                </Data>
                <Data name="created_at">
                    <value>2020-02-28 15:24:34</value>
                </Data>
                <Data name="updated_at">
                    <value>2023-07-22 14:03:14.307690</value>
                </Data>
                <Data name="book_id">
                    <value>1</value>
                </Data>
                <Data name="owners">
                    <value>3-Three
Communidade of Chimbel
Premawati Mukund Kamat Tarkar
Shrirang Subray Kamat Tarkar</value>
                </Data>
                <Data name="label_x">
                    <value>976176.0</value>
                </Data>
                <Data name="label_y">
                    <value>1014844.86666437</value>
                </Data>
            </ExtendedData>
            <Point id="85700">
                <coordinates>73.87413836,15.492382217,0.0</coordinates>
            </Point>
        </Placemark>
        <Placemark id="85734">
            <ExtendedData>
                <Data name="direction">
                    <value>https://maps.google.com?q=15.4867,73.88601&amp;t=h</value>
                </Data>
                <Data name="id">
                    <value>1128</value>
                </Data>
                <Data name="name">
                    <value>Toyaar Lake</value>
                </Data>
                <Data name="taluka">
                    <value>Tiswadi</value>
                </Data>
                <Data name="syno">
                    <value>40</value>
                </Data>
                <Data name="subdiv">
                    <value>1</value>
                </Data>
                <Data name="village">
                    <value>Chimbel</value>
                </Data>
                <Data name="latitude">
                    <value>15.4867</value>
                </Data>
                <Data name="longitude">
                    <value>73.88601</value>
                </Data>
                <Data name="photo_1">
                    <value>DCIM/20230429072640763.jpg</value>
                </Data>
                <Data name="photo_2">
                    <value>DCIM/20230429072646151.jpg</value>
                </Data>
                <Data name="syno_pt_list">
                    <value>40/1</value>
                </Data>
                <Data name="constituency">
                    <value>13 - St. Cruz</value>
                </Data>
                <Data name="status">
                    <value>Completed</value>
                </Data>
                <Data name="panchayat">
                    <value>Chimbel</value>
                </Data>
                <Data name="wb_type">
                    <value>Lake</value>
                </Data>
                <Data name="owner_type">
                    <value>Public</value>
                </Data>
                <Data name="purpose">
                    <value>Storage</value>
                </Data>
                <Data name="construction">
                    <value>Man Made</value>
                </Data>
                <Data name="condition">
                    <value>Good</value>
                </Data>
                <Data name="print_order">
                    <value>006</value>
                </Data>
                <Data name="wb_id">
                    <value>Ti/Chim/01</value>
                </Data>
                <Data name="storage_capacity">
                    <value>51337.0</value>
                </Data>
                <Data name="wb_surface_id">
                    <value>602</value>
                </Data>
                <Data name="created_at">
                    <value>2020-02-28 15:24:34</value>
                </Data>
                <Data name="updated_at">
                    <value>2023-07-22 14:03:14.307690</value>
                </Data>
                <Data name="book_id">
                    <value>1</value>
                </Data>
                <Data name="owners">
                    <value>Department of Information and Technology
Directorate of Health Services, Panaji
Electricity Department</value>
                </Data>
                <Data name="label_x">
                    <value>976176.0</value>
                </Data>
                <Data name="label_y">
                    <value>1013344.86666437</value>
                </Data>
            </ExtendedData>
            <Point id="85733">
                <coordinates>73.886014419,15.486701261,0.0</coordinates>
            </Point>
        </Placemark>
    </Document>
</kml>
