<?xml version="1.0" encoding="UTF-8"?>
<kml xmlns="http://www.opengis.net/kml/2.2" xmlns:gx="http://www.google.com/kml/ext/2.2">
    <Document id="100896">
        <Placemark id="100898">
            <ExtendedData>
                <Data name="direction">
                    <value>https://maps.google.com?q=15.44599,73.86462&amp;t=h</value>
                </Data>
                <Data name="id">
                    <value>1257</value>
                </Data>
                <Data name="name">
                    <value>Sateri Temple Tank; Palem</value>
                </Data>
                <Data name="taluka">
                    <value>Tiswadi</value>
                </Data>
                <Data name="syno">
                    <value>57</value>
                </Data>
                <Data name="subdiv">
                    <value>1</value>
                </Data>
                <Data name="village">
                    <value>Siridao</value>
                </Data>
                <Data name="latitude">
                    <value>15.44599</value>
                </Data>
                <Data name="longitude">
                    <value>73.86462</value>
                </Data>
                <Data name="photo_1">
                    <value>DCIM/20200516060836621.jpg</value>
                </Data>
                <Data name="photo_2">
                    <value>DCIM/20200516060847360.jpg</value>
                </Data>
                <Data name="syno_pt_list">
                    <value>57/1</value>
                </Data>
                <Data name="constituency">
                    <value>14 - St. Andre</value>
                </Data>
                <Data name="status">
                    <value>Completed</value>
                </Data>
                <Data name="panchayat">
                    <value>Siridao-Palem</value>
                </Data>
                <Data name="wb_type">
                    <value>Temple Tank</value>
                </Data>
                <Data name="owner_type">
                    <value>Private</value>
                </Data>
                <Data name="purpose">
                    <value>Storage</value>
                </Data>
                <Data name="construction">
                    <value>Man Made</value>
                </Data>
                <Data name="condition">
                    <value>Good</value>
                </Data>
                <Data name="print_order">
                    <value>100</value>
                </Data>
                <Data name="wb_id">
                    <value>Ti/Siri/02</value>
                </Data>
                <Data name="storage_capacity">
                    <value>1438.0</value>
                </Data>
                <Data name="wb_surface_id">
                    <value>741</value>
                </Data>
                <Data name="created_at">
                    <value>2020-02-28 15:24:34</value>
                </Data>
                <Data name="updated_at">
                    <value>2023-07-24 19:56:00.890733</value>
                </Data>
                <Data name="book_id">
                    <value>4</value>
                </Data>
                <Data name="owners">
                    <value>Dempo Properties and Investments
Manguesh Mangueshkar
Nandu Mangueshkar
Private Limited.    (one)
Radha Mangueshkar
Shaila L Shirodkar
Vassudev Mangueshkar</value>
                </Data>
                <Data name="label_x">
                    <value>976173.0</value>
                </Data>
                <Data name="label_y">
                    <value>1003940.68332924</value>
                </Data>
            </ExtendedData>
            <Point id="100897">
                <coordinates>73.86461812,15.445989855,0.0</coordinates>
            </Point>
        </Placemark>
        <Placemark id="100931">
            <ExtendedData>
                <Data name="direction">
                    <value>https://maps.google.com?q=15.4461,73.86563&amp;t=h</value>
                </Data>
                <Data name="id">
                    <value>2512</value>
                </Data>
                <Data name="name">
                    <value>Lake behind Sateri Temple; Palem</value>
                </Data>
                <Data name="taluka">
                    <value>Tiswadi</value>
                </Data>
                <Data name="syno">
                    <value>58</value>
                </Data>
                <Data name="subdiv">
                    <value>2-22</value>
                </Data>
                <Data name="village">
                    <value>Siridao</value>
                </Data>
                <Data name="latitude">
                    <value>15.4461</value>
                </Data>
                <Data name="longitude">
                    <value>73.86563</value>
                </Data>
                <Data name="photo_1">
                    <value>DCIM/20230411064951047.jpg</value>
                </Data>
                <Data name="photo_2">
                    <value>DCIM/20230411065028363.jpg</value>
                </Data>
                <Data name="syno_pt_list">
                    <value>57/1; 58/2-22</value>
                </Data>
                <Data name="constituency">
                    <value>14 - St. Andre</value>
                </Data>
                <Data name="status">
                    <value>Completed</value>
                </Data>
                <Data name="panchayat">
                    <value>Siridao-Palem</value>
                </Data>
                <Data name="wb_type">
                    <value>Lake</value>
                </Data>
                <Data name="owner_type">
                    <value>Private</value>
                </Data>
                <Data name="purpose">
                    <value>Storage</value>
                </Data>
                <Data name="construction">
                    <value>Natural</value>
                </Data>
                <Data name="condition">
                    <value>Good</value>
                </Data>
                <Data name="print_order">
                    <value>004</value>
                </Data>
                <Data name="wb_id">
                    <value>Ti/Siri/01</value>
                </Data>
                <Data name="storage_capacity">
                    <value>19431.0</value>
                </Data>
                <Data name="wb_surface_id">
                    <value>2054</value>
                </Data>
                <Data name="created_at">
                    <value>2020-03-26 07:23:14</value>
                </Data>
                <Data name="updated_at">
                    <value>2023-07-24 19:55:53.579788</value>
                </Data>
                <Data name="book_id">
                    <value>4</value>
                </Data>
                <Data name="owners">
                    <value>Siridao  Estates Pvt Ltd
Siridao Estates  Pvt Ltd
Siridao Estates Pvt Ltd
Siridao Estates Pvt. Ltd
Siridao Estates Pvt. Ltd.</value>
                </Data>
                <Data name="label_x">
                    <value>976173.0</value>
                </Data>
                <Data name="label_y">
                    <value>1003690.6833292377</value>
                </Data>
            </ExtendedData>
            <Point id="100930">
                <coordinates>73.86562771,15.446096958,0.0</coordinates>
            </Point>
        </Placemark>
    </Document>
</kml>
