<?xml version="1.0" encoding="UTF-8"?>
<kml xmlns="http://www.opengis.net/kml/2.2" xmlns:gx="http://www.google.com/kml/ext/2.2">
    <Document id="100964">
        <Placemark id="100966">
            <ExtendedData>
                <Data name="direction">
                    <value>https://maps.google.com?q=15.46678,73.88811&amp;t=h</value>
                </Data>
                <Data name="id">
                    <value>3624</value>
                </Data>
                <Data name="name">
                    <value>--</value>
                </Data>
                <Data name="taluka">
                    <value>Tiswadi</value>
                </Data>
                <Data name="syno">
                    <value>38</value>
                </Data>
                <Data name="subdiv">
                    <value>10</value>
                </Data>
                <Data name="village">
                    <value>Talaulim</value>
                </Data>
                <Data name="latitude">
                    <value>15.46678</value>
                </Data>
                <Data name="longitude">
                    <value>73.88811</value>
                </Data>
                <Data name="photo_1">
                    <value>DCIM/20230506121747497.jpg</value>
                </Data>
                <Data name="photo_2">
                    <value>DCIM/20230506121803887.jpg</value>
                </Data>
                <Data name="syno_pt_list">
                    <value>38/10</value>
                </Data>
                <Data name="constituency">
                    <value>14 - St. Andre</value>
                </Data>
                <Data name="status">
                    <value>Completed</value>
                </Data>
                <Data name="panchayat">
                    <value>Curca,Bambolim,Talaulim</value>
                </Data>
                <Data name="wb_type">
                    <value>Pond</value>
                </Data>
                <Data name="owner_type">
                    <value>Private</value>
                </Data>
                <Data name="purpose">
                    <value>Storage</value>
                </Data>
                <Data name="construction">
                    <value>Natural</value>
                </Data>
                <Data name="condition">
                    <value>Needs Maintenance</value>
                </Data>
                <Data name="print_order">
                    <value>077</value>
                </Data>
                <Data name="wb_id">
                    <value>Ti/Tala/12</value>
                </Data>
                <Data name="storage_capacity">
                    <value>57.0</value>
                </Data>
                <Data name="wb_surface_id">
                    <value>4607</value>
                </Data>
                <Data name="created_at">
                    <value>2020-12-05 08:40:27</value>
                </Data>
                <Data name="updated_at">
                    <value>2023-07-24 19:56:01.186752</value>
                </Data>
                <Data name="book_id">
                    <value>4</value>
                </Data>
                <Data name="owners">
                    <value>1) Bogwant  Ramnath Faterpekar
2) Atmaram Ramnath Faterpekar</value>
                </Data>
                <Data name="label_x">
                    <value>976173.0</value>
                </Data>
                <Data name="label_y">
                    <value>1004190.68332924</value>
                </Data>
            </ExtendedData>
            <Point id="100965">
                <coordinates>73.888114011,15.466776678,0.0</coordinates>
            </Point>
        </Placemark>
        <Placemark id="100999">
            <ExtendedData>
                <Data name="direction">
                    <value>https://maps.google.com?q=15.47658,73.88997&amp;t=h</value>
                </Data>
                <Data name="id">
                    <value>3620</value>
                </Data>
                <Data name="name">
                    <value>Pansupe</value>
                </Data>
                <Data name="taluka">
                    <value>Tiswadi</value>
                </Data>
                <Data name="syno">
                    <value>12</value>
                </Data>
                <Data name="subdiv">
                    <value>1</value>
                </Data>
                <Data name="village">
                    <value>Talaulim</value>
                </Data>
                <Data name="latitude">
                    <value>15.47658</value>
                </Data>
                <Data name="longitude">
                    <value>73.88997</value>
                </Data>
                <Data name="photo_1">
                    <value>DCIM/20230506115700749.jpg</value>
                </Data>
                <Data name="photo_2">
                    <value>DCIM/20230506115737103.jpg</value>
                </Data>
                <Data name="syno_pt_list">
                    <value>12/1-2,4-7</value>
                </Data>
                <Data name="constituency">
                    <value>14 - St. Andre</value>
                </Data>
                <Data name="status">
                    <value>Completed</value>
                </Data>
                <Data name="panchayat">
                    <value>Curca,Bambolim,Talaulim</value>
                </Data>
                <Data name="wb_type">
                    <value>Tank</value>
                </Data>
                <Data name="owner_type">
                    <value>Communidade</value>
                </Data>
                <Data name="purpose">
                    <value>Irrigation</value>
                </Data>
                <Data name="construction">
                    <value>Natural/Man Made</value>
                </Data>
                <Data name="condition">
                    <value>Good</value>
                </Data>
                <Data name="print_order">
                    <value>129</value>
                </Data>
                <Data name="wb_id">
                    <value>Ti/Tala/02</value>
                </Data>
                <Data name="storage_capacity">
                    <value>1114.0</value>
                </Data>
                <Data name="wb_surface_id">
                    <value>4606</value>
                </Data>
                <Data name="created_at">
                    <value>2020-12-05 08:40:27</value>
                </Data>
                <Data name="updated_at">
                    <value>2023-07-24 19:56:03.530747</value>
                </Data>
                <Data name="book_id">
                    <value>4</value>
                </Data>
                <Data name="owners">
                    <value>Communidade of Talaulim</value>
                </Data>
                <Data name="label_x">
                    <value>976173.0</value>
                </Data>
                <Data name="label_y">
                    <value>1006940.68332924</value>
                </Data>
            </ExtendedData>
            <Point id="100998">
                <coordinates>73.889972342,15.476580204,0.0</coordinates>
            </Point>
        </Placemark>
        <Placemark id="101032">
            <ExtendedData>
                <Data name="direction">
                    <value>https://maps.google.com?q=15.47586,73.89675&amp;t=h</value>
                </Data>
                <Data name="id">
                    <value>6196</value>
                </Data>
                <Data name="name">
                    <value>Fondaka</value>
                </Data>
                <Data name="taluka">
                    <value>Tiswadi</value>
                </Data>
                <Data name="syno">
                    <value>7</value>
                </Data>
                <Data name="subdiv">
                    <value>3</value>
                </Data>
                <Data name="village">
                    <value>Talaulim</value>
                </Data>
                <Data name="latitude">
                    <value>15.47586</value>
                </Data>
                <Data name="longitude">
                    <value>73.89675</value>
                </Data>
                <Data name="photo_1">
                    <value>DCIM/20230506112245641.jpg</value>
                </Data>
                <Data name="photo_2">
                    <value>DCIM/20230506112254618.jpg</value>
                </Data>
                <Data name="constituency">
                    <value>14 - St. Andre</value>
                </Data>
                <Data name="status">
                    <value>Completed</value>
                </Data>
                <Data name="panchayat">
                    <value>Curca,Bambolim,Talaulim</value>
                </Data>
                <Data name="wb_type">
                    <value>Tank</value>
                </Data>
                <Data name="owner_type">
                    <value>Communidade</value>
                </Data>
                <Data name="purpose">
                    <value>Irrigation</value>
                </Data>
                <Data name="construction">
                    <value>Man Made</value>
                </Data>
                <Data name="condition">
                    <value>Good</value>
                </Data>
                <Data name="print_order">
                    <value>132</value>
                </Data>
                <Data name="wb_id">
                    <value>Ti/Tala/10</value>
                </Data>
                <Data name="storage_capacity">
                    <value>112.0</value>
                </Data>
                <Data name="wb_surface_id">
                    <value>5645</value>
                </Data>
                <Data name="created_at">
                    <value>2023-05-06 00:00:00</value>
                </Data>
                <Data name="updated_at">
                    <value>2023-07-24 19:56:02.458799</value>
                </Data>
                <Data name="book_id">
                    <value>4</value>
                </Data>
                <Data name="owners">
                    <value>Communidade of Talaulim</value>
                </Data>
                <Data name="label_x">
                    <value>976173.0</value>
                </Data>
                <Data name="label_y">
                    <value>1005690.68332924</value>
                </Data>
            </ExtendedData>
            <Point id="101031">
                <coordinates>73.896752202,15.475858736,0.0</coordinates>
            </Point>
        </Placemark>
        <Placemark id="101064">
            <ExtendedData>
                <Data name="direction">
                    <value>https://maps.google.com?q=15.47381,73.88778&amp;t=h</value>
                </Data>
                <Data name="id">
                    <value>3333</value>
                </Data>
                <Data name="name">
                    <value>Murgud and Pasto</value>
                </Data>
                <Data name="taluka">
                    <value>Tiswadi</value>
                </Data>
                <Data name="syno">
                    <value>84</value>
                </Data>
                <Data name="subdiv">
                    <value>1</value>
                </Data>
                <Data name="village">
                    <value>Talaulim</value>
                </Data>
                <Data name="latitude">
                    <value>15.47381</value>
                </Data>
                <Data name="longitude">
                    <value>73.88778</value>
                </Data>
                <Data name="photo_1">
                    <value>DCIM/20230506120422555.jpg</value>
                </Data>
                <Data name="photo_2">
                    <value>DCIM/20230506120400165.jpg</value>
                </Data>
                <Data name="syno_pt_list">
                    <value>49/6; 84/1-2</value>
                </Data>
                <Data name="constituency">
                    <value>14 - St. Andre</value>
                </Data>
                <Data name="status">
                    <value>Completed</value>
                </Data>
                <Data name="panchayat">
                    <value>Curca,Bambolim,Talaulim</value>
                </Data>
                <Data name="wb_type">
                    <value>Tank</value>
                </Data>
                <Data name="owner_type">
                    <value>Communidade</value>
                </Data>
                <Data name="purpose">
                    <value>Irrigation</value>
                </Data>
                <Data name="construction">
                    <value>Man Made</value>
                </Data>
                <Data name="condition">
                    <value>Good</value>
                </Data>
                <Data name="print_order">
                    <value>130</value>
                </Data>
                <Data name="wb_id">
                    <value>Ti/Tala/03</value>
                </Data>
                <Data name="storage_capacity">
                    <value>502.0</value>
                </Data>
                <Data name="wb_surface_id">
                    <value>2172</value>
                </Data>
                <Data name="created_at">
                    <value>2020-11-30 10:38:19</value>
                </Data>
                <Data name="updated_at">
                    <value>2023-07-24 19:56:03.086800</value>
                </Data>
                <Data name="book_id">
                    <value>4</value>
                </Data>
                <Data name="owners">
                    <value>Communidade de Santan</value>
                </Data>
                <Data name="label_x">
                    <value>976173.0</value>
                </Data>
                <Data name="label_y">
                    <value>1006440.68332924</value>
                </Data>
            </ExtendedData>
            <Point id="101063">
                <coordinates>73.887781667,15.473811667,0.0</coordinates>
            </Point>
        </Placemark>
        <Placemark id="101097">
            <ExtendedData>
                <Data name="direction">
                    <value>https://maps.google.com?q=15.47566,73.89689&amp;t=h</value>
                </Data>
                <Data name="id">
                    <value>5477</value>
                </Data>
                <Data name="name">
                    <value>--</value>
                </Data>
                <Data name="taluka">
                    <value>Tiswadi</value>
                </Data>
                <Data name="syno">
                    <value>7</value>
                </Data>
                <Data name="subdiv">
                    <value>6</value>
                </Data>
                <Data name="village">
                    <value>Talaulim</value>
                </Data>
                <Data name="latitude">
                    <value>15.47566</value>
                </Data>
                <Data name="longitude">
                    <value>73.89689</value>
                </Data>
                <Data name="photo_1">
                    <value>DCIM/20230506112212234.jpg</value>
                </Data>
                <Data name="photo_2">
                    <value>DCIM/20230506112222317.jpg</value>
                </Data>
                <Data name="syno_pt_list">
                    <value>7/5-6</value>
                </Data>
                <Data name="constituency">
                    <value>14 - St. Andre</value>
                </Data>
                <Data name="status">
                    <value>Completed</value>
                </Data>
                <Data name="panchayat">
                    <value>Curca,Bambolim,Talaulim</value>
                </Data>
                <Data name="wb_type">
                    <value>Tank</value>
                </Data>
                <Data name="owner_type">
                    <value>Communidade</value>
                </Data>
                <Data name="purpose">
                    <value>Irrigation</value>
                </Data>
                <Data name="construction">
                    <value>Natural/Man Made</value>
                </Data>
                <Data name="condition">
                    <value>Good</value>
                </Data>
                <Data name="print_order">
                    <value>131</value>
                </Data>
                <Data name="wb_id">
                    <value>Ti/Tala/04</value>
                </Data>
                <Data name="storage_capacity">
                    <value>260.0</value>
                </Data>
                <Data name="wb_surface_id">
                    <value>4293</value>
                </Data>
                <Data name="created_at">
                    <value>2022-08-02 06:38:08.069693</value>
                </Data>
                <Data name="updated_at">
                    <value>2023-07-24 19:56:01.610786</value>
                </Data>
                <Data name="book_id">
                    <value>4</value>
                </Data>
                <Data name="owners">
                    <value>Communidade of Talaulim</value>
                </Data>
                <Data name="label_x">
                    <value>976173.0</value>
                </Data>
                <Data name="label_y">
                    <value>1004690.68332924</value>
                </Data>
            </ExtendedData>
            <Point id="101096">
                <coordinates>73.896886663,15.475656532,0.0</coordinates>
            </Point>
        </Placemark>
        <Placemark id="101130">
            <ExtendedData>
                <Data name="direction">
                    <value>https://maps.google.com?q=15.47568,73.89643&amp;t=h</value>
                </Data>
                <Data name="id">
                    <value>5476</value>
                </Data>
                <Data name="name">
                    <value>Fondekar</value>
                </Data>
                <Data name="taluka">
                    <value>Tiswadi</value>
                </Data>
                <Data name="syno">
                    <value>7</value>
                </Data>
                <Data name="subdiv">
                    <value>2</value>
                </Data>
                <Data name="village">
                    <value>Talaulim</value>
                </Data>
                <Data name="latitude">
                    <value>15.47568</value>
                </Data>
                <Data name="longitude">
                    <value>73.89643</value>
                </Data>
                <Data name="photo_1">
                    <value>DCIM/20230506112318255.jpg</value>
                </Data>
                <Data name="photo_2">
                    <value>DCIM/20230506112323940.jpg</value>
                </Data>
                <Data name="syno_pt_list">
                    <value>7/1-2</value>
                </Data>
                <Data name="constituency">
                    <value>14 - St. Andre</value>
                </Data>
                <Data name="status">
                    <value>Completed</value>
                </Data>
                <Data name="panchayat">
                    <value>Curca,Bambolim,Talaulim</value>
                </Data>
                <Data name="wb_type">
                    <value>Pond</value>
                </Data>
                <Data name="owner_type">
                    <value>Communidade</value>
                </Data>
                <Data name="purpose">
                    <value>Irrigation</value>
                </Data>
                <Data name="construction">
                    <value>Natural</value>
                </Data>
                <Data name="condition">
                    <value>Needs Maintenance</value>
                </Data>
                <Data name="print_order">
                    <value>073</value>
                </Data>
                <Data name="wb_id">
                    <value>Ti/Tala/07</value>
                </Data>
                <Data name="storage_capacity">
                    <value>178.0</value>
                </Data>
                <Data name="wb_surface_id">
                    <value>4292</value>
                </Data>
                <Data name="created_at">
                    <value>2022-08-02 06:38:08.069693</value>
                </Data>
                <Data name="updated_at">
                    <value>2023-07-24 19:56:02.250755</value>
                </Data>
                <Data name="book_id">
                    <value>4</value>
                </Data>
                <Data name="owners">
                    <value>Communidade of Talaulim</value>
                </Data>
                <Data name="label_x">
                    <value>976173.0</value>
                </Data>
                <Data name="label_y">
                    <value>1005440.68332924</value>
                </Data>
            </ExtendedData>
            <Point id="101129">
                <coordinates>73.896427816,15.475678024,0.0</coordinates>
            </Point>
        </Placemark>
        <Placemark id="101163">
            <ExtendedData>
                <Data name="direction">
                    <value>https://maps.google.com?q=15.47314,73.88742&amp;t=h</value>
                </Data>
                <Data name="id">
                    <value>3335</value>
                </Data>
                <Data name="name">
                    <value>--</value>
                </Data>
                <Data name="taluka">
                    <value>Tiswadi</value>
                </Data>
                <Data name="syno">
                    <value>84</value>
                </Data>
                <Data name="subdiv">
                    <value>5,6,8</value>
                </Data>
                <Data name="village">
                    <value>Talaulim</value>
                </Data>
                <Data name="latitude">
                    <value>15.47314</value>
                </Data>
                <Data name="longitude">
                    <value>73.88742</value>
                </Data>
                <Data name="photo_1">
                    <value>DCIM/20230506120524020.jpg</value>
                </Data>
                <Data name="photo_2">
                    <value>DCIM/20230506120531394.jpg</value>
                </Data>
                <Data name="syno_pt_list">
                    <value>49/6; 81/1-13; 82/1-6; 84/1-9</value>
                </Data>
                <Data name="constituency">
                    <value>14 - St. Andre</value>
                </Data>
                <Data name="status">
                    <value>Completed</value>
                </Data>
                <Data name="panchayat">
                    <value>Curca,Bambolim,Talaulim</value>
                </Data>
                <Data name="wb_type">
                    <value>Pond</value>
                </Data>
                <Data name="owner_type">
                    <value>Communidade</value>
                </Data>
                <Data name="purpose">
                    <value>Irrigation</value>
                </Data>
                <Data name="construction">
                    <value>Natural</value>
                </Data>
                <Data name="condition">
                    <value>Dry</value>
                </Data>
                <Data name="print_order">
                    <value>070</value>
                </Data>
                <Data name="wb_id">
                    <value>Ti/Tala/01</value>
                </Data>
                <Data name="storage_capacity">
                    <value>1716.0</value>
                </Data>
                <Data name="wb_surface_id">
                    <value>2055</value>
                </Data>
                <Data name="created_at">
                    <value>2020-11-30 10:38:19</value>
                </Data>
                <Data name="updated_at">
                    <value>2023-07-24 19:56:02.666871</value>
                </Data>
                <Data name="book_id">
                    <value>4</value>
                </Data>
                <Data name="owners">
                    <value>Communidade de Santana</value>
                </Data>
                <Data name="label_x">
                    <value>976173.0</value>
                </Data>
                <Data name="label_y">
                    <value>1005940.68332924</value>
                </Data>
            </ExtendedData>
            <Point id="101162">
                <coordinates>73.887420912,15.473141223,0.0</coordinates>
            </Point>
        </Placemark>
        <Placemark id="101196">
            <ExtendedData>
                <Data name="direction">
                    <value>https://maps.google.com?q=15.47113,73.88662&amp;t=h</value>
                </Data>
                <Data name="id">
                    <value>3336</value>
                </Data>
                <Data name="name">
                    <value>--</value>
                </Data>
                <Data name="taluka">
                    <value>Tiswadi</value>
                </Data>
                <Data name="syno">
                    <value>110</value>
                </Data>
                <Data name="subdiv">
                    <value>9</value>
                </Data>
                <Data name="village">
                    <value>Talaulim</value>
                </Data>
                <Data name="latitude">
                    <value>15.47113</value>
                </Data>
                <Data name="longitude">
                    <value>73.88662</value>
                </Data>
                <Data name="photo_1">
                    <value>DCIM/20230506120817693.jpg</value>
                </Data>
                <Data name="photo_2">
                    <value>DCIM/20230506120845211.jpg</value>
                </Data>
                <Data name="syno_pt_list">
                    <value>81/13; 110/3-12</value>
                </Data>
                <Data name="constituency">
                    <value>14 - St. Andre</value>
                </Data>
                <Data name="status">
                    <value>Completed</value>
                </Data>
                <Data name="panchayat">
                    <value>Curca,Bambolim,Talaulim</value>
                </Data>
                <Data name="wb_type">
                    <value>Pond</value>
                </Data>
                <Data name="owner_type">
                    <value>Communidade</value>
                </Data>
                <Data name="purpose">
                    <value>Irrigation</value>
                </Data>
                <Data name="construction">
                    <value>Man Made</value>
                </Data>
                <Data name="condition">
                    <value>Good</value>
                </Data>
                <Data name="print_order">
                    <value>071</value>
                </Data>
                <Data name="wb_id">
                    <value>Ti/Tala/05</value>
                </Data>
                <Data name="storage_capacity">
                    <value>244.0</value>
                </Data>
                <Data name="wb_surface_id">
                    <value>2174</value>
                </Data>
                <Data name="created_at">
                    <value>2020-11-30 10:38:19</value>
                </Data>
                <Data name="updated_at">
                    <value>2023-07-24 19:56:02.042845</value>
                </Data>
                <Data name="book_id">
                    <value>4</value>
                </Data>
                <Data name="owners">
                    <value>Communidade de Santana</value>
                </Data>
                <Data name="label_x">
                    <value>976173.0</value>
                </Data>
                <Data name="label_y">
                    <value>1005190.68332924</value>
                </Data>
            </ExtendedData>
            <Point id="101195">
                <coordinates>73.886622909,15.471132095,0.0</coordinates>
            </Point>
        </Placemark>
        <Placemark id="101229">
            <ExtendedData>
                <Data name="direction">
                    <value>https://maps.google.com?q=15.47525,73.89684&amp;t=h</value>
                </Data>
                <Data name="id">
                    <value>6197</value>
                </Data>
                <Data name="name">
                    <value>--</value>
                </Data>
                <Data name="taluka">
                    <value>Tiswadi</value>
                </Data>
                <Data name="syno">
                    <value>7</value>
                </Data>
                <Data name="subdiv">
                    <value>8</value>
                </Data>
                <Data name="village">
                    <value>Talaulim</value>
                </Data>
                <Data name="latitude">
                    <value>15.47525</value>
                </Data>
                <Data name="longitude">
                    <value>73.89684</value>
                </Data>
                <Data name="photo_1">
                    <value>DCIM/20230506112349430.jpg</value>
                </Data>
                <Data name="photo_2">
                    <value>DCIM/20230506112354756.jpg</value>
                </Data>
                <Data name="constituency">
                    <value>14 - St. Andre</value>
                </Data>
                <Data name="status">
                    <value>Completed</value>
                </Data>
                <Data name="panchayat">
                    <value>Curca,Bambolim,Talaulim</value>
                </Data>
                <Data name="wb_type">
                    <value>Pond</value>
                </Data>
                <Data name="owner_type">
                    <value>Communidade</value>
                </Data>
                <Data name="purpose">
                    <value>Irrigation</value>
                </Data>
                <Data name="construction">
                    <value>Natural</value>
                </Data>
                <Data name="condition">
                    <value>Needs Maintenance</value>
                </Data>
                <Data name="print_order">
                    <value>076</value>
                </Data>
                <Data name="wb_id">
                    <value>Ti/Tala/11</value>
                </Data>
                <Data name="storage_capacity">
                    <value>64.0</value>
                </Data>
                <Data name="wb_surface_id">
                    <value>5644</value>
                </Data>
                <Data name="created_at">
                    <value>2023-05-06 00:00:00</value>
                </Data>
                <Data name="updated_at">
                    <value>2023-07-24 19:56:01.398745</value>
                </Data>
                <Data name="book_id">
                    <value>4</value>
                </Data>
                <Data name="owners">
                    <value>Communidade of Talaulim</value>
                </Data>
                <Data name="label_x">
                    <value>976173.0</value>
                </Data>
                <Data name="label_y">
                    <value>1004440.68332924</value>
                </Data>
            </ExtendedData>
            <Point id="101228">
                <coordinates>73.896836166,15.475253278,0.0</coordinates>
            </Point>
        </Placemark>
        <Placemark id="101261">
            <ExtendedData>
                <Data name="direction">
                    <value>https://maps.google.com?q=15.47709,73.89297&amp;t=h</value>
                </Data>
                <Data name="id">
                    <value>5828</value>
                </Data>
                <Data name="name">
                    <value>--</value>
                </Data>
                <Data name="taluka">
                    <value>Tiswadi</value>
                </Data>
                <Data name="syno">
                    <value>2</value>
                </Data>
                <Data name="subdiv">
                    <value>10</value>
                </Data>
                <Data name="village">
                    <value>Talaulim</value>
                </Data>
                <Data name="latitude">
                    <value>15.47709</value>
                </Data>
                <Data name="longitude">
                    <value>73.89297</value>
                </Data>
                <Data name="photo_1">
                    <value>DCIM/20230506114145055.jpg</value>
                </Data>
                <Data name="photo_2">
                    <value>DCIM/20230506114215381.jpg</value>
                </Data>
                <Data name="constituency">
                    <value>14 - St. Andre</value>
                </Data>
                <Data name="status">
                    <value>Completed</value>
                </Data>
                <Data name="panchayat">
                    <value>Curca,Bambolim,Talaulim</value>
                </Data>
                <Data name="wb_type">
                    <value>Pond</value>
                </Data>
                <Data name="owner_type">
                    <value>Communidade</value>
                </Data>
                <Data name="purpose">
                    <value>Storage</value>
                </Data>
                <Data name="construction">
                    <value>Natural</value>
                </Data>
                <Data name="condition">
                    <value>Dry</value>
                </Data>
                <Data name="print_order">
                    <value>074</value>
                </Data>
                <Data name="wb_id">
                    <value>Ti/Tala/08</value>
                </Data>
                <Data name="storage_capacity">
                    <value>147.0</value>
                </Data>
                <Data name="wb_surface_id">
                    <value>5287</value>
                </Data>
                <Data name="created_at">
                    <value>2022-12-19 12:08:30.388611</value>
                </Data>
                <Data name="updated_at">
                    <value>2023-07-24 19:56:03.314728</value>
                </Data>
                <Data name="book_id">
                    <value>4</value>
                </Data>
                <Data name="owners">
                    <value>Communidade of Talaulim</value>
                </Data>
                <Data name="label_x">
                    <value>976173.0</value>
                </Data>
                <Data name="label_y">
                    <value>1006690.68332924</value>
                </Data>
            </ExtendedData>
            <Point id="101260">
                <coordinates>73.892970494,15.477089344,0.0</coordinates>
            </Point>
        </Placemark>
        <Placemark id="101293">
            <ExtendedData>
                <Data name="direction">
                    <value>https://maps.google.com?q=15.47719,73.89116&amp;t=h</value>
                </Data>
                <Data name="id">
                    <value>3621</value>
                </Data>
                <Data name="name">
                    <value>--</value>
                </Data>
                <Data name="taluka">
                    <value>Tiswadi</value>
                </Data>
                <Data name="syno">
                    <value>1</value>
                </Data>
                <Data name="subdiv">
                    <value>5</value>
                </Data>
                <Data name="village">
                    <value>Talaulim</value>
                </Data>
                <Data name="latitude">
                    <value>15.47719</value>
                </Data>
                <Data name="longitude">
                    <value>73.89116</value>
                </Data>
                <Data name="photo_1">
                    <value>DCIM/20230506114729380.jpg</value>
                </Data>
                <Data name="photo_2">
                    <value>DCIM/20230506114746518.jpg</value>
                </Data>
                <Data name="syno_pt_list">
                    <value>1/3,5-6</value>
                </Data>
                <Data name="constituency">
                    <value>14 - St. Andre</value>
                </Data>
                <Data name="status">
                    <value>Completed</value>
                </Data>
                <Data name="panchayat">
                    <value>Curca,Bambolim,Talaulim</value>
                </Data>
                <Data name="wb_type">
                    <value>Pond</value>
                </Data>
                <Data name="owner_type">
                    <value>Communidade</value>
                </Data>
                <Data name="purpose">
                    <value>Storage</value>
                </Data>
                <Data name="construction">
                    <value>Natural</value>
                </Data>
                <Data name="condition">
                    <value>Dry</value>
                </Data>
                <Data name="print_order">
                    <value>075</value>
                </Data>
                <Data name="wb_id">
                    <value>Ti/Tala/09</value>
                </Data>
                <Data name="storage_capacity">
                    <value>115.0</value>
                </Data>
                <Data name="wb_surface_id">
                    <value>4605</value>
                </Data>
                <Data name="created_at">
                    <value>2020-12-05 08:40:27</value>
                </Data>
                <Data name="updated_at">
                    <value>2023-07-24 19:56:03.738774</value>
                </Data>
                <Data name="book_id">
                    <value>4</value>
                </Data>
                <Data name="owners">
                    <value>Communidade of Talaulim</value>
                </Data>
                <Data name="label_x">
                    <value>976173.0</value>
                </Data>
                <Data name="label_y">
                    <value>1007190.68332924</value>
                </Data>
            </ExtendedData>
            <Point id="101292">
                <coordinates>73.891157779,15.477187303,0.0</coordinates>
            </Point>
        </Placemark>
        <Placemark id="101326">
            <ExtendedData>
                <Data name="direction">
                    <value>https://maps.google.com?q=15.47377,73.888&amp;t=h</value>
                </Data>
                <Data name="id">
                    <value>6199</value>
                </Data>
                <Data name="name">
                    <value>--</value>
                </Data>
                <Data name="taluka">
                    <value>Tiswadi</value>
                </Data>
                <Data name="syno">
                    <value>49</value>
                </Data>
                <Data name="subdiv">
                    <value>3</value>
                </Data>
                <Data name="village">
                    <value>Talaulim</value>
                </Data>
                <Data name="latitude">
                    <value>15.47377</value>
                </Data>
                <Data name="longitude">
                    <value>73.888</value>
                </Data>
                <Data name="photo_1">
                    <value>DCIM/20230506120207421.jpg</value>
                </Data>
                <Data name="photo_2">
                    <value>DCIM/20230506120222051.jpg</value>
                </Data>
                <Data name="constituency">
                    <value>14 - St. Andre</value>
                </Data>
                <Data name="status">
                    <value>Completed</value>
                </Data>
                <Data name="panchayat">
                    <value>Curca,Bambolim,Talaulim</value>
                </Data>
                <Data name="wb_type">
                    <value>Pond</value>
                </Data>
                <Data name="owner_type">
                    <value>Communidade</value>
                </Data>
                <Data name="purpose">
                    <value>Storage</value>
                </Data>
                <Data name="construction">
                    <value>Natural</value>
                </Data>
                <Data name="condition">
                    <value>Needs Maintenance</value>
                </Data>
                <Data name="print_order">
                    <value>072</value>
                </Data>
                <Data name="wb_id">
                    <value>Ti/Tala/06</value>
                </Data>
                <Data name="storage_capacity">
                    <value>240.0</value>
                </Data>
                <Data name="wb_surface_id">
                    <value>5646</value>
                </Data>
                <Data name="created_at">
                    <value>2023-05-06 00:00:00</value>
                </Data>
                <Data name="updated_at">
                    <value>2023-07-24 19:56:02.878853</value>
                </Data>
                <Data name="book_id">
                    <value>4</value>
                </Data>
                <Data name="owners">
                    <value>Communidade of Talaulim  st.</value>
                </Data>
                <Data name="label_x">
                    <value>976173.0</value>
                </Data>
                <Data name="label_y">
                    <value>1006190.68332924</value>
                </Data>
            </ExtendedData>
            <Point id="101325">
                <coordinates>73.888004182,15.473768887,0.0</coordinates>
            </Point>
        </Placemark>
        <Placemark id="101358">
            <ExtendedData>
                <Data name="direction">
                    <value>https://maps.google.com?q=15.4709,73.88692&amp;t=h</value>
                </Data>
                <Data name="id">
                    <value>6200</value>
                </Data>
                <Data name="name">
                    <value>--</value>
                </Data>
                <Data name="taluka">
                    <value>Tiswadi</value>
                </Data>
                <Data name="syno">
                    <value>110</value>
                </Data>
                <Data name="subdiv">
                    <value>11</value>
                </Data>
                <Data name="village">
                    <value>Talaulim</value>
                </Data>
                <Data name="latitude">
                    <value>15.4709</value>
                </Data>
                <Data name="longitude">
                    <value>73.88692</value>
                </Data>
                <Data name="photo_1">
                    <value>DCIM/20230506121138603.jpg</value>
                </Data>
                <Data name="photo_2">
                    <value>DCIM/20230506121147060.jpg</value>
                </Data>
                <Data name="constituency">
                    <value>14 - St. Andre</value>
                </Data>
                <Data name="status">
                    <value>Completed</value>
                </Data>
                <Data name="panchayat">
                    <value>Curca,Bambolim,Talaulim</value>
                </Data>
                <Data name="wb_type">
                    <value>Pond</value>
                </Data>
                <Data name="owner_type">
                    <value>Communidade</value>
                </Data>
                <Data name="purpose">
                    <value>Irrigation</value>
                </Data>
                <Data name="construction">
                    <value>Natural/Man Made</value>
                </Data>
                <Data name="condition">
                    <value>Needs Maintenance</value>
                </Data>
                <Data name="print_order">
                    <value>078</value>
                </Data>
                <Data name="wb_id">
                    <value>Ti/Tala/13</value>
                </Data>
                <Data name="storage_capacity">
                    <value>26.0</value>
                </Data>
                <Data name="wb_surface_id">
                    <value>5647</value>
                </Data>
                <Data name="created_at">
                    <value>2023-05-06 00:00:00</value>
                </Data>
                <Data name="updated_at">
                    <value>2023-07-24 19:56:01.834684</value>
                </Data>
                <Data name="book_id">
                    <value>4</value>
                </Data>
                <Data name="owners">
                    <value>Communidade de Santana</value>
                </Data>
                <Data name="label_x">
                    <value>976173.0</value>
                </Data>
                <Data name="label_y">
                    <value>1004940.68332924</value>
                </Data>
            </ExtendedData>
            <Point id="101357">
                <coordinates>73.88692144,15.470901569,0.0</coordinates>
            </Point>
        </Placemark>
    </Document>
</kml>
