<?xml version="1.0" encoding="UTF-8"?>
<kml xmlns="http://www.opengis.net/kml/2.2" xmlns:gx="http://www.google.com/kml/ext/2.2">
    <Document id="22785">
        <Placemark id="22787">
            <ExtendedData>
                <Data name="direction">
                    <value>https://maps.google.com?q=15.38704,73.9352&amp;t=h</value>
                </Data>
                <Data name="id">
                    <value>2246</value>
                </Data>
                <Data name="name">
                    <value>Khandi Tollem; Hatari Sheta,Hatari sheta,Sheta</value>
                </Data>
                <Data name="taluka">
                    <value>Mormugao</value>
                </Data>
                <Data name="syno">
                    <value>216</value>
                </Data>
                <Data name="subdiv">
                    <value>1-44</value>
                </Data>
                <Data name="village">
                    <value>Quelossim</value>
                </Data>
                <Data name="latitude">
                    <value>15.38704</value>
                </Data>
                <Data name="longitude">
                    <value>73.9352</value>
                </Data>
                <Data name="photo_1">
                    <value>DCIM/20200729040415250.jpg</value>
                </Data>
                <Data name="photo_2">
                    <value>DCIM/20200729040558023.jpg</value>
                </Data>
                <Data name="constituency">
                    <value>27 - Cortalim</value>
                </Data>
                <Data name="status">
                    <value>Completed</value>
                </Data>
                <Data name="panchayat">
                    <value>Quelossim</value>
                </Data>
                <Data name="wb_type">
                    <value>Lake</value>
                </Data>
                <Data name="owner_type">
                    <value>Communidade</value>
                </Data>
                <Data name="purpose">
                    <value>Natural Collection</value>
                </Data>
                <Data name="construction">
                    <value>Natural</value>
                </Data>
                <Data name="condition">
                    <value>Needs Maintenance</value>
                </Data>
                <Data name="print_order">
                    <value>012</value>
                </Data>
                <Data name="wb_id">
                    <value>Mo/Quel/01</value>
                </Data>
                <Data name="storage_capacity">
                    <value>56661.0</value>
                </Data>
                <Data name="wb_surface_id">
                    <value>1785</value>
                </Data>
                <Data name="created_at">
                    <value>2020-02-28 15:24:34</value>
                </Data>
                <Data name="updated_at">
                    <value>2023-07-22 14:03:14.307690</value>
                </Data>
                <Data name="book_id">
                    <value>1</value>
                </Data>
                <Data name="owners">
                    <value>1) Caitan Lucas
2) Sebastiao Lucas
Anant R. Bandeker
Antonio Lucas
Communidade of Quelossim
Discrs Tionary Trust
Joao Philips Custodio Lucas
Joao Rodrigues
Jose Colaco
Maria Caetana Lucas
Martin Rodrigues
Natalina Lucas
Rosa Dourado</value>
                </Data>
                <Data name="label_x">
                    <value>993907.0</value>
                </Data>
                <Data name="label_y">
                    <value>999226.466940524</value>
                </Data>
            </ExtendedData>
            <Point id="22786">
                <coordinates>73.935196303,15.387040396,0.0</coordinates>
            </Point>
        </Placemark>
        <Placemark id="22819">
            <ExtendedData>
                <Data name="direction">
                    <value>https://maps.google.com?q=15.37894,73.93218&amp;t=h</value>
                </Data>
                <Data name="id">
                    <value>3111</value>
                </Data>
                <Data name="name">
                    <value>Kambia Kuchem</value>
                </Data>
                <Data name="taluka">
                    <value>Mormugao</value>
                </Data>
                <Data name="syno">
                    <value>101</value>
                </Data>
                <Data name="subdiv">
                    <value>2</value>
                </Data>
                <Data name="village">
                    <value>Quelossim</value>
                </Data>
                <Data name="latitude">
                    <value>15.37894</value>
                </Data>
                <Data name="longitude">
                    <value>73.93218</value>
                </Data>
                <Data name="photo_1">
                    <value>DCIM/20200803043537825.jpg</value>
                </Data>
                <Data name="photo_2">
                    <value>DCIM/20200803043856059.jpg</value>
                </Data>
                <Data name="constituency">
                    <value>27 - Cortalim</value>
                </Data>
                <Data name="status">
                    <value>Completed</value>
                </Data>
                <Data name="panchayat">
                    <value>Quelossim</value>
                </Data>
                <Data name="wb_type">
                    <value>Tank</value>
                </Data>
                <Data name="owner_type">
                    <value>Communidade</value>
                </Data>
                <Data name="purpose">
                    <value>Storage</value>
                </Data>
                <Data name="construction">
                    <value>Man Made</value>
                </Data>
                <Data name="condition">
                    <value>Good</value>
                </Data>
                <Data name="print_order">
                    <value>078</value>
                </Data>
                <Data name="wb_id">
                    <value>Mo/Quel/02</value>
                </Data>
                <Data name="storage_capacity">
                    <value>3779.0</value>
                </Data>
                <Data name="wb_surface_id">
                    <value>1859</value>
                </Data>
                <Data name="created_at">
                    <value>2020-07-31 15:34:18</value>
                </Data>
                <Data name="updated_at">
                    <value>2023-07-22 14:03:14.307690</value>
                </Data>
                <Data name="book_id">
                    <value>1</value>
                </Data>
                <Data name="owners">
                    <value>Communidade of Quelossim</value>
                </Data>
                <Data name="label_x">
                    <value>993907.0</value>
                </Data>
                <Data name="label_y">
                    <value>999076.466940524</value>
                </Data>
            </ExtendedData>
            <Point id="22818">
                <coordinates>73.932182952,15.378940193,0.0</coordinates>
            </Point>
        </Placemark>
        <Placemark id="22851">
            <ExtendedData>
                <Data name="direction">
                    <value>https://maps.google.com?q=15.38773,73.93867&amp;t=h</value>
                </Data>
                <Data name="id">
                    <value>4702</value>
                </Data>
                <Data name="name">
                    <value>Shantadurga Temple Tank</value>
                </Data>
                <Data name="taluka">
                    <value>Mormugao</value>
                </Data>
                <Data name="syno">
                    <value>215</value>
                </Data>
                <Data name="subdiv">
                    <value>1</value>
                </Data>
                <Data name="village">
                    <value>Quelossim</value>
                </Data>
                <Data name="latitude">
                    <value>15.38773</value>
                </Data>
                <Data name="longitude">
                    <value>73.93867</value>
                </Data>
                <Data name="photo_1">
                    <value>DCIM/20220623095939404.jpg</value>
                </Data>
                <Data name="photo_2">
                    <value>DCIM/20220623100028778.jpg</value>
                </Data>
                <Data name="constituency">
                    <value>27 - Cortalim</value>
                </Data>
                <Data name="status">
                    <value>Completed</value>
                </Data>
                <Data name="panchayat">
                    <value>Quelossim</value>
                </Data>
                <Data name="wb_type">
                    <value>Temple Tank</value>
                </Data>
                <Data name="owner_type">
                    <value>Private</value>
                </Data>
                <Data name="purpose">
                    <value>Storage</value>
                </Data>
                <Data name="construction">
                    <value>Natural</value>
                </Data>
                <Data name="condition">
                    <value>Needs Maintenance</value>
                </Data>
                <Data name="print_order">
                    <value>060</value>
                </Data>
                <Data name="wb_id">
                    <value>Mo/Quel/03</value>
                </Data>
                <Data name="storage_capacity">
                    <value>340.0</value>
                </Data>
                <Data name="wb_surface_id">
                    <value>3964</value>
                </Data>
                <Data name="created_at">
                    <value>2022-04-10 04:42:02</value>
                </Data>
                <Data name="updated_at">
                    <value>2023-07-22 14:03:14.307690</value>
                </Data>
                <Data name="book_id">
                    <value>1</value>
                </Data>
                <Data name="owners">
                    <value>1) Dinu Kamat
2) Filipe Lucas
3) Joao Filipe Custtodio Lucas
5) Shanta Durga Temple
6) Lavrente Dovrad and others
8) Rita Pereira
9) Esperancio Barbosa
10) Ancetio Rodrigues
12) Anant R. Bandekar Discretionary Trusr
4) Floriana Dovrado
Philip Lucas
Pedro Lucas
Caitan Dovrado
Joaquim Lucas
Regina Lucas
Caetano da Silva
Joaquim Euciliano da Silva
Gaspar Mariano da Silva
Joao Silva
Rosario Silva
Jose D`Silva
Liberata Lucas
Vincent Lucas
Belma Costa e Tavares
Treza Noronha e Pereira
Josefa Colaco e Vaz
Peter John Rodrigues
Pundlik Vithal Tamse
Paul Lucas
Inacio Lucas
Agostinho Almeida</value>
                </Data>
                <Data name="label_x">
                    <value>993907.0</value>
                </Data>
                <Data name="label_y">
                    <value>999376.466940524</value>
                </Data>
            </ExtendedData>
            <Point id="22850">
                <coordinates>73.938669274,15.387727912,0.0</coordinates>
            </Point>
        </Placemark>
    </Document>
</kml>
