<?xml version="1.0" encoding="UTF-8"?>
<kml xmlns="http://www.opengis.net/kml/2.2" xmlns:gx="http://www.google.com/kml/ext/2.2">
    <Document id="2801">
        <Placemark id="2803">
            <ExtendedData>
                <Data name="direction">
                    <value>https://maps.google.com?q=15.64375,73.78447&amp;t=h</value>
                </Data>
                <Data name="id">
                    <value>2920</value>
                </Data>
                <Data name="name">
                    <value>Kerachi Namas</value>
                </Data>
                <Data name="taluka">
                    <value>Bardez</value>
                </Data>
                <Data name="syno">
                    <value>191</value>
                </Data>
                <Data name="subdiv">
                    <value>14</value>
                </Data>
                <Data name="village">
                    <value>Camurlim</value>
                </Data>
                <Data name="latitude">
                    <value>15.64375</value>
                </Data>
                <Data name="longitude">
                    <value>73.78447</value>
                </Data>
                <Data name="photo_1">
                    <value>DCIM/20230131110458678.jpg</value>
                </Data>
                <Data name="photo_2">
                    <value>DCIM/20230131110521108.jpg</value>
                </Data>
                <Data name="syno_pt_list">
                    <value>191/10-11,13-14,16-18,22,26</value>
                </Data>
                <Data name="constituency">
                    <value>04 - Tivim</value>
                </Data>
                <Data name="status">
                    <value>Completed</value>
                </Data>
                <Data name="panchayat">
                    <value>Camurlim</value>
                </Data>
                <Data name="wb_type">
                    <value>Tank</value>
                </Data>
                <Data name="owner_type">
                    <value>Communidade</value>
                </Data>
                <Data name="purpose">
                    <value>Irrigation</value>
                </Data>
                <Data name="construction">
                    <value>Man Made</value>
                </Data>
                <Data name="condition">
                    <value>Good</value>
                </Data>
                <Data name="print_order">
                    <value>138</value>
                </Data>
                <Data name="wb_id">
                    <value>Ba/Camu/01</value>
                </Data>
                <Data name="storage_capacity">
                    <value>2581.0</value>
                </Data>
                <Data name="wb_surface_id">
                    <value>4669</value>
                </Data>
                <Data name="created_at">
                    <value>2020-05-03 04:39:42</value>
                </Data>
                <Data name="updated_at">
                    <value>2023-07-22 14:03:14.307690</value>
                </Data>
                <Data name="book_id">
                    <value>1</value>
                </Data>
                <Data name="owners">
                    <value>Communidade</value>
                </Data>
                <Data name="label_x">
                    <value>970137.0</value>
                </Data>
                <Data name="label_y">
                    <value>1033046.25664916</value>
                </Data>
            </ExtendedData>
            <Point id="2802">
                <coordinates>73.784467576,15.643747062,0.0</coordinates>
            </Point>
        </Placemark>
        <Placemark id="2836">
            <ExtendedData>
                <Data name="direction">
                    <value>https://maps.google.com?q=15.64524,73.78439&amp;t=h</value>
                </Data>
                <Data name="id">
                    <value>2922</value>
                </Data>
                <Data name="name">
                    <value>Kerche Tale</value>
                </Data>
                <Data name="taluka">
                    <value>Bardez</value>
                </Data>
                <Data name="syno">
                    <value>196</value>
                </Data>
                <Data name="subdiv">
                    <value>3</value>
                </Data>
                <Data name="village">
                    <value>Camurlim</value>
                </Data>
                <Data name="latitude">
                    <value>15.64524</value>
                </Data>
                <Data name="longitude">
                    <value>73.78439</value>
                </Data>
                <Data name="photo_1">
                    <value>DCIM/20221012115133254.jpg</value>
                </Data>
                <Data name="photo_2">
                    <value>DCIM/20221012115204462.jpg</value>
                </Data>
                <Data name="syno_pt_list">
                    <value>196/1-6</value>
                </Data>
                <Data name="constituency">
                    <value>04 - Tivim</value>
                </Data>
                <Data name="status">
                    <value>Completed</value>
                </Data>
                <Data name="panchayat">
                    <value>Camurlim</value>
                </Data>
                <Data name="wb_type">
                    <value>Tank</value>
                </Data>
                <Data name="owner_type">
                    <value>Communidade</value>
                </Data>
                <Data name="purpose">
                    <value>Irrigation</value>
                </Data>
                <Data name="construction">
                    <value>Natural/Man Made</value>
                </Data>
                <Data name="condition">
                    <value>Good</value>
                </Data>
                <Data name="print_order">
                    <value>141</value>
                </Data>
                <Data name="wb_id">
                    <value>Ba/Camu/05</value>
                </Data>
                <Data name="storage_capacity">
                    <value>1221.0</value>
                </Data>
                <Data name="wb_surface_id">
                    <value>4671</value>
                </Data>
                <Data name="created_at">
                    <value>2020-05-03 04:39:42</value>
                </Data>
                <Data name="updated_at">
                    <value>2023-07-22 14:03:14.307690</value>
                </Data>
                <Data name="book_id">
                    <value>1</value>
                </Data>
                <Data name="owners">
                    <value>Communidade</value>
                </Data>
                <Data name="label_x">
                    <value>970137.0</value>
                </Data>
                <Data name="label_y">
                    <value>1033546.25664916</value>
                </Data>
            </ExtendedData>
            <Point id="2835">
                <coordinates>73.78438792,15.645241274,0.0</coordinates>
            </Point>
        </Placemark>
        <Placemark id="2869">
            <ExtendedData>
                <Data name="direction">
                    <value>https://maps.google.com?q=15.63359,73.80787&amp;t=h</value>
                </Data>
                <Data name="id">
                    <value>5395</value>
                </Data>
                <Data name="name">
                    <value>Maina Or Dharachi Muddi</value>
                </Data>
                <Data name="taluka">
                    <value>Bardez</value>
                </Data>
                <Data name="syno">
                    <value>130</value>
                </Data>
                <Data name="subdiv">
                    <value>0</value>
                </Data>
                <Data name="village">
                    <value>Camurlim</value>
                </Data>
                <Data name="latitude">
                    <value>15.63359</value>
                </Data>
                <Data name="longitude">
                    <value>73.80787</value>
                </Data>
                <Data name="photo_1">
                    <value>DCIM/20221012105558516.jpg</value>
                </Data>
                <Data name="photo_2">
                    <value>DCIM/20221012105613126.jpg</value>
                </Data>
                <Data name="syno_pt_list">
                    <value>130/0</value>
                </Data>
                <Data name="constituency">
                    <value>04 - Tivim</value>
                </Data>
                <Data name="status">
                    <value>Completed</value>
                </Data>
                <Data name="panchayat">
                    <value>Camurlim</value>
                </Data>
                <Data name="wb_type">
                    <value>Pond</value>
                </Data>
                <Data name="owner_type">
                    <value>Communidade</value>
                </Data>
                <Data name="purpose">
                    <value>Storage</value>
                </Data>
                <Data name="construction">
                    <value>Natural</value>
                </Data>
                <Data name="condition">
                    <value>Needs Maintenance</value>
                </Data>
                <Data name="print_order">
                    <value>068</value>
                </Data>
                <Data name="wb_id">
                    <value>Ba/Camu/08</value>
                </Data>
                <Data name="storage_capacity">
                    <value>460.0</value>
                </Data>
                <Data name="wb_surface_id">
                    <value>4210</value>
                </Data>
                <Data name="created_at">
                    <value>2022-08-02 05:00:10.797293</value>
                </Data>
                <Data name="updated_at">
                    <value>2023-07-22 14:03:14.307690</value>
                </Data>
                <Data name="book_id">
                    <value>1</value>
                </Data>
                <Data name="owners">
                    <value>Communidade</value>
                </Data>
                <Data name="label_x">
                    <value>990746.0</value>
                </Data>
                <Data name="label_y">
                    <value>1026966.08831014</value>
                </Data>
            </ExtendedData>
            <Point id="2868">
                <coordinates>73.807869185,15.633591105,0.0</coordinates>
            </Point>
        </Placemark>
        <Placemark id="2902">
            <ExtendedData>
                <Data name="direction">
                    <value>https://maps.google.com?q=15.63856,73.78379&amp;t=h</value>
                </Data>
                <Data name="id">
                    <value>5625</value>
                </Data>
                <Data name="name">
                    <value>Bhaichivar</value>
                </Data>
                <Data name="taluka">
                    <value>Bardez</value>
                </Data>
                <Data name="syno">
                    <value>178</value>
                </Data>
                <Data name="subdiv">
                    <value>34</value>
                </Data>
                <Data name="village">
                    <value>Camurlim</value>
                </Data>
                <Data name="latitude">
                    <value>15.63856</value>
                </Data>
                <Data name="longitude">
                    <value>73.78379</value>
                </Data>
                <Data name="photo_1">
                    <value>DCIM/20230131102913687.jpg</value>
                </Data>
                <Data name="photo_2">
                    <value>DCIM/20230131102941794.jpg</value>
                </Data>
                <Data name="syno_pt_list">
                    <value>178/34; 179/0</value>
                </Data>
                <Data name="constituency">
                    <value>04 - Tivim</value>
                </Data>
                <Data name="status">
                    <value>Completed</value>
                </Data>
                <Data name="panchayat">
                    <value>Camurlim</value>
                </Data>
                <Data name="wb_type">
                    <value>Pond</value>
                </Data>
                <Data name="owner_type">
                    <value>Communidade</value>
                </Data>
                <Data name="purpose">
                    <value>Irrigation</value>
                </Data>
                <Data name="construction">
                    <value>Natural</value>
                </Data>
                <Data name="condition">
                    <value>Needs Maintenance</value>
                </Data>
                <Data name="print_order">
                    <value>069</value>
                </Data>
                <Data name="wb_id">
                    <value>Ba/Camu/11</value>
                </Data>
                <Data name="storage_capacity">
                    <value>43.0</value>
                </Data>
                <Data name="wb_surface_id">
                    <value>4666</value>
                </Data>
                <Data name="created_at">
                    <value>2022-08-29 04:01:26.322354</value>
                </Data>
                <Data name="updated_at">
                    <value>2023-07-22 14:03:14.307690</value>
                </Data>
                <Data name="book_id">
                    <value>1</value>
                </Data>
                <Data name="owners">
                    <value>Communidade</value>
                </Data>
                <Data name="label_x">
                    <value>970137.0</value>
                </Data>
                <Data name="label_y">
                    <value>1031796.25664916</value>
                </Data>
            </ExtendedData>
            <Point id="2901">
                <coordinates>73.783794175,15.638561434,0.0</coordinates>
            </Point>
        </Placemark>
        <Placemark id="2935">
            <ExtendedData>
                <Data name="direction">
                    <value>https://maps.google.com?q=15.64411,73.78443&amp;t=h</value>
                </Data>
                <Data name="id">
                    <value>2921</value>
                </Data>
                <Data name="name">
                    <value>Sarada Ker Or Kerachi Namas</value>
                </Data>
                <Data name="taluka">
                    <value>Bardez</value>
                </Data>
                <Data name="syno">
                    <value>191</value>
                </Data>
                <Data name="subdiv">
                    <value>2</value>
                </Data>
                <Data name="village">
                    <value>Camurlim</value>
                </Data>
                <Data name="latitude">
                    <value>15.64411</value>
                </Data>
                <Data name="longitude">
                    <value>73.78443</value>
                </Data>
                <Data name="photo_1">
                    <value>DCIM/20221012120147242.jpg</value>
                </Data>
                <Data name="photo_2">
                    <value>DCIM/20221012120212418.jpg</value>
                </Data>
                <Data name="syno_pt_list">
                    <value>191/2; 193/13; 196/13-17</value>
                </Data>
                <Data name="constituency">
                    <value>04 - Tivim</value>
                </Data>
                <Data name="status">
                    <value>Completed</value>
                </Data>
                <Data name="panchayat">
                    <value>Camurlim</value>
                </Data>
                <Data name="wb_type">
                    <value>Tank</value>
                </Data>
                <Data name="owner_type">
                    <value>Communidade</value>
                </Data>
                <Data name="purpose">
                    <value>Irrigation</value>
                </Data>
                <Data name="construction">
                    <value>Man Made</value>
                </Data>
                <Data name="condition">
                    <value>Good</value>
                </Data>
                <Data name="print_order">
                    <value>139</value>
                </Data>
                <Data name="wb_id">
                    <value>Ba/Camu/02</value>
                </Data>
                <Data name="storage_capacity">
                    <value>2275.0</value>
                </Data>
                <Data name="wb_surface_id">
                    <value>4670</value>
                </Data>
                <Data name="created_at">
                    <value>2020-05-03 04:39:42</value>
                </Data>
                <Data name="updated_at">
                    <value>2023-07-22 14:03:14.307690</value>
                </Data>
                <Data name="book_id">
                    <value>1</value>
                </Data>
                <Data name="owners">
                    <value>Communidade</value>
                </Data>
                <Data name="label_x">
                    <value>970137.0</value>
                </Data>
                <Data name="label_y">
                    <value>1033296.25664916</value>
                </Data>
            </ExtendedData>
            <Point id="2934">
                <coordinates>73.784432361,15.644111974,0.0</coordinates>
            </Point>
        </Placemark>
        <Placemark id="2968">
            <ExtendedData>
                <Data name="direction">
                    <value>https://maps.google.com?q=15.64323,73.7831&amp;t=h</value>
                </Data>
                <Data name="id">
                    <value>2919</value>
                </Data>
                <Data name="name">
                    <value>Kerchi Madhali Lot Or Khalchi Tali</value>
                </Data>
                <Data name="taluka">
                    <value>Bardez</value>
                </Data>
                <Data name="syno">
                    <value>190</value>
                </Data>
                <Data name="subdiv">
                    <value>9</value>
                </Data>
                <Data name="village">
                    <value>Camurlim</value>
                </Data>
                <Data name="latitude">
                    <value>15.64323</value>
                </Data>
                <Data name="longitude">
                    <value>73.7831</value>
                </Data>
                <Data name="photo_1">
                    <value>DCIM/20230131110541662.jpg</value>
                </Data>
                <Data name="photo_2">
                    <value>DCIM/20230131110547653.jpg</value>
                </Data>
                <Data name="syno_pt_list">
                    <value>190/9; 197/5,23-24; 198/2-9,12-13,17</value>
                </Data>
                <Data name="constituency">
                    <value>04 - Tivim</value>
                </Data>
                <Data name="status">
                    <value>Completed</value>
                </Data>
                <Data name="panchayat">
                    <value>Camurlim</value>
                </Data>
                <Data name="wb_type">
                    <value>Pond</value>
                </Data>
                <Data name="owner_type">
                    <value>Communidade</value>
                </Data>
                <Data name="purpose">
                    <value>Irrigation</value>
                </Data>
                <Data name="construction">
                    <value>Natural</value>
                </Data>
                <Data name="condition">
                    <value>Needs Maintenance</value>
                </Data>
                <Data name="print_order">
                    <value>067</value>
                </Data>
                <Data name="wb_id">
                    <value>Ba/Camu/03</value>
                </Data>
                <Data name="storage_capacity">
                    <value>1730.0</value>
                </Data>
                <Data name="wb_surface_id">
                    <value>4668</value>
                </Data>
                <Data name="created_at">
                    <value>2020-05-03 04:39:42</value>
                </Data>
                <Data name="updated_at">
                    <value>2023-07-22 14:03:14.307690</value>
                </Data>
                <Data name="book_id">
                    <value>1</value>
                </Data>
                <Data name="owners">
                    <value>Communidade</value>
                </Data>
                <Data name="label_x">
                    <value>970137.0</value>
                </Data>
                <Data name="label_y">
                    <value>1032796.25664916</value>
                </Data>
            </ExtendedData>
            <Point id="2967">
                <coordinates>73.783095387,15.643228998,0.0</coordinates>
            </Point>
        </Placemark>
        <Placemark id="3001">
            <ExtendedData>
                <Data name="direction">
                    <value>https://maps.google.com?q=15.6391,73.78416&amp;t=h</value>
                </Data>
                <Data name="id">
                    <value>2923</value>
                </Data>
                <Data name="name">
                    <value>Khairat</value>
                </Data>
                <Data name="taluka">
                    <value>Bardez</value>
                </Data>
                <Data name="syno">
                    <value>181</value>
                </Data>
                <Data name="subdiv">
                    <value>8</value>
                </Data>
                <Data name="village">
                    <value>Camurlim</value>
                </Data>
                <Data name="latitude">
                    <value>15.6391</value>
                </Data>
                <Data name="longitude">
                    <value>73.78416</value>
                </Data>
                <Data name="photo_1">
                    <value>DCIM/20230131102709808.jpg</value>
                </Data>
                <Data name="photo_2">
                    <value>DCIM/20230131104002262.jpg</value>
                </Data>
                <Data name="syno_pt_list">
                    <value>178/27,29-31; 181/8</value>
                </Data>
                <Data name="constituency">
                    <value>04 - Tivim</value>
                </Data>
                <Data name="status">
                    <value>Completed</value>
                </Data>
                <Data name="panchayat">
                    <value>Camurlim</value>
                </Data>
                <Data name="wb_type">
                    <value>Tank</value>
                </Data>
                <Data name="owner_type">
                    <value>Communidade</value>
                </Data>
                <Data name="purpose">
                    <value>Irrigation</value>
                </Data>
                <Data name="construction">
                    <value>Natural/Man Made</value>
                </Data>
                <Data name="condition">
                    <value>Needs Maintenance</value>
                </Data>
                <Data name="print_order">
                    <value>140</value>
                </Data>
                <Data name="wb_id">
                    <value>Ba/Camu/04</value>
                </Data>
                <Data name="storage_capacity">
                    <value>1678.0</value>
                </Data>
                <Data name="wb_surface_id">
                    <value>4665</value>
                </Data>
                <Data name="created_at">
                    <value>2020-05-03 04:39:42</value>
                </Data>
                <Data name="updated_at">
                    <value>2023-07-22 14:03:14.307690</value>
                </Data>
                <Data name="book_id">
                    <value>1</value>
                </Data>
                <Data name="owners">
                    <value>Communidade</value>
                </Data>
                <Data name="label_x">
                    <value>970137.0</value>
                </Data>
                <Data name="label_y">
                    <value>1032046.25664916</value>
                </Data>
            </ExtendedData>
            <Point id="3000">
                <coordinates>73.784157867,15.639095259,0.0</coordinates>
            </Point>
        </Placemark>
        <Placemark id="3034">
            <ExtendedData>
                <Data name="direction">
                    <value>https://maps.google.com?q=15.64159,73.78401&amp;t=h</value>
                </Data>
                <Data name="id">
                    <value>5844</value>
                </Data>
                <Data name="name">
                    <value>Muddo</value>
                </Data>
                <Data name="taluka">
                    <value>Bardez</value>
                </Data>
                <Data name="syno">
                    <value>188</value>
                </Data>
                <Data name="subdiv">
                    <value>7</value>
                </Data>
                <Data name="village">
                    <value>Camurlim</value>
                </Data>
                <Data name="latitude">
                    <value>15.64159</value>
                </Data>
                <Data name="longitude">
                    <value>73.78401</value>
                </Data>
                <Data name="photo_1">
                    <value>DCIM/20230131105005562.jpg</value>
                </Data>
                <Data name="photo_2">
                    <value>DCIM/20230131105026772.jpg</value>
                </Data>
                <Data name="constituency">
                    <value>04 - Tivim</value>
                </Data>
                <Data name="status">
                    <value>Completed</value>
                </Data>
                <Data name="panchayat">
                    <value>Camurlim</value>
                </Data>
                <Data name="wb_type">
                    <value>Tank</value>
                </Data>
                <Data name="owner_type">
                    <value>Private</value>
                </Data>
                <Data name="purpose">
                    <value>Irrigation</value>
                </Data>
                <Data name="construction">
                    <value>Man Made</value>
                </Data>
                <Data name="condition">
                    <value>Good</value>
                </Data>
                <Data name="print_order">
                    <value>144</value>
                </Data>
                <Data name="wb_id">
                    <value>Ba/Camu/09</value>
                </Data>
                <Data name="storage_capacity">
                    <value>204.0</value>
                </Data>
                <Data name="wb_surface_id">
                    <value>5324</value>
                </Data>
                <Data name="created_at">
                    <value>2023-01-31 00:00:00</value>
                </Data>
                <Data name="updated_at">
                    <value>2023-07-22 14:03:14.307690</value>
                </Data>
                <Data name="book_id">
                    <value>1</value>
                </Data>
                <Data name="owners">
                    <value>Anil Shantaram Kamat</value>
                </Data>
                <Data name="label_x">
                    <value>970137.0</value>
                </Data>
                <Data name="label_y">
                    <value>1032546.25664916</value>
                </Data>
            </ExtendedData>
            <Point id="3033">
                <coordinates>73.784008989,15.641594513,0.0</coordinates>
            </Point>
        </Placemark>
        <Placemark id="3066">
            <ExtendedData>
                <Data name="direction">
                    <value>https://maps.google.com?q=15.6456,73.80841&amp;t=h</value>
                </Data>
                <Data name="id">
                    <value>5393</value>
                </Data>
                <Data name="name">
                    <value>Vahdli Bhawan</value>
                </Data>
                <Data name="taluka">
                    <value>Bardez</value>
                </Data>
                <Data name="syno">
                    <value>77</value>
                </Data>
                <Data name="subdiv">
                    <value>6</value>
                </Data>
                <Data name="village">
                    <value>Camurlim</value>
                </Data>
                <Data name="latitude">
                    <value>15.6456</value>
                </Data>
                <Data name="longitude">
                    <value>73.80841</value>
                </Data>
                <Data name="photo_1">
                    <value>DCIM/20230420084024125.jpg</value>
                </Data>
                <Data name="photo_2">
                    <value>DCIM/20230420084030389.jpg</value>
                </Data>
                <Data name="syno_pt_list">
                    <value>76/5-6; 77/4-6</value>
                </Data>
                <Data name="constituency">
                    <value>04 - Tivim</value>
                </Data>
                <Data name="status">
                    <value>Completed</value>
                </Data>
                <Data name="panchayat">
                    <value>Camurlim</value>
                </Data>
                <Data name="wb_type">
                    <value>Tank</value>
                </Data>
                <Data name="owner_type">
                    <value>Communidade</value>
                </Data>
                <Data name="purpose">
                    <value>Irrigation</value>
                </Data>
                <Data name="construction">
                    <value>Natural/Man Made</value>
                </Data>
                <Data name="condition">
                    <value>Good</value>
                </Data>
                <Data name="print_order">
                    <value>143</value>
                </Data>
                <Data name="wb_id">
                    <value>Ba/Camu/07</value>
                </Data>
                <Data name="storage_capacity">
                    <value>584.0</value>
                </Data>
                <Data name="wb_surface_id">
                    <value>4208</value>
                </Data>
                <Data name="created_at">
                    <value>2022-08-02 04:58:08.937122</value>
                </Data>
                <Data name="updated_at">
                    <value>2023-07-22 14:03:14.307690</value>
                </Data>
                <Data name="book_id">
                    <value>1</value>
                </Data>
                <Data name="owners">
                    <value>Communidade</value>
                </Data>
                <Data name="label_x">
                    <value>990746.0</value>
                </Data>
                <Data name="label_y">
                    <value>1028716.08831014</value>
                </Data>
            </ExtendedData>
            <Point id="3065">
                <coordinates>73.808410699,15.645603405,0.0</coordinates>
            </Point>
        </Placemark>
        <Placemark id="3099">
            <ExtendedData>
                <Data name="direction">
                    <value>https://maps.google.com?q=15.65107,73.78857&amp;t=h</value>
                </Data>
                <Data name="id">
                    <value>5758</value>
                </Data>
                <Data name="name">
                    <value>Gharbhat</value>
                </Data>
                <Data name="taluka">
                    <value>Bardez</value>
                </Data>
                <Data name="syno">
                    <value>6</value>
                </Data>
                <Data name="subdiv">
                    <value>49</value>
                </Data>
                <Data name="village">
                    <value>Camurlim</value>
                </Data>
                <Data name="latitude">
                    <value>15.65107</value>
                </Data>
                <Data name="longitude">
                    <value>73.78857</value>
                </Data>
                <Data name="photo_1">
                    <value>DCIM/20221012114115863.jpg</value>
                </Data>
                <Data name="photo_2">
                    <value>DCIM/20221012114133911.jpg</value>
                </Data>
                <Data name="syno_pt_list">
                    <value>5/1; 153/8</value>
                </Data>
                <Data name="constituency">
                    <value>04 - Tivim</value>
                </Data>
                <Data name="status">
                    <value>Completed</value>
                </Data>
                <Data name="panchayat">
                    <value>Camurlim</value>
                </Data>
                <Data name="wb_type">
                    <value>Tank</value>
                </Data>
                <Data name="owner_type">
                    <value>Private</value>
                </Data>
                <Data name="purpose">
                    <value>Storage</value>
                </Data>
                <Data name="construction">
                    <value>Natural/Man Made</value>
                </Data>
                <Data name="condition">
                    <value>Good</value>
                </Data>
                <Data name="print_order">
                    <value>145</value>
                </Data>
                <Data name="wb_id">
                    <value>Ba/Camu/10</value>
                </Data>
                <Data name="storage_capacity">
                    <value>138.0</value>
                </Data>
                <Data name="wb_surface_id">
                    <value>5265</value>
                </Data>
                <Data name="created_at">
                    <value>2022-10-12 00:00:00</value>
                </Data>
                <Data name="updated_at">
                    <value>2023-07-22 14:03:14.307690</value>
                </Data>
                <Data name="book_id">
                    <value>1</value>
                </Data>
                <Data name="owners">
                    <value>Minguel Pinto Correia
Ryan Bosco De Souza</value>
                </Data>
                <Data name="label_x">
                    <value>970137.0</value>
                </Data>
                <Data name="label_y">
                    <value>1033796.25664916</value>
                </Data>
            </ExtendedData>
            <Point id="3098">
                <coordinates>73.788573085,15.651067671,0.0</coordinates>
            </Point>
        </Placemark>
        <Placemark id="3132">
            <ExtendedData>
                <Data name="direction">
                    <value>https://maps.google.com?q=15.64258,73.78154&amp;t=h</value>
                </Data>
                <Data name="id">
                    <value>843</value>
                </Data>
                <Data name="name">
                    <value>Namas</value>
                </Data>
                <Data name="taluka">
                    <value>Bardez</value>
                </Data>
                <Data name="syno">
                    <value>198</value>
                </Data>
                <Data name="subdiv">
                    <value>39</value>
                </Data>
                <Data name="village">
                    <value>Camurlim</value>
                </Data>
                <Data name="latitude">
                    <value>15.64258</value>
                </Data>
                <Data name="longitude">
                    <value>73.78154</value>
                </Data>
                <Data name="photo_1">
                    <value>DCIM/20230131110631539.jpg</value>
                </Data>
                <Data name="photo_2">
                    <value>DCIM/20230131110651273.jpg</value>
                </Data>
                <Data name="syno_pt_list">
                    <value>198/18,35-39,43</value>
                </Data>
                <Data name="constituency">
                    <value>04 - Tivim</value>
                </Data>
                <Data name="status">
                    <value>Completed</value>
                </Data>
                <Data name="panchayat">
                    <value>Camurlim</value>
                </Data>
                <Data name="wb_type">
                    <value>Tank</value>
                </Data>
                <Data name="owner_type">
                    <value>Communidade</value>
                </Data>
                <Data name="purpose">
                    <value>Irrigation</value>
                </Data>
                <Data name="construction">
                    <value>Man Made</value>
                </Data>
                <Data name="condition">
                    <value>Good</value>
                </Data>
                <Data name="print_order">
                    <value>142</value>
                </Data>
                <Data name="wb_id">
                    <value>Ba/Camu/06</value>
                </Data>
                <Data name="storage_capacity">
                    <value>913.0</value>
                </Data>
                <Data name="wb_surface_id">
                    <value>4667</value>
                </Data>
                <Data name="created_at">
                    <value>2020-02-28 15:24:34</value>
                </Data>
                <Data name="updated_at">
                    <value>2023-07-22 14:03:14.307690</value>
                </Data>
                <Data name="book_id">
                    <value>1</value>
                </Data>
                <Data name="owners">
                    <value>Communidade</value>
                </Data>
                <Data name="label_x">
                    <value>970137.0</value>
                </Data>
                <Data name="label_y">
                    <value>1032296.25664916</value>
                </Data>
            </ExtendedData>
            <Point id="3131">
                <coordinates>73.781541292,15.642578956,0.0</coordinates>
            </Point>
        </Placemark>
    </Document>
</kml>
