<?xml version="1.0" encoding="UTF-8"?>
<kml xmlns="http://www.opengis.net/kml/2.2" xmlns:gx="http://www.google.com/kml/ext/2.2">
    <Document id="3829">
        <Placemark id="3831">
            <ExtendedData>
                <Data name="direction">
                    <value>https://maps.google.com?q=15.63892,73.836&amp;t=h</value>
                </Data>
                <Data name="id">
                    <value>6088</value>
                </Data>
                <Data name="name">
                    <value>Taleshwar Temple Tank; Talachem Bhat</value>
                </Data>
                <Data name="taluka">
                    <value>Bardez</value>
                </Data>
                <Data name="syno">
                    <value>71</value>
                </Data>
                <Data name="subdiv">
                    <value>4</value>
                </Data>
                <Data name="village">
                    <value>Colvale</value>
                </Data>
                <Data name="latitude">
                    <value>15.63892</value>
                </Data>
                <Data name="longitude">
                    <value>73.836</value>
                </Data>
                <Data name="photo_1">
                    <value>DCIM/20230420090449229.jpg</value>
                </Data>
                <Data name="photo_2">
                    <value>DCIM/20230420090509619.jpg</value>
                </Data>
                <Data name="constituency">
                    <value>04 - Tivim</value>
                </Data>
                <Data name="status">
                    <value>Completed</value>
                </Data>
                <Data name="panchayat">
                    <value>Colvale</value>
                </Data>
                <Data name="wb_type">
                    <value>Temple Tank</value>
                </Data>
                <Data name="owner_type">
                    <value>Communidade</value>
                </Data>
                <Data name="purpose">
                    <value>Storage</value>
                </Data>
                <Data name="construction">
                    <value>Man Made</value>
                </Data>
                <Data name="condition">
                    <value>Good</value>
                </Data>
                <Data name="print_order">
                    <value>119</value>
                </Data>
                <Data name="wb_id">
                    <value>Ba/Colv/01</value>
                </Data>
                <Data name="storage_capacity">
                    <value>1795.0</value>
                </Data>
                <Data name="wb_surface_id">
                    <value>5483</value>
                </Data>
                <Data name="created_at">
                    <value>2023-04-20 00:00:00</value>
                </Data>
                <Data name="updated_at">
                    <value>2023-07-22 14:03:14.307690</value>
                </Data>
                <Data name="book_id">
                    <value>1</value>
                </Data>
                <Data name="owners">
                    <value>Communidade</value>
                </Data>
                <Data name="label_x">
                    <value>990746.0</value>
                </Data>
                <Data name="label_y">
                    <value>1027466.08831014</value>
                </Data>
            </ExtendedData>
            <Point id="3830">
                <coordinates>73.835998585,15.638917012,0.0</coordinates>
            </Point>
        </Placemark>
        <Placemark id="3863">
            <ExtendedData>
                <Data name="direction">
                    <value>https://maps.google.com?q=15.63927,73.8358&amp;t=h</value>
                </Data>
                <Data name="id">
                    <value>6087</value>
                </Data>
                <Data name="name">
                    <value>Talache Bhat</value>
                </Data>
                <Data name="taluka">
                    <value>Bardez</value>
                </Data>
                <Data name="syno">
                    <value>71</value>
                </Data>
                <Data name="subdiv">
                    <value>1</value>
                </Data>
                <Data name="village">
                    <value>Colvale</value>
                </Data>
                <Data name="latitude">
                    <value>15.63927</value>
                </Data>
                <Data name="longitude">
                    <value>73.8358</value>
                </Data>
                <Data name="photo_1">
                    <value>DCIM/20230420090737727.jpg</value>
                </Data>
                <Data name="photo_2">
                    <value>DCIM/20230420090742965.jpg</value>
                </Data>
                <Data name="constituency">
                    <value>04 - Tivim</value>
                </Data>
                <Data name="status">
                    <value>Completed</value>
                </Data>
                <Data name="panchayat">
                    <value>Colvale</value>
                </Data>
                <Data name="wb_type">
                    <value>Pond</value>
                </Data>
                <Data name="owner_type">
                    <value>Communidade</value>
                </Data>
                <Data name="purpose">
                    <value>Irrigation</value>
                </Data>
                <Data name="construction">
                    <value>Natural</value>
                </Data>
                <Data name="condition">
                    <value>Needs Maintenance</value>
                </Data>
                <Data name="print_order">
                    <value>083</value>
                </Data>
                <Data name="wb_id">
                    <value>Ba/Colv/03</value>
                </Data>
                <Data name="storage_capacity">
                    <value>705.0</value>
                </Data>
                <Data name="wb_surface_id">
                    <value>5484</value>
                </Data>
                <Data name="created_at">
                    <value>2023-04-20 00:00:00</value>
                </Data>
                <Data name="updated_at">
                    <value>2023-07-22 14:03:14.307690</value>
                </Data>
                <Data name="book_id">
                    <value>1</value>
                </Data>
                <Data name="owners">
                    <value>Communidade</value>
                </Data>
                <Data name="label_x">
                    <value>990746.0</value>
                </Data>
                <Data name="label_y">
                    <value>1027716.08831014</value>
                </Data>
            </ExtendedData>
            <Point id="3862">
                <coordinates>73.835795647,15.639269638,0.0</coordinates>
            </Point>
        </Placemark>
        <Placemark id="3895">
            <ExtendedData>
                <Data name="direction">
                    <value>https://maps.google.com?q=15.63979,73.83449&amp;t=h</value>
                </Data>
                <Data name="id">
                    <value>861</value>
                </Data>
                <Data name="name">
                    <value>Solicho Ack</value>
                </Data>
                <Data name="taluka">
                    <value>Bardez</value>
                </Data>
                <Data name="syno">
                    <value>74</value>
                </Data>
                <Data name="subdiv">
                    <value>1</value>
                </Data>
                <Data name="village">
                    <value>Colvale</value>
                </Data>
                <Data name="latitude">
                    <value>15.63979</value>
                </Data>
                <Data name="longitude">
                    <value>73.83449</value>
                </Data>
                <Data name="photo_1">
                    <value>DCIM/20230420090617131.jpg</value>
                </Data>
                <Data name="photo_2">
                    <value>DCIM/20230420090622796.jpg</value>
                </Data>
                <Data name="syno_pt_list">
                    <value>69/1; 71/1-4; 72/1-15; 73/10,15; 74/1-18; 78/1-4; 79/1-10,12; 81/1,3-4</value>
                </Data>
                <Data name="constituency">
                    <value>04 - Tivim</value>
                </Data>
                <Data name="status">
                    <value>Completed</value>
                </Data>
                <Data name="panchayat">
                    <value>Colvale</value>
                </Data>
                <Data name="wb_type">
                    <value>Tank</value>
                </Data>
                <Data name="owner_type">
                    <value>Communidade</value>
                </Data>
                <Data name="purpose">
                    <value>Irrigation</value>
                </Data>
                <Data name="construction">
                    <value>Man Made</value>
                </Data>
                <Data name="condition">
                    <value>Good</value>
                </Data>
                <Data name="print_order">
                    <value>151</value>
                </Data>
                <Data name="wb_id">
                    <value>Ba/Colv/02</value>
                </Data>
                <Data name="storage_capacity">
                    <value>938.0</value>
                </Data>
                <Data name="wb_surface_id">
                    <value>5485</value>
                </Data>
                <Data name="created_at">
                    <value>2020-02-28 15:24:34</value>
                </Data>
                <Data name="updated_at">
                    <value>2023-07-22 14:03:14.307690</value>
                </Data>
                <Data name="book_id">
                    <value>1</value>
                </Data>
                <Data name="owners">
                    <value>Communidade</value>
                </Data>
                <Data name="label_x">
                    <value>990746.0</value>
                </Data>
                <Data name="label_y">
                    <value>1027966.08831014</value>
                </Data>
            </ExtendedData>
            <Point id="3894">
                <coordinates>73.834492251,15.639786045,0.0</coordinates>
            </Point>
        </Placemark>
        <Placemark id="3928">
            <ExtendedData>
                <Data name="direction">
                    <value>https://maps.google.com?q=15.64082,73.83416&amp;t=h</value>
                </Data>
                <Data name="id">
                    <value>6106</value>
                </Data>
                <Data name="name">
                    <value>Mushicho Ack</value>
                </Data>
                <Data name="taluka">
                    <value>Bardez</value>
                </Data>
                <Data name="syno">
                    <value>78</value>
                </Data>
                <Data name="subdiv">
                    <value>3</value>
                </Data>
                <Data name="village">
                    <value>Colvale</value>
                </Data>
                <Data name="latitude">
                    <value>15.64082</value>
                </Data>
                <Data name="longitude">
                    <value>73.83416</value>
                </Data>
                <Data name="photo_1">
                    <value>DCIM/20230520133259807.jpg</value>
                </Data>
                <Data name="photo_2">
                    <value>DCIM/20230520133351285.jpg</value>
                </Data>
                <Data name="constituency">
                    <value>04 - Tivim</value>
                </Data>
                <Data name="status">
                    <value>Completed</value>
                </Data>
                <Data name="panchayat">
                    <value>Colvale</value>
                </Data>
                <Data name="wb_type">
                    <value>Pond</value>
                </Data>
                <Data name="owner_type">
                    <value>Communidade</value>
                </Data>
                <Data name="purpose">
                    <value>Storage</value>
                </Data>
                <Data name="construction">
                    <value>Natural</value>
                </Data>
                <Data name="condition">
                    <value>Needs Maintenance</value>
                </Data>
                <Data name="print_order">
                    <value>085</value>
                </Data>
                <Data name="wb_id">
                    <value>Ba/Colv/05</value>
                </Data>
                <Data name="storage_capacity">
                    <value>130.0</value>
                </Data>
                <Data name="wb_surface_id">
                    <value>5489</value>
                </Data>
                <Data name="created_at">
                    <value>2023-04-27 00:00:00</value>
                </Data>
                <Data name="updated_at">
                    <value>2023-07-22 14:03:14.307690</value>
                </Data>
                <Data name="book_id">
                    <value>1</value>
                </Data>
                <Data name="owners">
                    <value>Communidade</value>
                </Data>
                <Data name="label_x">
                    <value>990746.0</value>
                </Data>
                <Data name="label_y">
                    <value>1028466.08831014</value>
                </Data>
            </ExtendedData>
            <Point id="3927">
                <coordinates>73.834158419,15.640815773,0.0</coordinates>
            </Point>
        </Placemark>
        <Placemark id="3960">
            <ExtendedData>
                <Data name="direction">
                    <value>https://maps.google.com?q=15.63986,73.81525&amp;t=h</value>
                </Data>
                <Data name="id">
                    <value>5394</value>
                </Data>
                <Data name="name">
                    <value>Avanal</value>
                </Data>
                <Data name="taluka">
                    <value>Bardez</value>
                </Data>
                <Data name="syno">
                    <value>278</value>
                </Data>
                <Data name="subdiv">
                    <value>1</value>
                </Data>
                <Data name="village">
                    <value>Colvale</value>
                </Data>
                <Data name="latitude">
                    <value>15.63986</value>
                </Data>
                <Data name="longitude">
                    <value>73.81525</value>
                </Data>
                <Data name="photo_1">
                    <value>DCIM/20221012111439052.jpg</value>
                </Data>
                <Data name="photo_2">
                    <value>DCIM/20221012111450244.jpg</value>
                </Data>
                <Data name="syno_pt_list">
                    <value>175/14; 278/0</value>
                </Data>
                <Data name="constituency">
                    <value>04 - Tivim</value>
                </Data>
                <Data name="status">
                    <value>Completed</value>
                </Data>
                <Data name="panchayat">
                    <value>Colvale</value>
                </Data>
                <Data name="wb_type">
                    <value>Pond</value>
                </Data>
                <Data name="owner_type">
                    <value>Communidade</value>
                </Data>
                <Data name="purpose">
                    <value>Storage</value>
                </Data>
                <Data name="construction">
                    <value>Natural</value>
                </Data>
                <Data name="condition">
                    <value>Needs Maintenance</value>
                </Data>
                <Data name="print_order">
                    <value>084</value>
                </Data>
                <Data name="wb_id">
                    <value>Ba/Colv/04</value>
                </Data>
                <Data name="storage_capacity">
                    <value>150.0</value>
                </Data>
                <Data name="wb_surface_id">
                    <value>4209</value>
                </Data>
                <Data name="created_at">
                    <value>2022-08-02 04:59:08.067244</value>
                </Data>
                <Data name="updated_at">
                    <value>2023-07-22 14:03:14.307690</value>
                </Data>
                <Data name="book_id">
                    <value>1</value>
                </Data>
                <Data name="owners">
                    <value>Communidade</value>
                </Data>
                <Data name="label_x">
                    <value>990746.0</value>
                </Data>
                <Data name="label_y">
                    <value>1027216.08831014</value>
                </Data>
            </ExtendedData>
            <Point id="3959">
                <coordinates>73.81524725,15.639856688,0.0</coordinates>
            </Point>
        </Placemark>
    </Document>
</kml>
