<?xml version="1.0" encoding="UTF-8"?>
<kml xmlns="http://www.opengis.net/kml/2.2" xmlns:gx="http://www.google.com/kml/ext/2.2">
    <Document id="4292">
        <Placemark id="4294">
            <ExtendedData>
                <Data name="direction">
                    <value>https://maps.google.com?q=15.56731,73.81704&amp;t=h</value>
                </Data>
                <Data name="id">
                    <value>864</value>
                </Data>
                <Data name="name">
                    <value>Shirdi</value>
                </Data>
                <Data name="taluka">
                    <value>Bardez</value>
                </Data>
                <Data name="syno">
                    <value>114</value>
                </Data>
                <Data name="subdiv">
                    <value>53</value>
                </Data>
                <Data name="village">
                    <value>Guirim</value>
                </Data>
                <Data name="latitude">
                    <value>15.56731</value>
                </Data>
                <Data name="longitude">
                    <value>73.81704</value>
                </Data>
                <Data name="photo_1">
                    <value>DCIM/20230131154558767.jpg</value>
                </Data>
                <Data name="photo_2">
                    <value>DCIM/20230131154602775.jpg</value>
                </Data>
                <Data name="syno_pt_list">
                    <value>114/46-48,50-51,53-54</value>
                </Data>
                <Data name="constituency">
                    <value>07 - Saligao</value>
                </Data>
                <Data name="status">
                    <value>Completed</value>
                </Data>
                <Data name="panchayat">
                    <value>Guirim</value>
                </Data>
                <Data name="wb_type">
                    <value>Pond</value>
                </Data>
                <Data name="owner_type">
                    <value>Communidade</value>
                </Data>
                <Data name="purpose">
                    <value>Storage</value>
                </Data>
                <Data name="construction">
                    <value>Natural</value>
                </Data>
                <Data name="condition">
                    <value>Needs Maintenance</value>
                </Data>
                <Data name="print_order">
                    <value>094</value>
                </Data>
                <Data name="wb_id">
                    <value>Ba/Guir/04</value>
                </Data>
                <Data name="storage_capacity">
                    <value>973.0</value>
                </Data>
                <Data name="wb_surface_id">
                    <value>4708</value>
                </Data>
                <Data name="created_at">
                    <value>2020-02-28 15:24:34</value>
                </Data>
                <Data name="updated_at">
                    <value>2023-07-22 14:03:14.307690</value>
                </Data>
                <Data name="book_id">
                    <value>1</value>
                </Data>
                <Data name="owners">
                    <value>Communidade</value>
                </Data>
                <Data name="label_x">
                    <value>990746.0</value>
                </Data>
                <Data name="label_y">
                    <value>1015716.08831014</value>
                </Data>
            </ExtendedData>
            <Point id="4293">
                <coordinates>73.817040848,15.567305535,0.0</coordinates>
            </Point>
        </Placemark>
        <Placemark id="4327">
            <ExtendedData>
                <Data name="direction">
                    <value>https://maps.google.com?q=15.56729,73.81263&amp;t=h</value>
                </Data>
                <Data name="id">
                    <value>868</value>
                </Data>
                <Data name="name">
                    <value>Vouliche Morod</value>
                </Data>
                <Data name="taluka">
                    <value>Bardez</value>
                </Data>
                <Data name="syno">
                    <value>106</value>
                </Data>
                <Data name="subdiv">
                    <value>2</value>
                </Data>
                <Data name="village">
                    <value>Guirim</value>
                </Data>
                <Data name="latitude">
                    <value>15.56729</value>
                </Data>
                <Data name="longitude">
                    <value>73.81263</value>
                </Data>
                <Data name="photo_1">
                    <value>DCIM/20230131152652841.jpg</value>
                </Data>
                <Data name="photo_2">
                    <value>DCIM/20230131152704851.jpg</value>
                </Data>
                <Data name="syno_pt_list">
                    <value>105/11-12,23; 106/1-2</value>
                </Data>
                <Data name="constituency">
                    <value>07 - Saligao</value>
                </Data>
                <Data name="status">
                    <value>Completed</value>
                </Data>
                <Data name="panchayat">
                    <value>Guirim</value>
                </Data>
                <Data name="wb_type">
                    <value>Pond</value>
                </Data>
                <Data name="owner_type">
                    <value>Communidade</value>
                </Data>
                <Data name="purpose">
                    <value>Storage</value>
                </Data>
                <Data name="construction">
                    <value>Natural</value>
                </Data>
                <Data name="condition">
                    <value>Needs Maintenance</value>
                </Data>
                <Data name="print_order">
                    <value>092</value>
                </Data>
                <Data name="wb_id">
                    <value>Ba/Guir/02</value>
                </Data>
                <Data name="storage_capacity">
                    <value>1433.0</value>
                </Data>
                <Data name="wb_surface_id">
                    <value>4702</value>
                </Data>
                <Data name="created_at">
                    <value>2020-02-28 15:24:34</value>
                </Data>
                <Data name="updated_at">
                    <value>2023-07-22 14:03:14.307690</value>
                </Data>
                <Data name="book_id">
                    <value>1</value>
                </Data>
                <Data name="owners">
                    <value>Communidade</value>
                </Data>
                <Data name="label_x">
                    <value>990746.0</value>
                </Data>
                <Data name="label_y">
                    <value>1014716.08831014</value>
                </Data>
            </ExtendedData>
            <Point id="4326">
                <coordinates>73.812634467,15.567288085,0.0</coordinates>
            </Point>
        </Placemark>
        <Placemark id="4360">
            <ExtendedData>
                <Data name="direction">
                    <value>https://maps.google.com?q=15.58037,73.80744&amp;t=h</value>
                </Data>
                <Data name="id">
                    <value>870</value>
                </Data>
                <Data name="name">
                    <value>Vacio Voddagoli</value>
                </Data>
                <Data name="taluka">
                    <value>Bardez</value>
                </Data>
                <Data name="syno">
                    <value>55</value>
                </Data>
                <Data name="subdiv">
                    <value>3</value>
                </Data>
                <Data name="village">
                    <value>Guirim</value>
                </Data>
                <Data name="latitude">
                    <value>15.58037</value>
                </Data>
                <Data name="longitude">
                    <value>73.80744</value>
                </Data>
                <Data name="photo_1">
                    <value>DCIM/20221009174758517.jpg</value>
                </Data>
                <Data name="photo_2">
                    <value>DCIM/20221009174813738.jpg</value>
                </Data>
                <Data name="syno_pt_list">
                    <value>53/1,13-14; 55/3</value>
                </Data>
                <Data name="constituency">
                    <value>07 - Saligao</value>
                </Data>
                <Data name="status">
                    <value>Completed</value>
                </Data>
                <Data name="panchayat">
                    <value>Guirim</value>
                </Data>
                <Data name="wb_type">
                    <value>Pond</value>
                </Data>
                <Data name="owner_type">
                    <value>Communidade</value>
                </Data>
                <Data name="purpose">
                    <value>Irrigation</value>
                </Data>
                <Data name="construction">
                    <value>Natural</value>
                </Data>
                <Data name="condition">
                    <value>Needs Maintenance</value>
                </Data>
                <Data name="print_order">
                    <value>096</value>
                </Data>
                <Data name="wb_id">
                    <value>Ba/Guir/07</value>
                </Data>
                <Data name="storage_capacity">
                    <value>678.0</value>
                </Data>
                <Data name="wb_surface_id">
                    <value>4710</value>
                </Data>
                <Data name="created_at">
                    <value>2020-02-28 15:24:34</value>
                </Data>
                <Data name="updated_at">
                    <value>2023-07-22 14:03:14.307690</value>
                </Data>
                <Data name="book_id">
                    <value>1</value>
                </Data>
                <Data name="owners">
                    <value>Communidade</value>
                </Data>
                <Data name="label_x">
                    <value>990746.0</value>
                </Data>
                <Data name="label_y">
                    <value>1016716.08831014</value>
                </Data>
            </ExtendedData>
            <Point id="4359">
                <coordinates>73.807443403,15.580367067,0.0</coordinates>
            </Point>
        </Placemark>
        <Placemark id="4393">
            <ExtendedData>
                <Data name="direction">
                    <value>https://maps.google.com?q=15.56355,73.80511&amp;t=h</value>
                </Data>
                <Data name="id">
                    <value>871</value>
                </Data>
                <Data name="name">
                    <value>Bangar Xeth</value>
                </Data>
                <Data name="taluka">
                    <value>Bardez</value>
                </Data>
                <Data name="syno">
                    <value>156</value>
                </Data>
                <Data name="subdiv">
                    <value>1</value>
                </Data>
                <Data name="village">
                    <value>Guirim</value>
                </Data>
                <Data name="latitude">
                    <value>15.56355</value>
                </Data>
                <Data name="longitude">
                    <value>73.80511</value>
                </Data>
                <Data name="photo_1">
                    <value>DCIM/20221012083912770.jpg</value>
                </Data>
                <Data name="photo_2">
                    <value>DCIM/20221012084016196.jpg</value>
                </Data>
                <Data name="syno_pt_list">
                    <value>156/1,6</value>
                </Data>
                <Data name="constituency">
                    <value>07 - Saligao</value>
                </Data>
                <Data name="status">
                    <value>Completed</value>
                </Data>
                <Data name="panchayat">
                    <value>Guirim</value>
                </Data>
                <Data name="wb_type">
                    <value>Tank</value>
                </Data>
                <Data name="owner_type">
                    <value>Communidade</value>
                </Data>
                <Data name="purpose">
                    <value>Storage</value>
                </Data>
                <Data name="construction">
                    <value>Man Made</value>
                </Data>
                <Data name="condition">
                    <value>Needs Maintenance</value>
                </Data>
                <Data name="print_order">
                    <value>155</value>
                </Data>
                <Data name="wb_id">
                    <value>Ba/Guir/01</value>
                </Data>
                <Data name="storage_capacity">
                    <value>2313.0</value>
                </Data>
                <Data name="wb_surface_id">
                    <value>4701</value>
                </Data>
                <Data name="created_at">
                    <value>2020-02-28 15:24:34</value>
                </Data>
                <Data name="updated_at">
                    <value>2023-07-22 14:03:14.307690</value>
                </Data>
                <Data name="book_id">
                    <value>1</value>
                </Data>
                <Data name="owners">
                    <value>Communidade</value>
                </Data>
                <Data name="label_x">
                    <value>990746.0</value>
                </Data>
                <Data name="label_y">
                    <value>1014466.08831014</value>
                </Data>
            </ExtendedData>
            <Point id="4392">
                <coordinates>73.805107931,15.563550992,0.0</coordinates>
            </Point>
        </Placemark>
        <Placemark id="4426">
            <ExtendedData>
                <Data name="direction">
                    <value>https://maps.google.com?q=15.57639,73.80137&amp;t=h</value>
                </Data>
                <Data name="id">
                    <value>5506</value>
                </Data>
                <Data name="name">
                    <value>Sarvem</value>
                </Data>
                <Data name="taluka">
                    <value>Bardez</value>
                </Data>
                <Data name="syno">
                    <value>36</value>
                </Data>
                <Data name="subdiv">
                    <value>1</value>
                </Data>
                <Data name="village">
                    <value>Guirim</value>
                </Data>
                <Data name="latitude">
                    <value>15.57639</value>
                </Data>
                <Data name="longitude">
                    <value>73.80137</value>
                </Data>
                <Data name="photo_1">
                    <value>DCIM/20221012091304245.jpg</value>
                </Data>
                <Data name="photo_2">
                    <value>DCIM/20221012091325832.jpg</value>
                </Data>
                <Data name="syno_pt_list">
                    <value>36/1-22</value>
                </Data>
                <Data name="constituency">
                    <value>07 - Saligao</value>
                </Data>
                <Data name="status">
                    <value>Completed</value>
                </Data>
                <Data name="panchayat">
                    <value>Guirim</value>
                </Data>
                <Data name="wb_type">
                    <value>Pond</value>
                </Data>
                <Data name="owner_type">
                    <value>Private</value>
                </Data>
                <Data name="purpose">
                    <value>Storage</value>
                </Data>
                <Data name="construction">
                    <value>Natural</value>
                </Data>
                <Data name="condition">
                    <value>Needs Maintenance</value>
                </Data>
                <Data name="print_order">
                    <value>093</value>
                </Data>
                <Data name="wb_id">
                    <value>Ba/Guir/03</value>
                </Data>
                <Data name="storage_capacity">
                    <value>1047.0</value>
                </Data>
                <Data name="wb_surface_id">
                    <value>4322</value>
                </Data>
                <Data name="created_at">
                    <value>2022-08-02 15:20:09.104764</value>
                </Data>
                <Data name="updated_at">
                    <value>2023-07-22 14:03:14.307690</value>
                </Data>
                <Data name="book_id">
                    <value>1</value>
                </Data>
                <Data name="owners">
                    <value>Asha Virendra Kumar Maurya alias Asha Virendra Kumar Mourya
Babu Lamani
Babu Shripad Parab
Carmaline D`Costa Pillai
Constancio X. Figueira
Dilip Kumar Jaiswal
Fatima Sugandha Keshav Gonsalves
Ganesh Channappa Lamani
Ganesh Chattrappa Lamani
Gangadhar Purushottam Gadekar
Gurunath Dasharath Gaude
Hanshraj Gupta
Hanumanth Lamani
JYOTI DATTARAM MANDREKAR
Lavu Vithal Bicholkar
Mahableshwar Gajanan Kalangutkar
Mahesh Vithal Biholkar
Mrs. Avita Lavu Bicholkar
Mrs. Mohini Mahesh Bicholkar
PUNAM NILESH CHARI
Prakash Laxman Lamani
Priya Mahableshwar Kalangutkar
Raghoba Vithal Bicholkar
Sangeeta Babu Lamani
Sebastiao Vaz
Sebastiao Vaz alias Seby Vaz
Shivnath Vishwanath Shetye
Suraj Gurudas Naik
Swati Baburao Desai
Telma de souza
Uzmanaaz Beg
Vamanrao Amrutrao Verlekar
Vikas Shridhar Shetye
Virendrakumar Ramnaresh Mourya
Vishnu Prabhu Lamani</value>
                </Data>
                <Data name="label_x">
                    <value>990746.0</value>
                </Data>
                <Data name="label_y">
                    <value>1016216.08831014</value>
                </Data>
            </ExtendedData>
            <Point id="4425">
                <coordinates>73.801366263,15.576390591,0.0</coordinates>
            </Point>
        </Placemark>
        <Placemark id="4459">
            <ExtendedData>
                <Data name="direction">
                    <value>https://maps.google.com?q=15.57153,73.80781&amp;t=h</value>
                </Data>
                <Data name="id">
                    <value>2914</value>
                </Data>
                <Data name="name">
                    <value>Zuache Akha</value>
                </Data>
                <Data name="taluka">
                    <value>Bardez</value>
                </Data>
                <Data name="syno">
                    <value>95</value>
                </Data>
                <Data name="subdiv">
                    <value>17</value>
                </Data>
                <Data name="village">
                    <value>Guirim</value>
                </Data>
                <Data name="latitude">
                    <value>15.57153</value>
                </Data>
                <Data name="longitude">
                    <value>73.80781</value>
                </Data>
                <Data name="photo_1">
                    <value>DCIM/20230131154233307.jpg</value>
                </Data>
                <Data name="photo_2">
                    <value>DCIM/20230131154335096.jpg</value>
                </Data>
                <Data name="syno_pt_list">
                    <value>95/5,8,12,17</value>
                </Data>
                <Data name="constituency">
                    <value>07 - Saligao</value>
                </Data>
                <Data name="status">
                    <value>Completed</value>
                </Data>
                <Data name="panchayat">
                    <value>Guirim</value>
                </Data>
                <Data name="wb_type">
                    <value>Pond</value>
                </Data>
                <Data name="owner_type">
                    <value>Communidade</value>
                </Data>
                <Data name="purpose">
                    <value>Storage</value>
                </Data>
                <Data name="construction">
                    <value>Natural</value>
                </Data>
                <Data name="condition">
                    <value>Needs Maintenance</value>
                </Data>
                <Data name="print_order">
                    <value>097</value>
                </Data>
                <Data name="wb_id">
                    <value>Ba/Guir/08</value>
                </Data>
                <Data name="storage_capacity">
                    <value>455.0</value>
                </Data>
                <Data name="wb_surface_id">
                    <value>4705</value>
                </Data>
                <Data name="created_at">
                    <value>2020-05-02 10:56:22</value>
                </Data>
                <Data name="updated_at">
                    <value>2023-07-22 14:03:14.307690</value>
                </Data>
                <Data name="book_id">
                    <value>1</value>
                </Data>
                <Data name="owners">
                    <value>Communidade</value>
                </Data>
                <Data name="label_x">
                    <value>990746.0</value>
                </Data>
                <Data name="label_y">
                    <value>1015466.08831014</value>
                </Data>
            </ExtendedData>
            <Point id="4458">
                <coordinates>73.80781382,15.571530093,0.0</coordinates>
            </Point>
        </Placemark>
        <Placemark id="4492">
            <ExtendedData>
                <Data name="direction">
                    <value>https://maps.google.com?q=15.57119,73.80705&amp;t=h</value>
                </Data>
                <Data name="id">
                    <value>2913</value>
                </Data>
                <Data name="name">
                    <value>Zuache Akha</value>
                </Data>
                <Data name="taluka">
                    <value>Bardez</value>
                </Data>
                <Data name="syno">
                    <value>95</value>
                </Data>
                <Data name="subdiv">
                    <value>16</value>
                </Data>
                <Data name="village">
                    <value>Guirim</value>
                </Data>
                <Data name="latitude">
                    <value>15.57119</value>
                </Data>
                <Data name="longitude">
                    <value>73.80705</value>
                </Data>
                <Data name="photo_1">
                    <value>DCIM/20230131154455465.jpg</value>
                </Data>
                <Data name="photo_2">
                    <value>DCIM/20221009175412583.jpg</value>
                </Data>
                <Data name="syno_pt_list">
                    <value>95/5,7,11,16</value>
                </Data>
                <Data name="constituency">
                    <value>07 - Saligao</value>
                </Data>
                <Data name="status">
                    <value>Completed</value>
                </Data>
                <Data name="panchayat">
                    <value>Guirim</value>
                </Data>
                <Data name="wb_type">
                    <value>Pond</value>
                </Data>
                <Data name="owner_type">
                    <value>Communidade</value>
                </Data>
                <Data name="purpose">
                    <value>Storage</value>
                </Data>
                <Data name="construction">
                    <value>Natural</value>
                </Data>
                <Data name="condition">
                    <value>Needs Maintenance</value>
                </Data>
                <Data name="print_order">
                    <value>098</value>
                </Data>
                <Data name="wb_id">
                    <value>Ba/Guir/09</value>
                </Data>
                <Data name="storage_capacity">
                    <value>426.0</value>
                </Data>
                <Data name="wb_surface_id">
                    <value>4704</value>
                </Data>
                <Data name="created_at">
                    <value>2020-05-02 10:56:22</value>
                </Data>
                <Data name="updated_at">
                    <value>2023-07-22 14:03:14.307690</value>
                </Data>
                <Data name="book_id">
                    <value>1</value>
                </Data>
                <Data name="owners">
                    <value>Communidade</value>
                </Data>
                <Data name="label_x">
                    <value>990746.0</value>
                </Data>
                <Data name="label_y">
                    <value>1015216.08831014</value>
                </Data>
            </ExtendedData>
            <Point id="4491">
                <coordinates>73.80705417,15.571191481,0.0</coordinates>
            </Point>
        </Placemark>
        <Placemark id="4525">
            <ExtendedData>
                <Data name="direction">
                    <value>https://maps.google.com?q=15.56887,73.81005&amp;t=h</value>
                </Data>
                <Data name="id">
                    <value>869</value>
                </Data>
                <Data name="name">
                    <value>Zembech Shelok</value>
                </Data>
                <Data name="taluka">
                    <value>Bardez</value>
                </Data>
                <Data name="syno">
                    <value>100</value>
                </Data>
                <Data name="subdiv">
                    <value>12 A</value>
                </Data>
                <Data name="village">
                    <value>Guirim</value>
                </Data>
                <Data name="latitude">
                    <value>15.56887</value>
                </Data>
                <Data name="longitude">
                    <value>73.81005</value>
                </Data>
                <Data name="photo_1">
                    <value>DCIM/20230131152154330.jpg</value>
                </Data>
                <Data name="photo_2">
                    <value>DCIM/20230131152218158.jpg</value>
                </Data>
                <Data name="syno_pt_list">
                    <value>100/12-A</value>
                </Data>
                <Data name="constituency">
                    <value>07 - Saligao</value>
                </Data>
                <Data name="status">
                    <value>Completed</value>
                </Data>
                <Data name="panchayat">
                    <value>Guirim</value>
                </Data>
                <Data name="wb_type">
                    <value>Pond</value>
                </Data>
                <Data name="owner_type">
                    <value>Private</value>
                </Data>
                <Data name="purpose">
                    <value>Storage</value>
                </Data>
                <Data name="construction">
                    <value>Natural</value>
                </Data>
                <Data name="condition">
                    <value>Needs Maintenance</value>
                </Data>
                <Data name="print_order">
                    <value>095</value>
                </Data>
                <Data name="wb_id">
                    <value>Ba/Guir/05</value>
                </Data>
                <Data name="storage_capacity">
                    <value>923.0</value>
                </Data>
                <Data name="wb_surface_id">
                    <value>4703</value>
                </Data>
                <Data name="created_at">
                    <value>2020-02-28 15:24:34</value>
                </Data>
                <Data name="updated_at">
                    <value>2023-07-22 14:03:14.307690</value>
                </Data>
                <Data name="book_id">
                    <value>1</value>
                </Data>
                <Data name="owners">
                    <value>Bhanudas S. Gawandalkar Prabha Cawendalk er
Consolacao Sebastiao Simoes
Ratnapal Shiva Salkar Cipriano F. Barret o
Shashikalav Sawant Alias Vasudha S. Salu nke</value>
                </Data>
                <Data name="label_x">
                    <value>990746.0</value>
                </Data>
                <Data name="label_y">
                    <value>1014966.08831014</value>
                </Data>
            </ExtendedData>
            <Point id="4524">
                <coordinates>73.810050756,15.568873774,0.0</coordinates>
            </Point>
        </Placemark>
        <Placemark id="4558">
            <ExtendedData>
                <Data name="direction">
                    <value>https://maps.google.com?q=15.56287,73.79725&amp;t=h</value>
                </Data>
                <Data name="id">
                    <value>2912</value>
                </Data>
                <Data name="name">
                    <value>Aradi Xir</value>
                </Data>
                <Data name="taluka">
                    <value>Bardez</value>
                </Data>
                <Data name="syno">
                    <value>164</value>
                </Data>
                <Data name="subdiv">
                    <value>1</value>
                </Data>
                <Data name="village">
                    <value>Guirim</value>
                </Data>
                <Data name="latitude">
                    <value>15.56287</value>
                </Data>
                <Data name="longitude">
                    <value>73.79725</value>
                </Data>
                <Data name="photo_1">
                    <value>DCIM/20221012085417051.jpg</value>
                </Data>
                <Data name="photo_2">
                    <value>DCIM/20221012085442885.jpg</value>
                </Data>
                <Data name="syno_pt_list">
                    <value>164/1</value>
                </Data>
                <Data name="constituency">
                    <value>07 - Saligao</value>
                </Data>
                <Data name="status">
                    <value>Completed</value>
                </Data>
                <Data name="panchayat">
                    <value>Guirim</value>
                </Data>
                <Data name="wb_type">
                    <value>Tank</value>
                </Data>
                <Data name="owner_type">
                    <value>Private</value>
                </Data>
                <Data name="purpose">
                    <value>Storage</value>
                </Data>
                <Data name="construction">
                    <value>Man Made</value>
                </Data>
                <Data name="condition">
                    <value>Good</value>
                </Data>
                <Data name="print_order">
                    <value>156</value>
                </Data>
                <Data name="wb_id">
                    <value>Ba/Guir/06</value>
                </Data>
                <Data name="storage_capacity">
                    <value>742.0</value>
                </Data>
                <Data name="wb_surface_id">
                    <value>4858</value>
                </Data>
                <Data name="created_at">
                    <value>2020-05-02 10:56:22</value>
                </Data>
                <Data name="updated_at">
                    <value>2023-07-22 14:03:14.307690</value>
                </Data>
                <Data name="book_id">
                    <value>1</value>
                </Data>
                <Data name="owners">
                    <value>Capachin Friars Minor Society Monte De G uirim</value>
                </Data>
                <Data name="label_x">
                    <value>990746.0</value>
                </Data>
                <Data name="label_y">
                    <value>1014216.0883101366</value>
                </Data>
            </ExtendedData>
            <Point id="4557">
                <coordinates>73.79724545,15.562874461,0.0</coordinates>
            </Point>
        </Placemark>
        <Placemark id="4591">
            <ExtendedData>
                <Data name="direction">
                    <value>https://maps.google.com?q=15.56888,73.81576&amp;t=h</value>
                </Data>
                <Data name="id">
                    <value>5631</value>
                </Data>
                <Data name="name">
                    <value>Shirdi Shet</value>
                </Data>
                <Data name="taluka">
                    <value>Bardez</value>
                </Data>
                <Data name="syno">
                    <value>114</value>
                </Data>
                <Data name="subdiv">
                    <value>25</value>
                </Data>
                <Data name="village">
                    <value>Guirim</value>
                </Data>
                <Data name="latitude">
                    <value>15.56888</value>
                </Data>
                <Data name="longitude">
                    <value>73.81576</value>
                </Data>
                <Data name="photo_1">
                    <value>DCIM/20230131154528419.jpg</value>
                </Data>
                <Data name="photo_2">
                    <value>DCIM/20230131154533938.jpg</value>
                </Data>
                <Data name="syno_pt_list">
                    <value>114/8-11,24-25,27</value>
                </Data>
                <Data name="constituency">
                    <value>07 - Saligao</value>
                </Data>
                <Data name="status">
                    <value>Completed</value>
                </Data>
                <Data name="panchayat">
                    <value>Guirim</value>
                </Data>
                <Data name="wb_type">
                    <value>Pond</value>
                </Data>
                <Data name="owner_type">
                    <value>Communidade</value>
                </Data>
                <Data name="purpose">
                    <value>Storage</value>
                </Data>
                <Data name="construction">
                    <value>Natural</value>
                </Data>
                <Data name="condition">
                    <value>Needs Maintenance</value>
                </Data>
                <Data name="print_order">
                    <value>099</value>
                </Data>
                <Data name="wb_id">
                    <value>Ba/Guir/10</value>
                </Data>
                <Data name="storage_capacity">
                    <value>400.0</value>
                </Data>
                <Data name="wb_surface_id">
                    <value>4706</value>
                </Data>
                <Data name="created_at">
                    <value>2022-08-29 07:15:26.528727</value>
                </Data>
                <Data name="updated_at">
                    <value>2023-07-22 14:03:14.307690</value>
                </Data>
                <Data name="book_id">
                    <value>1</value>
                </Data>
                <Data name="owners">
                    <value>Communidade</value>
                </Data>
                <Data name="label_x">
                    <value>990746.0</value>
                </Data>
                <Data name="label_y">
                    <value>1015966.08831014</value>
                </Data>
            </ExtendedData>
            <Point id="4590">
                <coordinates>73.815757981,15.568876238,0.0</coordinates>
            </Point>
        </Placemark>
    </Document>
</kml>
