<?xml version="1.0" encoding="UTF-8"?>
<kml xmlns="http://www.opengis.net/kml/2.2" xmlns:gx="http://www.google.com/kml/ext/2.2">
    <Document id="4792">
        <Placemark id="4794">
            <ExtendedData>
                <Data name="direction">
                    <value>https://maps.google.com?q=15.59411,73.85933&amp;t=h</value>
                </Data>
                <Data name="id">
                    <value>5745</value>
                </Data>
                <Data name="name">
                    <value>--</value>
                </Data>
                <Data name="taluka">
                    <value>Bardez</value>
                </Data>
                <Data name="syno">
                    <value>0</value>
                </Data>
                <Data name="subdiv">
                    <value>East of 112</value>
                </Data>
                <Data name="village">
                    <value>Moira</value>
                </Data>
                <Data name="latitude">
                    <value>15.59411</value>
                </Data>
                <Data name="longitude">
                    <value>73.85933</value>
                </Data>
                <Data name="photo_1">
                    <value>DCIM/20221006124723844.jpg</value>
                </Data>
                <Data name="photo_2">
                    <value>DCIM/20221006124736710.jpg</value>
                </Data>
                <Data name="syno_pt_list">
                    <value>111/17-18; 112/38</value>
                </Data>
                <Data name="constituency">
                    <value>10 - Aldona</value>
                </Data>
                <Data name="status">
                    <value>Completed</value>
                </Data>
                <Data name="panchayat">
                    <value>Moira</value>
                </Data>
                <Data name="wb_type">
                    <value>Tank</value>
                </Data>
                <Data name="owner_type">
                    <value>Public</value>
                </Data>
                <Data name="purpose">
                    <value>Irrigation</value>
                </Data>
                <Data name="construction">
                    <value>Man Made</value>
                </Data>
                <Data name="condition">
                    <value>Good</value>
                </Data>
                <Data name="print_order">
                    <value>108</value>
                </Data>
                <Data name="wb_id">
                    <value>Ba/Moir/01</value>
                </Data>
                <Data name="storage_capacity">
                    <value>1043.0</value>
                </Data>
                <Data name="wb_surface_id">
                    <value>5272</value>
                </Data>
                <Data name="created_at">
                    <value>2022-10-06 00:00:00</value>
                </Data>
                <Data name="updated_at">
                    <value>2023-07-22 14:03:14.307690</value>
                </Data>
                <Data name="book_id">
                    <value>2</value>
                </Data>
                <Data name="owners">
                    <value>Govt. of Goa</value>
                </Data>
                <Data name="label_x">
                    <value>990747.0</value>
                </Data>
                <Data name="label_y">
                    <value>1022662.06248108</value>
                </Data>
            </ExtendedData>
            <Point id="4793">
                <coordinates>73.859327697,15.594114925,0.0</coordinates>
            </Point>
        </Placemark>
        <Placemark id="4827">
            <ExtendedData>
                <Data name="direction">
                    <value>https://maps.google.com?q=15.59437,73.85835&amp;t=h</value>
                </Data>
                <Data name="id">
                    <value>6080</value>
                </Data>
                <Data name="name">
                    <value>Concoi</value>
                </Data>
                <Data name="taluka">
                    <value>Bardez</value>
                </Data>
                <Data name="syno">
                    <value>112</value>
                </Data>
                <Data name="subdiv">
                    <value>30</value>
                </Data>
                <Data name="village">
                    <value>Moira</value>
                </Data>
                <Data name="latitude">
                    <value>15.59437</value>
                </Data>
                <Data name="longitude">
                    <value>73.85835</value>
                </Data>
                <Data name="photo_1">
                    <value>DCIM/20230419105729459.jpg</value>
                </Data>
                <Data name="photo_2">
                    <value>DCIM/20230419105736062.jpg</value>
                </Data>
                <Data name="constituency">
                    <value>10 - Aldona</value>
                </Data>
                <Data name="status">
                    <value>Completed</value>
                </Data>
                <Data name="panchayat">
                    <value>Moira</value>
                </Data>
                <Data name="wb_type">
                    <value>Tank</value>
                </Data>
                <Data name="owner_type">
                    <value>Communidade</value>
                </Data>
                <Data name="purpose">
                    <value>Irrigation</value>
                </Data>
                <Data name="construction">
                    <value>Man Made</value>
                </Data>
                <Data name="condition">
                    <value>Good</value>
                </Data>
                <Data name="print_order">
                    <value>110</value>
                </Data>
                <Data name="wb_id">
                    <value>Ba/Moir/05</value>
                </Data>
                <Data name="storage_capacity">
                    <value>36.0</value>
                </Data>
                <Data name="wb_surface_id">
                    <value>5498</value>
                </Data>
                <Data name="created_at">
                    <value>2023-04-19 00:00:00</value>
                </Data>
                <Data name="updated_at">
                    <value>2023-07-22 14:03:14.307690</value>
                </Data>
                <Data name="book_id">
                    <value>2</value>
                </Data>
                <Data name="owners">
                    <value>Communidade</value>
                </Data>
                <Data name="label_x">
                    <value>990747.0</value>
                </Data>
                <Data name="label_y">
                    <value>1022912.06248108</value>
                </Data>
            </ExtendedData>
            <Point id="4826">
                <coordinates>73.858346716,15.594369151,0.0</coordinates>
            </Point>
        </Placemark>
        <Placemark id="4859">
            <ExtendedData>
                <Data name="direction">
                    <value>https://maps.google.com?q=15.59426,73.85856&amp;t=h</value>
                </Data>
                <Data name="id">
                    <value>5775</value>
                </Data>
                <Data name="name">
                    <value>Cansoi</value>
                </Data>
                <Data name="taluka">
                    <value>Bardez</value>
                </Data>
                <Data name="syno">
                    <value>112</value>
                </Data>
                <Data name="subdiv">
                    <value>34</value>
                </Data>
                <Data name="village">
                    <value>Moira</value>
                </Data>
                <Data name="latitude">
                    <value>15.59426</value>
                </Data>
                <Data name="longitude">
                    <value>73.85856</value>
                </Data>
                <Data name="photo_1">
                    <value>DCIM/20230419105754745.jpg</value>
                </Data>
                <Data name="photo_2">
                    <value>DCIM/20230419105801301.jpg</value>
                </Data>
                <Data name="syno_pt_list">
                    <value/>
                </Data>
                <Data name="constituency">
                    <value>10 - Aldona</value>
                </Data>
                <Data name="status">
                    <value>Completed</value>
                </Data>
                <Data name="panchayat">
                    <value>Moira</value>
                </Data>
                <Data name="wb_type">
                    <value>Pond</value>
                </Data>
                <Data name="owner_type">
                    <value>Communidade</value>
                </Data>
                <Data name="purpose">
                    <value>Storage</value>
                </Data>
                <Data name="construction">
                    <value>Natural</value>
                </Data>
                <Data name="condition">
                    <value>Needs Maintenance</value>
                </Data>
                <Data name="print_order">
                    <value>012</value>
                </Data>
                <Data name="wb_id">
                    <value>Ba/Moir/04</value>
                </Data>
                <Data name="storage_capacity">
                    <value>103.0</value>
                </Data>
                <Data name="wb_surface_id">
                    <value>5331</value>
                </Data>
                <Data name="created_at">
                    <value>2022-10-20 00:00:00</value>
                </Data>
                <Data name="updated_at">
                    <value>2023-07-22 14:03:14.307690</value>
                </Data>
                <Data name="book_id">
                    <value>2</value>
                </Data>
                <Data name="owners">
                    <value>Communidade</value>
                </Data>
                <Data name="label_x">
                    <value>990747.0</value>
                </Data>
                <Data name="label_y">
                    <value>1022412.06248108</value>
                </Data>
            </ExtendedData>
            <Point id="4858">
                <coordinates>73.858564389,15.594257654,0.0</coordinates>
            </Point>
        </Placemark>
        <Placemark id="4892">
            <ExtendedData>
                <Data name="direction">
                    <value>https://maps.google.com?q=15.5953,73.85657&amp;t=h</value>
                </Data>
                <Data name="id">
                    <value>5776</value>
                </Data>
                <Data name="name">
                    <value>Baras</value>
                </Data>
                <Data name="taluka">
                    <value>Bardez</value>
                </Data>
                <Data name="syno">
                    <value>114</value>
                </Data>
                <Data name="subdiv">
                    <value>26</value>
                </Data>
                <Data name="village">
                    <value>Moira</value>
                </Data>
                <Data name="latitude">
                    <value>15.5953</value>
                </Data>
                <Data name="longitude">
                    <value>73.85657</value>
                </Data>
                <Data name="photo_1">
                    <value>DCIM/20230419105250001.jpg</value>
                </Data>
                <Data name="photo_2">
                    <value>DCIM/20230419105254026.jpg</value>
                </Data>
                <Data name="syno_pt_list">
                    <value/>
                </Data>
                <Data name="constituency">
                    <value>10 - Aldona</value>
                </Data>
                <Data name="status">
                    <value>Completed</value>
                </Data>
                <Data name="panchayat">
                    <value>Moira</value>
                </Data>
                <Data name="wb_type">
                    <value>Pond</value>
                </Data>
                <Data name="owner_type">
                    <value>Communidade</value>
                </Data>
                <Data name="purpose">
                    <value>Irrigation</value>
                </Data>
                <Data name="construction">
                    <value>Natural</value>
                </Data>
                <Data name="condition">
                    <value>Needs Maintenance</value>
                </Data>
                <Data name="print_order">
                    <value>011</value>
                </Data>
                <Data name="wb_id">
                    <value>Ba/Moir/03</value>
                </Data>
                <Data name="storage_capacity">
                    <value>138.0</value>
                </Data>
                <Data name="wb_surface_id">
                    <value>5332</value>
                </Data>
                <Data name="created_at">
                    <value>2022-10-20 00:00:00</value>
                </Data>
                <Data name="updated_at">
                    <value>2023-07-22 14:03:14.307690</value>
                </Data>
                <Data name="book_id">
                    <value>2</value>
                </Data>
                <Data name="owners">
                    <value>Communidade</value>
                </Data>
                <Data name="label_x">
                    <value>990747.0</value>
                </Data>
                <Data name="label_y">
                    <value>1023662.06248108</value>
                </Data>
            </ExtendedData>
            <Point id="4891">
                <coordinates>73.856566024,15.59529503,0.0</coordinates>
            </Point>
        </Placemark>
        <Placemark id="4925">
            <ExtendedData>
                <Data name="direction">
                    <value>https://maps.google.com?q=15.59516,73.85729&amp;t=h</value>
                </Data>
                <Data name="id">
                    <value>6079</value>
                </Data>
                <Data name="name">
                    <value>Cansoe</value>
                </Data>
                <Data name="taluka">
                    <value>Bardez</value>
                </Data>
                <Data name="syno">
                    <value>112</value>
                </Data>
                <Data name="subdiv">
                    <value>2</value>
                </Data>
                <Data name="village">
                    <value>Moira</value>
                </Data>
                <Data name="latitude">
                    <value>15.59516</value>
                </Data>
                <Data name="longitude">
                    <value>73.85729</value>
                </Data>
                <Data name="photo_1">
                    <value>DCIM/20230419105427410.jpg</value>
                </Data>
                <Data name="photo_2">
                    <value>DCIM/20230419105432843.jpg</value>
                </Data>
                <Data name="constituency">
                    <value>10 - Aldona</value>
                </Data>
                <Data name="status">
                    <value>Completed</value>
                </Data>
                <Data name="panchayat">
                    <value>Moira</value>
                </Data>
                <Data name="wb_type">
                    <value>Tank</value>
                </Data>
                <Data name="owner_type">
                    <value>Private</value>
                </Data>
                <Data name="purpose">
                    <value>Irrigation</value>
                </Data>
                <Data name="construction">
                    <value>Man Made</value>
                </Data>
                <Data name="condition">
                    <value>Good</value>
                </Data>
                <Data name="print_order">
                    <value>111</value>
                </Data>
                <Data name="wb_id">
                    <value>Ba/Moir/06</value>
                </Data>
                <Data name="storage_capacity">
                    <value>26.0</value>
                </Data>
                <Data name="wb_surface_id">
                    <value>5499</value>
                </Data>
                <Data name="created_at">
                    <value>2023-04-19 00:00:00</value>
                </Data>
                <Data name="updated_at">
                    <value>2023-07-22 14:03:14.307690</value>
                </Data>
                <Data name="book_id">
                    <value>2</value>
                </Data>
                <Data name="owners">
                    <value>Nelson Anthony Mendonca</value>
                </Data>
                <Data name="label_x">
                    <value>990747.0</value>
                </Data>
                <Data name="label_y">
                    <value>1023412.06248108</value>
                </Data>
            </ExtendedData>
            <Point id="4924">
                <coordinates>73.857289815,15.595164905,0.0</coordinates>
            </Point>
        </Placemark>
        <Placemark id="4957">
            <ExtendedData>
                <Data name="direction">
                    <value>https://maps.google.com?q=15.59497,73.85752&amp;t=h</value>
                </Data>
                <Data name="id">
                    <value>5512</value>
                </Data>
                <Data name="name">
                    <value>Cansoe</value>
                </Data>
                <Data name="taluka">
                    <value>Bardez</value>
                </Data>
                <Data name="syno">
                    <value>112</value>
                </Data>
                <Data name="subdiv">
                    <value>11</value>
                </Data>
                <Data name="village">
                    <value>Moira</value>
                </Data>
                <Data name="latitude">
                    <value>15.59497</value>
                </Data>
                <Data name="longitude">
                    <value>73.85752</value>
                </Data>
                <Data name="photo_1">
                    <value>DCIM/20230419105621931.jpg</value>
                </Data>
                <Data name="photo_2">
                    <value>DCIM/20230419105625034.jpg</value>
                </Data>
                <Data name="syno_pt_list">
                    <value>112/7-11</value>
                </Data>
                <Data name="constituency">
                    <value>10 - Aldona</value>
                </Data>
                <Data name="status">
                    <value>Completed</value>
                </Data>
                <Data name="panchayat">
                    <value>Moira</value>
                </Data>
                <Data name="wb_type">
                    <value>Tank</value>
                </Data>
                <Data name="owner_type">
                    <value>Communidade</value>
                </Data>
                <Data name="purpose">
                    <value>Irrigation</value>
                </Data>
                <Data name="construction">
                    <value>Man Made</value>
                </Data>
                <Data name="condition">
                    <value>Good</value>
                </Data>
                <Data name="print_order">
                    <value>109</value>
                </Data>
                <Data name="wb_id">
                    <value>Ba/Moir/02</value>
                </Data>
                <Data name="storage_capacity">
                    <value>176.0</value>
                </Data>
                <Data name="wb_surface_id">
                    <value>4328</value>
                </Data>
                <Data name="created_at">
                    <value>2022-08-02 15:32:21.202148</value>
                </Data>
                <Data name="updated_at">
                    <value>2023-07-22 14:03:14.307690</value>
                </Data>
                <Data name="book_id">
                    <value>2</value>
                </Data>
                <Data name="owners">
                    <value>Communidade</value>
                </Data>
                <Data name="label_x">
                    <value>990747.0</value>
                </Data>
                <Data name="label_y">
                    <value>1023162.06248108</value>
                </Data>
            </ExtendedData>
            <Point id="4956">
                <coordinates>73.857518607,15.594974037,0.0</coordinates>
            </Point>
        </Placemark>
    </Document>
</kml>
