<?xml version="1.0" encoding="UTF-8"?>
<kml xmlns="http://www.opengis.net/kml/2.2" xmlns:gx="http://www.google.com/kml/ext/2.2">
    <Document id="8252">
        <Placemark id="8254">
            <ExtendedData>
                <Data name="direction">
                    <value>https://maps.google.com?q=15.62681,73.87312&amp;t=h</value>
                </Data>
                <Data name="id">
                    <value>5530</value>
                </Data>
                <Data name="name">
                    <value>Dharcha Set,Dharda Set</value>
                </Data>
                <Data name="taluka">
                    <value>Bardez</value>
                </Data>
                <Data name="syno">
                    <value>117</value>
                </Data>
                <Data name="subdiv">
                    <value>1,3</value>
                </Data>
                <Data name="village">
                    <value>Sircaim</value>
                </Data>
                <Data name="latitude">
                    <value>15.62681</value>
                </Data>
                <Data name="longitude">
                    <value>73.87312</value>
                </Data>
                <Data name="photo_1">
                    <value>DCIM/20221006085714397.jpg</value>
                </Data>
                <Data name="photo_2">
                    <value>DCIM/20221006085740396.jpg</value>
                </Data>
                <Data name="syno_pt_list">
                    <value>117/1-3</value>
                </Data>
                <Data name="constituency">
                    <value>04 - Tivim</value>
                </Data>
                <Data name="status">
                    <value>Completed</value>
                </Data>
                <Data name="panchayat">
                    <value>Sirsaim</value>
                </Data>
                <Data name="wb_type">
                    <value>Lake</value>
                </Data>
                <Data name="owner_type">
                    <value>Communidade</value>
                </Data>
                <Data name="purpose">
                    <value>Irrigation</value>
                </Data>
                <Data name="construction">
                    <value>Natural</value>
                </Data>
                <Data name="condition">
                    <value>Needs Maintenance</value>
                </Data>
                <Data name="print_order">
                    <value>008</value>
                </Data>
                <Data name="wb_id">
                    <value>Ba/Sirc/01</value>
                </Data>
                <Data name="storage_capacity">
                    <value>12345.0</value>
                </Data>
                <Data name="wb_surface_id">
                    <value>4813</value>
                </Data>
                <Data name="created_at">
                    <value>2022-08-04 05:29:19</value>
                </Data>
                <Data name="updated_at">
                    <value>2023-07-22 14:03:14.307690</value>
                </Data>
                <Data name="book_id">
                    <value>2</value>
                </Data>
                <Data name="owners">
                    <value>Communidade</value>
                </Data>
                <Data name="label_x">
                    <value>990747.0</value>
                </Data>
                <Data name="label_y">
                    <value>1025412.06248108</value>
                </Data>
            </ExtendedData>
            <Point id="8253">
                <coordinates>73.873115017,15.626808406,0.0</coordinates>
            </Point>
        </Placemark>
        <Placemark id="8287">
            <ExtendedData>
                <Data name="direction">
                    <value>https://maps.google.com?q=15.61707,73.88134&amp;t=h</value>
                </Data>
                <Data name="id">
                    <value>2933</value>
                </Data>
                <Data name="name">
                    <value>Bandurly, Bhaunicho Aco,Capel Wado, Gudo, Sapavad,Surangicho Aco</value>
                </Data>
                <Data name="taluka">
                    <value>Bardez</value>
                </Data>
                <Data name="syno">
                    <value>40</value>
                </Data>
                <Data name="subdiv">
                    <value>35</value>
                </Data>
                <Data name="village">
                    <value>Sircaim</value>
                </Data>
                <Data name="latitude">
                    <value>15.61707</value>
                </Data>
                <Data name="longitude">
                    <value>73.88134</value>
                </Data>
                <Data name="photo_1">
                    <value>DCIM/20221006092521670.jpg</value>
                </Data>
                <Data name="photo_2">
                    <value>DCIM/20221006092736351.jpg</value>
                </Data>
                <Data name="syno_pt_list">
                    <value>40/1,5,7-8,11-13,16-18,20-21-22,27-28,30-32-33-37; 42/4,9,13-14,17-18,20-23,25-29,31,33,33-34,36-37,41-47</value>
                </Data>
                <Data name="constituency">
                    <value>04 - Tivim</value>
                </Data>
                <Data name="status">
                    <value>Completed</value>
                </Data>
                <Data name="panchayat">
                    <value>Sirsaim</value>
                </Data>
                <Data name="wb_type">
                    <value>Pond</value>
                </Data>
                <Data name="owner_type">
                    <value>Private</value>
                </Data>
                <Data name="purpose">
                    <value>Irrigation</value>
                </Data>
                <Data name="construction">
                    <value>Natural</value>
                </Data>
                <Data name="condition">
                    <value>Needs Maintenance</value>
                </Data>
                <Data name="print_order">
                    <value>073</value>
                </Data>
                <Data name="wb_id">
                    <value>Ba/Sirc/02</value>
                </Data>
                <Data name="storage_capacity">
                    <value>1547.0</value>
                </Data>
                <Data name="wb_surface_id">
                    <value>4814</value>
                </Data>
                <Data name="created_at">
                    <value>2020-05-03 04:59:31</value>
                </Data>
                <Data name="updated_at">
                    <value>2023-07-22 14:03:14.307690</value>
                </Data>
                <Data name="book_id">
                    <value>2</value>
                </Data>
                <Data name="owners">
                    <value>Ambrasio D'Souza
Ambrosia D'Souza
Arjun Sakharam Naik
Carlos Michael D`Souza
Clara Lourdes D'Souza
Communidade
Fabrica  da Igrija Sersaim
Fabrica de Igreja de Sirsaim
Fabrica de Igreju de Sirsai
Fr. Antonio E. D'Souza
Fr. Antonio E. D'souza
Jomin A. J. D'Souza
Jose Ortense D'Souza
Luis D'Souza
Maria E. D'Souza
Maria Venifred Lobo
Nala Communidade
Nityanannd Bhaskar  Shet
Pauline Araujo
Rujay Kistu Lobo
Silvester D`Souza</value>
                </Data>
                <Data name="label_x">
                    <value>990747.0</value>
                </Data>
                <Data name="label_y">
                    <value>1024912.06248108</value>
                </Data>
            </ExtendedData>
            <Point id="8286">
                <coordinates>73.881343331,15.617065071,0.0</coordinates>
            </Point>
        </Placemark>
    </Document>
</kml>
