<?xml version="1.0" encoding="UTF-8"?>
<kml xmlns="http://www.opengis.net/kml/2.2" xmlns:gx="http://www.google.com/kml/ext/2.2">
    <Document id="8818">
        <Placemark id="8820">
            <ExtendedData>
                <Data name="direction">
                    <value>https://maps.google.com?q=15.58638,73.84836&amp;t=h</value>
                </Data>
                <Data name="id">
                    <value>5657</value>
                </Data>
                <Data name="name">
                    <value>Kuttacho Akh</value>
                </Data>
                <Data name="taluka">
                    <value>Bardez</value>
                </Data>
                <Data name="syno">
                    <value>77</value>
                </Data>
                <Data name="subdiv">
                    <value>1</value>
                </Data>
                <Data name="village">
                    <value>Ucassaim</value>
                </Data>
                <Data name="latitude">
                    <value>15.58638</value>
                </Data>
                <Data name="longitude">
                    <value>73.84836</value>
                </Data>
                <Data name="photo_1">
                    <value>DCIM/20230419103038275.jpg</value>
                </Data>
                <Data name="photo_2">
                    <value>DCIM/20230419103043596.jpg</value>
                </Data>
                <Data name="syno_pt_list">
                    <value>76/4; 77/1</value>
                </Data>
                <Data name="constituency">
                    <value>10 - Aldona</value>
                </Data>
                <Data name="status">
                    <value>Completed</value>
                </Data>
                <Data name="panchayat">
                    <value>Ucassaim,Paliem-Punola</value>
                </Data>
                <Data name="wb_type">
                    <value>Pond</value>
                </Data>
                <Data name="owner_type">
                    <value>Communidade</value>
                </Data>
                <Data name="purpose">
                    <value>Storage</value>
                </Data>
                <Data name="construction">
                    <value>Natural</value>
                </Data>
                <Data name="condition">
                    <value>Needs Maintenance</value>
                </Data>
                <Data name="print_order">
                    <value>081</value>
                </Data>
                <Data name="wb_id">
                    <value>Ba/Ucas/03</value>
                </Data>
                <Data name="storage_capacity">
                    <value>274.0</value>
                </Data>
                <Data name="wb_surface_id">
                    <value>4828</value>
                </Data>
                <Data name="created_at">
                    <value>2022-08-31 20:17:04.799057</value>
                </Data>
                <Data name="updated_at">
                    <value>2023-07-22 14:03:14.307690</value>
                </Data>
                <Data name="book_id">
                    <value>2</value>
                </Data>
                <Data name="owners">
                    <value>Communidade</value>
                </Data>
                <Data name="label_x">
                    <value>990747.0</value>
                </Data>
                <Data name="label_y">
                    <value>1021162.06248108</value>
                </Data>
            </ExtendedData>
            <Point id="8819">
                <coordinates>73.848358247,15.586384639,0.0</coordinates>
            </Point>
        </Placemark>
        <Placemark id="8853">
            <ExtendedData>
                <Data name="direction">
                    <value>https://maps.google.com?q=15.5861,73.84918&amp;t=h</value>
                </Data>
                <Data name="id">
                    <value>5659</value>
                </Data>
                <Data name="name">
                    <value>Kuttacho Akh</value>
                </Data>
                <Data name="taluka">
                    <value>Bardez</value>
                </Data>
                <Data name="syno">
                    <value>77</value>
                </Data>
                <Data name="subdiv">
                    <value>1</value>
                </Data>
                <Data name="village">
                    <value>Ucassaim</value>
                </Data>
                <Data name="latitude">
                    <value>15.5861</value>
                </Data>
                <Data name="longitude">
                    <value>73.84918</value>
                </Data>
                <Data name="photo_1">
                    <value>DCIM/20230419102807474.jpg</value>
                </Data>
                <Data name="photo_2">
                    <value>DCIM/20230419102812864.jpg</value>
                </Data>
                <Data name="syno_pt_list">
                    <value>77/3-A</value>
                </Data>
                <Data name="constituency">
                    <value>10 - Aldona</value>
                </Data>
                <Data name="status">
                    <value>Completed</value>
                </Data>
                <Data name="panchayat">
                    <value>Ucassaim,Paliem-Punola</value>
                </Data>
                <Data name="wb_type">
                    <value>Tank</value>
                </Data>
                <Data name="owner_type">
                    <value>Communidade</value>
                </Data>
                <Data name="purpose">
                    <value>Storage</value>
                </Data>
                <Data name="construction">
                    <value>Natural/Man Made</value>
                </Data>
                <Data name="condition">
                    <value>Needs Maintenance</value>
                </Data>
                <Data name="print_order">
                    <value>151</value>
                </Data>
                <Data name="wb_id">
                    <value>Ba/Ucas/04</value>
                </Data>
                <Data name="storage_capacity">
                    <value>130.0</value>
                </Data>
                <Data name="wb_surface_id">
                    <value>4829</value>
                </Data>
                <Data name="created_at">
                    <value>2022-08-31 20:18:04.796191</value>
                </Data>
                <Data name="updated_at">
                    <value>2023-07-22 14:03:14.307690</value>
                </Data>
                <Data name="book_id">
                    <value>2</value>
                </Data>
                <Data name="owners">
                    <value>Communidade</value>
                </Data>
                <Data name="label_x">
                    <value>990747.0</value>
                </Data>
                <Data name="label_y">
                    <value>1020912.06248108</value>
                </Data>
            </ExtendedData>
            <Point id="8852">
                <coordinates>73.849176995,15.586097515,0.0</coordinates>
            </Point>
        </Placemark>
        <Placemark id="8886">
            <ExtendedData>
                <Data name="direction">
                    <value>https://maps.google.com?q=15.58548,73.84872&amp;t=h</value>
                </Data>
                <Data name="id">
                    <value>5146</value>
                </Data>
                <Data name="name">
                    <value>Jagbai Rawalnath Temple Tank; Kuttacho Akh</value>
                </Data>
                <Data name="taluka">
                    <value>Bardez</value>
                </Data>
                <Data name="syno">
                    <value>77</value>
                </Data>
                <Data name="subdiv">
                    <value>4</value>
                </Data>
                <Data name="village">
                    <value>Ucassaim</value>
                </Data>
                <Data name="latitude">
                    <value>15.58548</value>
                </Data>
                <Data name="longitude">
                    <value>73.84872</value>
                </Data>
                <Data name="photo_1">
                    <value>DCIM/20221006120803676.jpg</value>
                </Data>
                <Data name="photo_2">
                    <value>DCIM/20221006120720397.jpg</value>
                </Data>
                <Data name="syno_pt_list">
                    <value>77/3</value>
                </Data>
                <Data name="constituency">
                    <value>10 - Aldona</value>
                </Data>
                <Data name="status">
                    <value>Completed</value>
                </Data>
                <Data name="panchayat">
                    <value>Ucassaim,Paliem-Punola</value>
                </Data>
                <Data name="wb_type">
                    <value>Temple Tank</value>
                </Data>
                <Data name="owner_type">
                    <value>Private</value>
                </Data>
                <Data name="purpose">
                    <value>Storage</value>
                </Data>
                <Data name="construction">
                    <value>Man Made</value>
                </Data>
                <Data name="condition">
                    <value>Good</value>
                </Data>
                <Data name="print_order">
                    <value>105</value>
                </Data>
                <Data name="wb_id">
                    <value>Ba/Ucas/05</value>
                </Data>
                <Data name="storage_capacity">
                    <value>99.0</value>
                </Data>
                <Data name="wb_surface_id">
                    <value>4027</value>
                </Data>
                <Data name="created_at">
                    <value>2022-07-19 00:00:00</value>
                </Data>
                <Data name="updated_at">
                    <value>2023-07-22 14:03:14.307690</value>
                </Data>
                <Data name="book_id">
                    <value>2</value>
                </Data>
                <Data name="owners">
                    <value>Antonia Vitorino Fernandes alias Anthony Victor Fernandes
Eufemia Fernandes
Idalina D'Sa
Purificacao Lopes
Sheila Perpet Fernandes</value>
                </Data>
                <Data name="label_x">
                    <value>990747.0</value>
                </Data>
                <Data name="label_y">
                    <value>1020412.06248108</value>
                </Data>
            </ExtendedData>
            <Point id="8885">
                <coordinates>73.848716757,15.585476513,0.0</coordinates>
            </Point>
        </Placemark>
        <Placemark id="8919">
            <ExtendedData>
                <Data name="direction">
                    <value>https://maps.google.com?q=15.58613,73.84892&amp;t=h</value>
                </Data>
                <Data name="id">
                    <value>5658</value>
                </Data>
                <Data name="name">
                    <value>Kuttacho Akh</value>
                </Data>
                <Data name="taluka">
                    <value>Bardez</value>
                </Data>
                <Data name="syno">
                    <value>77</value>
                </Data>
                <Data name="subdiv">
                    <value>1</value>
                </Data>
                <Data name="village">
                    <value>Ucassaim</value>
                </Data>
                <Data name="latitude">
                    <value>15.58613</value>
                </Data>
                <Data name="longitude">
                    <value>73.84892</value>
                </Data>
                <Data name="photo_1">
                    <value>DCIM/20230419103017431.jpg</value>
                </Data>
                <Data name="photo_2">
                    <value>DCIM/20230419103024600.jpg</value>
                </Data>
                <Data name="syno_pt_list">
                    <value>77/1,3</value>
                </Data>
                <Data name="constituency">
                    <value>10 - Aldona</value>
                </Data>
                <Data name="status">
                    <value>Completed</value>
                </Data>
                <Data name="panchayat">
                    <value>Ucassaim,Paliem-Punola</value>
                </Data>
                <Data name="wb_type">
                    <value>Pond</value>
                </Data>
                <Data name="owner_type">
                    <value>Communidade</value>
                </Data>
                <Data name="purpose">
                    <value>Storage</value>
                </Data>
                <Data name="construction">
                    <value>Natural</value>
                </Data>
                <Data name="condition">
                    <value>Needs Maintenance</value>
                </Data>
                <Data name="print_order">
                    <value>082</value>
                </Data>
                <Data name="wb_id">
                    <value>Ba/Ucas/07</value>
                </Data>
                <Data name="storage_capacity">
                    <value>38.0</value>
                </Data>
                <Data name="wb_surface_id">
                    <value>4830</value>
                </Data>
                <Data name="created_at">
                    <value>2022-08-31 20:18:04.796191</value>
                </Data>
                <Data name="updated_at">
                    <value>2023-07-22 14:03:14.307690</value>
                </Data>
                <Data name="book_id">
                    <value>2</value>
                </Data>
                <Data name="owners">
                    <value>Communidade</value>
                </Data>
                <Data name="label_x">
                    <value>990747.0</value>
                </Data>
                <Data name="label_y">
                    <value>1020662.06248108</value>
                </Data>
            </ExtendedData>
            <Point id="8918">
                <coordinates>73.848915614,15.586134888,0.0</coordinates>
            </Point>
        </Placemark>
        <Placemark id="8952">
            <ExtendedData>
                <Data name="direction">
                    <value>https://maps.google.com?q=15.59348,73.84772&amp;t=h</value>
                </Data>
                <Data name="id">
                    <value>939</value>
                </Data>
                <Data name="name">
                    <value>Jualem</value>
                </Data>
                <Data name="taluka">
                    <value>Bardez</value>
                </Data>
                <Data name="syno">
                    <value>57</value>
                </Data>
                <Data name="subdiv">
                    <value>13</value>
                </Data>
                <Data name="village">
                    <value>Ucassaim</value>
                </Data>
                <Data name="latitude">
                    <value>15.59348</value>
                </Data>
                <Data name="longitude">
                    <value>73.84772</value>
                </Data>
                <Data name="photo_1">
                    <value>DCIM/20230419105153308.jpg</value>
                </Data>
                <Data name="photo_2">
                    <value>DCIM/20230419105205152.jpg</value>
                </Data>
                <Data name="syno_pt_list">
                    <value>57/11,13-16; 125/11-12</value>
                </Data>
                <Data name="constituency">
                    <value>10 - Aldona</value>
                </Data>
                <Data name="status">
                    <value>Completed</value>
                </Data>
                <Data name="panchayat">
                    <value>Ucassaim,Paliem-Punola</value>
                </Data>
                <Data name="wb_type">
                    <value>Pond</value>
                </Data>
                <Data name="owner_type">
                    <value>Public</value>
                </Data>
                <Data name="purpose">
                    <value>Storage</value>
                </Data>
                <Data name="construction">
                    <value>Natural</value>
                </Data>
                <Data name="condition">
                    <value>Needs Maintenance</value>
                </Data>
                <Data name="print_order">
                    <value>080</value>
                </Data>
                <Data name="wb_id">
                    <value>Ba/Ucas/02</value>
                </Data>
                <Data name="storage_capacity">
                    <value>1479.0</value>
                </Data>
                <Data name="wb_surface_id">
                    <value>4831</value>
                </Data>
                <Data name="created_at">
                    <value>2020-02-28 15:24:34</value>
                </Data>
                <Data name="updated_at">
                    <value>2023-07-22 14:03:14.307690</value>
                </Data>
                <Data name="book_id">
                    <value>2</value>
                </Data>
                <Data name="owners">
                    <value>Government</value>
                </Data>
                <Data name="label_x">
                    <value>990747.0</value>
                </Data>
                <Data name="label_y">
                    <value>1022162.06248108</value>
                </Data>
            </ExtendedData>
            <Point id="8951">
                <coordinates>73.847715931,15.593477954,0.0</coordinates>
            </Point>
        </Placemark>
        <Placemark id="8985">
            <ExtendedData>
                <Data name="direction">
                    <value>https://maps.google.com?q=15.58925,73.84983&amp;t=h</value>
                </Data>
                <Data name="id">
                    <value>981</value>
                </Data>
                <Data name="name">
                    <value>Marsaldo</value>
                </Data>
                <Data name="taluka">
                    <value>Bardez</value>
                </Data>
                <Data name="syno">
                    <value>65</value>
                </Data>
                <Data name="subdiv">
                    <value>7</value>
                </Data>
                <Data name="village">
                    <value>Ucassaim</value>
                </Data>
                <Data name="latitude">
                    <value>15.58925</value>
                </Data>
                <Data name="longitude">
                    <value>73.84983</value>
                </Data>
                <Data name="photo_1">
                    <value>DCIM/20230419103059341.jpg</value>
                </Data>
                <Data name="photo_2">
                    <value>DCIM/20230419103105617.jpg</value>
                </Data>
                <Data name="syno_pt_list">
                    <value>65/7; 66/2</value>
                </Data>
                <Data name="constituency">
                    <value>10 - Aldona</value>
                </Data>
                <Data name="status">
                    <value>Completed</value>
                </Data>
                <Data name="panchayat">
                    <value>Ucassaim,Paliem-Punola</value>
                </Data>
                <Data name="wb_type">
                    <value>Tank</value>
                </Data>
                <Data name="owner_type">
                    <value>Communidade</value>
                </Data>
                <Data name="purpose">
                    <value>Irrigation</value>
                </Data>
                <Data name="construction">
                    <value>Natural/Man Made</value>
                </Data>
                <Data name="condition">
                    <value>Good</value>
                </Data>
                <Data name="print_order">
                    <value>150</value>
                </Data>
                <Data name="wb_id">
                    <value>Ba/Ucas/01</value>
                </Data>
                <Data name="storage_capacity">
                    <value>2637.0</value>
                </Data>
                <Data name="wb_surface_id">
                    <value>4031</value>
                </Data>
                <Data name="created_at">
                    <value>2020-02-28 15:24:34</value>
                </Data>
                <Data name="updated_at">
                    <value>2023-07-22 14:03:14.307690</value>
                </Data>
                <Data name="book_id">
                    <value>2</value>
                </Data>
                <Data name="owners">
                    <value>Communidade</value>
                </Data>
                <Data name="label_x">
                    <value>990747.0</value>
                </Data>
                <Data name="label_y">
                    <value>1021662.06248108</value>
                </Data>
            </ExtendedData>
            <Point id="8984">
                <coordinates>73.849827528,15.589254153,0.0</coordinates>
            </Point>
        </Placemark>
    </Document>
</kml>
