<?xml version="1.0" encoding="UTF-8"?>
<kml xmlns="http://www.opengis.net/kml/2.2" xmlns:gx="http://www.google.com/kml/ext/2.2">
    <Document id="19583">
        <Placemark id="19585">
            <ExtendedData>
                <Data name="direction">
                    <value>https://maps.google.com?q=15.32519,74.11074&amp;t=h</value>
                </Data>
                <Data name="id">
                    <value>4367</value>
                </Data>
                <Data name="name">
                    <value>Kholuoli</value>
                </Data>
                <Data name="taluka">
                    <value>Dharbandora</value>
                </Data>
                <Data name="syno">
                    <value>21</value>
                </Data>
                <Data name="subdiv">
                    <value>5</value>
                </Data>
                <Data name="village">
                    <value>Camarconda</value>
                </Data>
                <Data name="latitude">
                    <value>15.32519</value>
                </Data>
                <Data name="longitude">
                    <value>74.11074</value>
                </Data>
                <Data name="photo_1">
                    <value>DCIM/20220130121248094.jpg</value>
                </Data>
                <Data name="photo_2">
                    <value>DCIM/20220130121305795.jpg</value>
                </Data>
                <Data name="constituency">
                    <value>38 - Sanvordem</value>
                </Data>
                <Data name="status">
                    <value>Completed</value>
                </Data>
                <Data name="panchayat">
                    <value>Kirlapal-Dabhal</value>
                </Data>
                <Data name="wb_type">
                    <value>Tank</value>
                </Data>
                <Data name="owner_type">
                    <value>Private</value>
                </Data>
                <Data name="purpose">
                    <value>Irrigation</value>
                </Data>
                <Data name="construction">
                    <value>Man Made</value>
                </Data>
                <Data name="condition">
                    <value>Good</value>
                </Data>
                <Data name="print_order">
                    <value>045</value>
                </Data>
                <Data name="wb_id">
                    <value>Da/Cama/03</value>
                </Data>
                <Data name="storage_capacity">
                    <value>97.0</value>
                </Data>
                <Data name="wb_surface_id">
                    <value>3337</value>
                </Data>
                <Data name="created_at">
                    <value>2022-01-30 00:00:00</value>
                </Data>
                <Data name="updated_at">
                    <value>2023-07-22 14:03:14.307690</value>
                </Data>
                <Data name="book_id">
                    <value>1</value>
                </Data>
                <Data name="owners">
                    <value>Kanta Shankar Patil
Manohar Shankar Patil
Venkatesh Shankar Patil</value>
                </Data>
                <Data name="label_x">
                    <value>1005763.0</value>
                </Data>
                <Data name="label_y">
                    <value>994162.852777316</value>
                </Data>
            </ExtendedData>
            <Point id="19584">
                <coordinates>74.110741667,15.325191667,0.0</coordinates>
            </Point>
        </Placemark>
        <Placemark id="19617">
            <ExtendedData>
                <Data name="direction">
                    <value>https://maps.google.com?q=15.31597,74.09725&amp;t=h</value>
                </Data>
                <Data name="id">
                    <value>4097</value>
                </Data>
                <Data name="name">
                    <value>Somnath Temple Tank; Margan</value>
                </Data>
                <Data name="taluka">
                    <value>Dharbandora</value>
                </Data>
                <Data name="syno">
                    <value>1</value>
                </Data>
                <Data name="subdiv">
                    <value>5</value>
                </Data>
                <Data name="village">
                    <value>Camarconda</value>
                </Data>
                <Data name="latitude">
                    <value>15.31597</value>
                </Data>
                <Data name="longitude">
                    <value>74.09725</value>
                </Data>
                <Data name="photo_1">
                    <value>DCIM/20220130103346415.jpg</value>
                </Data>
                <Data name="photo_2">
                    <value>DCIM/20220130103402669.jpg</value>
                </Data>
                <Data name="constituency">
                    <value>38 - Sanvordem</value>
                </Data>
                <Data name="status">
                    <value>Completed</value>
                </Data>
                <Data name="panchayat">
                    <value>Kirlapal-Dabhal</value>
                </Data>
                <Data name="wb_type">
                    <value>Temple Tank</value>
                </Data>
                <Data name="owner_type">
                    <value>Public</value>
                </Data>
                <Data name="purpose">
                    <value>Storage</value>
                </Data>
                <Data name="construction">
                    <value>Man Made</value>
                </Data>
                <Data name="condition">
                    <value>Needs Maintenance</value>
                </Data>
                <Data name="print_order">
                    <value>036</value>
                </Data>
                <Data name="wb_id">
                    <value>Da/Cama/04</value>
                </Data>
                <Data name="storage_capacity">
                    <value>92.0</value>
                </Data>
                <Data name="wb_surface_id">
                    <value>2781</value>
                </Data>
                <Data name="created_at">
                    <value>2021-11-25 00:51:46.226617</value>
                </Data>
                <Data name="updated_at">
                    <value>2023-07-22 14:03:14.307690</value>
                </Data>
                <Data name="book_id">
                    <value>1</value>
                </Data>
                <Data name="owners">
                    <value>Government of Goa Daman and Diu</value>
                </Data>
                <Data name="label_x">
                    <value>1005763.0</value>
                </Data>
                <Data name="label_y">
                    <value>993162.852777316</value>
                </Data>
            </ExtendedData>
            <Point id="19616">
                <coordinates>74.097248909,15.315966058,0.0</coordinates>
            </Point>
        </Placemark>
        <Placemark id="19649">
            <ExtendedData>
                <Data name="direction">
                    <value>https://maps.google.com?q=15.32946,74.09486&amp;t=h</value>
                </Data>
                <Data name="id">
                    <value>2395</value>
                </Data>
                <Data name="name">
                    <value>Holulem</value>
                </Data>
                <Data name="taluka">
                    <value>Dharbandora</value>
                </Data>
                <Data name="syno">
                    <value>20</value>
                </Data>
                <Data name="subdiv">
                    <value>4</value>
                </Data>
                <Data name="village">
                    <value>Camarconda</value>
                </Data>
                <Data name="latitude">
                    <value>15.32946</value>
                </Data>
                <Data name="longitude">
                    <value>74.09486</value>
                </Data>
                <Data name="photo_1">
                    <value>DCIM/20220130095051691.jpg</value>
                </Data>
                <Data name="photo_2">
                    <value>DCIM/20220130095108196.jpg</value>
                </Data>
                <Data name="constituency">
                    <value>38 - Sanvordem</value>
                </Data>
                <Data name="status">
                    <value>Completed</value>
                </Data>
                <Data name="panchayat">
                    <value>Kirlapal-Dabhal</value>
                </Data>
                <Data name="wb_type">
                    <value>Tank</value>
                </Data>
                <Data name="owner_type">
                    <value>Public</value>
                </Data>
                <Data name="purpose">
                    <value>Irrigation</value>
                </Data>
                <Data name="construction">
                    <value>Man Made</value>
                </Data>
                <Data name="condition">
                    <value>Good</value>
                </Data>
                <Data name="print_order">
                    <value>044</value>
                </Data>
                <Data name="wb_id">
                    <value>Da/Cama/01</value>
                </Data>
                <Data name="storage_capacity">
                    <value>2723.0</value>
                </Data>
                <Data name="wb_surface_id">
                    <value>115</value>
                </Data>
                <Data name="created_at">
                    <value>2020-02-28 15:24:34</value>
                </Data>
                <Data name="updated_at">
                    <value>2023-07-22 14:03:14.307690</value>
                </Data>
                <Data name="book_id">
                    <value>1</value>
                </Data>
                <Data name="owners">
                    <value>Government of Goa, Daman and Diu</value>
                </Data>
                <Data name="label_x">
                    <value>1005763.0</value>
                </Data>
                <Data name="label_y">
                    <value>995162.852777316</value>
                </Data>
            </ExtendedData>
            <Point id="19648">
                <coordinates>74.094855533,15.329464782,0.0</coordinates>
            </Point>
        </Placemark>
    </Document>
</kml>
