<?xml version="1.0" encoding="UTF-8"?>
<kml xmlns="http://www.opengis.net/kml/2.2" xmlns:gx="http://www.google.com/kml/ext/2.2">
    <Document id="19975">
        <Placemark id="19977">
            <ExtendedData>
                <Data name="direction">
                    <value>https://maps.google.com?q=15.39336,74.12719&amp;t=h</value>
                </Data>
                <Data name="id">
                    <value>2419</value>
                </Data>
                <Data name="name">
                    <value>Dhareshwari Temple Tank;Serem Pingorem</value>
                </Data>
                <Data name="taluka">
                    <value>Dharbandora</value>
                </Data>
                <Data name="syno">
                    <value>54</value>
                </Data>
                <Data name="subdiv">
                    <value>5</value>
                </Data>
                <Data name="village">
                    <value>Darbandora</value>
                </Data>
                <Data name="latitude">
                    <value>15.39336</value>
                </Data>
                <Data name="longitude">
                    <value>74.12719</value>
                </Data>
                <Data name="photo_1">
                    <value>DCIM/20220107163743880.jpg</value>
                </Data>
                <Data name="photo_2">
                    <value>DCIM/20220107163755561.jpg</value>
                </Data>
                <Data name="constituency">
                    <value>38 - Sanvordem</value>
                </Data>
                <Data name="status">
                    <value>Completed</value>
                </Data>
                <Data name="panchayat">
                    <value>Dharbandora</value>
                </Data>
                <Data name="wb_type">
                    <value>Temple Tank</value>
                </Data>
                <Data name="owner_type">
                    <value>Private</value>
                </Data>
                <Data name="purpose">
                    <value>Storage</value>
                </Data>
                <Data name="construction">
                    <value>Man Made</value>
                </Data>
                <Data name="condition">
                    <value>Good</value>
                </Data>
                <Data name="print_order">
                    <value>037</value>
                </Data>
                <Data name="wb_id">
                    <value>Da/Darb/08</value>
                </Data>
                <Data name="storage_capacity">
                    <value>1836.0</value>
                </Data>
                <Data name="wb_surface_id">
                    <value>143</value>
                </Data>
                <Data name="created_at">
                    <value>2020-02-28 15:24:34</value>
                </Data>
                <Data name="updated_at">
                    <value>2023-07-22 14:03:14.307690</value>
                </Data>
                <Data name="book_id">
                    <value>1</value>
                </Data>
                <Data name="owners">
                    <value>Anant Vishnu Damle
Balkrishna Narayan Damle
Dinkar Gopal Damle
Ganessa Gopal Damle
Gurudas Gopal Damle
Ramchandra Gopal Damle</value>
                </Data>
                <Data name="label_x">
                    <value>1005763.0</value>
                </Data>
                <Data name="label_y">
                    <value>1003162.852777316</value>
                </Data>
            </ExtendedData>
            <Point id="19976">
                <coordinates>74.127192752,15.39335926,0.0</coordinates>
            </Point>
        </Placemark>
        <Placemark id="20009">
            <ExtendedData>
                <Data name="direction">
                    <value>https://maps.google.com?q=15.36104,74.14453&amp;t=h</value>
                </Data>
                <Data name="id">
                    <value>4342</value>
                </Data>
                <Data name="name">
                    <value>Quine Pericodil Malo</value>
                </Data>
                <Data name="taluka">
                    <value>Dharbandora</value>
                </Data>
                <Data name="syno">
                    <value>135</value>
                </Data>
                <Data name="subdiv">
                    <value>1</value>
                </Data>
                <Data name="village">
                    <value>Darbandora</value>
                </Data>
                <Data name="latitude">
                    <value>15.36104</value>
                </Data>
                <Data name="longitude">
                    <value>74.14453</value>
                </Data>
                <Data name="photo_1">
                    <value>DCIM/20220130125311089.jpg</value>
                </Data>
                <Data name="photo_2">
                    <value>DCIM/20220130125346028.jpg</value>
                </Data>
                <Data name="constituency">
                    <value>38 - Sanvordem</value>
                </Data>
                <Data name="status">
                    <value>Completed</value>
                </Data>
                <Data name="panchayat">
                    <value>Dharbandora</value>
                </Data>
                <Data name="wb_type">
                    <value>Tank</value>
                </Data>
                <Data name="owner_type">
                    <value>Private</value>
                </Data>
                <Data name="purpose">
                    <value>Irrigation</value>
                </Data>
                <Data name="construction">
                    <value>Natural/Man Made</value>
                </Data>
                <Data name="condition">
                    <value>Good</value>
                </Data>
                <Data name="print_order">
                    <value>055</value>
                </Data>
                <Data name="wb_id">
                    <value>Da/Darb/09</value>
                </Data>
                <Data name="storage_capacity">
                    <value>638.0</value>
                </Data>
                <Data name="wb_surface_id">
                    <value>3317</value>
                </Data>
                <Data name="created_at">
                    <value>2022-01-27 05:42:53.241522</value>
                </Data>
                <Data name="updated_at">
                    <value>2023-07-22 14:03:14.307690</value>
                </Data>
                <Data name="book_id">
                    <value>1</value>
                </Data>
                <Data name="owners">
                    <value>Naguesh Vishnu Sawant
Pandharinath Vishnu Sawant</value>
                </Data>
                <Data name="label_x">
                    <value>1005763.0</value>
                </Data>
                <Data name="label_y">
                    <value>1001412.852777316</value>
                </Data>
            </ExtendedData>
            <Point id="20008">
                <coordinates>74.144529884,15.361044602,0.0</coordinates>
            </Point>
        </Placemark>
        <Placemark id="20041">
            <ExtendedData>
                <Data name="direction">
                    <value>https://maps.google.com?q=15.39534,74.13166&amp;t=h</value>
                </Data>
                <Data name="id">
                    <value>2418</value>
                </Data>
                <Data name="name">
                    <value>Tallem</value>
                </Data>
                <Data name="taluka">
                    <value>Dharbandora</value>
                </Data>
                <Data name="syno">
                    <value>48</value>
                </Data>
                <Data name="subdiv">
                    <value>1</value>
                </Data>
                <Data name="village">
                    <value>Darbandora</value>
                </Data>
                <Data name="latitude">
                    <value>15.39534</value>
                </Data>
                <Data name="longitude">
                    <value>74.13166</value>
                </Data>
                <Data name="photo_1">
                    <value>DCIM/20220107164520207.jpg</value>
                </Data>
                <Data name="photo_2">
                    <value>DCIM/20220107164533850.jpg</value>
                </Data>
                <Data name="constituency">
                    <value>38 - Sanvordem</value>
                </Data>
                <Data name="status">
                    <value>Completed</value>
                </Data>
                <Data name="panchayat">
                    <value>Dharbandora</value>
                </Data>
                <Data name="wb_type">
                    <value>Tank</value>
                </Data>
                <Data name="owner_type">
                    <value>Private</value>
                </Data>
                <Data name="purpose">
                    <value>Irrigation</value>
                </Data>
                <Data name="construction">
                    <value>Man Made</value>
                </Data>
                <Data name="condition">
                    <value>Needs Maintenance</value>
                </Data>
                <Data name="print_order">
                    <value>054</value>
                </Data>
                <Data name="wb_id">
                    <value>Da/Darb/07</value>
                </Data>
                <Data name="storage_capacity">
                    <value>12480.0</value>
                </Data>
                <Data name="wb_surface_id">
                    <value>142</value>
                </Data>
                <Data name="created_at">
                    <value>2020-02-28 15:24:34</value>
                </Data>
                <Data name="updated_at">
                    <value>2023-07-22 14:03:14.307690</value>
                </Data>
                <Data name="book_id">
                    <value>1</value>
                </Data>
                <Data name="owners">
                    <value>Bombo Topio Khutkar
Dolo Ram Khutkar
Ganesh Bhivlo Khutkar
Ganesh Topio Khutkar
Kidio Babani Khutkar
Krishna Mono Khutkar
Omlem Sagun Khutkar
Putu Babani Khutkar
Ramnath Gopal Khutkar
Shantu Noru Khutkar
Surya Bhisso Khutkar
Vithal Arjun Khutkar
Yeshwant V.Kakodkar</value>
                </Data>
                <Data name="label_x">
                    <value>1005763.0</value>
                </Data>
                <Data name="label_y">
                    <value>1004162.852777316</value>
                </Data>
            </ExtendedData>
            <Point id="20040">
                <coordinates>74.131659826,15.395343306,0.0</coordinates>
            </Point>
        </Placemark>
    </Document>
</kml>
