<?xml version="1.0" encoding="UTF-8"?>
<kml xmlns="http://www.opengis.net/kml/2.2" xmlns:gx="http://www.google.com/kml/ext/2.2">
    <Document id="20073">
        <Placemark id="20075">
            <ExtendedData>
                <Data name="direction">
                    <value>https://maps.google.com?q=15.30348,74.11066&amp;t=h</value>
                </Data>
                <Data name="id">
                    <value>2392</value>
                </Data>
                <Data name="name">
                    <value>Moissal</value>
                </Data>
                <Data name="taluka">
                    <value>Dharbandora</value>
                </Data>
                <Data name="syno">
                    <value>16</value>
                </Data>
                <Data name="subdiv">
                    <value>2</value>
                </Data>
                <Data name="village">
                    <value>Moissal</value>
                </Data>
                <Data name="latitude">
                    <value>15.30348</value>
                </Data>
                <Data name="longitude">
                    <value>74.11066</value>
                </Data>
                <Data name="photo_1">
                    <value>DCIM/20220129151451642.jpg</value>
                </Data>
                <Data name="photo_2">
                    <value>DCIM/20220129151500423.jpg</value>
                </Data>
                <Data name="constituency">
                    <value>38 - Sanvordem</value>
                </Data>
                <Data name="status">
                    <value>Completed</value>
                </Data>
                <Data name="panchayat">
                    <value>Kirlapal-Dabhal</value>
                </Data>
                <Data name="wb_type">
                    <value>Pond</value>
                </Data>
                <Data name="owner_type">
                    <value>Private</value>
                </Data>
                <Data name="purpose">
                    <value>Irrigation</value>
                </Data>
                <Data name="construction">
                    <value>Natural</value>
                </Data>
                <Data name="condition">
                    <value>Needs Maintenance</value>
                </Data>
                <Data name="print_order">
                    <value>003</value>
                </Data>
                <Data name="wb_id">
                    <value>Da/Mois/02</value>
                </Data>
                <Data name="storage_capacity">
                    <value>14608.0</value>
                </Data>
                <Data name="wb_surface_id">
                    <value>112</value>
                </Data>
                <Data name="created_at">
                    <value>2020-02-28 15:24:34</value>
                </Data>
                <Data name="updated_at">
                    <value>2023-07-22 14:03:14.307690</value>
                </Data>
                <Data name="book_id">
                    <value>1</value>
                </Data>
                <Data name="owners">
                    <value>Parshuram Bhangui</value>
                </Data>
                <Data name="label_x">
                    <value>1005763.0</value>
                </Data>
                <Data name="label_y">
                    <value>991162.852777316</value>
                </Data>
            </ExtendedData>
            <Point id="20074">
                <coordinates>74.110664721,15.303477649,0.0</coordinates>
            </Point>
        </Placemark>
    </Document>
</kml>
