<?xml version="1.0" encoding="UTF-8"?>
<kml xmlns="http://www.opengis.net/kml/2.2" xmlns:gx="http://www.google.com/kml/ext/2.2">
    <Document id="20107">
        <Placemark id="20109">
            <ExtendedData>
                <Data name="direction">
                    <value>https://maps.google.com?q=15.36673,74.2187&amp;t=h</value>
                </Data>
                <Data name="id">
                    <value>4343</value>
                </Data>
                <Data name="name">
                    <value>Mahadev Temple Tank;Karea Xet</value>
                </Data>
                <Data name="taluka">
                    <value>Dharbandora</value>
                </Data>
                <Data name="syno">
                    <value>11</value>
                </Data>
                <Data name="subdiv">
                    <value>2</value>
                </Data>
                <Data name="village">
                    <value>Molem</value>
                </Data>
                <Data name="latitude">
                    <value>15.36673</value>
                </Data>
                <Data name="longitude">
                    <value>74.2187</value>
                </Data>
                <Data name="photo_1">
                    <value>DCIM/20220129113803163.jpg</value>
                </Data>
                <Data name="photo_2">
                    <value>DCIM/20220129113826217.jpg</value>
                </Data>
                <Data name="constituency">
                    <value>38 - Sanvordem</value>
                </Data>
                <Data name="status">
                    <value>Completed</value>
                </Data>
                <Data name="panchayat">
                    <value>Mollem</value>
                </Data>
                <Data name="wb_type">
                    <value>Temple Tank</value>
                </Data>
                <Data name="owner_type">
                    <value>Private</value>
                </Data>
                <Data name="purpose">
                    <value>Storage</value>
                </Data>
                <Data name="construction">
                    <value>Man Made</value>
                </Data>
                <Data name="condition">
                    <value>Needs Maintenance</value>
                </Data>
                <Data name="print_order">
                    <value>038</value>
                </Data>
                <Data name="wb_id">
                    <value>Da/Mole/04</value>
                </Data>
                <Data name="storage_capacity">
                    <value>422.0</value>
                </Data>
                <Data name="wb_surface_id">
                    <value>3318</value>
                </Data>
                <Data name="created_at">
                    <value>2022-01-27 05:46:48.518522</value>
                </Data>
                <Data name="updated_at">
                    <value>2023-07-22 14:03:14.307690</value>
                </Data>
                <Data name="book_id">
                    <value>1</value>
                </Data>
                <Data name="owners">
                    <value>Saulo Sanvordekar</value>
                </Data>
                <Data name="label_x">
                    <value>1035916.0</value>
                </Data>
                <Data name="label_y">
                    <value>998797.201439439</value>
                </Data>
            </ExtendedData>
            <Point id="20108">
                <coordinates>74.218696735,15.366728681,0.0</coordinates>
            </Point>
        </Placemark>
        <Placemark id="20141">
            <ExtendedData>
                <Data name="direction">
                    <value>https://maps.google.com?q=15.38059,74.22531&amp;t=h</value>
                </Data>
                <Data name="id">
                    <value>4104</value>
                </Data>
                <Data name="name">
                    <value>Bhodvonechem Culna</value>
                </Data>
                <Data name="taluka">
                    <value>Dharbandora</value>
                </Data>
                <Data name="syno">
                    <value>30</value>
                </Data>
                <Data name="subdiv">
                    <value>6</value>
                </Data>
                <Data name="village">
                    <value>Molem</value>
                </Data>
                <Data name="latitude">
                    <value>15.38059</value>
                </Data>
                <Data name="longitude">
                    <value>74.22531</value>
                </Data>
                <Data name="photo_1">
                    <value>DCIM/20220119143517398.jpg</value>
                </Data>
                <Data name="photo_2">
                    <value>DCIM/20220119143540426.jpg</value>
                </Data>
                <Data name="constituency">
                    <value>38 - Sanvordem</value>
                </Data>
                <Data name="status">
                    <value>Completed</value>
                </Data>
                <Data name="panchayat">
                    <value>Mollem</value>
                </Data>
                <Data name="wb_type">
                    <value>Tank</value>
                </Data>
                <Data name="owner_type">
                    <value>Private</value>
                </Data>
                <Data name="purpose">
                    <value>Irrigation</value>
                </Data>
                <Data name="construction">
                    <value>Man Made</value>
                </Data>
                <Data name="condition">
                    <value>Good</value>
                </Data>
                <Data name="print_order">
                    <value>057</value>
                </Data>
                <Data name="wb_id">
                    <value>Da/Mole/06</value>
                </Data>
                <Data name="storage_capacity">
                    <value>125.0</value>
                </Data>
                <Data name="wb_surface_id">
                    <value>2789</value>
                </Data>
                <Data name="created_at">
                    <value>2021-11-26 04:28:58.790453</value>
                </Data>
                <Data name="updated_at">
                    <value>2023-07-22 14:03:14.307690</value>
                </Data>
                <Data name="book_id">
                    <value>1</value>
                </Data>
                <Data name="owners">
                    <value>Anil Vasudeo Salgaonkar
Dattaraj Vasudeo Salgaonkar
Shivanand Vasudeo Salgaonkar</value>
                </Data>
                <Data name="label_x">
                    <value>1035916.0</value>
                </Data>
                <Data name="label_y">
                    <value>999797.201439439</value>
                </Data>
            </ExtendedData>
            <Point id="20140">
                <coordinates>74.22531028,15.380587683,0.0</coordinates>
            </Point>
        </Placemark>
        <Placemark id="20173">
            <ExtendedData>
                <Data name="direction">
                    <value>https://maps.google.com?q=15.37443,74.20771&amp;t=h</value>
                </Data>
                <Data name="id">
                    <value>2451</value>
                </Data>
                <Data name="name">
                    <value>Casaulim</value>
                </Data>
                <Data name="taluka">
                    <value>Dharbandora</value>
                </Data>
                <Data name="syno">
                    <value>17</value>
                </Data>
                <Data name="subdiv">
                    <value>1</value>
                </Data>
                <Data name="village">
                    <value>Molem</value>
                </Data>
                <Data name="latitude">
                    <value>15.37443</value>
                </Data>
                <Data name="longitude">
                    <value>74.20771</value>
                </Data>
                <Data name="photo_1">
                    <value>DCIM/20220129115803158.jpg</value>
                </Data>
                <Data name="photo_2">
                    <value>DCIM/20220129115812323.jpg</value>
                </Data>
                <Data name="constituency">
                    <value>38 - Sanvordem</value>
                </Data>
                <Data name="status">
                    <value>Completed</value>
                </Data>
                <Data name="panchayat">
                    <value>Mollem</value>
                </Data>
                <Data name="wb_type">
                    <value>Pond</value>
                </Data>
                <Data name="owner_type">
                    <value>Private / Public</value>
                </Data>
                <Data name="purpose">
                    <value>Irrigation</value>
                </Data>
                <Data name="construction">
                    <value>Natural</value>
                </Data>
                <Data name="condition">
                    <value>Needs Maintenance</value>
                </Data>
                <Data name="print_order">
                    <value>005</value>
                </Data>
                <Data name="wb_id">
                    <value>Da/Mole/02</value>
                </Data>
                <Data name="storage_capacity">
                    <value>3047.0</value>
                </Data>
                <Data name="wb_surface_id">
                    <value>2291</value>
                </Data>
                <Data name="created_at">
                    <value>2020-02-28 15:24:34</value>
                </Data>
                <Data name="updated_at">
                    <value>2023-07-22 14:03:14.307690</value>
                </Data>
                <Data name="book_id">
                    <value>1</value>
                </Data>
                <Data name="owners">
                    <value>Government of Goa Director of Education
Government of Goa P.W.D. XV Sub Div I (NH) Ponda Goa
Puratan Real Estates Pvt. Ltd.</value>
                </Data>
                <Data name="label_x">
                    <value>1035916.0</value>
                </Data>
                <Data name="label_y">
                    <value>999047.201439439</value>
                </Data>
            </ExtendedData>
            <Point id="20172">
                <coordinates>74.207706625,15.374429785,0.0</coordinates>
            </Point>
        </Placemark>
        <Placemark id="20205">
            <ExtendedData>
                <Data name="direction">
                    <value>https://maps.google.com?q=15.37624,74.20922&amp;t=h</value>
                </Data>
                <Data name="id">
                    <value>2450</value>
                </Data>
                <Data name="name">
                    <value>Casaulim</value>
                </Data>
                <Data name="taluka">
                    <value>Dharbandora</value>
                </Data>
                <Data name="syno">
                    <value>18</value>
                </Data>
                <Data name="subdiv">
                    <value>3</value>
                </Data>
                <Data name="village">
                    <value>Molem</value>
                </Data>
                <Data name="latitude">
                    <value>15.37624</value>
                </Data>
                <Data name="longitude">
                    <value>74.20922</value>
                </Data>
                <Data name="photo_1">
                    <value>DCIM/20220119161742087.jpg</value>
                </Data>
                <Data name="photo_2">
                    <value>DCIM/20220119161814005.jpg</value>
                </Data>
                <Data name="constituency">
                    <value>38 - Sanvordem</value>
                </Data>
                <Data name="status">
                    <value>Completed</value>
                </Data>
                <Data name="panchayat">
                    <value>Mollem</value>
                </Data>
                <Data name="wb_type">
                    <value>Pond</value>
                </Data>
                <Data name="owner_type">
                    <value>Private</value>
                </Data>
                <Data name="purpose">
                    <value>Storage</value>
                </Data>
                <Data name="construction">
                    <value>Natural</value>
                </Data>
                <Data name="condition">
                    <value>Good</value>
                </Data>
                <Data name="print_order">
                    <value>004</value>
                </Data>
                <Data name="wb_id">
                    <value>Da/Mole/01</value>
                </Data>
                <Data name="storage_capacity">
                    <value>3858.0</value>
                </Data>
                <Data name="wb_surface_id">
                    <value>2290</value>
                </Data>
                <Data name="created_at">
                    <value>2020-02-28 15:24:34</value>
                </Data>
                <Data name="updated_at">
                    <value>2023-07-22 14:03:14.307690</value>
                </Data>
                <Data name="book_id">
                    <value>1</value>
                </Data>
                <Data name="owners">
                    <value>Puratan Real Estates Pvt. Ltd.</value>
                </Data>
                <Data name="label_x">
                    <value>1035916.0</value>
                </Data>
                <Data name="label_y">
                    <value>999297.201439439</value>
                </Data>
            </ExtendedData>
            <Point id="20204">
                <coordinates>74.209224765,15.376244137,0.0</coordinates>
            </Point>
        </Placemark>
        <Placemark id="20237">
            <ExtendedData>
                <Data name="direction">
                    <value>https://maps.google.com?q=15.36663,74.21451&amp;t=h</value>
                </Data>
                <Data name="id">
                    <value>4341</value>
                </Data>
                <Data name="name">
                    <value>Sante Moll</value>
                </Data>
                <Data name="taluka">
                    <value>Dharbandora</value>
                </Data>
                <Data name="syno">
                    <value>9</value>
                </Data>
                <Data name="subdiv">
                    <value>1</value>
                </Data>
                <Data name="village">
                    <value>Molem</value>
                </Data>
                <Data name="latitude">
                    <value>15.36663</value>
                </Data>
                <Data name="longitude">
                    <value>74.21451</value>
                </Data>
                <Data name="photo_1">
                    <value>DCIM/20220129115947644.jpg</value>
                </Data>
                <Data name="photo_2">
                    <value>DCIM/20220129120015114.jpg</value>
                </Data>
                <Data name="constituency">
                    <value>38 - Sanvordem</value>
                </Data>
                <Data name="status">
                    <value>Completed</value>
                </Data>
                <Data name="panchayat">
                    <value>Mollem</value>
                </Data>
                <Data name="wb_type">
                    <value>Tank</value>
                </Data>
                <Data name="owner_type">
                    <value>Private</value>
                </Data>
                <Data name="purpose">
                    <value>Irrigation</value>
                </Data>
                <Data name="construction">
                    <value>Man Made</value>
                </Data>
                <Data name="condition">
                    <value>Good</value>
                </Data>
                <Data name="print_order">
                    <value>056</value>
                </Data>
                <Data name="wb_id">
                    <value>Da/Mole/05</value>
                </Data>
                <Data name="storage_capacity">
                    <value>326.0</value>
                </Data>
                <Data name="wb_surface_id">
                    <value>3316</value>
                </Data>
                <Data name="created_at">
                    <value>2022-01-27 05:28:03.862686</value>
                </Data>
                <Data name="updated_at">
                    <value>2023-07-22 14:03:14.307690</value>
                </Data>
                <Data name="book_id">
                    <value>1</value>
                </Data>
                <Data name="owners">
                    <value>Prabhakar Narayan Sawant</value>
                </Data>
                <Data name="label_x">
                    <value>1035916.0</value>
                </Data>
                <Data name="label_y">
                    <value>998547.201439439</value>
                </Data>
            </ExtendedData>
            <Point id="20236">
                <coordinates>74.214513546,15.366629013,0.0</coordinates>
            </Point>
        </Placemark>
        <Placemark id="20269">
            <ExtendedData>
                <Data name="direction">
                    <value>https://maps.google.com?q=15.38174,74.22579&amp;t=h</value>
                </Data>
                <Data name="id">
                    <value>4335</value>
                </Data>
                <Data name="name">
                    <value>Nirada Mol</value>
                </Data>
                <Data name="taluka">
                    <value>Dharbandora</value>
                </Data>
                <Data name="syno">
                    <value>40</value>
                </Data>
                <Data name="subdiv">
                    <value>3</value>
                </Data>
                <Data name="village">
                    <value>Molem</value>
                </Data>
                <Data name="latitude">
                    <value>15.38174</value>
                </Data>
                <Data name="longitude">
                    <value>74.22579</value>
                </Data>
                <Data name="photo_1">
                    <value>DCIM/20220119143819000.jpg</value>
                </Data>
                <Data name="photo_2">
                    <value>DCIM/20220119143827291.jpg</value>
                </Data>
                <Data name="constituency">
                    <value>38 - Sanvordem</value>
                </Data>
                <Data name="status">
                    <value>Completed</value>
                </Data>
                <Data name="panchayat">
                    <value>Mollem</value>
                </Data>
                <Data name="wb_type">
                    <value>Pond</value>
                </Data>
                <Data name="owner_type">
                    <value>Public</value>
                </Data>
                <Data name="purpose">
                    <value>Storage</value>
                </Data>
                <Data name="construction">
                    <value>Natural/Man Made</value>
                </Data>
                <Data name="condition">
                    <value>Needs Maintenance</value>
                </Data>
                <Data name="print_order">
                    <value>006</value>
                </Data>
                <Data name="wb_id">
                    <value>Da/Mole/03</value>
                </Data>
                <Data name="storage_capacity">
                    <value>722.0</value>
                </Data>
                <Data name="wb_surface_id">
                    <value>3308</value>
                </Data>
                <Data name="created_at">
                    <value>2022-01-19 00:00:00</value>
                </Data>
                <Data name="updated_at">
                    <value>2023-07-22 14:03:14.307690</value>
                </Data>
                <Data name="book_id">
                    <value>1</value>
                </Data>
                <Data name="owners">
                    <value>Government of Goa, Daman &amp; Diu</value>
                </Data>
                <Data name="label_x">
                    <value>1035916.0</value>
                </Data>
                <Data name="label_y">
                    <value>1000047.201439439</value>
                </Data>
            </ExtendedData>
            <Point id="20268">
                <coordinates>74.225790618,15.381735252,0.0</coordinates>
            </Point>
        </Placemark>
    </Document>
</kml>
