<?xml version="1.0" encoding="UTF-8"?>
<kml xmlns="http://www.opengis.net/kml/2.2" xmlns:gx="http://www.google.com/kml/ext/2.2">
    <Document id="43109">
        <Placemark id="43111">
            <ExtendedData>
                <Data name="direction">
                    <value>https://maps.google.com?q=15.24993,74.05536&amp;t=h</value>
                </Data>
                <Data name="id">
                    <value>490</value>
                </Data>
                <Data name="name">
                    <value>Khuti Mahamaya Temple Tank; Surla Band and Sovanalem</value>
                </Data>
                <Data name="taluka">
                    <value>Quepem</value>
                </Data>
                <Data name="syno">
                    <value>29</value>
                </Data>
                <Data name="subdiv">
                    <value>1</value>
                </Data>
                <Data name="village">
                    <value>Cotombi</value>
                </Data>
                <Data name="latitude">
                    <value>15.24993</value>
                </Data>
                <Data name="longitude">
                    <value>74.05536</value>
                </Data>
                <Data name="photo_1">
                    <value>DCIM/20211014105317652.jpg</value>
                </Data>
                <Data name="photo_2">
                    <value>DCIM/20211014105425816.jpg</value>
                </Data>
                <Data name="syno_pt_list">
                    <value>29/1(p)</value>
                </Data>
                <Data name="constituency">
                    <value>36 - Quepem</value>
                </Data>
                <Data name="status">
                    <value>Completed</value>
                </Data>
                <Data name="panchayat">
                    <value>Avedem-Cotombi</value>
                </Data>
                <Data name="wb_type">
                    <value>Temple Tank</value>
                </Data>
                <Data name="owner_type">
                    <value>Private</value>
                </Data>
                <Data name="purpose">
                    <value>Storage</value>
                </Data>
                <Data name="construction">
                    <value>Man Made</value>
                </Data>
                <Data name="condition">
                    <value>Needs Maintenance</value>
                </Data>
                <Data name="print_order">
                    <value>074</value>
                </Data>
                <Data name="wb_id">
                    <value>Qu/Coto/05</value>
                </Data>
                <Data name="storage_capacity">
                    <value>422.0</value>
                </Data>
                <Data name="wb_surface_id">
                    <value>2334</value>
                </Data>
                <Data name="created_at">
                    <value>2020-02-28 15:24:34</value>
                </Data>
                <Data name="updated_at">
                    <value>2023-11-13 14:35:08.219141</value>
                </Data>
                <Data name="book_id">
                    <value>1</value>
                </Data>
                <Data name="owners">
                    <value>10) Rajendra Yesu Prabhu Desai
11) Shiva Babani Prabhu Desai
12)Narayan Raghoba Prabhu Desai
13) Sagun Dharmu Parwar
14) Surya Shaba Parwar
15) Soiru Yeshwant Parwar
16) Loknu Fatu Parwar
17) Chandrakant Dharmu Parwar
18) Vaman Anant Parwar
2) Upaso Kusta Prabhu Desai
3) Venku Purushottom Prabhu Desai
4) Vithal Purushottom Prabhu Desai
5) Sadanand Dharmu Prabhu Desai
6) Ganesh Rama Prabhu Desai
7) Dattu Sham Prabhu Desai
8) Devappa Babani Prabbhu Desai
9) Vishnu Rama Prabhu Desai
Dilkush Vithal Prabhu Desai
Gajanan Vithal Prabhu Dessai
Nayan Dilkush Prabhu Dessai
Rajashree Gajanan Prabhu Dessai
Vithal Dattu Prabhu Desai</value>
                </Data>
                <Data name="label_x">
                    <value>991894.0</value>
                </Data>
                <Data name="label_y">
                    <value>984611.583312875</value>
                </Data>
            </ExtendedData>
            <Point id="43110">
                <coordinates>74.05535651,15.249932462,0.0</coordinates>
            </Point>
        </Placemark>
        <Placemark id="43144">
            <ExtendedData>
                <Data name="direction">
                    <value>https://maps.google.com?q=15.24795,74.06101&amp;t=h</value>
                </Data>
                <Data name="id">
                    <value>495</value>
                </Data>
                <Data name="name">
                    <value>Medya Kulane</value>
                </Data>
                <Data name="taluka">
                    <value>Quepem</value>
                </Data>
                <Data name="syno">
                    <value>53</value>
                </Data>
                <Data name="subdiv">
                    <value>1</value>
                </Data>
                <Data name="village">
                    <value>Cotombi</value>
                </Data>
                <Data name="latitude">
                    <value>15.24795</value>
                </Data>
                <Data name="longitude">
                    <value>74.06101</value>
                </Data>
                <Data name="photo_1">
                    <value>DCIM/20211014102635088.jpg</value>
                </Data>
                <Data name="photo_2">
                    <value>DCIM/20211014102644854.jpg</value>
                </Data>
                <Data name="constituency">
                    <value>36 - Quepem</value>
                </Data>
                <Data name="status">
                    <value>Completed</value>
                </Data>
                <Data name="panchayat">
                    <value>Avedem-Cotombi</value>
                </Data>
                <Data name="wb_type">
                    <value>Pond</value>
                </Data>
                <Data name="owner_type">
                    <value>Private</value>
                </Data>
                <Data name="purpose">
                    <value>Storage</value>
                </Data>
                <Data name="construction">
                    <value>Natural</value>
                </Data>
                <Data name="condition">
                    <value>Needs Maintenance</value>
                </Data>
                <Data name="print_order">
                    <value>012</value>
                </Data>
                <Data name="wb_id">
                    <value>Qu/Coto/04</value>
                </Data>
                <Data name="storage_capacity">
                    <value>538.0</value>
                </Data>
                <Data name="wb_surface_id">
                    <value>2341</value>
                </Data>
                <Data name="created_at">
                    <value>2020-02-28 15:24:34</value>
                </Data>
                <Data name="updated_at">
                    <value>2023-11-13 14:35:07.602103</value>
                </Data>
                <Data name="book_id">
                    <value>1</value>
                </Data>
                <Data name="owners">
                    <value>Desai
Krishna Yesu Prabhu Desai
Yeshwant alias Vasant Babu Prabhu</value>
                </Data>
                <Data name="label_x">
                    <value>991894.0</value>
                </Data>
                <Data name="label_y">
                    <value>983471.583312875</value>
                </Data>
            </ExtendedData>
            <Point id="43143">
                <coordinates>74.061011603,15.247946914,0.0</coordinates>
            </Point>
        </Placemark>
        <Placemark id="43176">
            <ExtendedData>
                <Data name="direction">
                    <value>https://maps.google.com?q=15.24935,74.05697&amp;t=h</value>
                </Data>
                <Data name="id">
                    <value>2516</value>
                </Data>
                <Data name="name">
                    <value>Cottombi Lake; Tolem</value>
                </Data>
                <Data name="taluka">
                    <value>Quepem</value>
                </Data>
                <Data name="syno">
                    <value>48</value>
                </Data>
                <Data name="subdiv">
                    <value>0</value>
                </Data>
                <Data name="village">
                    <value>Cotombi</value>
                </Data>
                <Data name="latitude">
                    <value>15.24935</value>
                </Data>
                <Data name="longitude">
                    <value>74.05697</value>
                </Data>
                <Data name="photo_1">
                    <value>DCIM/20211014110107896.jpg</value>
                </Data>
                <Data name="photo_2">
                    <value>DCIM/20211014110133979.jpg</value>
                </Data>
                <Data name="syno_pt_list">
                    <value>47/1,8,26-28; 48/0; 49/1-5,9-11,17; 51/1</value>
                </Data>
                <Data name="constituency">
                    <value>36 - Quepem</value>
                </Data>
                <Data name="status">
                    <value>Completed</value>
                </Data>
                <Data name="panchayat">
                    <value>Avedem-Cotombi</value>
                </Data>
                <Data name="wb_type">
                    <value>Lake</value>
                </Data>
                <Data name="owner_type">
                    <value>Communidade</value>
                </Data>
                <Data name="purpose">
                    <value>Irrigation</value>
                </Data>
                <Data name="construction">
                    <value>Natural/Man Made</value>
                </Data>
                <Data name="condition">
                    <value>Good</value>
                </Data>
                <Data name="print_order">
                    <value>003</value>
                </Data>
                <Data name="wb_id">
                    <value>Qu/Coto/02</value>
                </Data>
                <Data name="storage_capacity">
                    <value>30715.0</value>
                </Data>
                <Data name="wb_surface_id">
                    <value>1359</value>
                </Data>
                <Data name="created_at">
                    <value>2020-03-26 07:23:16</value>
                </Data>
                <Data name="updated_at">
                    <value>2023-11-13 14:35:08.015768</value>
                </Data>
                <Data name="book_id">
                    <value>1</value>
                </Data>
                <Data name="owners">
                    <value>Communidade of Cotombi</value>
                </Data>
                <Data name="label_x">
                    <value>991894.0</value>
                </Data>
                <Data name="label_y">
                    <value>984231.583312875</value>
                </Data>
            </ExtendedData>
            <Point id="43175">
                <coordinates>74.056974174,15.24935414,0.0</coordinates>
            </Point>
        </Placemark>
    </Document>
</kml>
