<?xml version="1.0" encoding="UTF-8"?>
<kml xmlns="http://www.opengis.net/kml/2.2" xmlns:gx="http://www.google.com/kml/ext/2.2">
    <Document id="43244">
        <Placemark id="43246">
            <ExtendedData>
                <Data name="direction">
                    <value>https://maps.google.com?q=15.14058,74.00116&amp;t=h</value>
                </Data>
                <Data name="id">
                    <value>4161</value>
                </Data>
                <Data name="name">
                    <value>Mahamaya Temple Tank; Dev. Bhag.</value>
                </Data>
                <Data name="taluka">
                    <value>Quepem</value>
                </Data>
                <Data name="syno">
                    <value>45</value>
                </Data>
                <Data name="subdiv">
                    <value>1</value>
                </Data>
                <Data name="village">
                    <value>Fatorpa</value>
                </Data>
                <Data name="latitude">
                    <value>15.14058</value>
                </Data>
                <Data name="longitude">
                    <value>74.00116</value>
                </Data>
                <Data name="photo_1">
                    <value>DCIM/20211228121042569.jpg</value>
                </Data>
                <Data name="photo_2">
                    <value>DCIM/20211228121133302.jpg</value>
                </Data>
                <Data name="syno_pt_list">
                    <value>45/1</value>
                </Data>
                <Data name="constituency">
                    <value>36 - Quepem</value>
                </Data>
                <Data name="status">
                    <value>Completed</value>
                </Data>
                <Data name="panchayat">
                    <value>Fatorpa-Quitol</value>
                </Data>
                <Data name="wb_type">
                    <value>Temple Tank</value>
                </Data>
                <Data name="owner_type">
                    <value>Private</value>
                </Data>
                <Data name="purpose">
                    <value>Storage</value>
                </Data>
                <Data name="construction">
                    <value>Man Made</value>
                </Data>
                <Data name="condition">
                    <value>Needs Maintenance</value>
                </Data>
                <Data name="print_order">
                    <value>077</value>
                </Data>
                <Data name="wb_id">
                    <value>Qu/Fato/03</value>
                </Data>
                <Data name="storage_capacity">
                    <value>1013.0</value>
                </Data>
                <Data name="wb_surface_id">
                    <value>2966</value>
                </Data>
                <Data name="created_at">
                    <value>2021-11-28 08:57:48</value>
                </Data>
                <Data name="updated_at">
                    <value>2023-11-13 14:34:59.604073</value>
                </Data>
                <Data name="book_id">
                    <value>1</value>
                </Data>
                <Data name="owners">
                    <value>1)Umakant Subray Kamat Mamai</value>
                </Data>
                <Data name="label_x">
                    <value>991894.0</value>
                </Data>
                <Data name="label_y">
                    <value>970551.583312875</value>
                </Data>
            </ExtendedData>
            <Point id="43245">
                <coordinates>74.001161885,15.140582876,0.0</coordinates>
            </Point>
        </Placemark>
        <Placemark id="43279">
            <ExtendedData>
                <Data name="direction">
                    <value>https://maps.google.com?q=15.14305,73.99241&amp;t=h</value>
                </Data>
                <Data name="id">
                    <value>459</value>
                </Data>
                <Data name="name">
                    <value>Devala Kadil Bhat</value>
                </Data>
                <Data name="taluka">
                    <value>Quepem</value>
                </Data>
                <Data name="syno">
                    <value>1</value>
                </Data>
                <Data name="subdiv">
                    <value>1</value>
                </Data>
                <Data name="village">
                    <value>Fatorpa</value>
                </Data>
                <Data name="latitude">
                    <value>15.14305</value>
                </Data>
                <Data name="longitude">
                    <value>73.99241</value>
                </Data>
                <Data name="photo_1">
                    <value>DCIM/20211004164056720.jpg</value>
                </Data>
                <Data name="photo_2">
                    <value>DCIM/20211004164115639.jpg</value>
                </Data>
                <Data name="syno_pt_list">
                    <value>1/1</value>
                </Data>
                <Data name="constituency">
                    <value>36 - Quepem</value>
                </Data>
                <Data name="status">
                    <value>Completed</value>
                </Data>
                <Data name="panchayat">
                    <value>Fatorpa-Quitol</value>
                </Data>
                <Data name="wb_type">
                    <value>Temple Tank</value>
                </Data>
                <Data name="owner_type">
                    <value>Public</value>
                </Data>
                <Data name="purpose">
                    <value>Storage</value>
                </Data>
                <Data name="construction">
                    <value>Man Made</value>
                </Data>
                <Data name="condition">
                    <value>Good</value>
                </Data>
                <Data name="print_order">
                    <value>076</value>
                </Data>
                <Data name="wb_id">
                    <value>Qu/Fato/02</value>
                </Data>
                <Data name="storage_capacity">
                    <value>2108.0</value>
                </Data>
                <Data name="wb_surface_id">
                    <value>2311</value>
                </Data>
                <Data name="created_at">
                    <value>2020-02-28 15:24:34</value>
                </Data>
                <Data name="updated_at">
                    <value>2023-11-13 14:35:00.230845</value>
                </Data>
                <Data name="book_id">
                    <value>1</value>
                </Data>
                <Data name="owners">
                    <value>1) Shri Shantadurga Kuncolenkarin</value>
                </Data>
                <Data name="label_x">
                    <value>991894.0</value>
                </Data>
                <Data name="label_y">
                    <value>971691.583312875</value>
                </Data>
            </ExtendedData>
            <Point id="43278">
                <coordinates>73.992408412,15.143048688,0.0</coordinates>
            </Point>
        </Placemark>
        <Placemark id="43312">
            <ExtendedData>
                <Data name="direction">
                    <value>https://maps.google.com?q=15.14689,73.99166&amp;t=h</value>
                </Data>
                <Data name="id">
                    <value>2709</value>
                </Data>
                <Data name="name">
                    <value>Shantadurga Fatarpekarin;Taloja Kadil Tukada or Taloja Kadil Bhat</value>
                </Data>
                <Data name="taluka">
                    <value>Quepem</value>
                </Data>
                <Data name="syno">
                    <value>28</value>
                </Data>
                <Data name="subdiv">
                    <value>1</value>
                </Data>
                <Data name="village">
                    <value>Fatorpa</value>
                </Data>
                <Data name="latitude">
                    <value>15.14689</value>
                </Data>
                <Data name="longitude">
                    <value>73.99166</value>
                </Data>
                <Data name="photo_1">
                    <value>DCIM/20211004164653627.jpg</value>
                </Data>
                <Data name="photo_2">
                    <value>DCIM/20211004164702833.jpg</value>
                </Data>
                <Data name="syno_pt_list">
                    <value>4/7; 28/1-2</value>
                </Data>
                <Data name="constituency">
                    <value>36 - Quepem</value>
                </Data>
                <Data name="status">
                    <value>Completed</value>
                </Data>
                <Data name="panchayat">
                    <value>Fatorpa-Quitol</value>
                </Data>
                <Data name="wb_type">
                    <value>Temple Tank</value>
                </Data>
                <Data name="owner_type">
                    <value>Public</value>
                </Data>
                <Data name="purpose">
                    <value>Storage</value>
                </Data>
                <Data name="construction">
                    <value>Man Made</value>
                </Data>
                <Data name="condition">
                    <value>Good</value>
                </Data>
                <Data name="print_order">
                    <value>075</value>
                </Data>
                <Data name="wb_id">
                    <value>Qu/Fato/01</value>
                </Data>
                <Data name="storage_capacity">
                    <value>2485.0</value>
                </Data>
                <Data name="wb_surface_id">
                    <value>901</value>
                </Data>
                <Data name="created_at">
                    <value>2020-03-26 07:41:53</value>
                </Data>
                <Data name="updated_at">
                    <value>2023-11-13 14:35:00.437492</value>
                </Data>
                <Data name="book_id">
                    <value>1</value>
                </Data>
                <Data name="owners">
                    <value>1)Shri Shantadurga Fatharpekarin
2)Umakant Subray Kamat Mamai</value>
                </Data>
                <Data name="label_x">
                    <value>991894.0</value>
                </Data>
                <Data name="label_y">
                    <value>972071.583312875</value>
                </Data>
            </ExtendedData>
            <Point id="43311">
                <coordinates>73.991655098,15.146888815,0.0</coordinates>
            </Point>
        </Placemark>
    </Document>
</kml>
