<?xml version="1.0" encoding="UTF-8"?>
<kml xmlns="http://www.opengis.net/kml/2.2" xmlns:gx="http://www.google.com/kml/ext/2.2">
    <Document id="43782">
        <Placemark id="43784">
            <ExtendedData>
                <Data name="direction">
                    <value>https://maps.google.com?q=15.14115,73.96537&amp;t=h</value>
                </Data>
                <Data name="id">
                    <value>3896</value>
                </Data>
                <Data name="name">
                    <value>Pir Bhat</value>
                </Data>
                <Data name="taluka">
                    <value>Quepem</value>
                </Data>
                <Data name="syno">
                    <value>39</value>
                </Data>
                <Data name="subdiv">
                    <value>14</value>
                </Data>
                <Data name="village">
                    <value>Quitol</value>
                </Data>
                <Data name="latitude">
                    <value>15.14115</value>
                </Data>
                <Data name="longitude">
                    <value>73.96537</value>
                </Data>
                <Data name="photo_1">
                    <value>DCIM/20211006075956660.jpg</value>
                </Data>
                <Data name="photo_2">
                    <value>DCIM/20211006080017408.jpg</value>
                </Data>
                <Data name="syno_pt_list">
                    <value>39/14; 43/11</value>
                </Data>
                <Data name="constituency">
                    <value>36 - Quepem</value>
                </Data>
                <Data name="status">
                    <value>Completed</value>
                </Data>
                <Data name="panchayat">
                    <value>Naqueri-Betul</value>
                </Data>
                <Data name="wb_type">
                    <value>Tank</value>
                </Data>
                <Data name="owner_type">
                    <value>Private</value>
                </Data>
                <Data name="purpose">
                    <value>Storage</value>
                </Data>
                <Data name="construction">
                    <value>Man Made</value>
                </Data>
                <Data name="condition">
                    <value>Needs Maintenance</value>
                </Data>
                <Data name="print_order">
                    <value>104</value>
                </Data>
                <Data name="wb_id">
                    <value>Qu/Quit/01</value>
                </Data>
                <Data name="storage_capacity">
                    <value>76.0</value>
                </Data>
                <Data name="wb_surface_id">
                    <value>2600</value>
                </Data>
                <Data name="created_at">
                    <value>2021-10-06 00:00:00</value>
                </Data>
                <Data name="updated_at">
                    <value>2023-11-13 14:35:00.847802</value>
                </Data>
                <Data name="book_id">
                    <value>1</value>
                </Data>
                <Data name="owners">
                    <value>1) Mahammad Salia Muzawar
One</value>
                </Data>
                <Data name="label_x">
                    <value>991894.0</value>
                </Data>
                <Data name="label_y">
                    <value>972831.583312875</value>
                </Data>
            </ExtendedData>
            <Point id="43783">
                <coordinates>73.965366667,15.141151667,0.0</coordinates>
            </Point>
        </Placemark>
    </Document>
</kml>
