<?xml version="1.0" encoding="UTF-8"?>
<kml xmlns="http://www.opengis.net/kml/2.2" xmlns:gx="http://www.google.com/kml/ext/2.2">
    <Document id="43885">
        <Placemark id="43887">
            <ExtendedData>
                <Data name="direction">
                    <value>https://maps.google.com?q=15.11558,74.15038&amp;t=h</value>
                </Data>
                <Data name="id">
                    <value>449</value>
                </Data>
                <Data name="name">
                    <value>Bindali Gall Bindali Moll</value>
                </Data>
                <Data name="taluka">
                    <value>Quepem</value>
                </Data>
                <Data name="syno">
                    <value>9</value>
                </Data>
                <Data name="subdiv">
                    <value>1</value>
                </Data>
                <Data name="village">
                    <value>Sulcorna</value>
                </Data>
                <Data name="latitude">
                    <value>15.11558</value>
                </Data>
                <Data name="longitude">
                    <value>74.15038</value>
                </Data>
                <Data name="photo_1">
                    <value>DCIM/20211015130331927.jpg</value>
                </Data>
                <Data name="photo_2">
                    <value>DCIM/20211015130348814.jpg</value>
                </Data>
                <Data name="syno_pt_list">
                    <value>9/0</value>
                </Data>
                <Data name="constituency">
                    <value>39 - Sanguem</value>
                </Data>
                <Data name="status">
                    <value>Completed</value>
                </Data>
                <Data name="panchayat">
                    <value>Caurem</value>
                </Data>
                <Data name="wb_type">
                    <value>Tank</value>
                </Data>
                <Data name="owner_type">
                    <value>Private</value>
                </Data>
                <Data name="purpose">
                    <value>Irrigation</value>
                </Data>
                <Data name="construction">
                    <value>Man Made</value>
                </Data>
                <Data name="condition">
                    <value>Good</value>
                </Data>
                <Data name="print_order">
                    <value>105</value>
                </Data>
                <Data name="wb_id">
                    <value>Qu/Sulc/01</value>
                </Data>
                <Data name="storage_capacity">
                    <value>824.0</value>
                </Data>
                <Data name="wb_surface_id">
                    <value>2316</value>
                </Data>
                <Data name="created_at">
                    <value>2020-02-28 15:24:34</value>
                </Data>
                <Data name="updated_at">
                    <value>2023-11-13 14:16:09.000044</value>
                </Data>
                <Data name="book_id">
                    <value>1</value>
                </Data>
                <Data name="owners">
                    <value>1) Pia Sociedade Salecian of Sao Joao Bosco or Salecian Don Bosco</value>
                </Data>
                <Data name="label_x">
                    <value>1021518.0</value>
                </Data>
                <Data name="label_y">
                    <value>969911.6881207087</value>
                </Data>
            </ExtendedData>
            <Point id="43886">
                <coordinates>74.150382701,15.115577874,0.0</coordinates>
            </Point>
        </Placemark>
    </Document>
</kml>
