<?xml version="1.0" encoding="UTF-8"?>
<kml xmlns="http://www.opengis.net/kml/2.2" xmlns:gx="http://www.google.com/kml/ext/2.2">
    <Document id="43920">
        <Placemark id="43922">
            <ExtendedData>
                <Data name="direction">
                    <value>https://maps.google.com?q=15.13777,74.00706&amp;t=h</value>
                </Data>
                <Data name="id">
                    <value>4370</value>
                </Data>
                <Data name="name">
                    <value>Vane Sorad</value>
                </Data>
                <Data name="taluka">
                    <value>Quepem</value>
                </Data>
                <Data name="syno">
                    <value>53</value>
                </Data>
                <Data name="subdiv">
                    <value>1</value>
                </Data>
                <Data name="village">
                    <value>Tiloi</value>
                </Data>
                <Data name="latitude">
                    <value>15.13777</value>
                </Data>
                <Data name="longitude">
                    <value>74.00706</value>
                </Data>
                <Data name="photo_1">
                    <value>DCIM/20220415150631216.jpg</value>
                </Data>
                <Data name="photo_2">
                    <value>DCIM/20220415150654024.jpg</value>
                </Data>
                <Data name="syno_pt_list">
                    <value>53/1; 54/28</value>
                </Data>
                <Data name="constituency">
                    <value>36 - Quepem</value>
                </Data>
                <Data name="status">
                    <value>Completed</value>
                </Data>
                <Data name="panchayat">
                    <value>Balli-Adnem</value>
                </Data>
                <Data name="wb_type">
                    <value>Tank</value>
                </Data>
                <Data name="owner_type">
                    <value>Private</value>
                </Data>
                <Data name="purpose">
                    <value>Irrigation</value>
                </Data>
                <Data name="construction">
                    <value>Man Made</value>
                </Data>
                <Data name="condition">
                    <value>Good</value>
                </Data>
                <Data name="print_order">
                    <value>107</value>
                </Data>
                <Data name="wb_id">
                    <value>Qu/Tilo/02</value>
                </Data>
                <Data name="storage_capacity">
                    <value>334.0</value>
                </Data>
                <Data name="wb_surface_id">
                    <value>3457</value>
                </Data>
                <Data name="created_at">
                    <value>2022-02-16 03:26:43</value>
                </Data>
                <Data name="updated_at">
                    <value>2023-11-13 14:34:59.400243</value>
                </Data>
                <Data name="book_id">
                    <value>1</value>
                </Data>
                <Data name="owners">
                    <value>1 - Govind Devappa Fal Dessai.
2 - Dilkush Devappa Phal Dessai.</value>
                </Data>
                <Data name="label_x">
                    <value>991894.0</value>
                </Data>
                <Data name="label_y">
                    <value>970171.583312875</value>
                </Data>
            </ExtendedData>
            <Point id="43921">
                <coordinates>74.007059632,15.137771721,0.0</coordinates>
            </Point>
        </Placemark>
        <Placemark id="43955">
            <ExtendedData>
                <Data name="direction">
                    <value>https://maps.google.com?q=15.14797,74.01323&amp;t=h</value>
                </Data>
                <Data name="id">
                    <value>2286</value>
                </Data>
                <Data name="name">
                    <value>--</value>
                </Data>
                <Data name="taluka">
                    <value>Quepem</value>
                </Data>
                <Data name="syno">
                    <value>18</value>
                </Data>
                <Data name="subdiv">
                    <value>2</value>
                </Data>
                <Data name="village">
                    <value>Tiloi</value>
                </Data>
                <Data name="latitude">
                    <value>15.14797</value>
                </Data>
                <Data name="longitude">
                    <value>74.01323</value>
                </Data>
                <Data name="photo_1">
                    <value>DCIM/20211104112214747.jpg</value>
                </Data>
                <Data name="photo_2">
                    <value>DCIM/20211104112238696.jpg</value>
                </Data>
                <Data name="syno_pt_list">
                    <value>18/1-2</value>
                </Data>
                <Data name="constituency">
                    <value>36 - Quepem</value>
                </Data>
                <Data name="status">
                    <value>Completed</value>
                </Data>
                <Data name="panchayat">
                    <value>Balli-Adnem</value>
                </Data>
                <Data name="wb_type">
                    <value>Tank</value>
                </Data>
                <Data name="owner_type">
                    <value>Private</value>
                </Data>
                <Data name="purpose">
                    <value>Storage</value>
                </Data>
                <Data name="construction">
                    <value>Natural</value>
                </Data>
                <Data name="condition">
                    <value>Good</value>
                </Data>
                <Data name="print_order">
                    <value>106</value>
                </Data>
                <Data name="wb_id">
                    <value>Qu/Tilo/01</value>
                </Data>
                <Data name="storage_capacity">
                    <value>607.0</value>
                </Data>
                <Data name="wb_surface_id">
                    <value>2312</value>
                </Data>
                <Data name="created_at">
                    <value>2020-02-28 15:24:34</value>
                </Data>
                <Data name="updated_at">
                    <value>2023-11-13 14:35:00.014030</value>
                </Data>
                <Data name="book_id">
                    <value>1</value>
                </Data>
                <Data name="owners">
                    <value>1- Shashi Sinai Sancao
2- Madhu Sinai Sancao</value>
                </Data>
                <Data name="label_x">
                    <value>991894.0</value>
                </Data>
                <Data name="label_y">
                    <value>971311.583312875</value>
                </Data>
            </ExtendedData>
            <Point id="43954">
                <coordinates>74.013232945,15.147974379,0.0</coordinates>
            </Point>
        </Placemark>
    </Document>
</kml>
