<?xml version="1.0" encoding="UTF-8"?>
<kml xmlns="http://www.opengis.net/kml/2.2" xmlns:gx="http://www.google.com/kml/ext/2.2">
    <Document id="44088">
        <Placemark id="44090">
            <ExtendedData>
                <Data name="direction">
                    <value>https://maps.google.com?q=15.26772,74.08024&amp;t=h</value>
                </Data>
                <Data name="id">
                    <value>505</value>
                </Data>
                <Data name="name">
                    <value>Kadevi Tollye</value>
                </Data>
                <Data name="taluka">
                    <value>Quepem</value>
                </Data>
                <Data name="syno">
                    <value>0</value>
                </Data>
                <Data name="subdiv">
                    <value>North of 23</value>
                </Data>
                <Data name="village">
                    <value>Xelvona</value>
                </Data>
                <Data name="latitude">
                    <value>15.26772</value>
                </Data>
                <Data name="longitude">
                    <value>74.08024</value>
                </Data>
                <Data name="photo_1">
                    <value>DCIM/20211014090957313.jpg</value>
                </Data>
                <Data name="photo_2">
                    <value>DCIM/20211014091022456.jpg</value>
                </Data>
                <Data name="syno_pt_list">
                    <value>23/1-3,116-148; 24/1-2; 25/11</value>
                </Data>
                <Data name="constituency">
                    <value>37 - Curchorem</value>
                </Data>
                <Data name="status">
                    <value>Completed</value>
                </Data>
                <Data name="panchayat">
                    <value>Assolda</value>
                </Data>
                <Data name="wb_type">
                    <value>Pond</value>
                </Data>
                <Data name="owner_type">
                    <value>Public</value>
                </Data>
                <Data name="purpose">
                    <value>Irrigation</value>
                </Data>
                <Data name="construction">
                    <value>Natural</value>
                </Data>
                <Data name="condition">
                    <value>Good</value>
                </Data>
                <Data name="print_order">
                    <value>016</value>
                </Data>
                <Data name="wb_id">
                    <value>Qu/Xelv/01</value>
                </Data>
                <Data name="storage_capacity">
                    <value>8750.0</value>
                </Data>
                <Data name="wb_surface_id">
                    <value>2301</value>
                </Data>
                <Data name="created_at">
                    <value>2020-02-28 15:24:34</value>
                </Data>
                <Data name="updated_at">
                    <value>2023-11-13 14:35:08.924905</value>
                </Data>
                <Data name="book_id">
                    <value>1</value>
                </Data>
                <Data name="owners">
                    <value>Govt. of Goa</value>
                </Data>
                <Data name="label_x">
                    <value>991894.0</value>
                </Data>
                <Data name="label_y">
                    <value>985751.583312875</value>
                </Data>
            </ExtendedData>
            <Point id="44089">
                <coordinates>74.080242046,15.267718892,0.0</coordinates>
            </Point>
        </Placemark>
    </Document>
</kml>
