<?xml version="1.0" encoding="UTF-8"?>
<kml xmlns="http://www.opengis.net/kml/2.2" xmlns:gx="http://www.google.com/kml/ext/2.2">
    <Document id="2192">
        <Placemark id="2194">
            <ExtendedData>
                <Data name="id">
                    <value>375</value>
                </Data>
                <Data name="taluka">
                    <value>Ponda</value>
                </Data>
                <Data name="village">
                    <value>Betqui</value>
                </Data>
                <Data name="lg_code">
                    <value>626844</value>
                </Data>
                <Data name="dslr_code">
                    <value>00018900</value>
                </Data>
            </ExtendedData>
            <Polygon id="2193">
                <outerBoundaryIs>
                    <LinearRing id="2197">
                        <coordinates>73.981879848,15.518235081,0.0 73.981280971,15.518089419,0.0 73.980996068,15.518173455,0.0 73.980589065,15.518022191,0.0 73.980350677,15.517663638,0.0 73.980356491,15.517400325,0.0 73.980106475,15.517165024,0.0 73.980350677,15.517064181,0.0 73.980577436,15.517052976,0.0 73.980536736,15.516638398,0.0 73.97992623,15.516453518,0.0 73.979827387,15.51608936,0.0 73.979583185,15.515736406,0.0 73.979257582,15.515131341,0.0 73.979373868,15.514963267,0.0 73.979263396,15.513893193,0.0 73.979304096,15.513120047,0.0 73.979612256,15.512190028,0.0 73.979472712,15.511175965,0.0 73.979775058,15.510862221,0.0 73.980106475,15.510290757,0.0 73.980269276,15.509730497,0.0 73.98040882,15.509416751,0.0 73.980397192,15.509046978,0.0 73.979716914,15.50830743,0.0 73.979495969,15.508150556,0.0 73.979042451,15.507668727,0.0 73.97878662,15.507170089,0.0 73.97822263,15.506346494,0.0 73.978228444,15.505662964,0.0 73.978326561,15.502019764,0.0 73.97785778,15.499929202,0.0 73.977149158,15.497639014,0.0 73.977149885,15.495244446,0.0 73.976963826,15.494807411,0.0 73.97692894,15.494364773,0.0 73.977783647,15.493894118,0.0 73.978975586,15.493457081,0.0 73.97986518,15.493681203,0.0 73.980975718,15.493305798,0.0 73.981429237,15.492980821,0.0 73.982324644,15.491865808,0.0 73.982893768,15.491534077,0.0 73.984357346,15.491731061,0.0 73.985338515,15.491329213,0.0 73.987210913,15.48865809,0.0 73.9890179,15.487058551,0.0 73.988731726,15.485955413,0.0 73.989819188,15.484552844,0.0 73.989050606,15.483158145,0.0 73.989156899,15.481897393,0.0 73.989369486,15.481393089,0.0 73.990506007,15.480770588,0.0 73.993474044,15.479344345,0.0 73.994111804,15.481574324,0.0 73.993686631,15.482921755,0.0 73.993007989,15.484292816,0.0 73.992484699,15.485805701,0.0 73.993727513,15.487373732,0.0 73.994152687,15.488933871,0.0 73.995918791,15.491652267,0.0 73.994095452,15.495024604,0.0 73.994283509,15.497144106,0.0 73.993776572,15.499523595,0.0 73.995845204,15.500744845,0.0 73.997717602,15.502399431,0.0 73.998306303,15.502620041,0.0 73.9979956,15.503825515,0.0 73.997823895,15.50429037,0.0 73.997496839,15.504739465,0.0 73.997349663,15.504944315,0.0 73.996949019,15.506307352,0.0 73.996540199,15.507528562,0.0 73.996188613,15.508734008,0.0 73.995616264,15.51101882,0.0 73.994904916,15.513264214,0.0 73.994774094,15.513508448,0.0 73.994594213,15.513681775,0.0 73.99437345,15.513847224,0.0 73.993498574,15.514312056,0.0 73.991846939,15.51562776,0.0 73.991503529,15.516061074,0.0 73.991012945,15.516384089,0.0 73.990195303,15.516573171,0.0 73.989639307,15.516659833,0.0 73.988363787,15.517542213,0.0 73.986434154,15.518629425,0.0 73.985387574,15.519062732,0.0 73.985003282,15.519046976,0.0 73.984422757,15.519369986,0.0 73.983441588,15.519614213,0.0 73.982305066,15.519787536,0.0 73.981217604,15.519913588,0.0 73.980645255,15.519889953,0.0 73.981458808,15.519094246,0.0 73.982419536,15.518121272,0.0 73.983609204,15.517120719,0.0 73.984725284,15.516321062,0.0 73.98516681,15.51602956,0.0 73.985816835,15.515793207,0.0 73.986462772,15.515734119,0.0 73.986569065,15.515529279,0.0 73.986470948,15.515517462,0.0 73.986098921,15.515580489,0.0 73.985992628,15.515541097,0.0 73.985884291,15.515533219,0.0 73.985594028,15.515649426,0.0 73.985252663,15.51578139,0.0 73.984661917,15.51623243,0.0 73.983997584,15.516614533,0.0 73.983570366,15.517008452,0.0 73.982697534,15.517709628,0.0 73.982029113,15.518261113,0.0 73.981879848,15.518235081,0.0</coordinates>
                    </LinearRing>
                </outerBoundaryIs>
            </Polygon>
        </Placemark>
    </Document>
</kml>
