<?xml version="1.0" encoding="UTF-8"?>
<kml xmlns="http://www.opengis.net/kml/2.2" xmlns:gx="http://www.google.com/kml/ext/2.2">
    <Document id="2248">
        <Placemark id="2250">
            <ExtendedData>
                <Data name="id">
                    <value>371</value>
                </Data>
                <Data name="taluka">
                    <value>Ponda</value>
                </Data>
                <Data name="village">
                    <value>Candola</value>
                </Data>
                <Data name="lg_code">
                    <value>626865</value>
                </Data>
                <Data name="dslr_code">
                    <value>00018600</value>
                </Data>
            </ExtendedData>
            <Polygon id="2249">
                <outerBoundaryIs>
                    <LinearRing id="2253">
                        <coordinates>73.951028976,15.526291143,0.0 73.951092933,15.526145486,0.0 73.951572616,15.525784147,0.0 73.951738325,15.525750534,0.0 73.952095907,15.52548443,0.0 73.952976779,15.524305168,0.0 73.953177373,15.524330378,0.0 73.953284938,15.524271555,0.0 73.954133832,15.523663714,0.0 73.954997261,15.52255727,0.0 73.955517644,15.522610492,0.0 73.955883947,15.522546066,0.0 73.955976976,15.522321975,0.0 73.956218271,15.522459231,0.0 73.958102117,15.520913,0.0 73.958590521,15.520375178,0.0 73.958910309,15.520153887,0.0 73.959052761,15.520142682,0.0 73.959154512,15.520069852,0.0 73.959171955,15.519957805,0.0 73.959677802,15.519484408,0.0 73.960029569,15.519456396,0.0 73.96048018,15.519019413,0.0 73.9619076,15.517372313,0.0 73.962512291,15.516890506,0.0 73.962791379,15.516879302,0.0 73.963186754,15.515865262,0.0 73.963198383,15.515361042,0.0 73.963477471,15.514414225,0.0 73.963861217,15.513792348,0.0 73.964518237,15.513002395,0.0 73.967751009,15.511422478,0.0 73.969315065,15.510806195,0.0 73.974263066,15.508576357,0.0 73.975449191,15.508178569,0.0 73.976553915,15.507388594,0.0 73.977263264,15.506929174,0.0 73.977856326,15.506307275,0.0 73.978228444,15.505662964,0.0 73.97822263,15.506346494,0.0 73.97878662,15.507170089,0.0 73.979042451,15.507668727,0.0 73.979495969,15.508150556,0.0 73.979716914,15.50830743,0.0 73.980397192,15.509046978,0.0 73.98040882,15.509416751,0.0 73.980269276,15.509730497,0.0 73.980106475,15.510290757,0.0 73.979775058,15.510862221,0.0 73.979472712,15.511175965,0.0 73.979612256,15.512190028,0.0 73.979304096,15.513120047,0.0 73.979263396,15.513893193,0.0 73.979373868,15.514963267,0.0 73.979257582,15.515131341,0.0 73.979583185,15.515736406,0.0 73.979827387,15.51608936,0.0 73.97992623,15.516453518,0.0 73.980536736,15.516638398,0.0 73.980577436,15.517052976,0.0 73.980350677,15.517064181,0.0 73.980106475,15.517165024,0.0 73.980356491,15.517400325,0.0 73.980350677,15.517663638,0.0 73.980589065,15.518022191,0.0 73.980996068,15.518173455,0.0 73.981280971,15.518089419,0.0 73.981879848,15.518235081,0.0 73.981751932,15.518475983,0.0 73.981083283,15.519187483,0.0 73.98032742,15.519736513,0.0 73.977315593,15.520666499,0.0 73.977007433,15.520504032,0.0 73.9764667,15.520946614,0.0 73.975705022,15.521305161,0.0 73.975408491,15.521372389,0.0 73.973547903,15.522207129,0.0 73.972879254,15.522576878,0.0 73.972355964,15.522733741,0.0 73.97098378,15.523596487,0.0 73.969849984,15.524464831,0.0 73.969780212,15.524431218,0.0 73.969349951,15.525277149,0.0 73.969158078,15.525310763,0.0 73.96905342,15.525434011,0.0 73.969067956,15.525725324,0.0 73.968925505,15.526078261,0.0 73.968774332,15.52602504,0.0 73.968698746,15.526156691,0.0 73.968768518,15.526193105,0.0 73.968611531,15.526380777,0.0 73.968562109,15.526725309,0.0 73.968230692,15.527504006,0.0 73.968126034,15.52783173,0.0 73.96773938,15.528767282,0.0 73.967640536,15.528834507,0.0 73.967631815,15.529784059,0.0 73.967532971,15.530078167,0.0 73.967239347,15.530576749,0.0 73.966660821,15.531209779,0.0 73.966416618,15.531901628,0.0 73.966396268,15.532094897,0.0 73.965596797,15.533447776,0.0 73.965343873,15.533719471,0.0 73.96546016,15.533845515,0.0 73.964637431,15.534909883,0.0 73.963829239,15.535694151,0.0 73.963038489,15.53631036,0.0 73.962375654,15.53687615,0.0 73.961061614,15.537469947,0.0 73.959416157,15.537828465,0.0 73.958799837,15.537800456,0.0 73.957799771,15.537285086,0.0 73.95754394,15.536926566,0.0 73.95746254,15.536652075,0.0 73.95746254,15.536652075,0.0 73.957788142,15.535951839,0.0 73.957671856,15.535122756,0.0 73.957317181,15.534388904,0.0 73.956881106,15.533890331,0.0 73.956247343,15.533139668,0.0 73.956131056,15.532825957,0.0 73.955753125,15.532120106,0.0 73.95526472,15.531526293,0.0 73.955148433,15.531218182,0.0 73.954671658,15.530164999,0.0 73.954264654,15.529106208,0.0 73.953979752,15.528333119,0.0 73.953584377,15.527711285,0.0 73.953462276,15.527728091,0.0 73.95333436,15.527515211,0.0 73.953404132,15.527453587,0.0 73.953055272,15.527190287,0.0 73.952863399,15.52691018,0.0 73.95259594,15.52680374,0.0 73.952537796,15.526680492,0.0 73.951028976,15.526291143,0.0</coordinates>
                    </LinearRing>
                </outerBoundaryIs>
            </Polygon>
        </Placemark>
    </Document>
</kml>
