<?xml version="1.0" encoding="UTF-8"?>
<kml xmlns="http://www.opengis.net/kml/2.2" xmlns:gx="http://www.google.com/kml/ext/2.2">
    <Document id="2234">
        <Placemark id="2236">
            <ExtendedData>
                <Data name="id">
                    <value>395</value>
                </Data>
                <Data name="taluka">
                    <value>Ponda</value>
                </Data>
                <Data name="village">
                    <value>Candepar</value>
                </Data>
                <Data name="lg_code">
                    <value>626853</value>
                </Data>
                <Data name="dslr_code">
                    <value>00019900</value>
                </Data>
            </ExtendedData>
            <Polygon id="2235">
                <outerBoundaryIs>
                    <LinearRing id="2239">
                        <coordinates>74.022802832,15.430917152,0.0 74.023862045,15.428848639,0.0 74.025575888,15.426764467,0.0 74.027368833,15.425824041,0.0 74.028028003,15.424400685,0.0 74.027948903,15.422545225,0.0 74.029056309,15.421172681,0.0 74.030124166,15.420321192,0.0 74.031033821,15.419978053,0.0 74.031692992,15.419800129,0.0 74.033973723,15.418452986,0.0 74.03519978,15.416584764,0.0 74.035806217,15.416292455,0.0 74.035450265,15.415161345,0.0 74.0356612,15.41432254,0.0 74.037243209,15.412238222,0.0 74.037572794,15.411259602,0.0 74.037889196,15.410941867,0.0 74.038284699,15.408539777,0.0 74.038851586,15.407573849,0.0 74.038930686,15.40515901,0.0 74.039313005,15.404828556,0.0 74.039958992,15.404930234,0.0 74.0413037,15.403684673,0.0 74.041237783,15.402502654,0.0 74.041699203,15.401409599,0.0 74.042556125,15.399973366,0.0 74.043795366,15.39915992,0.0 74.045192807,15.398626094,0.0 74.046445232,15.399922526,0.0 74.048778696,15.400583448,0.0 74.049292849,15.401485859,0.0 74.05169223,15.404002419,0.0 74.051718597,15.404345584,0.0 74.052997388,15.405705528,0.0 74.054091611,15.406874819,0.0 74.054908983,15.40786617,0.0 74.054829882,15.409137124,0.0 74.05447393,15.409912403,0.0 74.054684865,15.412390733,0.0 74.054612356,15.412543245,0.0 74.054262996,15.412845091,0.0 74.054005919,15.41294041,0.0 74.053564275,15.412924524,0.0 74.053112743,15.412860977,0.0 74.052737016,15.412695757,0.0 74.052476643,15.412724353,0.0 74.052377768,15.412854623,0.0 74.052186608,15.412914992,0.0 74.051939419,15.41277519,0.0 74.051860319,15.412724353,0.0 74.051415378,15.412918169,0.0 74.051306615,15.413105631,0.0 74.05120774,15.413798285,0.0 74.051201148,15.414525887,0.0 74.051346165,15.415266195,0.0 74.051263769,15.41541235,0.0 74.051494479,15.416848476,0.0 74.051520846,15.417217038,0.0 74.051164894,15.418310011,0.0 74.050953959,15.418500645,0.0 74.050736433,15.418557835,0.0 74.050103629,15.418335428,0.0 74.049022589,15.418176567,0.0 74.048040425,15.419142445,0.0 74.048093158,15.419828724,0.0 74.04778994,15.420470521,0.0 74.048310685,15.421201276,0.0 74.048402968,15.421538058,0.0 74.048857796,15.421912966,0.0 74.048864388,15.422650071,0.0 74.049945428,15.423984479,0.0 74.051435153,15.424886787,0.0 74.051896573,15.42529346,0.0 74.052054774,15.425865343,0.0 74.051698822,15.426627851,0.0 74.051092385,15.427568273,0.0 74.050578232,15.428318066,0.0 74.050275013,15.428953482,0.0 74.050459581,15.429410981,0.0 74.050960551,15.430198892,0.0 74.051896573,15.430325974,0.0 74.053491766,15.430948675,0.0 74.052753495,15.432804061,0.0 74.052938063,15.434049447,0.0 74.053280831,15.434557766,0.0 74.051764739,15.436273333,0.0 74.05065074,15.436152608,0.0 74.049892694,15.434958066,0.0 74.049009405,15.434093925,0.0 74.04844911,15.433820703,0.0 74.047756981,15.433369569,0.0 74.047348295,15.433185302,0.0 74.046965976,15.433255196,0.0 74.046847326,15.433407693,0.0 74.046227705,15.433731747,0.0 74.045990404,15.434487872,0.0 74.045528984,15.435428259,0.0 74.045700369,15.435987406,0.0 74.04620793,15.436298748,0.0 74.046781409,15.43730902,0.0 74.047796531,15.438274809,0.0 74.048066791,15.438884779,0.0 74.04790859,15.439653593,0.0 74.047704248,15.439939515,0.0 74.046577066,15.440441465,0.0 74.046188155,15.440447819,0.0 74.044560003,15.441445363,0.0 74.043755815,15.44199814,0.0 74.042971402,15.442353949,0.0 74.04230564,15.442684343,0.0 74.041442126,15.443434082,0.0 74.040202885,15.4451051,0.0 74.039926034,15.445613391,0.0 74.039036153,15.44645207,0.0 74.038297882,15.446858701,0.0 74.037948522,15.446871408,0.0 74.037282759,15.446483838,0.0 74.036907032,15.446191572,0.0 74.03659063,15.445829415,0.0 74.03608966,15.445518087,0.0 74.035404123,15.445518087,0.0 74.034474692,15.446572789,0.0 74.033894622,15.447436878,0.0 74.033439794,15.448504277,0.0 74.032925229,15.450693284,0.0 74.032639055,15.450480499,0.0 74.031813237,15.450110096,0.0 74.03087295,15.449621477,0.0 74.021737854,15.447140931,0.0 74.020895684,15.44713305,0.0 74.020650392,15.442136403,0.0 74.022923434,15.437305145,0.0 74.024360438,15.431977233,0.0 74.022802832,15.430917152,0.0</coordinates>
                    </LinearRing>
                </outerBoundaryIs>
            </Polygon>
        </Placemark>
    </Document>
</kml>
