<?xml version="1.0" encoding="UTF-8"?>
<kml xmlns="http://www.opengis.net/kml/2.2" xmlns:gx="http://www.google.com/kml/ext/2.2">
    <Document id="2346">
        <Placemark id="2348">
            <ExtendedData>
                <Data name="id">
                    <value>370</value>
                </Data>
                <Data name="taluka">
                    <value>Ponda</value>
                </Data>
                <Data name="village">
                    <value>Gangem</value>
                </Data>
                <Data name="lg_code">
                    <value>626852</value>
                </Data>
                <Data name="dslr_code">
                    <value>00019700</value>
                </Data>
            </ExtendedData>
            <Polygon id="2347">
                <outerBoundaryIs>
                    <LinearRing id="2351">
                        <coordinates>74.076449789,15.462010894,0.0 74.076472011,15.459933372,0.0 74.078105322,15.456538613,0.0 74.08491634,15.451965773,0.0 74.085716329,15.451494561,0.0 74.086516318,15.45064852,0.0 74.086482985,15.450188014,0.0 74.087027422,15.449320548,0.0 74.087649636,15.448945716,0.0 74.0886274,15.449192034,0.0 74.090049603,15.448677978,0.0 74.090816259,15.448099664,0.0 74.090838481,15.448088954,0.0 74.094238435,15.441984424,0.0 74.093882884,15.441009825,0.0 74.096282851,15.438642921,0.0 74.097205061,15.439017772,0.0 74.098682818,15.438139549,0.0 74.100282796,15.436179599,0.0 74.102016106,15.436543744,0.0 74.103527196,15.438653631,0.0 74.104971621,15.439456882,0.0 74.103698591,15.442942409,0.0 74.093898208,15.468281561,0.0 74.093554997,15.468806945,0.0 74.093314523,15.468939484,0.0 74.092523773,15.468939484,0.0 74.091823593,15.468838351,0.0 74.09094054,15.468662015,0.0 74.086260219,15.467976632,0.0 74.08303748,15.466984624,0.0 74.082232178,15.466243036,0.0 74.081534676,15.465498775,0.0 74.08115093,15.464876752,0.0 74.08080207,15.464579749,0.0 74.079470586,15.462943424,0.0 74.07904614,15.462775307,0.0 74.078534478,15.46236062,0.0 74.077999559,15.461951535,0.0 74.077644885,15.461615301,0.0 74.076449789,15.462010894,0.0</coordinates>
                    </LinearRing>
                </outerBoundaryIs>
            </Polygon>
        </Placemark>
    </Document>
</kml>
