<?xml version="1.0" encoding="UTF-8"?>
<kml xmlns="http://www.opengis.net/kml/2.2" xmlns:gx="http://www.google.com/kml/ext/2.2">
    <Document id="2360">
        <Placemark id="2362">
            <ExtendedData>
                <Data name="id">
                    <value>383</value>
                </Data>
                <Data name="taluka">
                    <value>Ponda</value>
                </Data>
                <Data name="village">
                    <value>Marcaim</value>
                </Data>
                <Data name="lg_code">
                    <value>626867</value>
                </Data>
                <Data name="dslr_code">
                    <value>00020300</value>
                </Data>
            </ExtendedData>
            <Polygon id="2361">
                <outerBoundaryIs>
                    <LinearRing id="2365">
                        <coordinates>73.942616766,15.436485475,0.0 73.942314239,15.436398779,0.0 73.941455715,15.435933773,0.0 73.94012296,15.435571224,0.0 73.939305319,15.435366306,0.0 73.93757192,15.435035282,0.0 73.936419046,15.434854007,0.0 73.935781286,15.434720022,0.0 73.934775587,15.434570273,0.0 73.933843476,15.434459931,0.0 73.932093724,15.433876697,0.0 73.929796153,15.432599881,0.0 73.929215628,15.432150629,0.0 73.928602397,15.431393992,0.0 73.928226282,15.430448192,0.0 73.928111812,15.429675785,0.0 73.928169047,15.428808795,0.0 73.9281854,15.427350666,0.0 73.928397986,15.426814703,0.0 73.928095459,15.4246866,0.0 73.927702991,15.423401845,0.0 73.927514934,15.422511183,0.0 73.927146995,15.42155746,0.0 73.926852645,15.4210136,0.0 73.926623705,15.420580087,0.0 73.926002298,15.42024904,0.0 73.925577124,15.419705177,0.0 73.924743131,15.418648973,0.0 73.923631139,15.417443003,0.0 73.92337767,15.41721442,0.0 73.923443081,15.416914897,0.0 73.923394023,15.4160715,0.0 73.923402199,15.414841868,0.0 73.923222318,15.414368931,0.0 73.923271376,15.413627994,0.0 73.923369493,15.413068348,0.0 73.923745608,15.412745171,0.0 73.92369655,15.412303759,0.0 73.924955717,15.411160812,0.0 73.925650712,15.410877044,0.0 73.92668094,15.410199154,0.0 73.928038224,15.409757737,0.0 73.928994864,15.409568557,0.0 73.930335796,15.409024665,0.0 73.931701257,15.408803955,0.0 73.932788719,15.408843368,0.0 73.933238422,15.40872513,0.0 73.934391296,15.408275827,0.0 73.935413347,15.408047233,0.0 73.936402693,15.407739814,0.0 73.937441097,15.407779227,0.0 73.938275091,15.40785017,0.0 73.939550611,15.408212767,0.0 73.940400958,15.408401947,0.0 73.942894764,15.407810757,0.0 73.944284754,15.406904263,0.0 73.945609332,15.406431307,0.0 73.946222563,15.406596842,0.0 73.946557796,15.406344599,0.0 73.949076131,15.405556337,0.0 73.950515179,15.404854782,0.0 73.951529054,15.404437001,0.0 73.952224049,15.404957256,0.0 73.952469341,15.405241032,0.0 73.95292722,15.405784933,0.0 73.953188866,15.406675668,0.0 73.953507746,15.407582163,0.0 73.954120977,15.408315239,0.0 73.955044911,15.40960797,0.0 73.954824148,15.410908574,0.0 73.954210917,15.411602227,0.0 73.953515922,15.412114582,0.0 73.954325387,15.41310776,0.0 73.955061264,15.412784583,0.0 73.959525584,15.411681051,0.0 73.96138163,15.414006345,0.0 73.963442085,15.415338451,0.0 73.964088022,15.415519743,0.0 73.964578607,15.416709959,0.0 73.964529548,15.417608529,0.0 73.96416161,15.417892287,0.0 73.963245852,15.417931698,0.0 73.962509975,15.41812087,0.0 73.962264682,15.419925875,0.0 73.962370976,15.421242179,0.0 73.962289211,15.422298369,0.0 73.961896744,15.422842226,0.0 73.961610569,15.42285799,0.0 73.961185396,15.422842226,0.0 73.960645753,15.422952574,0.0 73.960547636,15.423393963,0.0 73.96083381,15.424213685,0.0 73.961005515,15.425049167,0.0 73.960760223,15.425829473,0.0 73.960678458,15.427476775,0.0 73.961054573,15.428209781,0.0 73.961577864,15.429084656,0.0 73.961978508,15.430030462,0.0 73.962963765,15.431561477,0.0 73.960347314,15.43210531,0.0 73.95962779,15.432680667,0.0 73.95800886,15.432964405,0.0 73.955245233,15.433106273,0.0 73.954623826,15.433145681,0.0 73.952980367,15.433626457,0.0 73.950674619,15.433752562,0.0 73.949906036,15.433311195,0.0 73.948851279,15.433058984,0.0 73.947910992,15.432672786,0.0 73.94691347,15.432877707,0.0 73.946120358,15.43379197,0.0 73.945695185,15.434327915,0.0 73.945008366,15.434729874,0.0 73.944476899,15.435060897,0.0 73.944035373,15.435667773,0.0 73.94329132,15.436692363,0.0 73.94306238,15.437204657,0.0 73.942616766,15.436485475,0.0</coordinates>
                    </LinearRing>
                </outerBoundaryIs>
            </Polygon>
        </Placemark>
    </Document>
</kml>
