<?xml version="1.0" encoding="UTF-8"?>
<kml xmlns="http://www.opengis.net/kml/2.2" xmlns:gx="http://www.google.com/kml/ext/2.2">
    <Document id="2402">
        <Placemark id="2404">
            <ExtendedData>
                <Data name="id">
                    <value>394</value>
                </Data>
                <Data name="taluka">
                    <value>Ponda</value>
                </Data>
                <Data name="village">
                    <value>Ponchavadi</value>
                </Data>
                <Data name="lg_code">
                    <value>626864</value>
                </Data>
                <Data name="dslr_code">
                    <value>00021300</value>
                </Data>
            </ExtendedData>
            <Polygon id="2403">
                <outerBoundaryIs>
                    <LinearRing id="2407">
                        <coordinates>74.060489961,15.299933829,0.0 74.062419134,15.299408227,0.0 74.064247234,15.298492659,0.0 74.064756993,15.298492659,0.0 74.064985505,15.298204424,0.0 74.065600731,15.298068784,0.0 74.065952289,15.298034874,0.0 74.067376097,15.296983659,0.0 74.0677716,15.296898883,0.0 74.069072363,15.295652677,0.0 74.070812574,15.293855415,0.0 74.071383855,15.292863523,0.0 74.071796935,15.292566803,0.0 74.072069392,15.292490503,0.0 74.072324272,15.291540994,0.0 74.071621156,15.291320571,0.0 74.07126081,15.289387626,0.0 74.07208697,15.289582617,0.0 74.073264689,15.289472405,0.0 74.073800814,15.289362192,0.0 74.074055693,15.289141768,0.0 74.073941437,15.288878953,0.0 74.073660191,15.289065467,0.0 74.073115277,15.289073945,0.0 74.072886764,15.288963732,0.0 74.07258794,15.289150246,0.0 74.071928769,15.289345237,0.0 74.071085031,15.289082423,0.0 74.070557694,15.288361801,0.0 74.069889735,15.287403795,0.0 74.069696378,15.286666212,0.0 74.069749112,15.285640375,0.0 74.070118247,15.284512795,0.0 74.070601639,15.283376731,0.0 74.070979564,15.282673046,0.0 74.071550845,15.282189792,0.0 74.07225396,15.281536973,0.0 74.072746141,15.280867195,0.0 74.073159221,15.279748068,0.0 74.074187528,15.277891321,0.0 74.07441604,15.276907832,0.0 74.074758809,15.275839554,0.0 74.075461924,15.275000189,0.0 74.07574317,15.274889969,0.0 74.076789054,15.27510193,0.0 74.077764627,15.275958252,0.0 74.078942345,15.276823048,0.0 74.080295842,15.27753523,0.0 74.081869063,15.277908277,0.0 74.082484289,15.278111757,0.0 74.083248927,15.278238932,0.0 74.084611213,15.277798059,0.0 74.084866092,15.277170661,0.0 74.085709831,15.275814119,0.0 74.085806509,15.275585201,0.0 74.086834815,15.274542352,0.0 74.087599453,15.274152342,0.0 74.088557448,15.273414713,0.0 74.089497865,15.272312503,0.0 74.09003399,15.271320509,0.0 74.090482226,15.270108066,0.0 74.091194131,15.269022796,0.0 74.091730256,15.268844744,0.0 74.094164793,15.269590868,0.0 74.095535868,15.26951456,0.0 74.09643234,15.269718048,0.0 74.096889365,15.269879142,0.0 74.098295596,15.270031758,0.0 74.099130483,15.269714185,0.0 74.098955023,15.270719367,0.0 74.10010902,15.271457985,0.0 74.101332303,15.272319753,0.0 74.101862973,15.272297114,0.0 74.101644453,15.27369708,0.0 74.101898572,15.274346503,0.0 74.10177182,15.274660131,0.0 74.101910617,15.275399197,0.0 74.104901498,15.281176463,0.0 74.105028935,15.282240301,0.0 74.105871603,15.283158216,0.0 74.105906445,15.283617356,0.0 74.105664344,15.283975836,0.0 74.104860936,15.284775615,0.0 74.104377544,15.285496248,0.0 74.104896091,15.286818816,0.0 74.104931247,15.287539442,0.0 74.104316021,15.288031163,0.0 74.103208615,15.288768741,0.0 74.102698856,15.28913329,0.0 74.101644183,15.289819997,0.0 74.101983321,15.29045969,0.0 74.099251807,15.293117309,0.0 74.098612131,15.293293918,0.0 74.097988545,15.294106825,0.0 74.097313366,15.294379275,0.0 74.096500118,15.294985269,0.0 74.095963145,15.295234657,0.0 74.09565131,15.295564443,0.0 74.095525151,15.296039811,0.0 74.094466515,15.29547295,0.0 74.094051879,15.295534456,0.0 74.093700474,15.295695596,0.0 74.093526809,15.295917993,0.0 74.093361026,15.296105888,0.0 74.092914947,15.29651239,0.0 74.092606961,15.296627513,0.0 74.092180451,15.296635356,0.0 74.091813215,15.296727503,0.0 74.091296118,15.297298858,0.0 74.091055244,15.29736412,0.0 74.090901564,15.298149983,0.0 74.09087402,15.298383818,0.0 74.091194098,15.298824503,0.0 74.091233801,15.2993113,0.0 74.090372882,15.299349981,0.0 74.089910926,15.299599323,0.0 74.089235609,15.299611093,0.0 74.088678843,15.29979914,0.0 74.088126053,15.300052348,0.0 74.087873623,15.300826749,0.0 74.088102915,15.301386302,0.0 74.088944835,15.303095564,0.0 74.089091237,15.303750979,0.0 74.089434796,15.303674178,0.0 74.089723332,15.304226039,0.0 74.090173649,15.304440516,0.0 74.091101648,15.304217816,0.0 74.090974199,15.304787733,0.0 74.090516327,15.305375672,0.0 74.089358569,15.307078066,0.0 74.088922002,15.308258857,0.0 74.088495692,15.308800781,0.0 74.087806234,15.30970057,0.0 74.087358807,15.31012495,0.0 74.08718007,15.310860988,0.0 74.087122269,15.311162554,0.0 74.087043474,15.311632786,0.0 74.086701323,15.311965128,0.0 74.086975274,15.312256342,0.0 74.087265126,15.312792873,0.0 74.087270523,15.313109746,0.0 74.08717067,15.31359532,0.0 74.087170807,15.313927528,0.0 74.087007719,15.314310909,0.0 74.08699202,15.314551127,0.0 74.086779198,15.315650051,0.0 74.087353397,15.316125141,0.0 74.087427235,15.316395989,0.0 74.087548523,15.316799702,0.0 74.087664503,15.317101199,0.0 74.087638236,15.317254536,0.0 74.087506664,15.317448802,0.0 74.087559399,15.317627662,0.0 74.087354019,15.317622632,0.0 74.08649049,15.317904067,0.0 74.086011435,15.318302901,0.0 74.085642799,15.31828771,0.0 74.085379596,15.318543355,0.0 74.085574749,15.319294581,0.0 74.08531679,15.319499116,0.0 74.085069298,15.319545208,0.0 74.084674469,15.319877566,0.0 74.084611415,15.32022513,0.0 74.084327119,15.320419452,0.0 74.083911153,15.320578046,0.0 74.083858566,15.320767169,0.0 74.083853438,15.321114711,0.0 74.083985263,15.321538865,0.0 74.083895851,15.321825109,0.0 74.083564154,15.322014336,0.0 74.08340113,15.322591928,0.0 74.0830748,15.323041807,0.0 74.082859121,15.323644972,0.0 74.082896095,15.323926058,0.0 74.08312786,15.324048633,0.0 74.083086083,15.324943054,0.0 74.082541417,15.324932313,0.0 74.082198648,15.324254198,0.0 74.082163493,15.324084669,0.0 74.082014081,15.323771039,0.0 74.080150825,15.324322009,0.0 74.079922312,15.324093145,0.0 74.078226046,15.324406774,0.0 74.078015112,15.32415248,0.0 74.077742655,15.323940569,0.0 74.077505353,15.323660845,0.0 74.076644037,15.323804945,0.0 74.075193861,15.32326245,0.0 74.073849153,15.323694751,0.0 74.073066937,15.323847327,0.0 74.072530812,15.323694751,0.0 74.072302299,15.32323702,0.0 74.072152887,15.322889484,0.0 74.071818908,15.322694524,0.0 74.071537661,15.322389369,0.0 74.071107003,15.322431752,0.0 74.070711501,15.322804719,0.0 74.070526933,15.322872531,0.0 74.07030721,15.32323702,0.0 74.069674406,15.323033584,0.0 74.069595305,15.322813195,0.0 74.069674406,15.321779058,0.0 74.069982019,15.321228081,0.0 74.070061119,15.320566906,0.0 74.069674406,15.319939637,0.0 74.070025963,15.318990252,0.0 74.07021932,15.318040863,0.0 74.070061119,15.317752654,0.0 74.069129491,15.318295164,0.0 74.067951773,15.318006956,0.0 74.06747717,15.318261257,0.0 74.066352186,15.317125376,0.0 74.065895161,15.316192932,0.0 74.066018206,15.314955318,0.0 74.065684226,15.314056772,0.0 74.0668971,15.307707499,0.0 74.066360975,15.305901864,0.0 74.065851216,15.305240641,0.0 74.062045604,15.303053505,0.0 74.061263388,15.301688653,0.0 74.060648162,15.300586591,0.0 74.060489961,15.299933829,0.0</coordinates>
                    </LinearRing>
                </outerBoundaryIs>
            </Polygon>
        </Placemark>
    </Document>
</kml>
