<?xml version="1.0" encoding="UTF-8"?>
<kml xmlns="http://www.opengis.net/kml/2.2" xmlns:gx="http://www.google.com/kml/ext/2.2">
    <Document id="2416">
        <Placemark id="2418">
            <ExtendedData>
                <Data name="id">
                    <value>397</value>
                </Data>
                <Data name="taluka">
                    <value>Ponda</value>
                </Data>
                <Data name="village">
                    <value>Ponda</value>
                </Data>
                <Data name="lg_code">
                    <value>252082</value>
                </Data>
                <Data name="dslr_code">
                    <value>40126000</value>
                </Data>
            </ExtendedData>
            <Polygon id="2417">
                <outerBoundaryIs>
                    <LinearRing id="2421">
                        <coordinates>74.014053585,15.392382138,0.0 74.016255215,15.393246453,0.0 74.017309888,15.39343711,0.0 74.018061343,15.394339551,0.0 74.019577435,15.394466655,0.0 74.020157506,15.394733574,0.0 74.022372319,15.395966478,0.0 74.023123774,15.397262926,0.0 74.024323464,15.397364608,0.0 74.023782944,15.397974698,0.0 74.022939206,15.398368713,0.0 74.022108651,15.398305163,0.0 74.021146262,15.398559366,0.0 74.019511518,15.398991511,0.0 74.019656536,15.399271133,0.0 74.019458785,15.399538046,0.0 74.019406051,15.40038962,0.0 74.019274217,15.400643821,0.0 74.018984182,15.401101382,0.0 74.01862823,15.401482681,0.0 74.018179994,15.401660621,0.0 74.018390928,15.402156309,0.0 74.018311828,15.402308828,0.0 74.018021793,15.402601156,0.0 74.017784491,15.402740965,0.0 74.017784491,15.40327478,0.0 74.017850408,15.403541687,0.0 74.017744941,15.403567107,0.0 74.017323072,15.404177179,0.0 74.017876775,15.404952476,0.0 74.017731758,15.405918416,0.0 74.02032889,15.408059991,0.0 74.023829086,15.410093513,0.0 74.024633274,15.411224651,0.0 74.025266078,15.411783863,0.0 74.025780231,15.412012631,0.0 74.025806598,15.412381201,0.0 74.025595664,15.413080212,0.0 74.025292445,15.412902282,0.0 74.023433584,15.412711643,0.0 74.022431644,15.412482876,0.0 74.021021019,15.413092922,0.0 74.020150914,15.413270851,0.0 74.018911673,15.414173207,0.0 74.018806206,15.415825396,0.0 74.018160218,15.415850814,0.0 74.016499108,15.416498977,0.0 74.014627064,15.417058175,0.0 74.014205194,15.41660065,0.0 74.013427373,15.415901651,0.0 74.012926403,15.416168542,0.0 74.01179263,15.416613359,0.0 74.01179263,15.416880249,0.0 74.010909341,15.416626068,0.0 74.010777507,15.414808666,0.0 74.009933769,15.415266195,0.0 74.009459166,15.414478227,0.0 74.00789034,15.415024721,0.0 74.00746847,15.414821375,0.0 74.007415737,15.412482876,0.0 74.006862033,15.411364454,0.0 74.007099335,15.410919625,0.0 74.006374247,15.410423958,0.0 74.006954317,15.409229268,0.0 74.004843344,15.408173354,0.0 74.003665941,15.407298391,0.0 74.003649588,15.406549546,0.0 74.003412472,15.405509041,0.0 74.003159004,15.404973022,0.0 74.00264389,15.403396485,0.0 74.002365892,15.403546257,0.0 74.001670897,15.404247817,0.0 74.001196665,15.404034984,0.0 74.000877785,15.403538374,0.0 74.000280907,15.403073294,0.0 73.999839381,15.403081177,0.0 73.999613969,15.40325898,0.0 73.999320178,15.402876226,0.0 73.999279296,15.402214075,0.0 73.999369237,15.401717461,0.0 73.998862299,15.401362736,0.0 73.998641536,15.401339087,0.0 73.998101893,15.40095283,0.0 73.997603132,15.40120508,0.0 73.99660561,15.399738875,0.0 73.996049614,15.399486624,0.0 73.996303083,15.399194958,0.0 73.996450258,15.398958471,0.0 73.996842726,15.398721985,0.0 73.997292428,15.397941577,0.0 73.997194312,15.396136381,0.0 73.996065967,15.395174654,0.0 73.995914703,15.394303578,0.0 73.995689852,15.393743881,0.0 73.995309649,15.393140824,0.0 73.995820674,15.393168415,0.0 73.99653611,15.392912214,0.0 73.997296517,15.392754552,0.0 73.997018519,15.392478643,0.0 73.996601522,15.391777044,0.0 73.996666933,15.391004493,0.0 73.996842726,15.389786538,0.0 73.997108459,15.389317486,0.0 73.997366016,15.388872082,0.0 73.99756225,15.388667117,0.0 73.997815719,15.388805074,0.0 73.998195922,15.38848186,0.0 73.998216363,15.388067987,0.0 73.998780535,15.387650172,0.0 73.999553206,15.388008863,0.0 74.00102496,15.388958798,0.0 74.001429693,15.388876023,0.0 74.001621838,15.389179529,0.0 74.002410862,15.38932931,0.0 74.003743617,15.389715589,0.0 74.003927586,15.389443617,0.0 74.005374811,15.388876023,0.0 74.005705956,15.389112521,0.0 74.005849043,15.3895461,0.0 74.005910366,15.390160991,0.0 74.005681427,15.39084683,0.0 74.005566957,15.391579965,0.0 74.00631101,15.393022578,0.0 74.006008483,15.39519042,0.0 74.006474538,15.396018136,0.0 74.006662596,15.396128498,0.0 74.007676471,15.394890865,0.0 74.007856352,15.394283871,0.0 74.008256996,15.393873951,0.0 74.009009226,15.393881835,0.0 74.009704221,15.394425766,0.0 74.010202982,15.394000081,0.0 74.009974042,15.394843567,0.0 74.010063983,15.395119473,0.0 74.010824389,15.394622842,0.0 74.011936381,15.394212923,0.0 74.012271614,15.394362701,0.0 74.012745846,15.393337902,0.0 74.014053585,15.392382138,0.0</coordinates>
                    </LinearRing>
                </outerBoundaryIs>
            </Polygon>
        </Placemark>
    </Document>
</kml>
