<?xml version="1.0" encoding="UTF-8"?>
<kml xmlns="http://www.opengis.net/kml/2.2" xmlns:gx="http://www.google.com/kml/ext/2.2">
    <Document id="2444">
        <Placemark id="2446">
            <ExtendedData>
                <Data name="id">
                    <value>378</value>
                </Data>
                <Data name="taluka">
                    <value>Ponda</value>
                </Data>
                <Data name="village">
                    <value>Querim</value>
                </Data>
                <Data name="lg_code">
                    <value>626850</value>
                </Data>
                <Data name="dslr_code">
                    <value>00019500</value>
                </Data>
            </ExtendedData>
            <Polygon id="2445">
                <outerBoundaryIs>
                    <LinearRing id="2449">
                        <coordinates>73.98333325,15.477638355,0.0 73.987143458,15.476149051,0.0 73.987944746,15.475833852,0.0 73.99005426,15.474005694,0.0 73.991910306,15.471791393,0.0 73.991714072,15.471027021,0.0 73.991337957,15.46958495,0.0 73.990029731,15.467646412,0.0 73.988746034,15.466424966,0.0 73.987658572,15.466054591,0.0 73.986293111,15.463863847,0.0 73.985835232,15.461814929,0.0 73.987584984,15.461176608,0.0 73.988378096,15.460821985,0.0 73.989310207,15.45989996,0.0 73.989653616,15.45882032,0.0 73.989858026,15.457677629,0.0 73.987871158,15.455163686,0.0 73.986203171,15.453957928,0.0 73.98663652,15.453556007,0.0 73.986996282,15.452381764,0.0 73.98889321,15.45023028,0.0 73.989653616,15.449576161,0.0 73.990315905,15.449142708,0.0 73.990790137,15.448496467,0.0 73.991509662,15.448567396,0.0 73.992122892,15.448827469,0.0 73.992752476,15.44859892,0.0 73.993194002,15.44859892,0.0 73.993733645,15.448906279,0.0 73.994739344,15.448401895,0.0 73.995107283,15.448196989,0.0 73.995360751,15.447842343,0.0 73.996840682,15.447905391,0.0 73.996243804,15.447188217,0.0 73.99616204,15.445911483,0.0 73.9959331,15.445131253,0.0 73.996472743,15.444374663,0.0 73.996963328,15.44428797,0.0 73.997830028,15.443862387,0.0 74.001362237,15.444611098,0.0 74.003937807,15.444713553,0.0 74.005352326,15.444934224,0.0 74.0073719,15.443988486,0.0 74.00830401,15.442916644,0.0 74.008729184,15.440709893,0.0 74.009358768,15.440166083,0.0 74.010364466,15.439921762,0.0 74.011304753,15.439362187,0.0 74.012114218,15.439228204,0.0 74.014755199,15.438101168,0.0 74.016521304,15.437596758,0.0 74.016742067,15.437856844,0.0 74.01748612,15.437644046,0.0 74.021983147,15.437242094,0.0 74.022179381,15.437336671,0.0 74.022923434,15.437305145,0.0 74.020650392,15.442136403,0.0 74.020895684,15.44713305,0.0 74.021737854,15.447140931,0.0 74.021623385,15.449773185,0.0 74.021279975,15.455471035,0.0 74.019080521,15.458583902,0.0 74.017870412,15.462027702,0.0 74.016807478,15.463067924,0.0 74.015752721,15.462957597,0.0 74.01484514,15.463320098,0.0 74.014231909,15.463855967,0.0 74.013218034,15.464383954,0.0 74.012318628,15.466653496,0.0 74.011182107,15.466377685,0.0 74.010748757,15.466440727,0.0 74.009775764,15.468410797,0.0 74.009514119,15.469246101,0.0 74.009203416,15.469616471,0.0 74.00917071,15.469813475,0.0 74.007976954,15.470893059,0.0 74.007388252,15.471878075,0.0 74.005859263,15.471484069,0.0 74.005123386,15.471688952,0.0 74.004608273,15.471917475,0.0 74.002891226,15.472776405,0.0 74.00181194,15.473052208,0.0 74.000912535,15.473588052,0.0 74.000176658,15.475676253,0.0 73.999571603,15.476330289,0.0 73.998623139,15.476503648,0.0 73.997347619,15.476881884,0.0 73.996726212,15.477803833,0.0 73.995851336,15.478457862,0.0 73.995311693,15.479056731,0.0 73.993474044,15.479344345,0.0 73.990506007,15.480770588,0.0 73.989369486,15.481393089,0.0 73.989156899,15.481897393,0.0 73.989050606,15.483158145,0.0 73.989819188,15.484552844,0.0 73.988731726,15.485955413,0.0 73.9890179,15.487058551,0.0 73.987210913,15.48865809,0.0 73.985338515,15.491329213,0.0 73.984357346,15.491731061,0.0 73.982893768,15.491534077,0.0 73.982324644,15.491865808,0.0 73.982179286,15.490532268,0.0 73.981318764,15.487893178,0.0 73.981324578,15.487523366,0.0 73.981225735,15.487288031,0.0 73.981126891,15.486413927,0.0 73.980795474,15.485971271,0.0 73.980609415,15.484682519,0.0 73.98148738,15.483158419,0.0 73.981818797,15.481852839,0.0 73.981999042,15.480435183,0.0 73.98333325,15.477638355,0.0</coordinates>
                    </LinearRing>
                </outerBoundaryIs>
            </Polygon>
        </Placemark>
    </Document>
</kml>
