<?xml version="1.0" encoding="UTF-8"?>
<kml xmlns="http://www.opengis.net/kml/2.2" xmlns:gx="http://www.google.com/kml/ext/2.2">
    <Document id="2472">
        <Placemark id="2474">
            <ExtendedData>
                <Data name="id">
                    <value>377</value>
                </Data>
                <Data name="taluka">
                    <value>Ponda</value>
                </Data>
                <Data name="village">
                    <value>Savoi-Verem</value>
                </Data>
                <Data name="lg_code">
                    <value>626846</value>
                </Data>
                <Data name="dslr_code">
                    <value>00019100</value>
                </Data>
            </ExtendedData>
            <Polygon id="2473">
                <outerBoundaryIs>
                    <LinearRing id="2477">
                        <coordinates>73.995311693,15.479056731,0.0 73.995851336,15.478457862,0.0 73.996726212,15.477803833,0.0 73.997347619,15.476881884,0.0 73.998623139,15.476503648,0.0 73.999571603,15.476330289,0.0 74.000176658,15.475676253,0.0 74.000912535,15.473588052,0.0 74.00181194,15.473052208,0.0 74.002891226,15.472776405,0.0 74.004608273,15.471917475,0.0 74.005123386,15.471688952,0.0 74.005859263,15.471484069,0.0 74.007388252,15.471878075,0.0 74.007976954,15.470893059,0.0 74.00917071,15.469813475,0.0 74.009203416,15.469616471,0.0 74.009514119,15.469246101,0.0 74.009775764,15.468410797,0.0 74.010748757,15.466440727,0.0 74.011182107,15.466377685,0.0 74.012318628,15.466653496,0.0 74.013218034,15.464383954,0.0 74.014231909,15.463855967,0.0 74.01484514,15.463320098,0.0 74.015752721,15.462957597,0.0 74.016807478,15.463067924,0.0 74.017870412,15.462027702,0.0 74.018516348,15.463036402,0.0 74.018647171,15.463406783,0.0 74.020347864,15.463753521,0.0 74.021958617,15.464163303,0.0 74.023005198,15.464651887,0.0 74.024043602,15.46469917,0.0 74.024542363,15.464974983,0.0 74.025409063,15.465014385,0.0 74.026864464,15.465439924,0.0 74.027387755,15.465731497,0.0 74.02773934,15.465723617,0.0 74.027911045,15.46676382,0.0 74.027972368,15.466874144,0.0 74.028000985,15.467098733,0.0 74.027837457,15.467500627,0.0 74.027894692,15.467673993,0.0 74.027874251,15.467871,0.0 74.027686194,15.468115288,0.0 74.027424548,15.468375336,0.0 74.027297814,15.468426558,0.0 74.027179256,15.468442318,0.0 74.027044345,15.468757527,0.0 74.027027992,15.469005755,0.0 74.027387755,15.469234281,0.0 74.027563547,15.469529788,0.0 74.027600341,15.469663752,0.0 74.027776134,15.469888337,0.0 74.027804752,15.469978959,0.0 74.027473607,15.470384788,0.0 74.027359137,15.470692115,0.0 74.027130198,15.470912759,0.0 74.026803141,15.471184624,0.0 74.026422938,15.471724413,0.0 74.026014117,15.472382401,0.0 74.025752472,15.473217689,0.0 74.02575656,15.473997814,0.0 74.026050911,15.474750355,0.0 74.026709112,15.475455614,0.0 74.027314167,15.476101771,0.0 74.027845634,15.476539108,0.0 74.028794097,15.476582447,0.0 74.029182477,15.476669126,0.0 74.029591297,15.476984323,0.0 74.030077794,15.477508337,0.0 74.030417115,15.478426343,0.0 74.030543849,15.478843975,0.0 74.03047435,15.479222207,0.0 74.030126852,15.479458602,0.0 74.029509533,15.479462542,0.0 74.028904479,15.479387684,0.0 74.028467041,15.479308886,0.0 74.027097492,15.479123709,0.0 74.026328909,15.47909613,0.0 74.025421328,15.479127649,0.0 74.024579157,15.479257667,0.0 74.023822839,15.479383744,0.0 74.023148285,15.479754095,0.0 74.022559584,15.480305681,0.0 74.021950441,15.480959703,0.0 74.021811442,15.482724763,0.0 74.021602944,15.483445754,0.0 74.021729678,15.483784579,0.0 74.022081264,15.484174622,0.0 74.022191645,15.484580423,0.0 74.021954529,15.485167454,0.0 74.022028117,15.485325046,0.0 74.021427151,15.486680333,0.0 74.021374004,15.487034912,0.0 74.021165506,15.487948936,0.0 74.021202299,15.488323212,0.0 74.021190035,15.488969328,0.0 74.020208865,15.492081692,0.0 74.019685575,15.493271469,0.0 74.019047815,15.494201223,0.0 74.018107528,15.495115216,0.0 74.01728171,15.495643123,0.0 74.016578539,15.496052841,0.0 74.01652948,15.496178908,0.0 74.016251482,15.496289217,0.0 74.016218777,15.495946472,0.0 74.016149277,15.495241283,0.0 74.015564664,15.495249162,0.0 74.015673001,15.494506544,0.0 74.016032763,15.494583367,0.0 74.015828353,15.494138189,0.0 74.015734324,15.493360111,0.0 74.014759287,15.493117822,0.0 74.014804257,15.492721887,0.0 74.015327548,15.492469749,0.0 74.014697964,15.49221761,0.0 74.014522171,15.491473012,0.0 74.014460848,15.491102681,0.0 74.014374996,15.490791445,0.0 74.014370908,15.490464451,0.0 74.014436319,15.49020443,0.0 74.014403613,15.489759243,0.0 74.014354555,15.489581956,0.0 74.014125615,15.489121008,0.0 74.013786294,15.488486711,0.0 74.013275269,15.488530048,0.0 74.012968653,15.488443374,0.0 74.012874624,15.488337001,0.0 74.012608891,15.487753918,0.0 74.012416745,15.487694822,0.0 74.011913896,15.487442678,0.0 74.011656339,15.487292967,0.0 74.011345635,15.487430858,0.0 74.010912286,15.487462376,0.0 74.010323584,15.487434798,0.0 74.010192761,15.487375702,0.0 74.009914763,15.48740131,0.0 74.009456884,15.487582539,0.0 74.009031711,15.487905599,0.0 74.008770066,15.488461103,0.0 74.008483891,15.488922052,0.0 74.00778072,15.489465734,0.0 74.007592663,15.489773032,0.0 74.006537906,15.490852511,0.0 74.006321231,15.491660146,0.0 74.006329407,15.491845311,0.0 74.005826558,15.492388986,0.0 74.005626236,15.49269234,0.0 74.004583743,15.493732407,0.0 74.003627103,15.494543971,0.0 74.003389987,15.496230123,0.0 74.003255076,15.496427102,0.0 74.003218283,15.496647719,0.0 74.003925542,15.497305629,0.0 74.004101335,15.49747897,0.0 74.004105423,15.497762618,0.0 74.004542861,15.497762618,0.0 74.004673684,15.498038387,0.0 74.004939417,15.498117179,0.0 74.004060453,15.498337794,0.0 74.003210106,15.49854265,0.0 74.002228937,15.498857814,0.0 74.001362237,15.499299042,0.0 74.000871653,15.499779664,0.0 73.999841425,15.500512414,0.0 73.999767837,15.500906365,0.0 73.998860255,15.501796691,0.0 73.998306303,15.502620041,0.0 73.997717602,15.502399431,0.0 73.995845204,15.500744845,0.0 73.993776572,15.499523595,0.0 73.994283509,15.497144106,0.0 73.994095452,15.495024604,0.0 73.995918791,15.491652267,0.0 73.994152687,15.488933871,0.0 73.993727513,15.487373732,0.0 73.992484699,15.485805701,0.0 73.993007989,15.484292816,0.0 73.993686631,15.482921755,0.0 73.994111804,15.481574324,0.0 73.993474044,15.479344345,0.0 73.995311693,15.479056731,0.0</coordinates>
                    </LinearRing>
                </outerBoundaryIs>
            </Polygon>
        </Placemark>
    </Document>
</kml>
