<?xml version="1.0" encoding="UTF-8"?>
<kml xmlns="http://www.opengis.net/kml/2.2" xmlns:gx="http://www.google.com/kml/ext/2.2">
    <Document id="2514">
        <Placemark id="2516">
            <ExtendedData>
                <Data name="id">
                    <value>373</value>
                </Data>
                <Data name="taluka">
                    <value>Ponda</value>
                </Data>
                <Data name="village">
                    <value>Tivrem</value>
                </Data>
                <Data name="lg_code">
                    <value>626843</value>
                </Data>
                <Data name="dslr_code">
                    <value>00018800</value>
                </Data>
            </ExtendedData>
            <Polygon id="2515">
                <outerBoundaryIs>
                    <LinearRing id="2519">
                        <coordinates>73.954904231,15.496252983,0.0 73.957398582,15.494941883,0.0 73.957927687,15.494549672,0.0 73.957991644,15.494426406,0.0 73.958456791,15.494275124,0.0 73.958968453,15.494062209,0.0 73.959264984,15.494347964,0.0 73.959898747,15.494728969,0.0 73.959951076,15.494913868,0.0 73.960212721,15.495227637,0.0 73.960759269,15.495350903,0.0 73.960968585,15.495328491,0.0 73.961584904,15.495390124,0.0 73.962189596,15.495109974,0.0 73.963300134,15.494695351,0.0 73.963864125,15.494661733,0.0 73.9643409,15.494689748,0.0 73.96447463,15.494818617,0.0 73.96557354,15.494751381,0.0 73.965835185,15.494863441,0.0 73.966899208,15.494919471,0.0 73.967259697,15.493821279,0.0 73.968567923,15.49365879,0.0 73.969602875,15.493669996,0.0 73.970707599,15.493031248,0.0 73.973655468,15.492784714,0.0 73.974143872,15.492879966,0.0 73.975574199,15.492891172,0.0 73.976830096,15.493367432,0.0 73.97692894,15.494364773,0.0 73.976963826,15.494807411,0.0 73.977149885,15.495244446,0.0 73.975824216,15.497418399,0.0 73.975126495,15.498964805,0.0 73.973882227,15.499558712,0.0 73.973556624,15.500062971,0.0 73.972579816,15.500802548,0.0 73.971696036,15.500836165,0.0 73.971239611,15.501175137,0.0 73.970509912,15.501413258,0.0 73.969716255,15.50161496,0.0 73.969553453,15.501320811,0.0 73.968934226,15.502147228,0.0 73.968445822,15.502584247,0.0 73.968079519,15.502769139,0.0 73.96734982,15.503531118,0.0 73.96686723,15.503996148,0.0 73.966486391,15.504626458,0.0 73.966093923,15.505139109,0.0 73.965370038,15.5063577,0.0 73.964497887,15.506693861,0.0 73.964678132,15.507013214,0.0 73.964463001,15.507408203,0.0 73.963744931,15.508058112,0.0 73.963506543,15.508402675,0.0 73.963218733,15.508276615,0.0 73.962971624,15.50799088,0.0 73.962861151,15.507643515,0.0 73.962692536,15.50752866,0.0 73.96239019,15.507377388,0.0 73.962003537,15.507298951,0.0 73.961811664,15.507366183,0.0 73.960472913,15.506748487,0.0 73.960696765,15.506227437,0.0 73.960955502,15.505863261,0.0 73.961272384,15.506289066,0.0 73.961391578,15.506154602,0.0 73.961292734,15.506076164,0.0 73.96119389,15.505989322,0.0 73.961150283,15.505838049,0.0 73.961220055,15.505731597,0.0 73.961333434,15.505417845,0.0 73.96150205,15.505314194,0.0 73.961673573,15.504992037,0.0 73.961786953,15.504706297,0.0 73.961842189,15.504667078,0.0 73.961891611,15.504333714,0.0 73.962202678,15.503596951,0.0 73.962339315,15.503571738,0.0 73.962377108,15.50345408,0.0 73.962196863,15.503246777,0.0 73.962031155,15.502703306,0.0 73.961941033,15.502532421,0.0 73.961804396,15.502392351,0.0 73.961568915,15.502252281,0.0 73.961449721,15.502061785,0.0 73.960510706,15.502176643,0.0 73.96047582,15.502308309,0.0 73.9598188,15.502487598,0.0 73.959283881,15.502517013,0.0 73.959051307,15.502458184,0.0 73.95854546,15.502063186,0.0 73.958080313,15.501564534,0.0 73.957634063,15.501135917,0.0 73.956844766,15.500521005,0.0 73.955857783,15.499868271,0.0 73.955700795,15.499918697,0.0 73.955129537,15.499540502,0.0 73.954837366,15.499317787,0.0 73.954575721,15.49922534,0.0 73.954135285,15.498981614,0.0 73.95410476,15.498595013,0.0 73.954405652,15.49753606,0.0 73.9550336,15.497330152,0.0 73.955234195,15.497157862,0.0 73.955517644,15.497019189,0.0 73.956215364,15.496939347,0.0 73.956542421,15.49696456,0.0 73.956895642,15.496951953,0.0 73.957336078,15.496842696,0.0 73.957401489,15.496806977,0.0 73.957427654,15.496727135,0.0 73.95717691,15.496825887,0.0 73.956575126,15.49688892,0.0 73.955918833,15.496867909,0.0 73.955343214,15.496954054,0.0 73.95509029,15.496951953,0.0 73.954597525,15.497147356,0.0 73.954529933,15.497031795,0.0 73.954532114,15.496930942,0.0 73.954782857,15.496256485,0.0 73.954904231,15.496252983,0.0</coordinates>
                    </LinearRing>
                </outerBoundaryIs>
            </Polygon>
        </Placemark>
    </Document>
</kml>
