<?xml version="1.0" encoding="UTF-8"?>
<kml xmlns="http://www.opengis.net/kml/2.2" xmlns:gx="http://www.google.com/kml/ext/2.2">
    <Document id="2528">
        <Placemark id="2530">
            <ExtendedData>
                <Data name="id">
                    <value>369</value>
                </Data>
                <Data name="taluka">
                    <value>Ponda</value>
                </Data>
                <Data name="village">
                    <value>Usgao</value>
                </Data>
                <Data name="lg_code">
                    <value>626873</value>
                </Data>
                <Data name="dslr_code">
                    <value>00019800</value>
                </Data>
            </ExtendedData>
            <Polygon id="2529">
                <outerBoundaryIs>
                    <LinearRing id="2533">
                        <coordinates>74.056883391,15.407053063,0.0 74.057283385,15.407153039,0.0 74.057520419,15.407810019,0.0 74.057483382,15.408445575,0.0 74.058164855,15.409481026,0.0 74.0589204,15.409902346,0.0 74.059750018,15.409702397,0.0 74.05985372,15.409316782,0.0 74.062268502,15.410552177,0.0 74.062638867,15.411509067,0.0 74.063364783,15.412701603,0.0 74.064401806,15.413330002,0.0 74.065446236,15.412851562,0.0 74.0670314,15.412487375,0.0 74.067935091,15.412408825,0.0 74.068172125,15.41323003,0.0 74.069083224,15.413894132,0.0 74.070512834,15.413508524,0.0 74.07178312,15.413002143,0.0 74.072636764,15.413415845,0.0 74.075142332,15.414480623,0.0 74.078580634,15.415997356,0.0 74.080398535,15.416610007,0.0 74.081497299,15.417276572,0.0 74.082185006,15.417659632,0.0 74.08483362,15.420433826,0.0 74.0854027,15.420579267,0.0 74.08688853,15.420709017,0.0 74.087821152,15.420854309,0.0 74.090136921,15.421244361,0.0 74.09101435,15.421673314,0.0 74.091717756,15.421742021,0.0 74.092223765,15.42221712,0.0 74.093796754,15.42281443,0.0 74.095061585,15.423534521,0.0 74.095867976,15.42411681,0.0 74.097298739,15.424729489,0.0 74.10364672,15.428153435,0.0 74.106094904,15.42450314,0.0 74.108945647,15.420062994,0.0 74.1097914,15.420307898,0.0 74.109831133,15.420721857,0.0 74.109586311,15.421051627,0.0 74.109436622,15.421948653,0.0 74.109397295,15.422308987,0.0 74.110085295,15.423121271,0.0 74.110030199,15.423550609,0.0 74.110472987,15.423949034,0.0 74.110395239,15.426379277,0.0 74.110656465,15.427168771,0.0 74.11055444,15.42852575,0.0 74.111692897,15.429222809,0.0 74.112009287,15.429697957,0.0 74.112657469,15.429889286,0.0 74.113922599,15.430961916,0.0 74.116167489,15.431520389,0.0 74.116950186,15.431972287,0.0 74.117669489,15.432125232,0.0 74.117827667,15.432316804,0.0 74.118538925,15.432216764,0.0 74.119131875,15.432546096,0.0 74.119559016,15.433159166,0.0 74.119975027,15.434411605,0.0 74.103698591,15.442942409,0.0 74.104971621,15.439456882,0.0 74.103527196,15.438653631,0.0 74.102016106,15.436543744,0.0 74.100282796,15.436179599,0.0 74.098682818,15.438139549,0.0 74.097205061,15.439017772,0.0 74.096282851,15.438642921,0.0 74.093882884,15.441009825,0.0 74.094238435,15.441984424,0.0 74.090838481,15.448088954,0.0 74.090816259,15.448099664,0.0 74.090049603,15.448677978,0.0 74.0886274,15.449192034,0.0 74.087649636,15.448945716,0.0 74.087027422,15.449320548,0.0 74.086482985,15.450188014,0.0 74.086516318,15.45064852,0.0 74.085716329,15.451494561,0.0 74.08491634,15.451965773,0.0 74.078105322,15.456538613,0.0 74.076472011,15.459933372,0.0 74.076449789,15.462010894,0.0 74.075483136,15.462278615,0.0 74.075138696,15.46258917,0.0 74.074238709,15.463627921,0.0 74.073916491,15.464206192,0.0 74.073127613,15.465244934,0.0 74.0724054,15.466048082,0.0 74.072149848,15.466251546,0.0 74.070838755,15.467461614,0.0 74.070394317,15.468200503,0.0 74.070094321,15.468478924,0.0 74.069327665,15.469089307,0.0 74.068216569,15.469710396,0.0 74.06730547,15.469871023,0.0 74.066694367,15.469796064,0.0 74.066649924,15.469249933,0.0 74.066616591,15.467740036,0.0 74.066638813,15.466551386,0.0 74.066905476,15.466015956,0.0 74.067494356,15.465298477,0.0 74.068527676,15.464174066,0.0 74.068716562,15.463595794,0.0 74.068305456,15.462610588,0.0 74.068305456,15.461914515,0.0 74.06846101,15.461475452,0.0 74.068183236,15.460886465,0.0 74.067894351,15.459879827,0.0 74.067449913,15.459173036,0.0 74.067249915,15.458530497,0.0 74.066383261,15.458305608,0.0 74.064949947,15.458262772,0.0 74.063449967,15.458476952,0.0 74.062816643,15.458701841,0.0 74.061483328,15.459494305,0.0 74.060716671,15.460490236,0.0 74.059594465,15.460308184,0.0 74.058350037,15.460136841,0.0 74.058116707,15.460179677,0.0 74.05745005,15.460136841,0.0 74.05560563,15.459569268,0.0 74.054361203,15.459462178,0.0 74.053494548,15.459312253,0.0 74.052539006,15.458969566,0.0 74.052150122,15.458659005,0.0 74.051239023,15.457995046,0.0 74.050261259,15.456720667,0.0 74.050872362,15.455949611,0.0 74.051950125,15.455692591,0.0 74.052650115,15.454589546,0.0 74.052383452,15.453465076,0.0 74.052694559,15.452104995,0.0 74.053650102,15.450370075,0.0 74.054116762,15.446589613,0.0 74.054116762,15.446589613,0.0 74.054305648,15.444983163,0.0 74.054116762,15.44389077,0.0 74.054116762,15.44389077,0.0 74.053816766,15.443312443,0.0 74.05305011,15.443141086,0.0 74.052927889,15.44289476,0.0 74.052483451,15.442787662,0.0 74.0513168,15.443408831,0.0 74.050083484,15.443483799,0.0 74.049605712,15.443644446,0.0 74.048127955,15.444276322,0.0 74.046694641,15.444908195,0.0 74.045627989,15.445668583,0.0 74.045127996,15.44637542,0.0 74.044605781,15.446964449,0.0 74.043872458,15.4474678,0.0 74.043350243,15.448292436,0.0 74.042716918,15.448967135,0.0 74.041305826,15.450252271,0.0 74.040794722,15.450038082,0.0 74.040005844,15.449502609,0.0 74.039905845,15.449299129,0.0 74.039539184,15.448956426,0.0 74.039005858,15.448892169,0.0 74.038372533,15.448988554,0.0 74.037928095,15.449245582,0.0 74.036517003,15.450327237,0.0 74.03625034,15.450573554,0.0 74.035650348,15.450916255,0.0 74.034694806,15.451194699,0.0 74.034550363,15.451098314,0.0 74.034405921,15.450680648,0.0 74.034439253,15.44988815,0.0 74.034650362,15.448827912,0.0 74.034961469,15.448142502,0.0 74.034950358,15.447125093,0.0 74.035517017,15.446064841,0.0 74.03625034,15.446204066,0.0 74.03729477,15.447060836,0.0 74.038328089,15.447264318,0.0 74.039039191,15.447242899,0.0 74.039316964,15.447103674,0.0 74.040172508,15.446193356,0.0 74.041450269,15.44435129,0.0 74.0415836,15.444072836,0.0 74.044183565,15.44226288,0.0 74.045005775,15.442177202,0.0 74.046305758,15.441598869,0.0 74.046483533,15.441406091,0.0 74.047416854,15.440592138,0.0 74.048450173,15.440024511,0.0 74.048716836,15.439606822,0.0 74.048627948,15.438921382,0.0 74.048727947,15.437936058,0.0 74.047883514,15.436768657,0.0 74.047205745,15.435997526,0.0 74.046405756,15.43562267,0.0 74.046716863,15.434058977,0.0 74.047227967,15.433737669,0.0 74.048094622,15.434133949,0.0 74.04865017,15.434830115,0.0 74.049305717,15.435440597,0.0 74.049894597,15.435943976,0.0 74.050061262,15.436040367,0.0 74.050439034,15.436586585,0.0 74.050772363,15.436704396,0.0 74.052216788,15.436640136,0.0 74.052516784,15.436201019,0.0 74.053294551,15.435686931,0.0 74.053538992,15.43509787,0.0 74.05398343,15.434883666,0.0 74.054138984,15.434487387,0.0 74.053950097,15.433577014,0.0 74.053683434,15.433362808,0.0 74.053705656,15.432634506,0.0 74.053761211,15.432291775,0.0 74.054161206,15.432013305,0.0 74.054127873,15.431252867,0.0 74.054138984,15.430385322,0.0 74.053594547,15.430021166,0.0 74.052527895,15.429764115,0.0 74.05178346,15.42966772,0.0 74.051016804,15.429260721,0.0 74.051027915,15.4290358,0.0 74.051361244,15.428296772,0.0 74.051983458,15.427557742,0.0 74.052316786,15.427311398,0.0 74.052661226,15.426304597,0.0 74.052861223,15.426004699,0.0 74.052894556,15.425297792,0.0 74.052794558,15.425019313,0.0 74.052383452,15.424783677,0.0 74.051794571,15.424473065,0.0 74.051261245,15.424055345,0.0 74.049594602,15.422180949,0.0 74.048939055,15.421141991,0.0 74.048894611,15.420049473,0.0 74.048927944,15.419160459,0.0 74.049105719,15.418924816,0.0 74.04935016,15.418860549,0.0 74.051250134,15.419021215,0.0 74.052083456,15.418732017,0.0 74.052139011,15.418421396,0.0 74.052427896,15.417885841,0.0 74.052261232,15.41729673,0.0 74.052261232,15.41729673,0.0 74.052283454,15.416247036,0.0 74.051950125,15.414661774,0.0 74.051961236,15.413644201,0.0 74.052439007,15.413280016,0.0 74.053594547,15.413729892,0.0 74.054072318,15.413729892,0.0 74.055516743,15.412819428,0.0 74.055361189,15.412380261,0.0 74.055294524,15.411030622,0.0 74.055361189,15.409466744,0.0 74.055561187,15.408652665,0.0 74.056216733,15.40735656,0.0 74.056883391,15.407053063,0.0</coordinates>
                    </LinearRing>
                </outerBoundaryIs>
            </Polygon>
        </Placemark>
        <Placemark id="2542">
            <ExtendedData>
                <Data name="id">
                    <value>369</value>
                </Data>
                <Data name="taluka">
                    <value>Ponda</value>
                </Data>
                <Data name="village">
                    <value>Usgao</value>
                </Data>
                <Data name="lg_code">
                    <value>626873</value>
                </Data>
                <Data name="dslr_code">
                    <value>00019800</value>
                </Data>
            </ExtendedData>
            <Polygon id="2541">
                <outerBoundaryIs>
                    <LinearRing id="2545">
                        <coordinates>74.072691069,15.466073165,0.0 74.070882811,15.467804729,0.0 74.070487436,15.468342688,0.0 74.072644555,15.466235675,0.0 74.072830614,15.466061957,0.0 74.072691069,15.466073165,0.0</coordinates>
                    </LinearRing>
                </outerBoundaryIs>
            </Polygon>
        </Placemark>
        <Placemark id="2554">
            <ExtendedData>
                <Data name="id">
                    <value>369</value>
                </Data>
                <Data name="taluka">
                    <value>Ponda</value>
                </Data>
                <Data name="village">
                    <value>Usgao</value>
                </Data>
                <Data name="lg_code">
                    <value>626873</value>
                </Data>
                <Data name="dslr_code">
                    <value>00019800</value>
                </Data>
            </ExtendedData>
            <Polygon id="2553">
                <outerBoundaryIs>
                    <LinearRing id="2557">
                        <coordinates>74.044997383,15.441706448,0.0 74.046456781,15.441137595,0.0 74.046471317,15.441286113,0.0 74.046343402,15.441479467,0.0 74.045148555,15.441964252,0.0 74.044575843,15.442182825,0.0 74.044375248,15.442157605,0.0 74.04457875,15.441964252,0.0 74.044997383,15.441706448,0.0</coordinates>
                    </LinearRing>
                </outerBoundaryIs>
            </Polygon>
        </Placemark>
    </Document>
</kml>
