<?xml version="1.0" encoding="UTF-8"?>
<kml xmlns="http://www.opengis.net/kml/2.2" xmlns:gx="http://www.google.com/kml/ext/2.2">
    <Document id="1584">
        <Placemark id="1586">
            <ExtendedData>
                <Data name="id">
                    <value>37</value>
                </Data>
                <Data name="taluka">
                    <value>Mormugao</value>
                </Data>
                <Data name="village">
                    <value>Chicolna</value>
                </Data>
                <Data name="lg_code">
                    <value>626880</value>
                </Data>
                <Data name="dslr_code">
                    <value>00022100</value>
                </Data>
            </ExtendedData>
            <Polygon id="1585">
                <outerBoundaryIs>
                    <LinearRing id="1589">
                        <coordinates>73.837395624,15.362997071,0.0 73.837679814,15.362955317,0.0 73.837940842,15.362899728,0.0 73.838230874,15.362554107,0.0 73.838545074,15.362515436,0.0 73.838948701,15.362346251,0.0 73.839120303,15.362133562,0.0 73.839533598,15.362048969,0.0 73.839835714,15.361865283,0.0 73.840193419,15.361739602,0.0 73.84053904,15.361630841,0.0 73.840879827,15.361415734,0.0 73.841049012,15.36131664,0.0 73.841044178,15.361043527,0.0 73.841305206,15.36082117,0.0 73.84167258,15.360763163,0.0 73.842160799,15.36067132,0.0 73.842610348,15.360548057,0.0 73.843255668,15.360758329,0.0 73.843826063,15.360707574,0.0 73.844203103,15.360700323,0.0 73.84469374,15.360770414,0.0 73.845051445,15.360842922,0.0 73.845911872,15.361002439,0.0 73.846337251,15.361116035,0.0 73.846499185,15.360925097,0.0 73.84703816,15.361091866,0.0 73.847420035,15.361091866,0.0 73.84783333,15.361183709,0.0 73.848091941,15.36119096,0.0 73.848766264,15.361338392,0.0 73.84931249,15.361338392,0.0 73.849887719,15.361099116,0.0 73.850523371,15.361261051,0.0 73.85113002,15.361234464,0.0 73.852123377,15.361696098,0.0 73.852437578,15.362114226,0.0 73.852614014,15.362687038,0.0 73.852367487,15.363064079,0.0 73.85220797,15.363199427,0.0 73.85214555,15.363571022,0.0 73.85051262,15.363754929,0.0 73.850409551,15.363560917,0.0 73.850100345,15.363706426,0.0 73.849869957,15.363936814,0.0 73.849457682,15.365294895,0.0 73.849633505,15.365579849,0.0 73.850403488,15.365943621,0.0 73.850488368,15.366859112,0.0 73.849997277,15.367259261,0.0 73.849830548,15.367962553,0.0 73.849876019,15.368896233,0.0 73.849663819,15.369326696,0.0 73.849457682,15.371206182,0.0 73.850076094,15.371224371,0.0 73.849954837,15.371800343,0.0 73.848808956,15.373400937,0.0 73.848305739,15.376104972,0.0 73.848178419,15.377723756,0.0 73.848200869,15.377890262,0.0 73.844148133,15.377935956,0.0 73.844139039,15.375965527,0.0 73.844129945,15.375245562,0.0 73.844058706,15.374963639,0.0 73.843650979,15.374296725,0.0 73.843232642,15.37396933,0.0 73.842999222,15.373728332,0.0 73.8429007,15.373410032,0.0 73.843149277,15.372732507,0.0 73.843306912,15.372591546,0.0 73.843076523,15.372383893,0.0 73.841527463,15.370690839,0.0 73.841250087,15.370366476,0.0 73.841169754,15.370190654,0.0 73.841186427,15.370107289,0.0 73.841178848,15.370005736,0.0 73.841125798,15.369907215,0.0 73.841216741,15.3695586,0.0 73.841374375,15.369535865,0.0 73.841509274,15.369496456,0.0 73.841572934,15.369425218,0.0 73.841644173,15.36904932,0.0 73.841624468,15.368820447,0.0 73.841454708,15.368821963,0.0 73.841368313,15.368744662,0.0 73.84128798,15.368567323,0.0 73.841230383,15.36843394,0.0 73.841106094,15.368277821,0.0 73.841090937,15.368098967,0.0 73.841131861,15.367980741,0.0 73.84100151,15.367715491,0.0 73.840749901,15.367760963,0.0 73.84073626,15.367359298,0.0 73.84005951,15.367521627,0.0 73.839838956,15.36757453,0.0 73.839802579,15.367607876,0.0 73.839739954,15.367455785,0.0 73.839717699,15.367401738,0.0 73.839920805,15.367268355,0.0 73.839629788,15.366956118,0.0 73.839517625,15.366631755,0.0 73.839284205,15.36653475,0.0 73.83891437,15.365234266,0.0 73.838465719,15.364715892,0.0 73.837983722,15.363833746,0.0 73.837883684,15.36346088,0.0 73.83776849,15.363430566,0.0 73.837574479,15.363485131,0.0 73.837395624,15.362997071,0.0</coordinates>
                    </LinearRing>
                </outerBoundaryIs>
            </Polygon>
        </Placemark>
    </Document>
</kml>
