<?xml version="1.0" encoding="UTF-8"?>
<kml xmlns="http://www.opengis.net/kml/2.2" xmlns:gx="http://www.google.com/kml/ext/2.2">
    <Document id="1626">
        <Placemark id="1628">
            <ExtendedData>
                <Data name="id">
                    <value>92</value>
                </Data>
                <Data name="taluka">
                    <value>Mormugao</value>
                </Data>
                <Data name="village">
                    <value>Dabolim</value>
                </Data>
                <Data name="lg_code">
                    <value>626874</value>
                </Data>
                <Data name="dslr_code">
                    <value>00021400</value>
                </Data>
            </ExtendedData>
            <Polygon id="1627">
                <outerBoundaryIs>
                    <LinearRing id="1631">
                        <coordinates>73.844148133,15.377935956,0.0 73.848200869,15.377890262,0.0 73.848251173,15.37826335,0.0 73.848536128,15.379378916,0.0 73.849063596,15.380209528,0.0 73.849791139,15.381949569,0.0 73.850730883,15.382222397,0.0 73.851688814,15.382113266,0.0 73.851737317,15.382361843,0.0 73.851886586,15.382442273,0.0 73.852050745,15.382468996,0.0 73.851886586,15.383072185,0.0 73.851791145,15.384152581,0.0 73.852027839,15.384133492,0.0 73.852241627,15.384610699,0.0 73.852665387,15.384400728,0.0 73.852394333,15.383873892,0.0 73.853039517,15.383732639,0.0 73.853341111,15.383843351,0.0 73.853577805,15.383835716,0.0 73.853711423,15.383915886,0.0 73.854955978,15.383992239,0.0 73.85677318,15.383557027,0.0 73.858937788,15.384591611,0.0 73.858483488,15.385824712,0.0 73.857632151,15.385874341,0.0 73.857941381,15.38633246,0.0 73.858120811,15.386805848,0.0 73.85685335,15.387748808,0.0 73.856391415,15.387890061,0.0 73.856299791,15.38893228,0.0 73.855982926,15.389440028,0.0 73.859857842,15.389252963,0.0 73.861121485,15.390325723,0.0 73.862526381,15.390650224,0.0 73.862816522,15.390661676,0.0 73.863118117,15.390776206,0.0 73.864622271,15.390925094,0.0 73.864675718,15.39333785,0.0 73.864805518,15.394040298,0.0 73.864584095,15.395697159,0.0 73.861904103,15.395750606,0.0 73.861724674,15.395651347,0.0 73.86143835,15.395914765,0.0 73.860812255,15.396006389,0.0 73.86069009,15.396090377,0.0 73.860113625,15.396033112,0.0 73.859739495,15.396162912,0.0 73.859376818,15.396174365,0.0 73.859109582,15.396307983,0.0 73.858975965,15.396651572,0.0 73.858697276,15.396720289,0.0 73.858693458,15.397415102,0.0 73.858052093,15.397835044,0.0 73.857903205,15.398518403,0.0 73.857513804,15.399404098,0.0 73.856887709,15.400056917,0.0 73.856509762,15.400293611,0.0 73.855490449,15.400641017,0.0 73.853925212,15.400988424,0.0 73.853692335,15.401015147,0.0 73.852768463,15.401003694,0.0 73.85179878,15.401148765,0.0 73.851367385,15.401060959,0.0 73.851321573,15.401144947,0.0 73.850348072,15.400786088,0.0 73.848641582,15.401855031,0.0 73.848427794,15.398966977,0.0 73.848381982,15.399180766,0.0 73.848162467,15.39915786,0.0 73.848114746,15.398894442,0.0 73.848007852,15.398892533,0.0 73.847990672,15.398984157,0.0 73.847225233,15.399062419,0.0 73.846885514,15.398795222,0.0 73.84623982,15.397846385,0.0 73.845854828,15.397625091,0.0 73.84583664,15.397482613,0.0 73.845866954,15.39700971,0.0 73.845742665,15.396718693,0.0 73.845463774,15.396197287,0.0 73.845434975,15.395709227,0.0 73.845347064,15.39552431,0.0 73.84541224,15.394752811,0.0 73.845448617,15.394687635,0.0 73.845397082,15.394029815,0.0 73.845266731,15.393993438,0.0 73.845312202,15.393860055,0.0 73.845469837,15.393750924,0.0 73.845494088,15.393141606,0.0 73.845409208,15.393096135,0.0 73.845321297,15.392477723,0.0 73.845151537,15.391465226,0.0 73.845066657,15.391301529,0.0 73.845166694,15.391234837,0.0 73.844884771,15.390161711,0.0 73.844624068,15.389864631,0.0 73.844169353,15.389737311,0.0 73.843941996,15.389594834,0.0 73.843669168,15.389249251,0.0 73.843456968,15.388888511,0.0 73.843159887,15.388042742,0.0 73.843035599,15.387882076,0.0 73.84282643,15.387779008,0.0 73.842329276,15.387312167,0.0 73.842329276,15.38704237,0.0 73.842138296,15.386933239,0.0 73.84131981,15.387045402,0.0 73.841137924,15.386730133,0.0 73.841110641,15.386433053,0.0 73.841080327,15.385763107,0.0 73.841098515,15.384814269,0.0 73.84104395,15.384165544,0.0 73.840519512,15.382492194,0.0 73.841184775,15.382088449,0.0 73.84170177,15.381722211,0.0 73.841650236,15.381619143,0.0 73.841647204,15.381364503,0.0 73.841704801,15.380952228,0.0 73.841874561,15.380079177,0.0 73.842241364,15.379430451,0.0 73.84267789,15.379018176,0.0 73.84295375,15.378887825,0.0 73.843199296,15.378627122,0.0 73.844148133,15.377935956,0.0</coordinates>
                    </LinearRing>
                </outerBoundaryIs>
            </Polygon>
        </Placemark>
    </Document>
</kml>
