<?xml version="1.0" encoding="UTF-8"?>
<kml xmlns="http://www.opengis.net/kml/2.2" xmlns:gx="http://www.google.com/kml/ext/2.2">
    <Document id="1654">
        <Placemark id="1656">
            <ExtendedData>
                <Data name="id">
                    <value>31</value>
                </Data>
                <Data name="taluka">
                    <value>Mormugao</value>
                </Data>
                <Data name="village">
                    <value>Pale</value>
                </Data>
                <Data name="lg_code">
                    <value>626878</value>
                </Data>
                <Data name="dslr_code">
                    <value>00021900</value>
                </Data>
            </ExtendedData>
            <Polygon id="1655">
                <outerBoundaryIs>
                    <LinearRing id="1659">
                        <coordinates>73.889486174,15.360797845,0.0 73.889519024,15.360862699,0.0 73.88966278,15.361058566,0.0 73.889849663,15.361258028,0.0 73.889931824,15.361343177,0.0 73.890047328,15.361462881,0.0 73.89113628,15.361667733,0.0 73.891206361,15.361867195,0.0 73.8913016,15.362030717,0.0 73.891578531,15.362065649,0.0 73.891869437,15.362068453,0.0 73.891956616,15.362270006,0.0 73.892241406,15.362280494,0.0 73.892231732,15.362586298,0.0 73.892467822,15.362593163,0.0 73.892651333,15.362486107,0.0 73.892920654,15.362479955,0.0 73.893085973,15.362674026,0.0 73.893295016,15.363091439,0.0 73.893168633,15.362950757,0.0 73.893114724,15.363162797,0.0 73.89321176,15.363360462,0.0 73.893305201,15.363461091,0.0 73.893391124,15.363568383,0.0 73.893549587,15.363921111,0.0 73.893581932,15.364287689,0.0 73.893689749,15.364442227,0.0 73.893750845,15.364636298,0.0 73.893628653,15.364790835,0.0 73.893585526,15.364909434,0.0 73.893675373,15.365117881,0.0 73.894383372,15.366016357,0.0 73.894383372,15.366145737,0.0 73.894311494,15.366821391,0.0 73.894185708,15.36693999,0.0 73.894124611,15.367072964,0.0 73.894117423,15.367320944,0.0 73.894138987,15.367518608,0.0 73.894228835,15.367737837,0.0 73.895777427,15.370722963,0.0 73.895767924,15.371565943,0.0 73.895581041,15.371702511,0.0 73.894326768,15.37219847,0.0 73.89373018,15.372496764,0.0 73.893061714,15.372698023,0.0 73.892285431,15.37280584,0.0 73.891681655,15.372360196,0.0 73.890639423,15.372313475,0.0 73.889963769,15.372651302,0.0 73.889399526,15.372654896,0.0 73.887864929,15.372381759,0.0 73.887354595,15.372457231,0.0 73.886758007,15.372417698,0.0 73.886578312,15.372320663,0.0 73.886150637,15.372248785,0.0 73.885837968,15.372072683,0.0 73.885546862,15.371619852,0.0 73.884033828,15.371016076,0.0 73.883652874,15.370804035,0.0 73.8849934,15.368971145,0.0 73.884626822,15.368895673,0.0 73.884648386,15.369175997,0.0 73.883088631,15.369183185,0.0 73.883350986,15.368676444,0.0 73.881999679,15.368644099,0.0 73.881187456,15.369308971,0.0 73.880756188,15.369441946,0.0 73.879315033,15.369021459,0.0 73.878632191,15.370189478,0.0 73.87820811,15.370707,0.0 73.878251237,15.370929822,0.0 73.878204516,15.371016076,0.0 73.878057166,15.370998106,0.0 73.878028415,15.370929822,0.0 73.877291665,15.37078966,0.0 73.877169472,15.370512929,0.0 73.876342874,15.370473396,0.0 73.875775037,15.37032964,0.0 73.875426429,15.369718676,0.0 73.87502851,15.369958821,0.0 73.874704054,15.369883996,0.0 73.874351851,15.370016971,0.0 73.873855893,15.369959468,0.0 73.87375167,15.369808524,0.0 73.873730106,15.369291002,0.0 73.880184757,15.360622506,0.0 73.881908933,15.357707251,0.0 73.885287202,15.358363738,0.0 73.88530637,15.358210398,0.0 73.886374957,15.358440408,0.0 73.886633718,15.358588956,0.0 73.886729555,15.358665626,0.0 73.886763098,15.358838133,0.0 73.887122489,15.358914803,0.0 73.887175199,15.358747087,0.0 73.887347707,15.358641666,0.0 73.88902007,15.359231066,0.0 73.888976943,15.359748589,0.0 73.889183892,15.359773147,0.0 73.889268623,15.36036835,0.0 73.889486174,15.360797845,0.0</coordinates>
                    </LinearRing>
                </outerBoundaryIs>
            </Polygon>
        </Placemark>
    </Document>
</kml>
