<?xml version="1.0" encoding="UTF-8"?>
<kml xmlns="http://www.opengis.net/kml/2.2" xmlns:gx="http://www.google.com/kml/ext/2.2">
    <Document id="1710">
        <Placemark id="1712">
            <ExtendedData>
                <Data name="id">
                    <value>34</value>
                </Data>
                <Data name="taluka">
                    <value>Mormugao</value>
                </Data>
                <Data name="village">
                    <value>Vasco</value>
                </Data>
            </ExtendedData>
            <Polygon id="1711">
                <outerBoundaryIs>
                    <LinearRing id="1715">
                        <coordinates>73.822996334,15.371086441,0.0 73.823242825,15.371725599,0.0 73.82366628,15.372032247,0.0 73.827661704,15.37600342,0.0 73.827669882,15.376049608,0.0 73.828831836,15.382266353,0.0 73.832521086,15.386137488,0.0 73.832709034,15.387192426,0.0 73.833491143,15.388829398,0.0 73.83405802,15.389099195,0.0 73.835607081,15.390099567,0.0 73.834540018,15.39199421,0.0 73.83443998,15.392709628,0.0 73.833991329,15.393943419,0.0 73.83335776,15.395204494,0.0 73.83293336,15.395865346,0.0 73.832718128,15.396520135,0.0 73.832634764,15.397070339,0.0 73.832298275,15.39712642,0.0 73.831963303,15.398196515,0.0 73.831645002,15.398663355,0.0 73.830623411,15.398723984,0.0 73.830132319,15.398872524,0.0 73.829953465,15.398878587,0.0 73.829804925,15.399124133,0.0 73.82998681,15.399454558,0.0 73.830120193,15.399763764,0.0 73.830214168,15.400100253,0.0 73.830208105,15.400870236,0.0 73.830098973,15.401421956,0.0 73.829789768,15.401931236,0.0 73.829128916,15.402270756,0.0 73.828704516,15.402749722,0.0 73.828455939,15.40338026,0.0 73.828071244,15.403110202,0.0 73.827633262,15.403012987,0.0 73.827148542,15.403250972,0.0 73.826890736,15.403405655,0.0 73.82663293,15.403514506,0.0 73.826392312,15.403766583,0.0 73.826409499,15.404150427,0.0 73.826140235,15.404293652,0.0 73.825716288,15.404219175,0.0 73.825561604,15.404219175,0.0 73.825670456,15.406424846,0.0 73.823762694,15.40651651,0.0 73.823539262,15.404282194,0.0 73.822823135,15.404310839,0.0 73.822886154,15.404900928,0.0 73.823063754,15.405977983,0.0 73.823109586,15.406430575,0.0 73.82314396,15.406928999,0.0 73.823333017,15.407381592,0.0 73.823195521,15.407908661,0.0 73.822628349,15.408641975,0.0 73.822003886,15.409163315,0.0 73.821035682,15.409867984,0.0 73.820113311,15.410120061,0.0 73.819528951,15.410458073,0.0 73.818944592,15.41041797,0.0 73.818268568,15.410607027,0.0 73.817523796,15.410343492,0.0 73.817157139,15.410205996,0.0 73.816716005,15.41018308,0.0 73.816091542,15.409747675,0.0 73.815919672,15.409260709,0.0 73.816085813,15.408647704,0.0 73.81663007,15.408229486,0.0 73.817157139,15.407582107,0.0 73.817168597,15.407358675,0.0 73.816819127,15.406757129,0.0 73.816704547,15.406270163,0.0 73.816767566,15.405605597,0.0 73.816836314,15.405250398,0.0 73.816887875,15.404631664,0.0 73.816177478,15.40372648,0.0 73.813771291,15.401744241,0.0 73.811972381,15.400890617,0.0 73.8107521,15.400724476,0.0 73.809623484,15.400690102,0.0 73.809457343,15.400861972,0.0 73.80877559,15.400627083,0.0 73.808386017,15.400793224,0.0 73.807967799,15.405634242,0.0 73.807412084,15.405605597,0.0 73.806558461,15.404459794,0.0 73.806203262,15.404402504,0.0 73.806031392,15.404608748,0.0 73.80406634,15.406293079,0.0 73.804753821,15.407433153,0.0 73.799907075,15.411030974,0.0 73.800250816,15.411575231,0.0 73.794613465,15.415797515,0.0 73.793530681,15.414422551,0.0 73.79330152,15.414491299,0.0 73.793158295,15.414285055,0.0 73.790437013,15.414451196,0.0 73.791743228,15.418163598,0.0 73.794092124,15.418100579,0.0 73.794086395,15.418329739,0.0 73.791863537,15.418490152,0.0 73.791972389,15.418810977,0.0 73.791657293,15.418914099,0.0 73.789950046,15.413975688,0.0 73.789428706,15.413402786,0.0 73.788981843,15.413368412,0.0 73.788076658,15.413620489,0.0 73.787710001,15.413889753,0.0 73.786942313,15.414118913,0.0 73.78626629,15.414101726,0.0 73.785550163,15.413792359,0.0 73.784496024,15.413173626,0.0 73.784180928,15.41274395,0.0 73.783212725,15.412308545,0.0 73.783017938,15.411185658,0.0 73.78318408,15.410320576,0.0 73.783602298,15.409323728,0.0 73.783688233,15.408808116,0.0 73.783934581,15.408240944,0.0 73.784719456,15.407536275,0.0 73.785641827,15.40692327,0.0 73.786123064,15.406350369,0.0 73.786283477,15.405834757,0.0 73.786581386,15.404981134,0.0 73.786959501,15.403984286,0.0 73.787211577,15.403210869,0.0 73.788443315,15.401824447,0.0 73.78957766,15.400724476,0.0 73.791147411,15.400323445,0.0 73.791284907,15.399813563,0.0 73.790700547,15.398759424,0.0 73.790608883,15.398507347,0.0 73.790018795,15.398146419,0.0 73.789978691,15.397493311,0.0 73.789944317,15.396737081,0.0 73.790247955,15.395780336,0.0 73.791050017,15.394674636,0.0 73.792281756,15.394382456,0.0 73.793908796,15.394044444,0.0 73.794630652,15.393958509,0.0 73.79516345,15.394817861,0.0 73.795730623,15.394875152,0.0 73.796721742,15.39488661,0.0 73.797747236,15.394634533,0.0 73.798938871,15.394663178,0.0 73.800015926,15.394657449,0.0 73.800852362,15.394611617,0.0 73.801975249,15.394703281,0.0 73.803115323,15.395299099,0.0 73.803459064,15.395362118,0.0 73.804507474,15.394691823,0.0 73.8055788,15.393173634,0.0 73.806420965,15.391643987,0.0 73.807108447,15.38976487,0.0 73.807308962,15.388229494,0.0 73.807664161,15.385806121,0.0 73.807646974,15.382242673,0.0 73.807773012,15.379825029,0.0 73.807349065,15.379091715,0.0 73.807188653,15.378461523,0.0 73.807337607,15.377980286,0.0 73.807853219,15.377716751,0.0 73.808208418,15.37720114,0.0 73.808941732,15.376742819,0.0 73.809571923,15.376662612,0.0 73.810442733,15.376926147,0.0 73.81133646,15.376994895,0.0 73.8120354,15.377029269,0.0 73.81528948,15.375024114,0.0 73.815300938,15.374210594,0.0 73.816240497,15.373649151,0.0 73.817409216,15.37359186,0.0 73.818577935,15.373786647,0.0 73.819334165,15.373947059,0.0 73.820285181,15.373672067,0.0 73.821545565,15.372801256,0.0 73.822003886,15.372411683,0.0 73.822210131,15.371804408,0.0 73.822996334,15.371086441,0.0</coordinates>
                    </LinearRing>
                </outerBoundaryIs>
            </Polygon>
        </Placemark>
    </Document>
</kml>
