<?xml version="1.0" encoding="UTF-8"?>
<kml xmlns="http://www.opengis.net/kml/2.2" xmlns:gx="http://www.google.com/kml/ext/2.2">
    <Document id="1722">
        <Placemark id="1724">
            <ExtendedData>
                <Data name="id">
                    <value>30</value>
                </Data>
                <Data name="taluka">
                    <value>Mormugao</value>
                </Data>
                <Data name="village">
                    <value>Velsao</value>
                </Data>
                <Data name="lg_code">
                    <value>626882</value>
                </Data>
                <Data name="dslr_code">
                    <value>00022300</value>
                </Data>
            </ExtendedData>
            <Polygon id="1723">
                <outerBoundaryIs>
                    <LinearRing id="1727">
                        <coordinates>73.887700723,15.346518379,0.0 73.888861339,15.347166107,0.0 73.889229714,15.347414086,0.0 73.889608871,15.347583,0.0 73.889856851,15.347575812,0.0 73.889910759,15.347789649,0.0 73.89094221,15.347998096,0.0 73.890910838,15.348178428,0.0 73.891733842,15.348480314,0.0 73.89185244,15.348332966,0.0 73.892578409,15.348670791,0.0 73.893419383,15.348624071,0.0 73.894373564,15.349145187,0.0 73.895948417,15.350155283,0.0 73.895999606,15.350077905,0.0 73.896017762,15.350036987,0.0 73.895999731,15.350078966,0.0 73.895948967,15.350154887,0.0 73.895891015,15.350375463,0.0 73.896072282,15.350697355,0.0 73.896372573,15.35107112,0.0 73.896407314,15.35189712,0.0 73.896733162,15.352494506,0.0 73.89662215,15.352802022,0.0 73.896503151,15.352812766,0.0 73.896426482,15.353125835,0.0 73.896384553,15.353191324,0.0 73.896470806,15.353280772,0.0 73.897083767,15.353492189,0.0 73.89709335,15.353441075,0.0 73.897233913,15.353468795,0.0 73.897224728,15.353551214,0.0 73.897344524,15.353591445,0.0 73.897315773,15.354083411,0.0 73.89724202,15.354313163,0.0 73.897180234,15.354502159,0.0 73.897113541,15.35470155,0.0 73.896888323,15.354967499,0.0 73.896913256,15.355026212,0.0 73.897774595,15.355237054,0.0 73.897752233,15.355406367,0.0 73.897790568,15.355414353,0.0 73.89773626,15.355714644,0.0 73.897660788,15.355771747,0.0 73.897009094,15.356915407,0.0 73.896696424,15.356862297,0.0 73.896319463,15.357453295,0.0 73.895828696,15.357590262,0.0 73.895368676,15.357440117,0.0 73.895244087,15.357484841,0.0 73.895184813,15.357569784,0.0 73.895036439,15.35763259,0.0 73.89454128,15.358769862,0.0 73.893780969,15.358529469,0.0 73.893062188,15.358372935,0.0 73.891181378,15.358579784,0.0 73.891360276,15.35971386,0.0 73.890260541,15.359762577,0.0 73.890011763,15.359739616,0.0 73.890046904,15.360059074,0.0 73.889457703,15.360125961,0.0 73.889457703,15.360304857,0.0 73.889268623,15.36036835,0.0 73.889486174,15.360797845,0.0 73.889268623,15.36036835,0.0 73.889183892,15.359773147,0.0 73.888976943,15.359748589,0.0 73.88902007,15.359231066,0.0 73.887347707,15.358641666,0.0 73.887175199,15.358747087,0.0 73.887122489,15.358914803,0.0 73.886763098,15.358838133,0.0 73.886729555,15.358665626,0.0 73.886633718,15.358588956,0.0 73.886374957,15.358440408,0.0 73.88530637,15.358210398,0.0 73.885287202,15.358363738,0.0 73.881908933,15.357707251,0.0 73.887700723,15.346518379,0.0</coordinates>
                    </LinearRing>
                </outerBoundaryIs>
            </Polygon>
        </Placemark>
    </Document>
</kml>
