<?xml version="1.0" encoding="UTF-8"?>
<kml xmlns="http://www.opengis.net/kml/2.2" xmlns:gx="http://www.google.com/kml/ext/2.2">
    <Document id="17320">
        <Placemark id="17322">
            <ExtendedData>
                <Data name="direction">
                    <value>https://maps.google.com?q=15.172842,74.221253&amp;t=h</value>
                </Data>
                <Data name="id">
                    <value>4064</value>
                </Data>
                <Data name="Sr.No">
                    <value>4064</value>
                </Data>
                <Data name="Reg No">
                    <value>1104</value>
                </Data>
                <Data name="Category">
                    <value>agricultural</value>
                </Data>
                <Data name="Type Of Well">
                    <value>Open Well</value>
                </Data>
                <Data name="Applicant Name">
                    <value>TEREZINHA D'SILVA</value>
                </Data>
                <Data name="Applicant Address">
                    <value>H.no 911, Jamul vaddo, Bhati, Sanguem, Goa</value>
                </Data>
                <Data name="latitude">
                    <value>15.172842</value>
                </Data>
                <Data name="longitude">
                    <value>74.221253</value>
                </Data>
                <Data name="taluka">
                    <value>Sanguem</value>
                </Data>
                <Data name="village">
                    <value>Bati</value>
                </Data>
            </ExtendedData>
            <Point id="17321">
                <coordinates>74.221253,15.172842,0.0</coordinates>
            </Point>
        </Placemark>
        <Placemark id="17337">
            <ExtendedData>
                <Data name="direction">
                    <value>https://maps.google.com?q=15.172248,74.220232&amp;t=h</value>
                </Data>
                <Data name="id">
                    <value>4065</value>
                </Data>
                <Data name="Sr.No">
                    <value>4065</value>
                </Data>
                <Data name="Reg No">
                    <value>1103</value>
                </Data>
                <Data name="Category">
                    <value>agricultural</value>
                </Data>
                <Data name="Type Of Well">
                    <value>Open Well</value>
                </Data>
                <Data name="Applicant Name">
                    <value>TEREZINHA D'SILVA</value>
                </Data>
                <Data name="Applicant Address">
                    <value>H.no 911, Jamul vaddo, Bhati, Sanguem, Goa</value>
                </Data>
                <Data name="latitude">
                    <value>15.172248</value>
                </Data>
                <Data name="longitude">
                    <value>74.220232</value>
                </Data>
                <Data name="taluka">
                    <value>Sanguem</value>
                </Data>
                <Data name="village">
                    <value>Bati</value>
                </Data>
            </ExtendedData>
            <Point id="17336">
                <coordinates>74.220232,15.172248,0.0</coordinates>
            </Point>
        </Placemark>
        <Placemark id="17352">
            <ExtendedData>
                <Data name="direction">
                    <value>https://maps.google.com?q=15.172266,74.221057&amp;t=h</value>
                </Data>
                <Data name="id">
                    <value>4066</value>
                </Data>
                <Data name="Sr.No">
                    <value>4066</value>
                </Data>
                <Data name="Reg No">
                    <value>964</value>
                </Data>
                <Data name="Category">
                    <value>agricultural</value>
                </Data>
                <Data name="Type Of Well">
                    <value>Open Well</value>
                </Data>
                <Data name="Applicant Name">
                    <value>JOSE GREGORIO D'SILVA</value>
                </Data>
                <Data name="Applicant Address">
                    <value>H.no A-9, Jamul vaddo, Bhati, Sanguem, Goa</value>
                </Data>
                <Data name="latitude">
                    <value>15.172266</value>
                </Data>
                <Data name="longitude">
                    <value>74.221057</value>
                </Data>
                <Data name="taluka">
                    <value>Sanguem</value>
                </Data>
                <Data name="village">
                    <value>Bati</value>
                </Data>
            </ExtendedData>
            <Point id="17351">
                <coordinates>74.221057,15.172266,0.0</coordinates>
            </Point>
        </Placemark>
        <Placemark id="17367">
            <ExtendedData>
                <Data name="direction">
                    <value>https://maps.google.com?q=15.173493,74.230509&amp;t=h</value>
                </Data>
                <Data name="id">
                    <value>4068</value>
                </Data>
                <Data name="Sr.No">
                    <value>4068</value>
                </Data>
                <Data name="Reg No">
                    <value>530</value>
                </Data>
                <Data name="Category">
                    <value>agricultural</value>
                </Data>
                <Data name="Type Of Well">
                    <value>Dug well</value>
                </Data>
                <Data name="Applicant Name">
                    <value>ANANT SHANU NAIK</value>
                </Data>
                <Data name="Applicant Address">
                    <value>H.no 19, Villian, Bhati, Sanguem, Goa</value>
                </Data>
                <Data name="latitude">
                    <value>15.173493</value>
                </Data>
                <Data name="longitude">
                    <value>74.230509</value>
                </Data>
                <Data name="taluka">
                    <value>Sanguem</value>
                </Data>
                <Data name="village">
                    <value>Bati</value>
                </Data>
            </ExtendedData>
            <Point id="17366">
                <coordinates>74.230509,15.173493,0.0</coordinates>
            </Point>
        </Placemark>
        <Placemark id="17382">
            <ExtendedData>
                <Data name="direction">
                    <value>https://maps.google.com?q=15.193707,74.270732&amp;t=h</value>
                </Data>
                <Data name="id">
                    <value>4073</value>
                </Data>
                <Data name="Sr.No">
                    <value>4073</value>
                </Data>
                <Data name="Reg No">
                    <value>SANGUEM/ PRADYUMNA PURUSHOTTAM PAI RAITURKAR</value>
                </Data>
                <Data name="Category">
                    <value>agricultural</value>
                </Data>
                <Data name="Type Of Well">
                    <value>Open Well</value>
                </Data>
                <Data name="Applicant Name">
                    <value>PRADYUMNA PURUSHOTTAM PAI RAITURKAR</value>
                </Data>
                <Data name="Applicant Address">
                    <value>H.no 394, Comba, Margao, Goa</value>
                </Data>
                <Data name="latitude">
                    <value>15.193707</value>
                </Data>
                <Data name="longitude">
                    <value>74.270732</value>
                </Data>
                <Data name="taluka">
                    <value>Sanguem</value>
                </Data>
                <Data name="village">
                    <value>Bati</value>
                </Data>
            </ExtendedData>
            <Point id="17381">
                <coordinates>74.270732,15.193707,0.0</coordinates>
            </Point>
        </Placemark>
        <Placemark id="17397">
            <ExtendedData>
                <Data name="direction">
                    <value>https://maps.google.com?q=15.209606,74.219716&amp;t=h</value>
                </Data>
                <Data name="id">
                    <value>4081</value>
                </Data>
                <Data name="Sr.No">
                    <value>4081</value>
                </Data>
                <Data name="Reg No">
                    <value>949</value>
                </Data>
                <Data name="Category">
                    <value>agricultural</value>
                </Data>
                <Data name="Type Of Well">
                    <value>Open Well</value>
                </Data>
                <Data name="Applicant Name">
                    <value>PRABHAKAR JIJU GAONKAR</value>
                </Data>
                <Data name="Applicant Address">
                    <value>H.no 240-A, Colony no. 2, Valkini, Sanguem, Goa</value>
                </Data>
                <Data name="latitude">
                    <value>15.209606</value>
                </Data>
                <Data name="longitude">
                    <value>74.219716</value>
                </Data>
                <Data name="taluka">
                    <value>Sanguem</value>
                </Data>
                <Data name="village">
                    <value>Bati</value>
                </Data>
            </ExtendedData>
            <Point id="17396">
                <coordinates>74.219716,15.209606,0.0</coordinates>
            </Point>
        </Placemark>
        <Placemark id="17412">
            <ExtendedData>
                <Data name="direction">
                    <value>https://maps.google.com?q=15.20139,74.22596&amp;t=h</value>
                </Data>
                <Data name="id">
                    <value>4082</value>
                </Data>
                <Data name="Sr.No">
                    <value>4082</value>
                </Data>
                <Data name="Reg No">
                    <value>85/Sanguem</value>
                </Data>
                <Data name="Category">
                    <value>agricultural</value>
                </Data>
                <Data name="Type Of Well">
                    <value>Open Well</value>
                </Data>
                <Data name="Applicant Name">
                    <value>KALIDAS CHANDA KHANDEPARKAR</value>
                </Data>
                <Data name="Applicant Address">
                    <value>H.no 294, Colony no. 3, Valkini, Sanguem, Goa</value>
                </Data>
                <Data name="latitude">
                    <value>15.20139</value>
                </Data>
                <Data name="longitude">
                    <value>74.22596</value>
                </Data>
                <Data name="taluka">
                    <value>Sanguem</value>
                </Data>
                <Data name="village">
                    <value>Bati</value>
                </Data>
            </ExtendedData>
            <Point id="17411">
                <coordinates>74.22596,15.20139,0.0</coordinates>
            </Point>
        </Placemark>
        <Placemark id="17427">
            <ExtendedData>
                <Data name="direction">
                    <value>https://maps.google.com?q=15.20347,74.226585&amp;t=h</value>
                </Data>
                <Data name="id">
                    <value>4083</value>
                </Data>
                <Data name="Sr.No">
                    <value>4083</value>
                </Data>
                <Data name="Reg No">
                    <value>84/Sanguem</value>
                </Data>
                <Data name="Category">
                    <value>agricultural</value>
                </Data>
                <Data name="Type Of Well">
                    <value>Open Well</value>
                </Data>
                <Data name="Applicant Name">
                    <value>MARIANO PIEDADE COSTA</value>
                </Data>
                <Data name="Applicant Address">
                    <value>H.no 269, Colony no. 3, Valkini, Sanguem, Goa</value>
                </Data>
                <Data name="latitude">
                    <value>15.20347</value>
                </Data>
                <Data name="longitude">
                    <value>74.226585</value>
                </Data>
                <Data name="taluka">
                    <value>Sanguem</value>
                </Data>
                <Data name="village">
                    <value>Bati</value>
                </Data>
            </ExtendedData>
            <Point id="17426">
                <coordinates>74.226585,15.20347,0.0</coordinates>
            </Point>
        </Placemark>
        <Placemark id="17442">
            <ExtendedData>
                <Data name="direction">
                    <value>https://maps.google.com?q=15.19825,74.236693&amp;t=h</value>
                </Data>
                <Data name="id">
                    <value>4084</value>
                </Data>
                <Data name="Sr.No">
                    <value>4084</value>
                </Data>
                <Data name="Reg No">
                    <value>1297</value>
                </Data>
                <Data name="Category">
                    <value>agricultural</value>
                </Data>
                <Data name="Type Of Well">
                    <value>Open Well</value>
                </Data>
                <Data name="Applicant Name">
                    <value>AGNELO GASPAR PEREIRA</value>
                </Data>
                <Data name="Applicant Address">
                    <value>H.no 153/1, Barazan, Bhati, Sanguem, Goa</value>
                </Data>
                <Data name="latitude">
                    <value>15.19825</value>
                </Data>
                <Data name="longitude">
                    <value>74.236693</value>
                </Data>
                <Data name="taluka">
                    <value>Sanguem</value>
                </Data>
                <Data name="village">
                    <value>Bati</value>
                </Data>
            </ExtendedData>
            <Point id="17441">
                <coordinates>74.236693,15.19825,0.0</coordinates>
            </Point>
        </Placemark>
        <Placemark id="17457">
            <ExtendedData>
                <Data name="direction">
                    <value>https://maps.google.com?q=15.198838,74.237317&amp;t=h</value>
                </Data>
                <Data name="id">
                    <value>4086</value>
                </Data>
                <Data name="Sr.No">
                    <value>4086</value>
                </Data>
                <Data name="Reg No">
                    <value>57/Sanguem</value>
                </Data>
                <Data name="Category">
                    <value>agricultural</value>
                </Data>
                <Data name="Type Of Well">
                    <value>Open Well</value>
                </Data>
                <Data name="Applicant Name">
                    <value>SHAILENDRA KASHINATH DESAI</value>
                </Data>
                <Data name="Applicant Address">
                    <value>H.no. 606/1, Madhegal, near ITI Kakoda, Curchorem, Goa</value>
                </Data>
                <Data name="latitude">
                    <value>15.198838</value>
                </Data>
                <Data name="longitude">
                    <value>74.237317</value>
                </Data>
                <Data name="taluka">
                    <value>Sanguem</value>
                </Data>
                <Data name="village">
                    <value>Bati</value>
                </Data>
            </ExtendedData>
            <Point id="17456">
                <coordinates>74.237317,15.198838,0.0</coordinates>
            </Point>
        </Placemark>
        <Placemark id="17472">
            <ExtendedData>
                <Data name="direction">
                    <value>https://maps.google.com?q=15.192729,74.235204&amp;t=h</value>
                </Data>
                <Data name="id">
                    <value>4087</value>
                </Data>
                <Data name="Sr.No">
                    <value>4087</value>
                </Data>
                <Data name="Reg No">
                    <value>324</value>
                </Data>
                <Data name="Category">
                    <value>agricultural</value>
                </Data>
                <Data name="Type Of Well">
                    <value>Open Well</value>
                </Data>
                <Data name="Applicant Name">
                    <value>ANANT DATTA GAONKAR</value>
                </Data>
                <Data name="Applicant Address">
                    <value>H.no 87, Congri, Bhati, Sanguem, Goa</value>
                </Data>
                <Data name="latitude">
                    <value>15.192729</value>
                </Data>
                <Data name="longitude">
                    <value>74.235204</value>
                </Data>
                <Data name="taluka">
                    <value>Sanguem</value>
                </Data>
                <Data name="village">
                    <value>Bati</value>
                </Data>
            </ExtendedData>
            <Point id="17471">
                <coordinates>74.235204,15.192729,0.0</coordinates>
            </Point>
        </Placemark>
        <Placemark id="17487">
            <ExtendedData>
                <Data name="direction">
                    <value>https://maps.google.com?q=15.200055,74.228228&amp;t=h</value>
                </Data>
                <Data name="id">
                    <value>4088</value>
                </Data>
                <Data name="Sr.No">
                    <value>4088</value>
                </Data>
                <Data name="Reg No">
                    <value>1298</value>
                </Data>
                <Data name="Category">
                    <value>irrigation</value>
                </Data>
                <Data name="Type Of Well">
                    <value>Open Well</value>
                </Data>
                <Data name="Applicant Name">
                    <value>NANDKUMAR JAIWANT KURDIKAR</value>
                </Data>
                <Data name="Applicant Address">
                    <value>H.no 296, Colony no. 3, Valkini, Sanguem, Goa</value>
                </Data>
                <Data name="latitude">
                    <value>15.200055</value>
                </Data>
                <Data name="longitude">
                    <value>74.228228</value>
                </Data>
                <Data name="taluka">
                    <value>Sanguem</value>
                </Data>
                <Data name="village">
                    <value>Bati</value>
                </Data>
            </ExtendedData>
            <Point id="17486">
                <coordinates>74.228228,15.200055,0.0</coordinates>
            </Point>
        </Placemark>
        <Placemark id="17502">
            <ExtendedData>
                <Data name="direction">
                    <value>https://maps.google.com?q=15.181453,74.226916&amp;t=h</value>
                </Data>
                <Data name="id">
                    <value>4091</value>
                </Data>
                <Data name="Sr.No">
                    <value>4091</value>
                </Data>
                <Data name="Reg No">
                    <value>1405</value>
                </Data>
                <Data name="Category">
                    <value>agricultural</value>
                </Data>
                <Data name="Type Of Well">
                    <value>Open Well</value>
                </Data>
                <Data name="Applicant Name">
                    <value>RAVI SHANU SHIRODKAR</value>
                </Data>
                <Data name="Applicant Address">
                    <value>Bhati, Sanguem, Goa</value>
                </Data>
                <Data name="latitude">
                    <value>15.181453</value>
                </Data>
                <Data name="longitude">
                    <value>74.226916</value>
                </Data>
                <Data name="taluka">
                    <value>Sanguem</value>
                </Data>
                <Data name="village">
                    <value>Bati</value>
                </Data>
            </ExtendedData>
            <Point id="17501">
                <coordinates>74.226916,15.181453,0.0</coordinates>
            </Point>
        </Placemark>
    </Document>
</kml>
