<?xml version="1.0" encoding="UTF-8"?>
<kml xmlns="http://www.opengis.net/kml/2.2" xmlns:gx="http://www.google.com/kml/ext/2.2">
    <Document id="19154">
        <Placemark id="19156">
            <ExtendedData>
                <Data name="direction">
                    <value>https://maps.google.com?q=15.228413,74.207823&amp;t=h</value>
                </Data>
                <Data name="id">
                    <value>4052</value>
                </Data>
                <Data name="Sr.No">
                    <value>4052</value>
                </Data>
                <Data name="Reg No">
                    <value>104/Sanguem</value>
                </Data>
                <Data name="Category">
                    <value>agricultural</value>
                </Data>
                <Data name="Type Of Well">
                    <value>Open Well</value>
                </Data>
                <Data name="Applicant Name">
                    <value>DEEJAY FARM</value>
                </Data>
                <Data name="Applicant Address">
                    <value>Uguem, Sanguem, Goa</value>
                </Data>
                <Data name="latitude">
                    <value>15.228413</value>
                </Data>
                <Data name="longitude">
                    <value>74.207823</value>
                </Data>
                <Data name="taluka">
                    <value>Sanguem</value>
                </Data>
                <Data name="village">
                    <value>Tudou</value>
                </Data>
            </ExtendedData>
            <Point id="19155">
                <coordinates>74.207823,15.228413,0.0</coordinates>
            </Point>
        </Placemark>
    </Document>
</kml>
