<?xml version="1.0" encoding="UTF-8"?>
<kml xmlns="http://www.opengis.net/kml/2.2" xmlns:gx="http://www.google.com/kml/ext/2.2">
    <Document id="19171">
        <Placemark id="19173">
            <ExtendedData>
                <Data name="direction">
                    <value>https://maps.google.com?q=15.240144,74.187595&amp;t=h</value>
                </Data>
                <Data name="id">
                    <value>4051</value>
                </Data>
                <Data name="Sr.No">
                    <value>4051</value>
                </Data>
                <Data name="Reg No">
                    <value>509</value>
                </Data>
                <Data name="Category">
                    <value>agricultural</value>
                </Data>
                <Data name="Type Of Well">
                    <value>Dug well</value>
                </Data>
                <Data name="Applicant Name">
                    <value>JOAO LAWRENCE BAPTISTA</value>
                </Data>
                <Data name="Applicant Address">
                    <value>Chudiem, Uguem, Sanguem, Goa</value>
                </Data>
                <Data name="latitude">
                    <value>15.240144</value>
                </Data>
                <Data name="longitude">
                    <value>74.187595</value>
                </Data>
                <Data name="taluka">
                    <value>Sanguem</value>
                </Data>
                <Data name="village">
                    <value>Uguem</value>
                </Data>
            </ExtendedData>
            <Point id="19172">
                <coordinates>74.187595,15.240144,0.0</coordinates>
            </Point>
        </Placemark>
        <Placemark id="19188">
            <ExtendedData>
                <Data name="direction">
                    <value>https://maps.google.com?q=15.234826,74.202271&amp;t=h</value>
                </Data>
                <Data name="id">
                    <value>4053</value>
                </Data>
                <Data name="Sr.No">
                    <value>4053</value>
                </Data>
                <Data name="Reg No">
                    <value>103/Sanguem</value>
                </Data>
                <Data name="Category">
                    <value>agricultural</value>
                </Data>
                <Data name="Type Of Well">
                    <value>Open Well</value>
                </Data>
                <Data name="Applicant Name">
                    <value>DEEJAY FARM</value>
                </Data>
                <Data name="Applicant Address">
                    <value>Uguem, Sanguem, Goa</value>
                </Data>
                <Data name="latitude">
                    <value>15.234826</value>
                </Data>
                <Data name="longitude">
                    <value>74.202271</value>
                </Data>
                <Data name="taluka">
                    <value>Sanguem</value>
                </Data>
                <Data name="village">
                    <value>Uguem</value>
                </Data>
            </ExtendedData>
            <Point id="19187">
                <coordinates>74.202271,15.234826,0.0</coordinates>
            </Point>
        </Placemark>
        <Placemark id="19203">
            <ExtendedData>
                <Data name="direction">
                    <value>https://maps.google.com?q=15.223398,74.209653&amp;t=h</value>
                </Data>
                <Data name="id">
                    <value>4055</value>
                </Data>
                <Data name="Sr.No">
                    <value>4055</value>
                </Data>
                <Data name="Reg No">
                    <value>606</value>
                </Data>
                <Data name="Category">
                    <value>agricultural</value>
                </Data>
                <Data name="Type Of Well">
                    <value>Open Well</value>
                </Data>
                <Data name="Applicant Name">
                    <value>MANGESH DATTA NAIK</value>
                </Data>
                <Data name="Applicant Address">
                    <value>H.no 315, Dessaiwada, Uguem, Sanguem, Goa</value>
                </Data>
                <Data name="latitude">
                    <value>15.223398</value>
                </Data>
                <Data name="longitude">
                    <value>74.209653</value>
                </Data>
                <Data name="taluka">
                    <value>Sanguem</value>
                </Data>
                <Data name="village">
                    <value>Uguem</value>
                </Data>
            </ExtendedData>
            <Point id="19202">
                <coordinates>74.209653,15.223398,0.0</coordinates>
            </Point>
        </Placemark>
        <Placemark id="19218">
            <ExtendedData>
                <Data name="direction">
                    <value>https://maps.google.com?q=15.217808,74.212605&amp;t=h</value>
                </Data>
                <Data name="id">
                    <value>4089</value>
                </Data>
                <Data name="Sr.No">
                    <value>4089</value>
                </Data>
                <Data name="Reg No">
                    <value>948</value>
                </Data>
                <Data name="Category">
                    <value>agricultural</value>
                </Data>
                <Data name="Type Of Well">
                    <value>Open Well</value>
                </Data>
                <Data name="Applicant Name">
                    <value>DEVIDAS CHANDU KHANDEPARKER</value>
                </Data>
                <Data name="Applicant Address">
                    <value>H.no 250, Colony no. 2, Valkini, Sanguem, Goa</value>
                </Data>
                <Data name="latitude">
                    <value>15.217808</value>
                </Data>
                <Data name="longitude">
                    <value>74.212605</value>
                </Data>
                <Data name="taluka">
                    <value>Sanguem</value>
                </Data>
                <Data name="village">
                    <value>Uguem</value>
                </Data>
            </ExtendedData>
            <Point id="19217">
                <coordinates>74.212605,15.217808,0.0</coordinates>
            </Point>
        </Placemark>
        <Placemark id="19233">
            <ExtendedData>
                <Data name="direction">
                    <value>https://maps.google.com?q=15.221475,74.170702&amp;t=h</value>
                </Data>
                <Data name="id">
                    <value>4109</value>
                </Data>
                <Data name="Sr.No">
                    <value>4109</value>
                </Data>
                <Data name="Reg No">
                    <value>82/Sanguem</value>
                </Data>
                <Data name="Category">
                    <value>agricultural</value>
                </Data>
                <Data name="Type Of Well">
                    <value>Open Well</value>
                </Data>
                <Data name="Applicant Name">
                    <value>CAITANO PEREIRA</value>
                </Data>
                <Data name="Applicant Address">
                    <value>H.no. 151, Pajimol, Sanguem, Goa</value>
                </Data>
                <Data name="latitude">
                    <value>15.221475</value>
                </Data>
                <Data name="longitude">
                    <value>74.170702</value>
                </Data>
                <Data name="taluka">
                    <value>Sanguem</value>
                </Data>
                <Data name="village">
                    <value>Uguem</value>
                </Data>
            </ExtendedData>
            <Point id="19232">
                <coordinates>74.170702,15.221475,0.0</coordinates>
            </Point>
        </Placemark>
    </Document>
</kml>
