<?xml version="1.0" encoding="UTF-8"?>
<kml xmlns="http://www.opengis.net/kml/2.2" xmlns:gx="http://www.google.com/kml/ext/2.2">
    <Document id="802">
        <Placemark id="804">
            <ExtendedData>
                <Data name="id">
                    <value>411</value>
                </Data>
                <Data name="taluka">
                    <value>Bicholim</value>
                </Data>
                <Data name="village">
                    <value>Aturli</value>
                </Data>
                <Data name="lg_code">
                    <value>626754</value>
                </Data>
                <Data name="dslr_code">
                    <value>00009900</value>
                </Data>
            </ExtendedData>
            <Polygon id="803">
                <outerBoundaryIs>
                    <LinearRing id="807">
                        <coordinates>73.914458267,15.556920172,0.0 73.915176959,15.556893405,0.0 73.915895651,15.556859501,0.0 73.916390215,15.55683095,0.0 73.9166199,15.55676671,0.0 73.917358967,15.556736375,0.0 73.917616436,15.556666782,0.0 73.918627791,15.556788124,0.0 73.918727815,15.556780986,0.0 73.919131616,15.556909465,0.0 73.919139025,15.556977274,0.0 73.919083456,15.55733773,0.0 73.91900566,15.557441227,0.0 73.91900566,15.557644653,0.0 73.918946386,15.557908749,0.0 73.919242754,15.557876629,0.0 73.920035538,15.557930162,0.0 73.921854495,15.557819527,0.0 73.922017497,15.557598258,0.0 73.922243478,15.557980126,0.0 73.924306938,15.557551862,0.0 73.926177759,15.557687479,0.0 73.926529696,15.5585904,0.0 73.926603788,15.559882319,0.0 73.92654081,15.56069244,0.0 73.927648484,15.563443976,0.0 73.926877928,15.563215575,0.0 73.926055508,15.563493938,0.0 73.925522046,15.563629551,0.0 73.924981175,15.563601001,0.0 73.922899191,15.563301225,0.0 73.921417352,15.562612452,0.0 73.921176554,15.562612452,0.0 73.920732002,15.562887248,0.0 73.91946503,15.562698103,0.0 73.919009365,15.562109254,0.0 73.91890934,15.561413339,0.0 73.917953554,15.561077872,0.0 73.917668301,15.56078523,0.0 73.917019996,15.560646046,0.0 73.915938254,15.559868043,0.0 73.915560385,15.559418371,0.0 73.914108183,15.558390544,0.0 73.913822929,15.558051503,0.0 73.914458267,15.556920172,0.0</coordinates>
                    </LinearRing>
                </outerBoundaryIs>
            </Polygon>
        </Placemark>
    </Document>
</kml>
