<?xml version="1.0" encoding="UTF-8"?>
<kml xmlns="http://www.opengis.net/kml/2.2" xmlns:gx="http://www.google.com/kml/ext/2.2">
    <Document id="871">
        <Placemark id="873">
            <ExtendedData>
                <Data name="id">
                    <value>416</value>
                </Data>
                <Data name="taluka">
                    <value>Bicholim</value>
                </Data>
                <Data name="village">
                    <value>Cotombi</value>
                </Data>
                <Data name="lg_code">
                    <value>626760</value>
                </Data>
                <Data name="dslr_code">
                    <value>00010500</value>
                </Data>
            </ExtendedData>
            <Polygon id="872">
                <outerBoundaryIs>
                    <LinearRing id="876">
                        <coordinates>74.027314167,15.476101771,0.0 74.02575656,15.473997814,0.0 74.026422938,15.471724413,0.0 74.027718052,15.470121105,0.0 74.028595819,15.469823326,0.0 74.032692201,15.468259102,0.0 74.033910487,15.466848533,0.0 74.035326448,15.468718004,0.0 74.035944213,15.469270864,0.0 74.037179744,15.469611084,0.0 74.038282897,15.470078886,0.0 74.03997734,15.470555193,0.0 74.040701008,15.471592857,0.0 74.040961352,15.474450659,0.0 74.040502441,15.476610995,0.0 74.040043529,15.477529556,0.0 74.039187482,15.479587799,0.0 74.037987252,15.481535456,0.0 74.037740146,15.481680041,0.0 74.037219458,15.482037251,0.0 74.03653109,15.483304491,0.0 74.035939801,15.483661698,0.0 74.035163181,15.484911918,0.0 74.034792522,15.48568586,0.0 74.034289484,15.487114669,0.0 74.033768796,15.487948136,0.0 74.033318709,15.488237297,0.0 74.032656818,15.488994218,0.0 74.031235957,15.490150854,0.0 74.030534352,15.490427256,0.0 74.02936501,15.491350008,0.0 74.029223806,15.491677435,0.0 74.028725181,15.49129898,0.0 74.028456012,15.491141645,0.0 74.027705868,15.490988562,0.0 74.02691601,15.491566875,0.0 74.026421798,15.49078445,0.0 74.023950735,15.489134545,0.0 74.021190035,15.488969328,0.0 74.022191645,15.484580423,0.0 74.021602944,15.483445754,0.0 74.021950441,15.480959703,0.0 74.024579157,15.479257667,0.0 74.030126852,15.479458602,0.0 74.03047435,15.479222207,0.0 74.030077794,15.477508337,0.0 74.029182477,15.476669126,0.0 74.027314167,15.476101771,0.0</coordinates>
                    </LinearRing>
                </outerBoundaryIs>
            </Polygon>
        </Placemark>
    </Document>
</kml>
