<?xml version="1.0" encoding="UTF-8"?>
<kml xmlns="http://www.opengis.net/kml/2.2" xmlns:gx="http://www.google.com/kml/ext/2.2">
    <Document id="899">
        <Placemark id="901">
            <ExtendedData>
                <Data name="id">
                    <value>418</value>
                </Data>
                <Data name="taluka">
                    <value>Bicholim</value>
                </Data>
                <Data name="village">
                    <value>Curchirem</value>
                </Data>
                <Data name="lg_code">
                    <value>626750</value>
                </Data>
                <Data name="dslr_code">
                    <value>00009500</value>
                </Data>
            </ExtendedData>
            <Polygon id="900">
                <outerBoundaryIs>
                    <LinearRing id="904">
                        <coordinates>73.988290154,15.587244204,0.0 73.98984125,15.585304541,0.0 73.991623945,15.585389549,0.0 73.99420091,15.584964512,0.0 73.995295237,15.584573477,0.0 73.997576471,15.583511461,0.0 73.997576471,15.584185468,0.0 73.997676324,15.584799564,0.0 73.998220522,15.585398681,0.0 73.999408772,15.586222468,0.0 74.000142691,15.586556975,0.0 74.000891588,15.587625402,0.0 74.001181161,15.588359321,0.0 74.001979985,15.589507629,0.0 74.002968529,15.590176644,0.0 74.003847234,15.591090298,0.0 74.006266371,15.592033117,0.0 74.008604284,15.5931574,0.0 74.00919993,15.593055023,0.0 74.010713244,15.593001043,0.0 74.01192129,15.592852131,0.0 74.013719398,15.59214294,0.0 74.015508198,15.592978706,0.0 74.015975409,15.593025241,0.0 74.016482639,15.595915988,0.0 74.017913121,15.598862577,0.0 74.018720967,15.599843532,0.0 74.020221251,15.601647224,0.0 74.021014206,15.605221103,0.0 74.021047711,15.606008473,0.0 74.018455931,15.607158762,0.0 74.013730024,15.608612227,0.0 74.010592658,15.609683195,0.0 74.008050994,15.610524666,0.0 74.005827037,15.610907151,0.0 74.003543511,15.611366133,0.0 74.000227434,15.611098394,0.0 73.99633551,15.610601163,0.0 73.993734276,15.610314298,0.0 73.991867741,15.611423506,0.0 73.99102383,15.611777303,0.0 73.991033758,15.610735033,0.0 73.991659246,15.609501513,0.0 73.991976954,15.608124552,0.0 73.990864976,15.60625034,0.0 73.990606838,15.605810472,0.0 73.990557196,15.603658928,0.0 73.98955443,15.603458116,0.0 73.988660876,15.603601553,0.0 73.988037871,15.603768896,0.0 73.987352813,15.603563303,0.0 73.98675711,15.603462897,0.0 73.985461457,15.603520272,0.0 73.984354443,15.603529834,0.0 73.983902702,15.603386397,0.0 73.983743848,15.602965648,0.0 73.983669385,15.602391897,0.0 73.983763705,15.601870738,0.0 73.984175733,15.601273078,0.0 73.984205518,15.600823636,0.0 73.983922559,15.600139909,0.0 73.983431104,15.599527899,0.0 73.983386427,15.599370115,0.0 73.985620311,15.594072328,0.0 73.985888377,15.593622871,0.0 73.98739749,15.592504004,0.0 73.987735055,15.591375568,0.0 73.987814482,15.590304505,0.0 73.988142119,15.58952033,0.0 73.988291044,15.588305809,0.0 73.988290154,15.587244204,0.0</coordinates>
                    </LinearRing>
                </outerBoundaryIs>
            </Polygon>
        </Placemark>
    </Document>
</kml>
