<?xml version="1.0" encoding="UTF-8"?>
<kml xmlns="http://www.opengis.net/kml/2.2" xmlns:gx="http://www.google.com/kml/ext/2.2">
    <Document id="913">
        <Placemark id="915">
            <ExtendedData>
                <Data name="id">
                    <value>435</value>
                </Data>
                <Data name="taluka">
                    <value>Bicholim</value>
                </Data>
                <Data name="village">
                    <value>Dumacem</value>
                </Data>
                <Data name="lg_code">
                    <value>626742</value>
                </Data>
                <Data name="dslr_code">
                    <value>00008700</value>
                </Data>
            </ExtendedData>
            <Polygon id="914">
                <outerBoundaryIs>
                    <LinearRing id="918">
                        <coordinates>73.90558855,15.666950983,0.0 73.905996197,15.668100285,0.0 73.904596376,15.66904719,0.0 73.904636071,15.669610927,0.0 73.904665842,15.670126888,0.0 73.904814697,15.670528191,0.0 73.905023094,15.670633294,0.0 73.905181873,15.670929493,0.0 73.905826911,15.671168362,0.0 73.907027675,15.671751203,0.0 73.909429202,15.673442388,0.0 73.910689507,15.674197206,0.0 73.91323989,15.677952144,0.0 73.91464905,15.678831153,0.0 73.91654447,15.68065604,0.0 73.916336074,15.682050968,0.0 73.916236837,15.683742068,0.0 73.916276532,15.687582817,0.0 73.916375768,15.687964977,0.0 73.916256684,15.688834389,0.0 73.916685381,15.690084205,0.0 73.915351464,15.690044901,0.0 73.914285951,15.690079732,0.0 73.913504892,15.690336569,0.0 73.912747185,15.690758868,0.0 73.912164889,15.691151376,0.0 73.911644607,15.692369671,0.0 73.910729542,15.693023868,0.0 73.909347008,15.692942737,0.0 73.908297904,15.693076301,0.0 73.907563553,15.692608166,0.0 73.90739485,15.692159138,0.0 73.90560859,15.690114615,0.0 73.904179582,15.688815281,0.0 73.903504773,15.688710188,0.0 73.90341546,15.688031855,0.0 73.903197139,15.687343967,0.0 73.902800193,15.686828049,0.0 73.90230401,15.686111494,0.0 73.901996376,15.685949074,0.0 73.901668895,15.685910858,0.0 73.901668895,15.685748438,0.0 73.900190269,15.684984109,0.0 73.8990292,15.683971368,0.0 73.898493322,15.683407671,0.0 73.897520802,15.682834417,0.0 73.89627042,15.682977731,0.0 73.895784161,15.683159261,0.0 73.895629509,15.682062796,0.0 73.898044273,15.679300048,0.0 73.898340684,15.678976144,0.0 73.90558855,15.666950983,0.0 73.905996197,15.668100285,0.0 73.90558855,15.666950983,0.0</coordinates>
                    </LinearRing>
                </outerBoundaryIs>
            </Polygon>
        </Placemark>
    </Document>
</kml>
