<?xml version="1.0" encoding="UTF-8"?>
<kml xmlns="http://www.opengis.net/kml/2.2" xmlns:gx="http://www.google.com/kml/ext/2.2">
    <Document id="927">
        <Placemark id="929">
            <ExtendedData>
                <Data name="id">
                    <value>429</value>
                </Data>
                <Data name="taluka">
                    <value>Bicholim</value>
                </Data>
                <Data name="village">
                    <value>Lamgao</value>
                </Data>
                <Data name="lg_code">
                    <value>924818</value>
                </Data>
                <Data name="dslr_code">
                    <value>00036700</value>
                </Data>
            </ExtendedData>
            <Polygon id="928">
                <outerBoundaryIs>
                    <LinearRing id="932">
                        <coordinates>73.921082205,15.601883642,0.0 73.921877115,15.60138824,0.0 73.922360296,15.601298167,0.0 73.922656439,15.601133032,0.0 73.923669561,15.600202272,0.0 73.92482296,15.597455002,0.0 73.925945187,15.596734401,0.0 73.926350436,15.595788608,0.0 73.928127295,15.593754387,0.0 73.930192504,15.593041279,0.0 73.932335645,15.591870275,0.0 73.932740893,15.5912022,0.0 73.9333098,15.590789343,0.0 73.933800774,15.590511602,0.0 73.933785188,15.589760951,0.0 73.935032106,15.58845481,0.0 73.93612316,15.587719164,0.0 73.936590754,15.586848395,0.0 73.937557116,15.585767436,0.0 73.939950795,15.58498718,0.0 73.941139258,15.586511642,0.0 73.941333413,15.586953677,0.0 73.941845276,15.587050018,0.0 73.941804092,15.587169027,0.0 73.941904111,15.587390044,0.0 73.942733682,15.58865947,0.0 73.942351255,15.588891819,0.0 73.942198285,15.589163838,0.0 73.942080615,15.589532195,0.0 73.941968829,15.589617201,0.0 73.941933528,15.589724875,0.0 73.942033547,15.589974224,0.0 73.941780558,15.590008226,0.0 73.941809975,15.590206572,0.0 73.941821742,15.590795941,0.0 73.942186518,15.590869612,0.0 73.942327721,15.590574928,0.0 73.942439508,15.59022924,0.0 73.942751332,15.590234907,0.0 73.942851351,15.590563594,0.0 73.942998438,15.590824276,0.0 73.943133759,15.590812942,0.0 73.943622087,15.590484256,0.0 73.94398098,15.590302911,0.0 73.944328105,15.590268909,0.0 73.944686998,15.590353914,0.0 73.944748774,15.590291577,0.0 73.944987055,15.59039075,0.0 73.945510685,15.590917782,0.0 73.945300351,15.590999953,0.0 73.945309176,15.591420727,0.0 73.944916453,15.59164174,0.0 73.944735536,15.591675741,0.0 73.944678172,15.591709743,0.0 73.944770837,15.591850001,0.0 73.944528144,15.592083764,0.0 73.944347227,15.592449283,0.0 73.944356052,15.592691545,0.0 73.944078057,15.592661794,0.0 73.944069232,15.593014561,0.0 73.943932441,15.593320576,0.0 73.943888315,15.593596838,0.0 73.944003043,15.593728594,0.0 73.939259486,15.598072245,0.0 73.93833725,15.597693985,0.0 73.93943599,15.596580453,0.0 73.938557881,15.596355196,0.0 73.938703497,15.596091688,0.0 73.939175646,15.596112938,0.0 73.939259486,15.595692174,0.0 73.939775761,15.595751676,0.0 73.939788999,15.596095938,0.0 73.939969916,15.596104438,0.0 73.940159658,15.595930182,0.0 73.939859601,15.595454165,0.0 73.939197709,15.595284159,0.0 73.938699084,15.595296909,0.0 73.938513754,15.595067401,0.0 73.937604756,15.595407413,0.0 73.937490029,15.595517917,0.0 73.937613582,15.595917432,0.0 73.93756063,15.596282944,0.0 73.937119369,15.596206441,0.0 73.93715467,15.59679296,0.0 73.936572205,15.59680996,0.0 73.935663207,15.596631455,0.0 73.934215871,15.598867012,0.0 73.933121543,15.599836029,0.0 73.9324067,15.60058404,0.0 73.932124293,15.600711541,0.0 73.930425438,15.602160802,0.0 73.929194319,15.602522053,0.0 73.927027727,15.603992551,0.0 73.9264585,15.604489798,0.0 73.925831909,15.604600298,0.0 73.924287412,15.604907475,0.0 73.923222141,15.603382326,0.0 73.921082205,15.601883642,0.0</coordinates>
                    </LinearRing>
                </outerBoundaryIs>
            </Polygon>
        </Placemark>
    </Document>
</kml>
