<?xml version="1.0" encoding="UTF-8"?>
<kml xmlns="http://www.opengis.net/kml/2.2" xmlns:gx="http://www.google.com/kml/ext/2.2">
    <Document id="983">
        <Placemark id="985">
            <ExtendedData>
                <Data name="id">
                    <value>421</value>
                </Data>
                <Data name="taluka">
                    <value>Bicholim</value>
                </Data>
                <Data name="village">
                    <value>Maulinguem-South</value>
                </Data>
                <Data name="dslr_code">
                    <value>00036800</value>
                </Data>
            </ExtendedData>
            <Polygon id="984">
                <outerBoundaryIs>
                    <LinearRing id="988">
                        <coordinates>73.991821185,15.559464142,0.0 73.992122925,15.55956499,0.0 73.992135241,15.559677704,0.0 73.992215294,15.55971923,0.0 73.992517035,15.559630246,0.0 73.992904986,15.559689568,0.0 73.993631626,15.559671772,0.0 73.994105789,15.55971923,0.0 73.994432161,15.559891266,0.0 73.994727743,15.559630246,0.0 73.995466698,15.558924303,0.0 73.996131758,15.558467515,0.0 73.996507394,15.558111575,0.0 73.997067769,15.557364101,0.0 73.997443404,15.556895444,0.0 73.997825198,15.55663442,0.0 73.998293203,15.556497976,0.0 73.998828946,15.555922535,0.0 74.00071944,15.554534351,0.0 74.000996548,15.553555497,0.0 74.000503911,15.553205482,0.0 74.000430016,15.552855466,0.0 74.001156655,15.552713086,0.0 74.001581555,15.552404597,0.0 74.001698556,15.55212577,0.0 74.002031086,15.551757954,0.0 74.002419038,15.551668967,0.0 74.002856253,15.551876604,0.0 74.003244205,15.55207831,0.0 74.003718368,15.55224442,0.0 74.00437727,15.552386799,0.0 74.004808327,15.552404597,0.0 74.00528249,15.552185095,0.0 74.005528809,15.551775752,0.0 74.006083025,15.551639304,0.0 74.006477135,15.551532519,0.0 74.007043667,15.551520654,0.0 74.007462409,15.551449463,0.0 74.008189048,15.55120623,0.0 74.008712475,15.550897738,0.0 74.008995741,15.550304484,0.0 74.009309797,15.549865475,0.0 74.00957459,15.549556981,0.0 74.009851698,15.549295948,0.0 74.010356651,15.549183228,0.0 74.010713813,15.54911797,0.0 74.011046343,15.548833206,0.0 74.011268029,15.548465384,0.0 74.011471242,15.548097563,0.0 74.011699087,15.547338186,0.0 74.012025459,15.54707715,0.0 74.012789046,15.546733056,0.0 74.01302511,15.546473778,0.0 74.013607574,15.546040159,0.0 74.01424299,15.545581031,0.0 74.014772504,15.545402481,0.0 74.015354969,15.545287699,0.0 74.016043336,15.545734074,0.0 74.01638752,15.546320736,0.0 74.016625801,15.547162467,0.0 74.017142076,15.548106221,0.0 74.017552449,15.548527083,0.0 74.018796805,15.549343297,0.0 74.019167465,15.54977691,0.0 74.019604313,15.550350808,0.0 74.020756005,15.550631379,0.0 74.021417897,15.551179768,0.0 74.021550275,15.551511352,0.0 74.021086951,15.552034232,0.0 74.021084827,15.552416812,0.0 74.020191712,15.553576497,0.0 74.019191811,15.554006701,0.0 74.018696715,15.553987997,0.0 74.018492852,15.554277916,0.0 74.017793893,15.554614597,0.0 74.018104541,15.554951277,0.0 74.0196772,15.558280637,0.0 74.022040765,15.56488048,0.0 74.023576416,15.56472133,0.0 74.022040765,15.56488048,0.0 74.020728481,15.565274165,0.0 74.018866155,15.565422146,0.0 74.018173716,15.563584018,0.0 74.016226697,15.563766435,0.0 74.018467817,15.565482641,0.0 74.016840957,15.566699994,0.0 74.016520797,15.566837737,0.0 74.015895369,15.567723761,0.0 74.014912552,15.566997817,0.0 74.011673724,15.567556235,0.0 74.010765363,15.568148159,0.0 74.012906047,15.561718399,0.0 74.012555043,15.561398059,0.0 74.013007653,15.560810767,0.0 74.012167092,15.559894232,0.0 74.011428136,15.56024127,0.0 74.010476731,15.560401441,0.0 74.009285165,15.560579409,0.0 74.007834965,15.560979836,0.0 74.007456251,15.561077718,0.0 74.007137576,15.561371363,0.0 74.006920508,15.561825179,0.0 74.00700364,15.562261197,0.0 74.00676348,15.562554841,0.0 74.00658336,15.562577086,0.0 74.006213882,15.561949755,0.0 74.005941392,15.56187412,0.0 74.005068501,15.562354629,0.0 74.00452814,15.562710561,0.0 74.004172517,15.562839586,0.0 74.003609064,15.562884078,0.0 74.003050229,15.56307984,0.0 74.002602237,15.564014157,0.0 74.001729346,15.56445017,0.0 74.001087378,15.564116486,0.0 74.000837981,15.563867336,0.0 74.000616294,15.562848484,0.0 74.000431555,15.562261197,0.0 74.000029748,15.56182073,0.0 73.999701837,15.561669458,0.0 73.999424729,15.561624966,0.0 73.999013685,15.561958654,0.0 73.999009066,15.562230053,0.0 73.999055251,15.562528146,0.0 73.998828946,15.563306746,0.0 73.998265492,15.56434784,0.0 73.997540392,15.565477911,0.0 73.997415693,15.565589138,0.0 73.997110874,15.565784898,0.0 73.996722923,15.565642527,0.0 73.996039389,15.564770505,0.0 73.99561449,15.564263307,0.0 73.995438988,15.563938522,0.0 73.993822523,15.562866281,0.0 73.992695615,15.562265646,0.0 73.991176138,15.561558229,0.0 73.990464894,15.561055472,0.0 73.990363287,15.560801868,0.0 73.990501841,15.560619451,0.0 73.991277745,15.560147837,0.0 73.991601038,15.559845291,0.0 73.991821185,15.559464142,0.0</coordinates>
                    </LinearRing>
                </outerBoundaryIs>
            </Polygon>
        </Placemark>
    </Document>
</kml>
