<?xml version="1.0" encoding="UTF-8"?>
<kml xmlns="http://www.opengis.net/kml/2.2" xmlns:gx="http://www.google.com/kml/ext/2.2">
    <Document id="1010">
        <Placemark id="1012">
            <ExtendedData>
                <Data name="id">
                    <value>431</value>
                </Data>
                <Data name="taluka">
                    <value>Bicholim</value>
                </Data>
                <Data name="village">
                    <value>Mulgao</value>
                </Data>
                <Data name="lg_code">
                    <value>626747</value>
                </Data>
                <Data name="dslr_code">
                    <value>00009200</value>
                </Data>
            </ExtendedData>
            <Polygon id="1011">
                <outerBoundaryIs>
                    <LinearRing id="1015">
                        <coordinates>73.907082733,15.614501527,0.0 73.907095511,15.613628334,0.0 73.907451801,15.612255759,0.0 73.908358722,15.611299111,0.0 73.909373609,15.60959377,0.0 73.910021409,15.608075588,0.0 73.910172563,15.607306095,0.0 73.910670435,15.607017743,0.0 73.911714729,15.606852613,0.0 73.912649918,15.606372235,0.0 73.915626936,15.604345625,0.0 73.91835457,15.602859432,0.0 73.919227413,15.602544177,0.0 73.919975565,15.602093813,0.0 73.921082205,15.601883642,0.0 73.923222141,15.603382326,0.0 73.924287412,15.604907475,0.0 73.925831909,15.604600298,0.0 73.9264585,15.604489798,0.0 73.925831909,15.604600298,0.0 73.927111567,15.606861267,0.0 73.927411624,15.607600752,0.0 73.927676381,15.607736749,0.0 73.928302972,15.607643251,0.0 73.929035465,15.608238237,0.0 73.930359249,15.608841721,0.0 73.931515353,15.609547199,0.0 73.932653807,15.610754157,0.0 73.932088992,15.611034646,0.0 73.934109968,15.612590079,0.0 73.93516017,15.612964062,0.0 73.935945615,15.612981061,0.0 73.937401776,15.614859461,0.0 73.937666533,15.614689471,0.0 73.937913639,15.614952955,0.0 73.937798911,15.615182442,0.0 73.940949516,15.618157243,0.0 73.940971579,15.618429223,0.0 73.94210562,15.6193769,0.0 73.942489517,15.619882609,0.0 73.9411995,15.621016164,0.0 73.940486919,15.621660832,0.0 73.938910605,15.622347089,0.0 73.938716265,15.62272141,0.0 73.936405777,15.623012549,0.0 73.935412483,15.622970957,0.0 73.932562162,15.624426642,0.0 73.930705134,15.625570387,0.0 73.928373053,15.625799136,0.0 73.927595693,15.625757545,0.0 73.926300092,15.626027884,0.0 73.925911412,15.626381403,0.0 73.923201447,15.627088439,0.0 73.920415906,15.628679262,0.0 73.918688438,15.629043174,0.0 73.913484442,15.629531855,0.0 73.911875738,15.63004133,0.0 73.909716403,15.630311663,0.0 73.90911179,15.630852327,0.0 73.908986422,15.630415131,0.0 73.908798686,15.630103714,0.0 73.908744703,15.629407086,0.0 73.907549752,15.628694555,0.0 73.907134449,15.628025164,0.0 73.907028485,15.627401326,0.0 73.907284957,15.626877568,0.0 73.908160151,15.626329846,0.0 73.908441545,15.625966588,0.0 73.90853546,15.625582055,0.0 73.908273194,15.625094417,0.0 73.907011077,15.624430727,0.0 73.906151935,15.624048817,0.0 73.905674077,15.623539887,0.0 73.90544004,15.622840289,0.0 73.905484156,15.622034827,0.0 73.905203154,15.621544149,0.0 73.905165947,15.620914283,0.0 73.905363102,15.620266349,0.0 73.906155696,15.619218957,0.0 73.906774658,15.618619651,0.0 73.906868675,15.618008009,0.0 73.906912792,15.617184377,0.0 73.906782041,15.616112364,0.0 73.906982177,15.615761186,0.0 73.90784496,15.614913674,0.0 73.907082733,15.614501527,0.0</coordinates>
                    </LinearRing>
                </outerBoundaryIs>
            </Polygon>
        </Placemark>
    </Document>
</kml>
