<?xml version="1.0" encoding="UTF-8"?>
<kml xmlns="http://www.opengis.net/kml/2.2" xmlns:gx="http://www.google.com/kml/ext/2.2">
    <Document id="1038">
        <Placemark id="1040">
            <ExtendedData>
                <Data name="id">
                    <value>422</value>
                </Data>
                <Data name="taluka">
                    <value>Bicholim</value>
                </Data>
                <Data name="village">
                    <value>Navelim</value>
                </Data>
                <Data name="lg_code">
                    <value>626759</value>
                </Data>
                <Data name="dslr_code">
                    <value>00010400</value>
                </Data>
            </ExtendedData>
            <Polygon id="1039">
                <outerBoundaryIs>
                    <LinearRing id="1043">
                        <coordinates>73.985387574,15.519062732,0.0 73.991012945,15.516384089,0.0 73.994774094,15.513508448,0.0 73.996188613,15.508734008,0.0 73.997496839,15.504739465,0.0 73.999767837,15.500906365,0.0 74.001362237,15.499299042,0.0 74.003210106,15.49854265,0.0 74.004673684,15.498038387,0.0 74.007012137,15.497995052,0.0 74.011284312,15.497809893,0.0 74.013889823,15.496991194,0.0 74.014601026,15.499856782,0.0 74.014947412,15.501151874,0.0 74.015487773,15.502326796,0.0 74.017205844,15.504636567,0.0 74.018231145,15.506412269,0.0 74.019284156,15.507960989,0.0 74.020919095,15.510270696,0.0 74.021930541,15.511231954,0.0 74.022373914,15.511605776,0.0 74.02190283,15.512593729,0.0 74.021376324,15.513381418,0.0 74.021445601,15.51407565,0.0 74.021653432,15.514636374,0.0 74.021916685,15.514930085,0.0 74.021847408,15.515477457,0.0 74.021348613,15.516078228,0.0 74.02123777,15.516452041,0.0 74.021431746,15.517132912,0.0 74.021307047,15.517533423,0.0 74.021293192,15.517813781,0.0 74.021681143,15.518281042,0.0 74.020932951,15.519215563,0.0 74.020669698,15.519709521,0.0 74.020461867,15.520510533,0.0 74.020531144,15.521284842,0.0 74.02075283,15.521645295,0.0 74.020586565,15.521979047,0.0 74.020351023,15.522299449,0.0 74.020461867,15.5228468,0.0 74.020323312,15.523274001,0.0 74.020032349,15.523968199,0.0 74.020046204,15.524555596,0.0 74.020489577,15.524929393,0.0 74.021279336,15.525383289,0.0 74.021598011,15.525877233,0.0 74.021972107,15.525863883,0.0 74.022360058,15.525690336,0.0 74.022821107,15.525820565,0.0 74.022997611,15.52647531,0.0 74.023077038,15.526900468,0.0 74.023085864,15.52736814,0.0 74.023430047,15.527801799,0.0 74.023694804,15.528056892,0.0 74.023633027,15.528167432,0.0 74.023765406,15.528524562,0.0 74.023527125,15.52910277,0.0 74.023024087,15.529332353,0.0 74.022397496,15.529485408,0.0 74.02174443,15.529706486,0.0 74.021435547,15.52988505,0.0 74.021259043,15.530114631,0.0 74.020941335,15.530157146,0.0 74.020623627,15.530454752,0.0 74.020385345,15.53082038,0.0 74.019899958,15.531186008,0.0 74.019635202,15.53188325,0.0 74.019511648,15.53217235,0.0 74.018955659,15.532274385,0.0 74.018840932,15.532240374,0.0 74.018708553,15.532180853,0.0 74.018646777,15.532614502,0.0 74.018355544,15.532648514,0.0 74.018223166,15.532350912,0.0 74.017896633,15.53217235,0.0 74.017164139,15.53278456,0.0 74.016466947,15.533116173,0.0 74.015928608,15.533626346,0.0 74.015575599,15.533855923,0.0 74.015319668,15.533864426,0.0 74.015134338,15.533507306,0.0 74.014790154,15.533745386,0.0 74.014648951,15.534051489,0.0 74.014287117,15.534459625,0.0 74.013925282,15.53465519,0.0 74.013572274,15.534961292,0.0 74.012460296,15.535445951,0.0 74.011154163,15.535769057,0.0 74.010236339,15.53577756,0.0 74.009750952,15.535505471,0.0 74.008797828,15.535505471,0.0 74.008506596,15.535360923,0.0 74.008338916,15.535139851,0.0 74.005761951,15.53477423,0.0 74.005355991,15.534859258,0.0 74.005294215,15.535012308,0.0 74.005153011,15.535020811,0.0 74.005158561,15.534577799,0.0 74.005020007,15.534504378,0.0 74.004839886,15.534350861,0.0 74.004656302,15.534127261,0.0 74.004801784,15.533960394,0.0 74.005200127,15.533396386,0.0 74.005179344,15.533166109,0.0 74.004943802,15.532705556,0.0 74.004576634,15.531968001,0.0 74.004386122,15.531073588,0.0 74.004112477,15.530576318,0.0 74.003807658,15.530329352,0.0 74.003551333,15.530342702,0.0 74.003204948,15.530209206,0.0 74.002782357,15.530122434,0.0 74.002685369,15.530235905,0.0 74.002463683,15.530262604,0.0 74.002186575,15.530049012,0.0 74.001895611,15.530289304,0.0 74.001479948,15.530229231,0.0 74.001237479,15.530509571,0.0 74.001098925,15.531116973,0.0 74.000974226,15.531917941,0.0 74.001029647,15.532538689,0.0 74.001493804,15.533246205,0.0 74.001521515,15.533806877,0.0 74.001417599,15.534093887,0.0 74.001036575,15.534420945,0.0 74.000593202,15.534527739,0.0 74.000440792,15.534828097,0.0 74.000032058,15.534741327,0.0 73.999422419,15.534574461,0.0 73.999422419,15.53422738,0.0 73.999588684,15.533800203,0.0 73.999297721,15.533900323,0.0 73.998854347,15.533967069,0.0 73.998480251,15.53375348,0.0 73.998286275,15.533786853,0.0 73.998036878,15.534481017,0.0 73.998348625,15.534647882,0.0 73.998771215,15.534928217,0.0 73.998833564,15.535088407,0.0 73.997849779,15.535724111,0.0 73.996333856,15.534620012,0.0 73.996306786,15.533202932,0.0 73.996045109,15.531829311,0.0 73.995287148,15.531472864,0.0 73.994339696,15.5284952,0.0 73.994547233,15.52832132,0.0 73.99367648,15.52685638,0.0 73.990473192,15.52413078,0.0 73.990391982,15.524039491,0.0 73.989421972,15.522978801,0.0 73.987969213,15.521400797,0.0 73.987784234,15.521209523,0.0 73.985387574,15.519062732,0.0</coordinates>
                    </LinearRing>
                </outerBoundaryIs>
            </Polygon>
        </Placemark>
    </Document>
</kml>
