<?xml version="1.0" encoding="UTF-8"?>
<kml xmlns="http://www.opengis.net/kml/2.2" xmlns:gx="http://www.google.com/kml/ext/2.2">
    <Document id="1080">
        <Placemark id="1082">
            <ExtendedData>
                <Data name="id">
                    <value>423</value>
                </Data>
                <Data name="taluka">
                    <value>Bicholim</value>
                </Data>
                <Data name="village">
                    <value>Piligao</value>
                </Data>
                <Data name="lg_code">
                    <value>626756</value>
                </Data>
                <Data name="dslr_code">
                    <value>00010100</value>
                </Data>
            </ExtendedData>
            <Polygon id="1081">
                <outerBoundaryIs>
                    <LinearRing id="1085">
                        <coordinates>73.947268593,15.548202189,0.0 73.949910714,15.549298412,0.0 73.954559067,15.547652105,0.0 73.95790843,15.543534486,0.0 73.963756495,15.539223436,0.0 73.966080709,15.540930199,0.0 73.966148954,15.541664412,0.0 73.965955592,15.542332872,0.0 73.965887346,15.54376841,0.0 73.965864598,15.544579321,0.0 73.966092083,15.54591622,0.0 73.967013399,15.547351733,0.0 73.968025709,15.54827221,0.0 73.969458868,15.549039271,0.0 73.97005033,15.549280346,0.0 73.971585857,15.54931322,0.0 73.97183609,15.549455674,0.0 73.972609541,15.551713003,0.0 73.972973518,15.552655375,0.0 73.97255267,15.5533238,0.0 73.972131822,15.553948391,0.0 73.97183609,15.554605854,0.0 73.97122188,15.555033203,0.0 73.970755535,15.555274272,0.0 73.970220944,15.555822154,0.0 73.970289189,15.556830254,0.0 73.970710038,15.557476749,0.0 73.971506237,15.557838348,0.0 73.972029453,15.558320478,0.0 73.972291061,15.559591544,0.0 73.972120447,15.559712075,0.0 73.971642728,15.559712075,0.0 73.970948897,15.559591544,0.0 73.970653166,15.559876437,0.0 73.970141324,15.561016004,0.0 73.969936587,15.562024078,0.0 73.96957261,15.563240335,0.0 73.969174511,15.563821067,0.0 73.968617171,15.564193612,0.0 73.968093955,15.564303184,0.0 73.967377376,15.564379884,0.0 73.966945154,15.564653813,0.0 73.966808662,15.565092099,0.0 73.966854159,15.565650912,0.0 73.966717668,15.565837183,0.0 73.965921469,15.566154938,0.0 73.964988779,15.566439822,0.0 73.964556556,15.566658963,0.0 73.963805854,15.567338299,0.0 73.962850416,15.568203902,0.0 73.96184948,15.568839405,0.0 73.960392952,15.569144013,0.0 73.958822063,15.569110008,0.0 73.958333734,15.568554582,0.0 73.956998183,15.56789147,0.0 73.955180188,15.567415388,0.0 73.95396819,15.567579749,0.0 73.953273939,15.567426723,0.0 73.95263264,15.567154676,0.0 73.952214913,15.567205685,0.0 73.951385342,15.567007317,0.0 73.950108626,15.567029987,0.0 73.948387708,15.568432728,0.0 73.947392186,15.568411263,0.0 73.945443876,15.567750619,0.0 73.944664552,15.567750619,0.0 73.943729363,15.567930795,0.0 73.942918866,15.566714603,0.0 73.942751332,15.566029643,0.0 73.942057081,15.562288936,0.0 73.942421857,15.560667942,0.0 73.943033739,15.559262314,0.0 73.943469117,15.55846881,0.0 73.944198669,15.557244541,0.0 73.944257504,15.556519045,0.0 73.943422049,15.555226749,0.0 73.943433816,15.554818654,0.0 73.943798592,15.554002461,0.0 73.943904495,15.552404073,0.0 73.945893111,15.551746577,0.0 73.946352023,15.551281794,0.0 73.946222586,15.550624294,0.0 73.946457926,15.550420242,0.0 73.946304955,15.550261535,0.0 73.947268593,15.548202189,0.0</coordinates>
                    </LinearRing>
                </outerBoundaryIs>
            </Polygon>
        </Placemark>
    </Document>
</kml>
