<?xml version="1.0" encoding="UTF-8"?>
<kml xmlns="http://www.opengis.net/kml/2.2" xmlns:gx="http://www.google.com/kml/ext/2.2">
    <Document id="1108">
        <Placemark id="1110">
            <ExtendedData>
                <Data name="id">
                    <value>424</value>
                </Data>
                <Data name="taluka">
                    <value>Bicholim</value>
                </Data>
                <Data name="village">
                    <value>Sarvona</value>
                </Data>
                <Data name="lg_code">
                    <value>626751</value>
                </Data>
                <Data name="dslr_code">
                    <value>00009600</value>
                </Data>
            </ExtendedData>
            <Polygon id="1109">
                <outerBoundaryIs>
                    <LinearRing id="1113">
                        <coordinates>73.95687463,15.591070791,0.0 73.957086436,15.590424752,0.0 73.957910123,15.589790045,0.0 73.958251365,15.588826648,0.0 73.957639483,15.588418619,0.0 73.956980533,15.588373283,0.0 73.957192338,15.586865837,0.0 73.958016026,15.585335711,0.0 73.958145462,15.58475766,0.0 73.958510238,15.584247614,0.0 73.960134079,15.582094073,0.0 73.96028705,15.581368664,0.0 73.959969342,15.580541242,0.0 73.959722235,15.579339774,0.0 73.95923979,15.577730249,0.0 73.959333926,15.577310864,0.0 73.959192722,15.576857473,0.0 73.959486896,15.575451956,0.0 73.959581032,15.575542635,0.0 73.959710468,15.575168584,0.0 73.960128844,15.574914512,0.0 73.960515846,15.575298417,0.0 73.960913946,15.575528505,0.0 73.961317732,15.575068328,0.0 73.961215364,15.574794413,0.0 73.961229582,15.573413874,0.0 73.961320576,15.572792081,0.0 73.960754706,15.571540272,0.0 73.960481723,15.570965039,0.0 73.960311109,15.570389805,0.0 73.960456131,15.569370815,0.0 73.961556592,15.569066761,0.0 73.962187864,15.568853101,0.0 73.963032404,15.568384691,0.0 73.963766044,15.567908063,0.0 73.964832382,15.566774012,0.0 73.965787821,15.566437083,0.0 73.966516186,15.566321529,0.0 73.966401458,15.566865625,0.0 73.966542662,15.567762531,0.0 73.967081,15.568544663,0.0 73.967244267,15.569041996,0.0 73.967191316,15.569297038,0.0 73.968479798,15.571277854,0.0 73.970641978,15.57230651,0.0 73.971242093,15.572451032,0.0 73.971603927,15.572910099,0.0 73.972768856,15.572621057,0.0 73.975416423,15.571439379,0.0 73.975998888,15.572485037,0.0 73.977490351,15.573275653,0.0 73.979723132,15.574780365,0.0 73.981099867,15.576047035,0.0 73.982092704,15.578444336,0.0 73.984863824,15.579800243,0.0 73.987127494,15.581088135,0.0 73.987851162,15.581687448,0.0 73.989576493,15.583808407,0.0 73.98984125,15.585304541,0.0 73.988290154,15.587244204,0.0 73.988291044,15.588305809,0.0 73.988142119,15.58952033,0.0 73.987814482,15.590304505,0.0 73.987735055,15.591375568,0.0 73.98739749,15.592504004,0.0 73.985888377,15.593622871,0.0 73.985620311,15.594072328,0.0 73.983386427,15.599370115,0.0 73.983244041,15.599190612,0.0 73.982755392,15.599504893,0.0 73.982269142,15.5997329,0.0 73.981603747,15.599634302,0.0 73.980938352,15.599067365,0.0 73.980528878,15.598525076,0.0 73.979927463,15.598075221,0.0 73.979441213,15.597853375,0.0 73.978763022,15.598056734,0.0 73.978603071,15.598284743,0.0 73.978404733,15.5985867,0.0 73.978084831,15.598623674,0.0 73.977720144,15.598500426,0.0 73.97727868,15.598525076,0.0 73.976933186,15.599011904,0.0 73.976664469,15.599042716,0.0 73.976594091,15.598814708,0.0 73.976459732,15.598549725,0.0 73.975800735,15.59801976,0.0 73.975583202,15.5978657,0.0 73.975410455,15.597982785,0.0 73.975256903,15.598081384,0.0 73.974610702,15.597976623,0.0 73.97419483,15.597760939,0.0 73.97370858,15.597348057,0.0 73.973529435,15.597052261,0.0 73.973139156,15.596885875,0.0 73.97286404,15.596892037,0.0 73.972710488,15.597132372,0.0 73.972582527,15.597403519,0.0 73.972716886,15.597754776,0.0 73.972672099,15.598069059,0.0 73.97240978,15.598266256,0.0 73.971872346,15.597723964,0.0 73.971616425,15.597563742,0.0 73.971360504,15.597089235,0.0 73.971258135,15.596565428,0.0 73.970976622,15.59604162,0.0 73.970701507,15.595721171,0.0 73.970381605,15.595339098,0.0 73.970087296,15.595178873,0.0 73.969569056,15.595265148,0.0 73.968916457,15.59544386,0.0 73.968564565,15.595425373,0.0 73.967886375,15.595363748,0.0 73.967624055,15.595295961,0.0 73.966037344,15.594802961,0.0 73.965378348,15.594451699,0.0 73.96491769,15.594081948,0.0 73.964693759,15.593823122,0.0 73.964674564,15.593280819,0.0 73.965135222,15.592923391,0.0 73.965551094,15.592547475,0.0 73.965813413,15.592072957,0.0 73.965877394,15.591462861,0.0 73.965813413,15.591025316,0.0 73.965672657,15.590772649,0.0 73.965116028,15.590483005,0.0 73.964425041,15.590100922,0.0 73.963983577,15.590193362,0.0 73.96361889,15.590390566,0.0 73.963369367,15.590452192,0.0 73.962486439,15.590273476,0.0 73.962172935,15.590365915,0.0 73.962064169,15.590791137,0.0 73.96192981,15.59143821,0.0 73.961910616,15.592418061,0.0 73.961808248,15.59277549,0.0 73.961430764,15.593083617,0.0 73.961078873,15.593317794,0.0 73.960714185,15.593441045,0.0 73.960170353,15.593367095,0.0 73.959856849,15.593213031,0.0 73.959338609,15.592183883,0.0 73.959217047,15.591925055,0.0 73.958794777,15.591549137,0.0 73.958327721,15.591222519,0.0 73.957918247,15.591241007,0.0 73.957502375,15.591179381,0.0 73.957284842,15.591049966,0.0 73.95687463,15.591070791,0.0</coordinates>
                    </LinearRing>
                </outerBoundaryIs>
            </Polygon>
        </Placemark>
    </Document>
</kml>
