<?xml version="1.0" encoding="UTF-8"?>
<kml xmlns="http://www.opengis.net/kml/2.2" xmlns:gx="http://www.google.com/kml/ext/2.2">
    <Document id="1136">
        <Placemark id="1138">
            <ExtendedData>
                <Data name="id">
                    <value>425</value>
                </Data>
                <Data name="taluka">
                    <value>Bicholim</value>
                </Data>
                <Data name="village">
                    <value>Surla</value>
                </Data>
                <Data name="lg_code">
                    <value>626761</value>
                </Data>
                <Data name="dslr_code">
                    <value>00010600</value>
                </Data>
            </ExtendedData>
            <Polygon id="1137">
                <outerBoundaryIs>
                    <LinearRing id="1141">
                        <coordinates>74.01652948,15.496178908,0.0 74.018107528,15.495115216,0.0 74.019685575,15.493271469,0.0 74.021190035,15.488969328,0.0 74.023950735,15.489134545,0.0 74.026421798,15.49078445,0.0 74.02691601,15.491566875,0.0 74.027705868,15.490988562,0.0 74.028456012,15.491141645,0.0 74.028725181,15.49129898,0.0 74.029223806,15.491677435,0.0 74.02936501,15.491350008,0.0 74.030534352,15.490427256,0.0 74.031235957,15.490150854,0.0 74.032656818,15.488994218,0.0 74.033318709,15.488237297,0.0 74.033768796,15.487948136,0.0 74.034289484,15.487114669,0.0 74.034792522,15.48568586,0.0 74.035163181,15.484911918,0.0 74.035939801,15.483661698,0.0 74.03653109,15.483304491,0.0 74.037219458,15.482037251,0.0 74.037740146,15.481680041,0.0 74.037987252,15.481535456,0.0 74.039187482,15.479587799,0.0 74.040043529,15.477529556,0.0 74.040502441,15.476610995,0.0 74.040961352,15.474450659,0.0 74.040701008,15.471592857,0.0 74.03997734,15.470555193,0.0 74.038282897,15.470078886,0.0 74.037179744,15.469611084,0.0 74.035944213,15.469270864,0.0 74.035326448,15.468718004,0.0 74.033910487,15.466848533,0.0 74.034139426,15.466092023,0.0 74.033820546,15.464945431,0.0 74.03422119,15.464748422,0.0 74.034127162,15.461438635,0.0 74.034977508,15.45732891,0.0 74.037430432,15.455539991,0.0 74.03909842,15.453743176,0.0 74.040714733,15.450969832,0.0 74.043891033,15.448536087,0.0 74.045263164,15.446723022,0.0 74.046112862,15.447301284,0.0 74.04619087,15.447198752,0.0 74.046517084,15.447383309,0.0 74.046353977,15.447602043,0.0 74.046353977,15.447807106,0.0 74.046474535,15.447848119,0.0 74.046531268,15.447684068,0.0 74.046963857,15.447690904,0.0 74.047034773,15.447834448,0.0 74.046928399,15.448429129,0.0 74.04702059,15.449016973,0.0 74.046446168,15.449905572,0.0 74.046134137,15.450712143,0.0 74.045495891,15.451778452,0.0 74.045375333,15.452229581,0.0 74.045091668,15.452229581,0.0 74.043652069,15.453917889,0.0 74.043070555,15.456385391,0.0 74.042666333,15.458374408,0.0 74.042595417,15.45939625,0.0 74.042418126,15.460127599,0.0 74.041740876,15.460917042,0.0 74.042411034,15.461583453,0.0 74.04226211,15.46166889,0.0 74.04234721,15.461949124,0.0 74.042857807,15.462123416,0.0 74.042818803,15.462307959,0.0 74.042591871,15.462718056,0.0 74.044364777,15.46598513,0.0 74.043783264,15.470960825,0.0 74.044393143,15.473147906,0.0 74.045258321,15.474856547,0.0 74.047329075,15.476182442,0.0 74.047669473,15.477357971,0.0 74.048548835,15.478219111,0.0 74.050222458,15.481198898,0.0 74.05311584,15.482347062,0.0 74.054917113,15.483454213,0.0 74.056307071,15.485723172,0.0 74.056080139,15.487978438,0.0 74.054815582,15.490574904,0.0 74.053318443,15.492017653,0.0 74.052281962,15.492572554,0.0 74.050957571,15.493737841,0.0 74.050525704,15.494570184,0.0 74.049575597,15.495818694,0.0 74.047963294,15.497261406,0.0 74.047329889,15.498232457,0.0 74.046322199,15.499508688,0.0 74.046898022,15.500091313,0.0 74.048769445,15.500840399,0.0 74.052080425,15.505223888,0.0 74.054210968,15.506194901,0.0 74.056736189,15.508581455,0.0 74.055699903,15.509541916,0.0 74.053408278,15.511311185,0.0 74.051681135,15.512718175,0.0 74.050518472,15.514293667,0.0 74.048513301,15.51645049,0.0 74.047010826,15.518117254,0.0 74.046381753,15.518858662,0.0 74.04611215,15.520139276,0.0 74.045505543,15.520622314,0.0 74.045176965,15.521307555,0.0 74.043604281,15.523118949,0.0 74.042924657,15.524379904,0.0 74.041283473,15.524247469,0.0 74.040392125,15.523915842,0.0 74.03938605,15.523856319,0.0 74.039059517,15.523813803,0.0 74.037912238,15.523193063,0.0 74.036914988,15.522903951,0.0 74.035017565,15.523022997,0.0 74.034037965,15.52305701,0.0 74.032714182,15.523278096,0.0 74.032405299,15.523150546,0.0 74.031028564,15.523388639,0.0 74.03026077,15.523040004,0.0 74.029766557,15.52318456,0.0 74.029131141,15.523507685,0.0 74.028160367,15.523694757,0.0 74.027860309,15.523890332,0.0 74.027657329,15.523881829,0.0 74.027639679,15.524136927,0.0 74.027216068,15.524289986,0.0 74.027180767,15.524051894,0.0 74.026845409,15.523983868,0.0 74.025521625,15.523856319,0.0 74.024542025,15.523720267,0.0 74.023844833,15.524375018,0.0 74.023403572,15.524834193,0.0 74.023280019,15.52532738,0.0 74.022821107,15.525820565,0.0 74.022360058,15.525690336,0.0 74.021972107,15.525863883,0.0 74.021598011,15.525877233,0.0 74.021279336,15.525383289,0.0 74.020489577,15.524929393,0.0 74.020046204,15.524555596,0.0 74.020032349,15.523968199,0.0 74.020323312,15.523274001,0.0 74.020461867,15.5228468,0.0 74.020351023,15.522299449,0.0 74.020586565,15.521979047,0.0 74.02075283,15.521645295,0.0 74.020531144,15.521284842,0.0 74.020461867,15.520510533,0.0 74.020669698,15.519709521,0.0 74.020932951,15.519215563,0.0 74.021681143,15.518281042,0.0 74.021293192,15.517813781,0.0 74.021307047,15.517533423,0.0 74.021431746,15.517132912,0.0 74.02123777,15.516452041,0.0 74.021348613,15.516078228,0.0 74.021847408,15.515477457,0.0 74.021916685,15.514930085,0.0 74.021653432,15.514636374,0.0 74.021445601,15.51407565,0.0 74.021376324,15.513381418,0.0 74.02190283,15.512593729,0.0 74.022373914,15.511605776,0.0 74.021930541,15.511231954,0.0 74.020919095,15.510270696,0.0 74.019284156,15.507960989,0.0 74.018231145,15.506412269,0.0 74.017205844,15.504636567,0.0 74.015487773,15.502326796,0.0 74.014947412,15.501151874,0.0 74.014601026,15.499856782,0.0 74.013889823,15.496991194,0.0 74.01652948,15.496178908,0.0</coordinates>
                    </LinearRing>
                </outerBoundaryIs>
            </Polygon>
        </Placemark>
    </Document>
</kml>
