<?xml version="1.0" encoding="UTF-8"?>
<kml xmlns="http://www.opengis.net/kml/2.2" xmlns:gx="http://www.google.com/kml/ext/2.2">
    <Document id="1318">
        <Placemark id="1320">
            <ExtendedData>
                <Data name="id">
                    <value>353</value>
                </Data>
                <Data name="taluka">
                    <value>Dharbandora</value>
                </Data>
                <Data name="village">
                    <value>Aglote</value>
                </Data>
                <Data name="lg_code">
                    <value>626973</value>
                </Data>
                <Data name="dslr_code">
                    <value>00030400</value>
                </Data>
            </ExtendedData>
            <Polygon id="1319">
                <outerBoundaryIs>
                    <LinearRing id="1323">
                        <coordinates>74.143856739,15.421164958,0.0 74.144214899,15.421001179,0.0 74.145057835,15.420918856,0.0 74.146648503,15.42023296,0.0 74.147322535,15.419721431,0.0 74.148238588,15.418739541,0.0 74.148754305,15.417880576,0.0 74.149649628,15.417399556,0.0 74.15066118,15.417368207,0.0 74.151198763,15.417623384,0.0 74.151198926,15.41784826,0.0 74.15145199,15.418083187,0.0 74.152031651,15.418236116,0.0 74.153600901,15.417141318,0.0 74.155916916,15.414226528,0.0 74.156380363,15.413980882,0.0 74.15908858,15.414234502,0.0 74.159447059,15.414520452,0.0 74.16039531,15.414407331,0.0 74.160827126,15.414141255,0.0 74.162058987,15.412883095,0.0 74.163301994,15.41242221,0.0 74.164871422,15.411685091,0.0 74.165429815,15.411602903,0.0 74.165967207,15.411612724,0.0 74.166273038,15.411939589,0.0 74.166843199,15.41340086,0.0 74.166949785,15.414923808,0.0 74.167024818,15.416518332,0.0 74.167299685,15.417642508,0.0 74.167490755,15.419390268,0.0 74.168335132,15.421117091,0.0 74.168742221,15.422849353,0.0 74.169159168,15.423733209,0.0 74.169691314,15.423732803,0.0 74.170449721,15.423369354,0.0 74.172392847,15.422100368,0.0 74.173883293,15.421373469,0.0 74.174651649,15.420325146,0.0 74.175029903,15.419021587,0.0 74.175108257,15.418214014,0.0 74.17474435,15.417769659,0.0 74.174559461,15.417187169,0.0 74.175158909,15.41578633,0.0 74.175574671,15.415244254,0.0 74.175890518,15.414927132,0.0 74.175136379,15.414048665,0.0 74.175720644,15.413404239,0.0 74.176051601,15.412264262,0.0 74.17612502,15.411860448,0.0 74.17704108,15.411087984,0.0 74.176919659,15.410796763,0.0 74.177040435,15.410326471,0.0 74.177071691,15.409907357,0.0 74.177198064,15.409825483,0.0 74.177129484,15.40971821,0.0 74.177097661,15.409467805,0.0 74.177366285,15.409390928,0.0 74.177477008,15.409493057,0.0 74.177967014,15.409543773,0.0 74.178092542,15.408470398,0.0 74.180368395,15.408366346,0.0 74.183697642,15.407944531,0.0 74.184077108,15.408107764,0.0 74.184098434,15.408393953,0.0 74.184140905,15.408761898,0.0 74.184973292,15.408740763,0.0 74.185689584,15.408505068,0.0 74.18649046,15.408596392,0.0 74.187080427,15.40849368,0.0 74.187407094,15.40852407,0.0 74.18753338,15.408350195,0.0 74.187638243,15.407787915,0.0 74.187954014,15.407419669,0.0 74.188290867,15.407061625,0.0 74.188912439,15.406958881,0.0 74.189681923,15.407295541,0.0 74.190883284,15.407488724,0.0 74.191178237,15.407406697,0.0 74.191398946,15.406793208,0.0 74.19182002,15.406363535,0.0 74.192167504,15.406117915,0.0 74.193475219,15.407384267,0.0 74.193286512,15.408416819,0.0 74.193634887,15.409132032,0.0 74.193467046,15.409939689,0.0 74.195208914,15.413464637,0.0 74.195599156,15.413862938,0.0 74.195113526,15.414281175,0.0 74.195296106,15.415154966,0.0 74.195115157,15.416029076,0.0 74.193820219,15.417249142,0.0 74.193670852,15.418100224,0.0 74.194193129,15.418835727,0.0 74.19428877,15.419701928,0.0 74.194044418,15.420392103,0.0 74.193484304,15.421473531,0.0 74.192915411,15.421612018,0.0 74.19234663,15.421873164,0.0 74.192078342,15.422325704,0.0 74.19166042,15.42335334,0.0 74.191424274,15.424388486,0.0 74.191132972,15.425607668,0.0 74.191505027,15.426266643,0.0 74.192129926,15.426856403,0.0 74.192960044,15.427154667,0.0 74.192952516,15.427560983,0.0 74.192684201,15.427990525,0.0 74.193135036,15.428365779,0.0 74.193435987,15.429040145,0.0 74.193562732,15.42935435,0.0 74.193831595,15.429515106,0.0 74.194093475,15.430664812,0.0 74.194251536,15.430657008,0.0 74.195722618,15.431774985,0.0 74.196118453,15.432479928,0.0 74.196830148,15.432885608,0.0 74.1966178,15.433997399,0.0 74.196294275,15.434549654,0.0 74.195820349,15.434856722,0.0 74.19539459,15.435961033,0.0 74.194542329,15.4373877,0.0 74.194448342,15.438307729,0.0 74.194022269,15.439090057,0.0 74.192663847,15.440195177,0.0 74.191921781,15.441161764,0.0 74.190910725,15.441852596,0.0 74.190168142,15.44226721,0.0 74.187111525,15.44470451,0.0 74.186681054,15.444602435,0.0 74.18511776,15.444378381,0.0 74.18433053,15.443923187,0.0 74.183051725,15.442928036,0.0 74.182737215,15.442574883,0.0 74.181941931,15.441953225,0.0 74.180605249,15.441173227,0.0 74.179943626,15.439383658,0.0 74.17878025,15.437463882,0.0 74.177771825,15.437651642,0.0 74.177053676,15.437659899,0.0 74.176702611,15.437767739,0.0 74.175963437,15.437891252,0.0 74.174860229,15.438404315,0.0 74.1743722,15.438911768,0.0 74.173556524,15.439122406,0.0 74.173015417,15.439307218,0.0 74.172223368,15.439356492,0.0 74.171853882,15.439546289,0.0 74.171098945,15.439777358,0.0 74.170576366,15.440023612,0.0 74.170333867,15.440525746,0.0 74.168880891,15.442795862,0.0 74.168696442,15.443259536,0.0 74.168155645,15.443848966,0.0 74.168189604,15.443811953,0.0 74.166833958,15.442910102,0.0 74.1662494,15.442429933,0.0 74.165545221,15.442379869,0.0 74.165195619,15.442203064,0.0 74.164882677,15.442213415,0.0 74.164470391,15.441915238,0.0 74.163953742,15.44155643,0.0 74.163583799,15.442042369,0.0 74.163427328,15.442047544,0.0 74.162942279,15.442078255,0.0 74.162670843,15.441805267,0.0 74.162618488,15.441552354,0.0 74.162388901,15.441436164,0.0 74.162263761,15.441486846,0.0 74.162227427,15.441714529,0.0 74.16186199,15.441289837,0.0 74.161382291,15.441492548,0.0 74.161116007,15.441133551,0.0 74.16067777,15.440992216,0.0 74.160344001,15.441048106,0.0 74.159926702,15.441002876,0.0 74.159723444,15.441210443,0.0 74.159530722,15.441554595,0.0 74.15939513,15.441579988,0.0 74.1591862,15.441190593,0.0 74.158873351,15.441322352,0.0 74.158654375,15.441438866,0.0 74.158742844,15.441175733,0.0 74.158706176,15.44096834,0.0 74.158492447,15.441125322,0.0 74.158231591,15.441039505,0.0 74.158142976,15.441110394,0.0 74.15807545,15.441479752,0.0 74.157694779,15.441591321,0.0 74.157439204,15.441591503,0.0 74.15726174,15.441424681,0.0 74.157339848,15.441252618,0.0 74.157339669,15.441014844,0.0 74.157475165,15.440862977,0.0 74.157537675,15.440756693,0.0 74.157511519,15.440655531,0.0 74.157329012,15.440716369,0.0 74.157109968,15.440741819,0.0 74.157078482,15.44048889,0.0 74.156895736,15.440231009,0.0 74.156900735,15.439942641,0.0 74.156379187,15.439983481,0.0 74.156212441,15.440196078,0.0 74.155769031,15.440105327,0.0 74.155638648,15.440120596,0.0 74.155487552,15.44033824,0.0 74.155351941,15.440338335,0.0 74.155190086,15.440115851,0.0 74.15484049,15.439928911,0.0 74.15451713,15.439954432,0.0 74.154386821,15.44007088,0.0 74.154386919,15.440202415,0.0 74.154267176,15.440500981,0.0 74.154121123,15.440485905,0.0 74.153881196,15.440486072,0.0 74.153678052,15.440855522,0.0 74.153318682,15.441564034,0.0 74.152781459,15.441574523,0.0 74.15233305,15.441782251,0.0 74.151999248,15.441797657,0.0 74.151712109,15.441428545,0.0 74.151868131,15.440806178,0.0 74.151596843,15.440715301,0.0 74.151372464,15.44057886,0.0 74.151424486,15.44039164,0.0 74.151314562,15.439850399,0.0 74.151053495,15.439466091,0.0 74.150651705,15.439223531,0.0 74.150062226,15.439087336,0.0 74.149556304,15.439097796,0.0 74.14928499,15.438966444,0.0 74.149128507,15.438951372,0.0 74.14904495,15.438804716,0.0 74.14876309,15.438511481,0.0 74.148298727,15.438284136,0.0 74.147954484,15.438279307,0.0 74.147813759,15.438421053,0.0 74.147839949,15.438577866,0.0 74.147866286,15.438942099,0.0 74.147725478,15.438967487,0.0 74.147339291,15.438654084,0.0 74.146849038,15.438694882,0.0 74.146489219,15.438791241,0.0 74.146014744,15.43901921,0.0 74.145560949,15.438984095,0.0 74.145127914,15.438802254,0.0 74.144856719,15.438837844,0.0 74.144429202,15.439091074,0.0 74.144225766,15.439060852,0.0 74.143808272,15.438722168,0.0 74.143463962,15.43862121,0.0 74.143015442,15.43867209,0.0 74.142248585,15.438465163,0.0 74.142139127,15.438571473,0.0 74.14171138,15.438490802,0.0 74.141424353,15.43825321,0.0 74.141095819,15.438339423,0.0 74.140464718,15.438344882,0.0 74.139963921,15.438218723,0.0 74.139395676,15.438623803,0.0 74.139161186,15.438952788,0.0 74.138311047,15.438998851,0.0 74.13798652,15.437258745,0.0 74.137992464,15.436820603,0.0 74.138758895,15.436482811,0.0 74.140323384,15.435837862,0.0 74.140686589,15.435300995,0.0 74.14055179,15.43464945,0.0 74.139736172,15.432334759,0.0 74.139696008,15.431368837,0.0 74.14016116,15.429651305,0.0 74.140967083,15.429321146,0.0 74.142255151,15.429052005,0.0 74.143622022,15.428453158,0.0 74.144736122,15.428061456,0.0 74.144696234,15.427524845,0.0 74.144474586,15.42701135,0.0 74.143557383,15.426398645,0.0 74.142995653,15.425525055,0.0 74.142860601,15.424505531,0.0 74.143136803,15.423907386,0.0 74.143175579,15.422826419,0.0 74.143543738,15.421115288,0.0 74.1435616,15.421032267,0.0 74.14353737,15.420273323,0.0 74.143558014,15.420919934,0.0 74.143856739,15.421164958,0.0</coordinates>
                    </LinearRing>
                </outerBoundaryIs>
            </Polygon>
        </Placemark>
    </Document>
</kml>
