<?xml version="1.0" encoding="UTF-8"?>
<kml xmlns="http://www.opengis.net/kml/2.2" xmlns:gx="http://www.google.com/kml/ext/2.2">
    <Document id="1332">
        <Placemark id="1334">
            <ExtendedData>
                <Data name="id">
                    <value>354</value>
                </Data>
                <Data name="taluka">
                    <value>Dharbandora</value>
                </Data>
                <Data name="village">
                    <value>Bandoli</value>
                </Data>
                <Data name="lg_code">
                    <value>626984</value>
                </Data>
                <Data name="dslr_code">
                    <value>00031500</value>
                </Data>
            </ExtendedData>
            <Polygon id="1333">
                <outerBoundaryIs>
                    <LinearRing id="1337">
                        <coordinates>74.128008403,15.292528543,0.0 74.129184017,15.290528863,0.0 74.129893617,15.290595646,0.0 74.131226829,15.29160277,0.0 74.132248327,15.292274103,0.0 74.133234986,15.292152028,0.0 74.13427692,15.293807211,0.0 74.135116195,15.295027512,0.0 74.135232291,15.295715022,0.0 74.135131516,15.296374598,0.0 74.1353343,15.296977862,0.0 74.136895692,15.297033041,0.0 74.138124877,15.297551479,0.0 74.138978184,15.298070143,0.0 74.140019223,15.298265946,0.0 74.1420004,15.299092599,0.0 74.142579084,15.299681585,0.0 74.143433308,15.301519262,0.0 74.143622975,15.304044942,0.0 74.142714207,15.307076486,0.0 74.148209399,15.308883068,0.0 74.146401209,15.308288632,0.0 74.146161611,15.309482724,0.0 74.146099099,15.311119761,0.0 74.145551847,15.313591056,0.0 74.145043112,15.314247729,0.0 74.14434401,15.315753909,0.0 74.14406648,15.317120825,0.0 74.143351555,15.318781445,0.0 74.143177064,15.319584611,0.0 74.142356022,15.319611884,0.0 74.141386392,15.318636322,0.0 74.13946965,15.318836851,0.0 74.136899523,15.318455124,0.0 74.136941779,15.318649311,0.0 74.134245503,15.318630504,0.0 74.131475029,15.317855296,0.0 74.130684755,15.317283341,0.0 74.12900982,15.316773226,0.0 74.128093694,15.317059962,0.0 74.127292994,15.316641327,0.0 74.12653456,15.316447544,0.0 74.125428329,15.315855305,0.0 74.12466927,15.314598451,0.0 74.12356315,15.314169751,0.0 74.122298869,15.313424256,0.0 74.121361413,15.313240775,0.0 74.120265348,15.311953424,0.0 74.118197475,15.310211713,0.0 74.114811544,15.307913576,0.0 74.114029375,15.307568991,0.0 74.112539945,15.306622953,0.0 74.112283123,15.306412258,0.0 74.112168081,15.305454023,0.0 74.111638154,15.304108845,0.0 74.110270954,15.302714249,0.0 74.109045531,15.300518443,0.0 74.109313533,15.299460356,0.0 74.108945529,15.298061428,0.0 74.108530437,15.297237497,0.0 74.107740127,15.296321751,0.0 74.107309121,15.295252502,0.0 74.108019951,15.295212551,0.0 74.109141618,15.295411332,0.0 74.109852469,15.295410984,0.0 74.113185066,15.294468918,0.0 74.11593402,15.29509104,0.0 74.116392221,15.295269683,0.0 74.116787085,15.295172371,0.0 74.116955676,15.295340942,0.0 74.117482075,15.295059567,0.0 74.118108539,15.294813914,0.0 74.118782477,15.294721561,0.0 74.120061762,15.294296674,0.0 74.120751377,15.293999871,0.0 74.121309479,15.293922906,0.0 74.121915052,15.293989018,0.0 74.12228897,15.294101254,0.0 74.125816776,15.29393575,0.0 74.12645909,15.293802505,0.0 74.127138212,15.293587462,0.0 74.128008403,15.292528543,0.0</coordinates>
                    </LinearRing>
                </outerBoundaryIs>
            </Polygon>
        </Placemark>
    </Document>
</kml>
