<?xml version="1.0" encoding="UTF-8"?>
<kml xmlns="http://www.opengis.net/kml/2.2" xmlns:gx="http://www.google.com/kml/ext/2.2">
    <Document id="1402">
        <Placemark id="1404">
            <ExtendedData>
                <Data name="id">
                    <value>342</value>
                </Data>
                <Data name="taluka">
                    <value>Dharbandora</value>
                </Data>
                <Data name="village">
                    <value>Cormonem</value>
                </Data>
                <Data name="lg_code">
                    <value>626980</value>
                </Data>
                <Data name="dslr_code">
                    <value>00031100</value>
                </Data>
            </ExtendedData>
            <Polygon id="1403">
                <outerBoundaryIs>
                    <LinearRing id="1407">
                        <coordinates>74.146401209,15.308288632,0.0 74.148209399,15.308883068,0.0 74.150971804,15.310228313,0.0 74.152649764,15.311391848,0.0 74.15739203,15.311458721,0.0 74.159011905,15.312229346,0.0 74.160859821,15.312620986,0.0 74.161816565,15.313062897,0.0 74.162330073,15.313671103,0.0 74.163115488,15.31369512,0.0 74.164204394,15.313036567,0.0 74.164457281,15.312440098,0.0 74.165375932,15.312759077,0.0 74.166491154,15.313354533,0.0 74.166858866,15.31379686,0.0 74.167606528,15.3141344,0.0 74.169265976,15.31410856,0.0 74.169501075,15.315036616,0.0 74.169653702,15.315798759,0.0 74.169502154,15.316376716,0.0 74.169559486,15.31678239,0.0 74.169293931,15.31736658,0.0 74.168888919,15.317815635,0.0 74.168718592,15.318676379,0.0 74.168972301,15.319112641,0.0 74.169163295,15.320323504,0.0 74.16934178,15.321731088,0.0 74.169298377,15.32289295,0.0 74.168766632,15.323292923,0.0 74.167569835,15.323736425,0.0 74.167152207,15.324271548,0.0 74.167089505,15.325076884,0.0 74.16773737,15.327307847,0.0 74.167390225,15.32886336,0.0 74.167435778,15.330387841,0.0 74.167208256,15.331033472,0.0 74.167221594,15.331875634,0.0 74.166962499,15.33265038,0.0 74.167160019,15.33410098,0.0 74.167154022,15.334525144,0.0 74.167388921,15.335182722,0.0 74.167371454,15.337112968,0.0 74.167764769,15.337831899,0.0 74.167981937,15.340075476,0.0 74.168217017,15.340948207,0.0 74.1682381,15.341015594,0.0 74.167555909,15.34058988,0.0 74.166561035,15.340285619,0.0 74.16562207,15.340243849,0.0 74.164555587,15.339939633,0.0 74.164204889,15.33918703,0.0 74.164188468,15.338538423,0.0 74.163945018,15.337561812,0.0 74.163626305,15.337002226,0.0 74.162945937,15.336937089,0.0 74.162166453,15.337319879,0.0 74.161434696,15.337687188,0.0 74.160476081,15.337946555,0.0 74.159561534,15.338611273,0.0 74.159442452,15.338970415,0.0 74.159160142,15.339186823,0.0 74.158495531,15.338920899,0.0 74.157691491,15.338411839,0.0 74.157201796,15.337956607,0.0 74.156724398,15.337983968,0.0 74.156318777,15.338231346,0.0 74.156359556,15.339567164,0.0 74.156435581,15.340150096,0.0 74.156750475,15.340941345,0.0 74.157077021,15.341350363,0.0 74.15854149,15.341831931,0.0 74.158911741,15.342155977,0.0 74.158693576,15.343024818,0.0 74.158224514,15.343569528,0.0 74.157345312,15.343658949,0.0 74.156437846,15.343192427,0.0 74.156262559,15.342883683,0.0 74.155454445,15.342258794,0.0 74.155279363,15.342224168,0.0 74.154753842,15.341749651,0.0 74.15408476,15.340815794,0.0 74.153734386,15.340456978,0.0 74.153157356,15.340260473,0.0 74.152612371,15.340361228,0.0 74.151968167,15.340801802,0.0 74.151303888,15.340991434,0.0 74.151187907,15.340153712,0.0 74.151239223,15.339589997,0.0 74.151608712,15.338879353,0.0 74.151807163,15.338222877,0.0 74.152578684,15.337801521,0.0 74.152948517,15.337573479,0.0 74.153417617,15.337078971,0.0 74.153660077,15.336769937,0.0 74.153994175,15.3366423,0.0 74.154996615,15.336464008,0.0 74.15580395,15.336069641,0.0 74.156149621,15.335459388,0.0 74.156328048,15.334648489,0.0 74.156056739,15.333602394,0.0 74.155900826,15.332583243,0.0 74.155617946,15.33202362,0.0 74.155406668,15.331448504,0.0 74.155068043,15.330819423,0.0 74.154630263,15.33059966,0.0 74.154180617,15.330472563,0.0 74.153623542,15.330326235,0.0 74.15324946,15.330164337,0.0 74.153022116,15.329369162,0.0 74.152353663,15.32923835,0.0 74.151895864,15.328833275,0.0 74.15201449,15.327833238,0.0 74.150828323,15.326946051,0.0 74.149603135,15.327116751,0.0 74.149228755,15.326522433,0.0 74.147286063,15.324670522,0.0 74.14621893,15.323281322,0.0 74.145963645,15.322300837,0.0 74.145293752,15.320046545,0.0 74.14411619,15.320000977,0.0 74.143177064,15.319584611,0.0 74.143351555,15.318781445,0.0 74.14406648,15.317120825,0.0 74.14434401,15.315753909,0.0 74.145043112,15.314247729,0.0 74.145551847,15.313591056,0.0 74.146099099,15.311119761,0.0 74.146161611,15.309482724,0.0 74.146401209,15.308288632,0.0</coordinates>
                    </LinearRing>
                </outerBoundaryIs>
            </Polygon>
        </Placemark>
    </Document>
</kml>
