<?xml version="1.0" encoding="UTF-8"?>
<kml xmlns="http://www.opengis.net/kml/2.2" xmlns:gx="http://www.google.com/kml/ext/2.2">
    <Document id="1430">
        <Placemark id="1432">
            <ExtendedData>
                <Data name="id">
                    <value>344</value>
                </Data>
                <Data name="taluka">
                    <value>Dharbandora</value>
                </Data>
                <Data name="village">
                    <value>Moissal</value>
                </Data>
                <Data name="lg_code">
                    <value>626983</value>
                </Data>
                <Data name="dslr_code">
                    <value>00031400</value>
                </Data>
            </ExtendedData>
            <Polygon id="1431">
                <outerBoundaryIs>
                    <LinearRing id="1435">
                        <coordinates>74.102480767,15.290175808,0.0 74.10300609,15.290371059,0.0 74.103334141,15.290938218,0.0 74.103681817,15.291256211,0.0 74.103851638,15.291275298,0.0 74.10389921,15.291647094,0.0 74.104041558,15.292011179,0.0 74.104598443,15.292133581,0.0 74.105969231,15.293022233,0.0 74.1063567,15.293922845,0.0 74.106850623,15.294474587,0.0 74.107309121,15.295252502,0.0 74.107740127,15.296321751,0.0 74.108530437,15.297237497,0.0 74.108945529,15.298061428,0.0 74.109313533,15.299460356,0.0 74.109045531,15.300518443,0.0 74.110270954,15.302714249,0.0 74.111638154,15.304108845,0.0 74.112168081,15.305454023,0.0 74.112283123,15.306412258,0.0 74.112539945,15.306622953,0.0 74.114029375,15.307568991,0.0 74.114811544,15.307913576,0.0 74.118197475,15.310211713,0.0 74.116447772,15.310036306,0.0 74.113604076,15.309861443,0.0 74.111313116,15.309325952,0.0 74.109310425,15.308694467,0.0 74.106280696,15.307660971,0.0 74.104404567,15.307332203,0.0 74.102216488,15.30709939,0.0 74.101864966,15.307045886,0.0 74.101244819,15.306854509,0.0 74.10002804,15.306080756,0.0 74.098045002,15.305108009,0.0 74.09734985,15.304966485,0.0 74.094304477,15.30402483,0.0 74.091488692,15.304236824,0.0 74.091101648,15.304217816,0.0 74.090173649,15.304440516,0.0 74.089723332,15.304226039,0.0 74.089434796,15.303674178,0.0 74.089091237,15.303750979,0.0 74.088944835,15.303095564,0.0 74.088102915,15.301386302,0.0 74.087873623,15.300826749,0.0 74.088126053,15.300052348,0.0 74.088678843,15.29979914,0.0 74.089235609,15.299611093,0.0 74.089910926,15.299599323,0.0 74.090372882,15.299349981,0.0 74.091233801,15.2993113,0.0 74.091194098,15.298824503,0.0 74.09087402,15.298383818,0.0 74.090901564,15.298149983,0.0 74.091055244,15.29736412,0.0 74.091296118,15.297298858,0.0 74.091813215,15.296727503,0.0 74.092180451,15.296635356,0.0 74.092606961,15.296627513,0.0 74.092914947,15.29651239,0.0 74.093361026,15.296105888,0.0 74.093526809,15.295917993,0.0 74.093700474,15.295695596,0.0 74.094051879,15.295534456,0.0 74.094466515,15.29547295,0.0 74.095525151,15.296039811,0.0 74.09565131,15.295564443,0.0 74.095963145,15.295234657,0.0 74.096500118,15.294985269,0.0 74.097313366,15.294379275,0.0 74.097988545,15.294106825,0.0 74.098612131,15.293293918,0.0 74.099251807,15.293117309,0.0 74.101983321,15.29045969,0.0 74.102480767,15.290175808,0.0</coordinates>
                    </LinearRing>
                </outerBoundaryIs>
            </Polygon>
        </Placemark>
    </Document>
</kml>
