<?xml version="1.0" encoding="UTF-8"?>
<kml xmlns="http://www.opengis.net/kml/2.2" xmlns:gx="http://www.google.com/kml/ext/2.2">
    <Document id="1444">
        <Placemark id="1446">
            <ExtendedData>
                <Data name="id">
                    <value>345</value>
                </Data>
                <Data name="taluka">
                    <value>Dharbandora</value>
                </Data>
                <Data name="village">
                    <value>Molem</value>
                </Data>
                <Data name="lg_code">
                    <value>626975</value>
                </Data>
                <Data name="dslr_code">
                    <value>00030600</value>
                </Data>
            </ExtendedData>
            <Polygon id="1445">
                <outerBoundaryIs>
                    <LinearRing id="1449">
                        <coordinates>74.198322963,15.361283391,0.0 74.199334973,15.362138003,0.0 74.200403554,15.362386067,0.0 74.201018643,15.362744569,0.0 74.201633446,15.362801925,0.0 74.202009417,15.362761047,0.0 74.202719803,15.362910973,0.0 74.204727288,15.36505768,0.0 74.205569297,15.365520202,0.0 74.206863632,15.364679278,0.0 74.208180399,15.362396313,0.0 74.208089902,15.361417681,0.0 74.207283274,15.360509212,0.0 74.207521704,15.360202055,0.0 74.208129223,15.358939003,0.0 74.209305123,15.359082683,0.0 74.210396806,15.358566237,0.0 74.211095056,15.358525038,0.0 74.211698443,15.359109379,0.0 74.212307403,15.35929991,0.0 74.212796652,15.359148872,0.0 74.214257486,15.357774955,0.0 74.216996448,15.357314799,0.0 74.218576967,15.35628821,0.0 74.220068726,15.356002973,0.0 74.220557541,15.355452325,0.0 74.221918872,15.35600114,0.0 74.223028892,15.355936329,0.0 74.223321649,15.356231388,0.0 74.223757514,15.356404687,0.0 74.224211488,15.356769078,0.0 74.224557559,15.356687652,0.0 74.224975764,15.357086825,0.0 74.225912772,15.357080086,0.0 74.227202025,15.357183018,0.0 74.227943446,15.358433163,0.0 74.228606429,15.358895781,0.0 74.22874452,15.359648497,0.0 74.229282447,15.360360263,0.0 74.229695162,15.36118219,0.0 74.229875678,15.362519773,0.0 74.230610911,15.363538267,0.0 74.230814557,15.364192462,0.0 74.23181217,15.364990614,0.0 74.233077362,15.364879261,0.0 74.233281127,15.365631905,0.0 74.233711303,15.366031047,0.0 74.234153204,15.366239067,0.0 74.23476864,15.366846496,0.0 74.235145163,15.367297813,0.0 74.235664243,15.367135111,0.0 74.235933146,15.367418595,0.0 74.235927737,15.367916645,0.0 74.235683508,15.368345452,0.0 74.236931689,15.369010117,0.0 74.237248528,15.369455702,0.0 74.238072457,15.369686472,0.0 74.238508065,15.369599138,0.0 74.239636116,15.369586345,0.0 74.241092759,15.369851168,0.0 74.242196682,15.369618323,0.0 74.242906569,15.369293243,0.0 74.243712281,15.369251825,0.0 74.244315667,15.369731834,0.0 74.245020895,15.370530245,0.0 74.245481577,15.371467912,0.0 74.24592949,15.371693275,0.0 74.247333495,15.372855751,0.0 74.248163649,15.373283376,0.0 74.249004994,15.373079745,0.0 74.248765312,15.37229241,0.0 74.248937015,15.371122397,0.0 74.249319049,15.371156717,0.0 74.249814563,15.371254612,0.0 74.250322968,15.372151677,0.0 74.250401086,15.37259172,0.0 74.250676054,15.372933091,0.0 74.250831835,15.373430959,0.0 74.251106714,15.373697044,0.0 74.251691209,15.373331539,0.0 74.251798215,15.372972364,0.0 74.252018847,15.372798378,0.0 74.252275654,15.372925494,0.0 74.252669461,15.372820806,0.0 74.253009801,15.372924661,0.0 74.25337373,15.37279105,0.0 74.253672458,15.37303394,0.0 74.25397677,15.372958308,0.0 74.254961574,15.372934018,0.0 74.255229805,15.37263836,0.0 74.255886112,15.372434916,0.0 74.256279322,15.371843762,0.0 74.256577641,15.371750759,0.0 74.257210467,15.371871644,0.0 74.258118942,15.372878261,0.0 74.257993956,15.373167966,0.0 74.258262668,15.373266105,0.0 74.258257049,15.37354988,0.0 74.258466246,15.373787076,0.0 74.258818428,15.373809832,0.0 74.258914085,15.373937127,0.0 74.259224658,15.374098919,0.0 74.259260742,15.374318942,0.0 74.259654843,15.374451681,0.0 74.259780666,15.374839544,0.0 74.260162924,15.375047581,0.0 74.260199067,15.375313933,0.0 74.260509507,15.375365691,0.0 74.260700773,15.375579741,0.0 74.261667371,15.375306422,0.0 74.262231815,15.375375024,0.0 74.262500026,15.375029727,0.0 74.262783482,15.374239771,0.0 74.264008328,15.374360982,0.0 74.264854681,15.375088269,0.0 74.265463506,15.375424859,0.0 74.265677141,15.375662257,0.0 74.266096046,15.375769085,0.0 74.266452013,15.376090641,0.0 74.26667326,15.376098042,0.0 74.266736792,15.376350952,0.0 74.267226957,15.376572685,0.0 74.26747977,15.376549383,0.0 74.268151784,15.37686289,0.0 74.268436153,15.376801218,0.0 74.268712887,15.376946542,0.0 74.269226405,15.376892258,0.0 74.270254141,15.377327989,0.0 74.270806839,15.377020668,0.0 74.271289238,15.377342063,0.0 74.271455553,15.377640843,0.0 74.272609451,15.37786942,0.0 74.272720329,15.378068606,0.0 74.273100394,15.378681439,0.0 74.275037936,15.379974646,0.0 74.275915602,15.380433534,0.0 74.276573143,15.381735976,0.0 74.277142143,15.381804265,0.0 74.277292445,15.381934403,0.0 74.277940481,15.382017924,0.0 74.278027581,15.382155807,0.0 74.278730745,15.382101264,0.0 74.279221191,15.382514625,0.0 74.280162161,15.38302708,0.0 74.280494118,15.383095658,0.0 74.281189847,15.383386097,0.0 74.281372015,15.383707848,0.0 74.281798886,15.3838453,0.0 74.282864886,15.383314979,0.0 74.27584319,15.391449983,0.0 74.277489634,15.4055231,0.0 74.276031673,15.408545401,0.0 74.274560533,15.413599251,0.0 74.274403525,15.41439673,0.0 74.272682446,15.415717436,0.0 74.270674898,15.415535902,0.0 74.269098513,15.41878062,0.0 74.266719589,15.418668496,0.0 74.266103943,15.419282531,0.0 74.265479796,15.419428935,0.0 74.264333666,15.419269312,0.0 74.263630836,15.419691788,0.0 74.262817555,15.420267717,0.0 74.261916683,15.420322445,0.0 74.26156151,15.420690841,0.0 74.260953343,15.420982872,0.0 74.259989291,15.421075997,0.0 74.258479779,15.421047094,0.0 74.257721856,15.421668937,0.0 74.256995126,15.421953429,0.0 74.256750461,15.422222029,0.0 74.255564506,15.421817088,0.0 74.254291781,15.421542565,0.0 74.251983903,15.421384205,0.0 74.251525214,15.421124074,0.0 74.251343085,15.420825298,0.0 74.250947787,15.420703085,0.0 74.250884269,15.420457838,0.0 74.250631337,15.420427459,0.0 74.250536381,15.420327905,0.0 74.250307158,15.420297499,0.0 74.249832072,15.419539079,0.0 74.249444672,15.419409189,0.0 74.249278024,15.41883441,0.0 74.248945562,15.418382476,0.0 74.248376343,15.41820679,0.0 74.248139056,15.418038399,0.0 74.248099296,15.417831455,0.0 74.245189251,15.416316775,0.0 74.24477032,15.416248241,0.0 74.243363705,15.416326449,0.0 74.242289194,15.416565276,0.0 74.241143281,15.416566522,0.0 74.240850461,15.416206528,0.0 74.240383876,15.415931049,0.0 74.240154263,15.415555653,0.0 74.239110189,15.414767158,0.0 74.238374741,15.41433864,0.0 74.23767143,15.414370058,0.0 74.237362926,15.414109736,0.0 74.237125678,15.413964331,0.0 74.236817471,15.41396466,0.0 74.236564002,15.413451293,0.0 74.235899549,15.412900031,0.0 74.234901388,15.41074688,0.0 74.233454069,15.409728796,0.0 74.233121784,15.409391831,0.0 74.232860205,15.408679146,0.0 74.232931012,15.408395422,0.0 74.232621662,15.407360805,0.0 74.23199665,15.406717495,0.0 74.231616228,15.405721282,0.0 74.231765788,15.405192156,0.0 74.230539265,15.403698516,0.0 74.230088409,15.403315671,0.0 74.229622111,15.40326249,0.0 74.229037069,15.403017774,0.0 74.228112495,15.403018724,0.0 74.227567066,15.402865958,0.0 74.22714039,15.402912392,0.0 74.226136552,15.402691094,0.0 74.225819988,15.402254441,0.0 74.225298336,15.402162975,0.0 74.222704558,15.400456017,0.0 74.222451018,15.399827639,0.0 74.22249026,15.399574614,0.0 74.221746851,15.399008055,0.0 74.221351133,15.398433481,0.0 74.221026982,15.398280478,0.0 74.220512461,15.397445369,0.0 74.219287364,15.397193594,0.0 74.218829161,15.397309039,0.0 74.217880171,15.396604676,0.0 74.217500966,15.396697042,0.0 74.216955569,15.396551916,0.0 74.21674203,15.396375801,0.0 74.216346806,15.396261192,0.0 74.216117265,15.395893435,0.0 74.215112953,15.395166116,0.0 74.215128528,15.394943779,0.0 74.216209795,15.393670134,0.0 74.215631828,15.392582088,0.0 74.215401875,15.39180802,0.0 74.215432946,15.391286685,0.0 74.215701145,15.390834117,0.0 74.217170229,15.390188723,0.0 74.216450454,15.389507129,0.0 74.214956346,15.388864612,0.0 74.213991275,15.387838264,0.0 74.213342813,15.387332914,0.0 74.209516115,15.385090337,0.0 74.20822741,15.384355586,0.0 74.207009178,15.382961464,0.0 74.20662178,15.382739502,0.0 74.205729134,15.382977983,0.0 74.205231348,15.382993775,0.0 74.204559331,15.382603414,0.0 74.203665647,15.381776278,0.0 74.203317503,15.381285955,0.0 74.202788011,15.381194443,0.0 74.201570798,15.380804569,0.0 74.200447976,15.379962294,0.0 74.199981547,15.379709727,0.0 74.199357265,15.37964129,0.0 74.199111984,15.379288862,0.0 74.197728729,15.378761122,0.0 74.197609759,15.37828592,0.0 74.197000571,15.377458503,0.0 74.196493632,15.376125021,0.0 74.196193172,15.375902964,0.0 74.195931748,15.375174899,0.0 74.196009177,15.373480585,0.0 74.196680258,15.372920356,0.0 74.196450663,15.372429918,0.0 74.196102752,15.372154239,0.0 74.195849584,15.371801813,0.0 74.19510631,15.37119683,0.0 74.194877098,15.371112702,0.0 74.194291737,15.370384917,0.0 74.193975501,15.370178204,0.0 74.193698303,15.369465482,0.0 74.19412448,15.368943804,0.0 74.194171517,15.368545117,0.0 74.195221901,15.368053558,0.0 74.195485872,15.367286699,0.0 74.196086385,15.367324503,0.0 74.196729965,15.366948288,0.0 74.197183692,15.366330752,0.0 74.197589419,15.365084624,0.0 74.19757313,15.364567165,0.0 74.197881081,15.364371402,0.0 74.198239258,15.362979655,0.0 74.198135664,15.362044461,0.0 74.198403882,15.361611078,0.0 74.198322963,15.361283391,0.0</coordinates>
                    </LinearRing>
                </outerBoundaryIs>
            </Polygon>
        </Placemark>
    </Document>
</kml>
