<?xml version="1.0" encoding="UTF-8"?>
<kml xmlns="http://www.opengis.net/kml/2.2" xmlns:gx="http://www.google.com/kml/ext/2.2">
    <Document id="1514">
        <Placemark id="1516">
            <ExtendedData>
                <Data name="id">
                    <value>350</value>
                </Data>
                <Data name="taluka">
                    <value>Dharbandora</value>
                </Data>
                <Data name="village">
                    <value>Sonauli</value>
                </Data>
                <Data name="lg_code">
                    <value>626989</value>
                </Data>
                <Data name="dslr_code">
                    <value>00032000</value>
                </Data>
            </ExtendedData>
            <Polygon id="1515">
                <outerBoundaryIs>
                    <LinearRing id="1519">
                        <coordinates>74.296405627,15.289051123,0.0 74.307791888,15.283597816,0.0 74.319543934,15.283663127,0.0 74.321019807,15.284724072,0.0 74.326199741,15.284041954,0.0 74.331303552,15.288552441,0.0 74.336200289,15.295148335,0.0 74.324071491,15.310723603,0.0 74.316791354,15.329930305,0.0 74.317577474,15.334365382,0.0 74.317156743,15.334754403,0.0 74.317178796,15.335408556,0.0 74.315662046,15.335410706,0.0 74.314693402,15.335672726,0.0 74.314235827,15.336082236,0.0 74.313984058,15.33676744,0.0 74.31367882,15.336916083,0.0 74.313189413,15.337172312,0.0 74.312610056,15.33714757,0.0 74.311036095,15.337645518,0.0 74.310224774,15.337462658,0.0 74.308746699,15.338706637,0.0 74.307709991,15.339260037,0.0 74.306772873,15.339491314,0.0 74.306614405,15.33916955,0.0 74.306128792,15.338424037,0.0 74.306153897,15.337580716,0.0 74.305868923,15.337182463,0.0 74.305637031,15.337070342,0.0 74.305462664,15.336677047,0.0 74.30507843,15.336830898,0.0 74.304973603,15.337178577,0.0 74.304231368,15.337419798,0.0 74.304047032,15.337414939,0.0 74.303210366,15.337911827,0.0 74.302420925,15.338291099,0.0 74.302299353,15.337984614,0.0 74.301873004,15.338153848,0.0 74.301736498,15.338450461,0.0 74.30183148,15.338578103,0.0 74.301594426,15.338537537,0.0 74.3013729,15.338307849,0.0 74.301430121,15.337812022,0.0 74.301187888,15.337832792,0.0 74.30111434,15.337960662,0.0 74.301003793,15.337996587,0.0 74.300865955,15.33736303,0.0 74.300723393,15.337107681,0.0 74.299932916,15.336761208,0.0 74.299327315,15.336797797,0.0 74.299317284,15.337150457,0.0 74.298833074,15.337370872,0.0 74.298617146,15.337371161,0.0 74.29849109,15.337611538,0.0 74.298191251,15.337862369,0.0 74.297812298,15.338031533,0.0 74.297291059,15.338139555,0.0 74.297074444,15.337654315,0.0 74.296426369,15.337450743,0.0 74.295940594,15.336562104,0.0 74.295740502,15.336587923,0.0 74.295530372,15.336966403,0.0 74.294551819,15.337698544,0.0 74.294146294,15.337699079,0.0 74.293583293,15.338072911,0.0 74.293146952,15.338635676,0.0 74.293116507,15.33946367,0.0 74.29330178,15.340138056,0.0 74.2928016,15.34024604,0.0 74.292659764,15.340506878,0.0 74.292712765,15.340747018,0.0 74.292370761,15.340982564,0.0 74.291949891,15.341315319,0.0 74.291449672,15.341397746,0.0 74.290590819,15.34111777,0.0 74.289901121,15.341287325,0.0 74.289168423,15.340828301,0.0 74.288910112,15.340649756,0.0 74.287586423,15.339363537,0.0 74.286795847,15.338935244,0.0 74.28603608,15.337924274,0.0 74.285835151,15.337336786,0.0 74.285397354,15.336841595,0.0 74.285159673,15.336335927,0.0 74.284700917,15.335917424,0.0 74.283810061,15.33531548,0.0 74.283467904,15.335438575,0.0 74.282993663,15.335250076,0.0 74.282445933,15.335240547,0.0 74.28151872,15.335011731,0.0 74.280407469,15.334997797,0.0 74.279142382,15.334150984,0.0 74.277572027,15.333437424,0.0 74.276678916,15.333138027,0.0 74.27636763,15.332397138,0.0 74.275785566,15.331463543,0.0 74.275896473,15.331092768,0.0 74.276261495,15.330343321,0.0 74.276093727,15.32982618,0.0 74.275615704,15.329348031,0.0 74.27548762,15.328753625,0.0 74.275128969,15.32829077,0.0 74.274968849,15.327534249,0.0 74.274633042,15.326283761,0.0 74.274314331,15.32593668,0.0 74.273843926,15.32518826,0.0 74.273374035,15.324833642,0.0 74.272991146,15.324077391,0.0 74.273261251,15.323760475,0.0 74.273546847,15.323119231,0.0 74.273904622,15.322918031,0.0 74.274198362,15.322423487,0.0 74.274212101,15.320755601,0.0 74.274147767,15.320230609,0.0 74.274449802,15.31999859,0.0 74.274441413,15.319666571,0.0 74.274608262,15.319488769,0.0 74.275006092,15.319503723,0.0 74.275149364,15.319549876,0.0 74.275460071,15.319866079,0.0 74.276096284,15.319649089,0.0 74.276533612,15.319447786,0.0 74.27697098,15.319277369,0.0 74.277265186,15.319145736,0.0 74.277400482,15.319176455,0.0 74.277758174,15.318921197,0.0 74.27801217,15.318465306,0.0 74.278258913,15.318542215,0.0 74.279324896,15.318432782,0.0 74.279332432,15.318116187,0.0 74.279499378,15.318015597,0.0 74.279610364,15.317714315,0.0 74.279887278,15.316548004,0.0 74.280236205,15.315690467,0.0 74.280359749,15.315290813,0.0 74.280581409,15.315272093,0.0 74.280543119,15.315056989,0.0 74.2806377,15.314737215,0.0 74.280954014,15.314454046,0.0 74.281238994,15.314422952,0.0 74.281776898,15.314071884,0.0 74.281585742,15.313217663,0.0 74.281737472,15.313008466,0.0 74.281888931,15.312596413,0.0 74.282433502,15.31249737,0.0 74.28266136,15.312380285,0.0 74.282952729,15.312392211,0.0 74.283009369,15.312121662,0.0 74.283218192,15.311980012,0.0 74.283369821,15.311697048,0.0 74.28400951,15.311683942,0.0 74.284503366,15.311554223,0.0 74.284692788,15.31111753,0.0 74.285179759,15.310582102,0.0 74.285242737,15.310317692,0.0 74.285584456,15.310095956,0.0 74.285647276,15.309714749,0.0 74.285754715,15.30954249,0.0 74.285735355,15.309278185,0.0 74.285867761,15.308835416,0.0 74.28619045,15.308595262,0.0 74.286323147,15.308367646,0.0 74.286144629,15.307501118,0.0 74.285681968,15.307274263,0.0 74.285536012,15.307065444,0.0 74.285459334,15.306567618,0.0 74.285604156,15.305940418,0.0 74.2856858,15.305430095,0.0 74.285900632,15.305054841,0.0 74.285654953,15.303699695,0.0 74.28549615,15.303355654,0.0 74.285654028,15.303017356,0.0 74.285520651,15.302740901,0.0 74.285469358,15.302279926,0.0 74.285791672,15.301769296,0.0 74.286613788,15.300864604,0.0 74.286587894,15.300452774,0.0 74.287403467,15.299400554,0.0 74.288536808,15.299159354,0.0 74.289391767,15.299127514,0.0 74.28949891,15.298746248,0.0 74.289384286,15.298291503,0.0 74.289922305,15.298063359,0.0 74.290035661,15.297596024,0.0 74.290345764,15.297429647,0.0 74.290896005,15.296881831,0.0 74.290920804,15.296494524,0.0 74.291110106,15.295990206,0.0 74.291229452,15.295276974,0.0 74.291595759,15.294538832,0.0 74.292038742,15.294292366,0.0 74.292517268,15.292275455,0.0 74.29344028,15.291106276,0.0 74.294185202,15.289396372,0.0 74.296405627,15.289051123,0.0</coordinates>
                    </LinearRing>
                </outerBoundaryIs>
            </Polygon>
        </Placemark>
    </Document>
</kml>
