<?xml version="1.0" encoding="UTF-8"?>
<kml xmlns="http://www.opengis.net/kml/2.2" xmlns:gx="http://www.google.com/kml/ext/2.2">
    <Document id="170">
        <Placemark id="172">
            <ExtendedData>
                <Data name="direction">
                    <value>https://maps.google.com?q=15.598935,73.761263&amp;t=h</value>
                </Data>
                <Data name="id">
                    <value>354</value>
                </Data>
                <Data name="Sr.No">
                    <value>354</value>
                </Data>
                <Data name="Reg No">
                    <value>1379/Bardez</value>
                </Data>
                <Data name="Category">
                    <value>agricultural</value>
                </Data>
                <Data name="Type Of Well">
                    <value>Open Well</value>
                </Data>
                <Data name="Applicant Name">
                    <value>Shri. Redkar Hemant Datta</value>
                </Data>
                <Data name="Applicant Address">
                    <value>H.No. 327, Munang Waddo, Assagao, Bardez</value>
                </Data>
                <Data name="latitude">
                    <value>15.598935</value>
                </Data>
                <Data name="longitude">
                    <value>73.761263</value>
                </Data>
                <Data name="taluka">
                    <value>Bardez</value>
                </Data>
                <Data name="village">
                    <value>Assagao</value>
                </Data>
            </ExtendedData>
            <Point id="171">
                <coordinates>73.761263,15.598935,0.0</coordinates>
            </Point>
        </Placemark>
        <Placemark id="187">
            <ExtendedData>
                <Data name="direction">
                    <value>https://maps.google.com?q=15.59974,73.79446&amp;t=h</value>
                </Data>
                <Data name="id">
                    <value>361</value>
                </Data>
                <Data name="Sr.No">
                    <value>361</value>
                </Data>
                <Data name="Reg No">
                    <value>3204/Bardez</value>
                </Data>
                <Data name="Category">
                    <value>agricultural</value>
                </Data>
                <Data name="Type Of Well">
                    <value>Open Well</value>
                </Data>
                <Data name="Applicant Name">
                    <value>Shri. Simepurushkar Mahadev Vasudev,</value>
                </Data>
                <Data name="Applicant Address">
                    <value>H. No. 63, Vale vaddo, Assagao,</value>
                </Data>
                <Data name="latitude">
                    <value>15.59974</value>
                </Data>
                <Data name="longitude">
                    <value>73.79446</value>
                </Data>
                <Data name="taluka">
                    <value>Bardez</value>
                </Data>
                <Data name="village">
                    <value>Assagao</value>
                </Data>
            </ExtendedData>
            <Point id="186">
                <coordinates>73.79446,15.59974,0.0</coordinates>
            </Point>
        </Placemark>
        <Placemark id="202">
            <ExtendedData>
                <Data name="direction">
                    <value>https://maps.google.com?q=15.59854,73.79227&amp;t=h</value>
                </Data>
                <Data name="id">
                    <value>362</value>
                </Data>
                <Data name="Sr.No">
                    <value>362</value>
                </Data>
                <Data name="Reg No">
                    <value>3205/Bardez</value>
                </Data>
                <Data name="Category">
                    <value>agricultural</value>
                </Data>
                <Data name="Type Of Well">
                    <value>Open Well</value>
                </Data>
                <Data name="Applicant Name">
                    <value>Smt. Naik Ankita Hanumant,</value>
                </Data>
                <Data name="Applicant Address">
                    <value>H. No. 172, Bairo Alto, Assagao, Bardez - Goa.</value>
                </Data>
                <Data name="latitude">
                    <value>15.59854</value>
                </Data>
                <Data name="longitude">
                    <value>73.79227</value>
                </Data>
                <Data name="taluka">
                    <value>Bardez</value>
                </Data>
                <Data name="village">
                    <value>Assagao</value>
                </Data>
            </ExtendedData>
            <Point id="201">
                <coordinates>73.79227,15.59854,0.0</coordinates>
            </Point>
        </Placemark>
        <Placemark id="217">
            <ExtendedData>
                <Data name="direction">
                    <value>https://maps.google.com?q=15.60334,73.75645&amp;t=h</value>
                </Data>
                <Data name="id">
                    <value>364</value>
                </Data>
                <Data name="Sr.No">
                    <value>364</value>
                </Data>
                <Data name="Reg No">
                    <value>3182/Bardez</value>
                </Data>
                <Data name="Category">
                    <value>agricultural</value>
                </Data>
                <Data name="Type Of Well">
                    <value>Open Well</value>
                </Data>
                <Data name="Applicant Name">
                    <value>Shri. Banaulikar Budu Sadashiv,</value>
                </Data>
                <Data name="Applicant Address">
                    <value>H. No. 632/1, Badem, Assagao, Bardez -goa</value>
                </Data>
                <Data name="latitude">
                    <value>15.60334</value>
                </Data>
                <Data name="longitude">
                    <value>73.75645</value>
                </Data>
                <Data name="taluka">
                    <value>Bardez</value>
                </Data>
                <Data name="village">
                    <value>Assagao</value>
                </Data>
            </ExtendedData>
            <Point id="216">
                <coordinates>73.75645,15.60334,0.0</coordinates>
            </Point>
        </Placemark>
        <Placemark id="232">
            <ExtendedData>
                <Data name="direction">
                    <value>https://maps.google.com?q=15.598733,73.760976&amp;t=h</value>
                </Data>
                <Data name="id">
                    <value>365</value>
                </Data>
                <Data name="Sr.No">
                    <value>365</value>
                </Data>
                <Data name="Reg No">
                    <value>3201/Bardez</value>
                </Data>
                <Data name="Category">
                    <value>agricultural</value>
                </Data>
                <Data name="Type Of Well">
                    <value>Open Well</value>
                </Data>
                <Data name="Applicant Name">
                    <value>Shri. Fonseca Edwin Francisco,</value>
                </Data>
                <Data name="Applicant Address">
                    <value>Socol vaddo, Assagao, Bardez - Goa.</value>
                </Data>
                <Data name="latitude">
                    <value>15.598733</value>
                </Data>
                <Data name="longitude">
                    <value>73.760976</value>
                </Data>
                <Data name="taluka">
                    <value>Bardez</value>
                </Data>
                <Data name="village">
                    <value>Assagao</value>
                </Data>
            </ExtendedData>
            <Point id="231">
                <coordinates>73.760976,15.598733,0.0</coordinates>
            </Point>
        </Placemark>
    </Document>
</kml>
