<?xml version="1.0" encoding="UTF-8"?>
<kml xmlns="http://www.opengis.net/kml/2.2" xmlns:gx="http://www.google.com/kml/ext/2.2">
    <Document id="294">
        <Placemark id="296">
            <ExtendedData>
                <Data name="direction">
                    <value>https://maps.google.com?q=15.5741,73.81156&amp;t=h</value>
                </Data>
                <Data name="id">
                    <value>1030</value>
                </Data>
                <Data name="Sr.No">
                    <value>1030</value>
                </Data>
                <Data name="Reg No">
                    <value>2985/Bardez</value>
                </Data>
                <Data name="Category">
                    <value>agricultural</value>
                </Data>
                <Data name="Type Of Well">
                    <value>Open Well</value>
                </Data>
                <Data name="Applicant Name">
                    <value>Shri filipe eusebio Desouza</value>
                </Data>
                <Data name="Applicant Address">
                    <value>40/C, Xell, Bastora, Bardez Goa.</value>
                </Data>
                <Data name="latitude">
                    <value>15.5741</value>
                </Data>
                <Data name="longitude">
                    <value>73.81156</value>
                </Data>
                <Data name="taluka">
                    <value>Bardez</value>
                </Data>
                <Data name="village">
                    <value>Bastora</value>
                </Data>
            </ExtendedData>
            <Point id="295">
                <coordinates>73.81156,15.5741,0.0</coordinates>
            </Point>
        </Placemark>
    </Document>
</kml>
