<?xml version="1.0" encoding="UTF-8"?>
<kml xmlns="http://www.opengis.net/kml/2.2" xmlns:gx="http://www.google.com/kml/ext/2.2">
    <Document id="574">
        <Placemark id="576">
            <ExtendedData>
                <Data name="direction">
                    <value>https://maps.google.com?q=15.61366,73.80573&amp;t=h</value>
                </Data>
                <Data name="id">
                    <value>727</value>
                </Data>
                <Data name="Sr.No">
                    <value>727</value>
                </Data>
                <Data name="Reg No">
                    <value>2605/Bardez</value>
                </Data>
                <Data name="Category">
                    <value>agricultural</value>
                </Data>
                <Data name="Type Of Well">
                    <value>Open Well</value>
                </Data>
                <Data name="Applicant Name">
                    <value>Chatim Anita Eknath</value>
                </Data>
                <Data name="Applicant Address">
                    <value>H.no 158, Maddiwada Cunchelim, mapusa</value>
                </Data>
                <Data name="latitude">
                    <value>15.61366</value>
                </Data>
                <Data name="longitude">
                    <value>73.80573</value>
                </Data>
                <Data name="taluka">
                    <value>Bardez</value>
                </Data>
                <Data name="village">
                    <value>Cunchelim</value>
                </Data>
            </ExtendedData>
            <Point id="575">
                <coordinates>73.80573,15.61366,0.0</coordinates>
            </Point>
        </Placemark>
    </Document>
</kml>
