<?xml version="1.0" encoding="UTF-8"?>
<kml xmlns="http://www.opengis.net/kml/2.2" xmlns:gx="http://www.google.com/kml/ext/2.2">
    <Document id="713">
        <Placemark id="715">
            <ExtendedData>
                <Data name="direction">
                    <value>https://maps.google.com?q=15.58438,73.8093&amp;t=h</value>
                </Data>
                <Data name="id">
                    <value>725</value>
                </Data>
                <Data name="Sr.No">
                    <value>725</value>
                </Data>
                <Data name="Reg No">
                    <value>116/Bardez</value>
                </Data>
                <Data name="Category">
                    <value>agricultural</value>
                </Data>
                <Data name="Type Of Well">
                    <value>Open Well</value>
                </Data>
                <Data name="Applicant Name">
                    <value>Mendonca Victoria Zebelina</value>
                </Data>
                <Data name="Applicant Address">
                    <value>H.No.E/26, Grand Morod, Mapusa, Bardez Goa</value>
                </Data>
                <Data name="latitude">
                    <value>15.58438</value>
                </Data>
                <Data name="longitude">
                    <value>73.8093</value>
                </Data>
                <Data name="taluka">
                    <value>Bardez</value>
                </Data>
                <Data name="village">
                    <value>Mapusa</value>
                </Data>
            </ExtendedData>
            <Point id="714">
                <coordinates>73.8093,15.58438,0.0</coordinates>
            </Point>
        </Placemark>
    </Document>
</kml>
