<?xml version="1.0" encoding="UTF-8"?>
<kml xmlns="http://www.opengis.net/kml/2.2" xmlns:gx="http://www.google.com/kml/ext/2.2">
    <Document id="1035">
        <Placemark id="1037">
            <ExtendedData>
                <Data name="direction">
                    <value>https://maps.google.com?q=15.51206,73.81463&amp;t=h</value>
                </Data>
                <Data name="id">
                    <value>1116</value>
                </Data>
                <Data name="Sr.No">
                    <value>1116</value>
                </Data>
                <Data name="Reg No">
                    <value>3120/bardez</value>
                </Data>
                <Data name="Category">
                    <value>agricultural</value>
                </Data>
                <Data name="Type Of Well">
                    <value>Open Well</value>
                </Data>
                <Data name="Applicant Name">
                    <value>Miranda Maria Suzana,</value>
                </Data>
                <Data name="Applicant Address">
                    <value>B1/2, Hindustan Housing Soceity, Betim Verem, Reis Magos, Bardez Goa.</value>
                </Data>
                <Data name="latitude">
                    <value>15.51206</value>
                </Data>
                <Data name="longitude">
                    <value>73.81463</value>
                </Data>
                <Data name="taluka">
                    <value>Bardez</value>
                </Data>
                <Data name="village">
                    <value>Reis-Magos</value>
                </Data>
            </ExtendedData>
            <Point id="1036">
                <coordinates>73.81463,15.51206,0.0</coordinates>
            </Point>
        </Placemark>
    </Document>
</kml>
