<?xml version="1.0" encoding="UTF-8"?>
<kml xmlns="http://www.opengis.net/kml/2.2" xmlns:gx="http://www.google.com/kml/ext/2.2">
    <Document id="1737">
        <Placemark id="1739">
            <ExtendedData>
                <Data name="direction">
                    <value>https://maps.google.com?q=15.54459,73.83107&amp;t=h</value>
                </Data>
                <Data name="id">
                    <value>1098</value>
                </Data>
                <Data name="Sr.No">
                    <value>1098</value>
                </Data>
                <Data name="Reg No">
                    <value>2303/bardez</value>
                </Data>
                <Data name="Category">
                    <value>agricultural</value>
                </Data>
                <Data name="Type Of Well">
                    <value>Open Well</value>
                </Data>
                <Data name="Applicant Name">
                    <value>De Sa Silvano Miguel,</value>
                </Data>
                <Data name="Applicant Address">
                    <value>H. No. 985, Ambirna, Soccorro, Porvorim, BARDEZ Goa .</value>
                </Data>
                <Data name="latitude">
                    <value>15.54459</value>
                </Data>
                <Data name="longitude">
                    <value>73.83107</value>
                </Data>
                <Data name="taluka">
                    <value>Bardez</value>
                </Data>
                <Data name="village">
                    <value>Socorro</value>
                </Data>
            </ExtendedData>
            <Point id="1738">
                <coordinates>73.83107,15.54459,0.0</coordinates>
            </Point>
        </Placemark>
        <Placemark id="1754">
            <ExtendedData>
                <Data name="direction">
                    <value>https://maps.google.com?q=15.55913,73.82448&amp;t=h</value>
                </Data>
                <Data name="id">
                    <value>1102</value>
                </Data>
                <Data name="Sr.No">
                    <value>1102</value>
                </Data>
                <Data name="Reg No">
                    <value>117/bardez</value>
                </Data>
                <Data name="Category">
                    <value>agricultural</value>
                </Data>
                <Data name="Type Of Well">
                    <value>Open Well</value>
                </Data>
                <Data name="Applicant Name">
                    <value>Yeshi Tulsidas Ganesh,</value>
                </Data>
                <Data name="Applicant Address">
                    <value>H.No. 336, Carrem Soccorro, Bardez Goa</value>
                </Data>
                <Data name="latitude">
                    <value>15.55913</value>
                </Data>
                <Data name="longitude">
                    <value>73.82448</value>
                </Data>
                <Data name="taluka">
                    <value>Bardez</value>
                </Data>
                <Data name="village">
                    <value>Socorro</value>
                </Data>
            </ExtendedData>
            <Point id="1753">
                <coordinates>73.82448,15.55913,0.0</coordinates>
            </Point>
        </Placemark>
        <Placemark id="1769">
            <ExtendedData>
                <Data name="direction">
                    <value>https://maps.google.com?q=15.55043,73.82049&amp;t=h</value>
                </Data>
                <Data name="id">
                    <value>1106</value>
                </Data>
                <Data name="Sr.No">
                    <value>1106</value>
                </Data>
                <Data name="Reg No">
                    <value>2606/bardez (A)</value>
                </Data>
                <Data name="Category">
                    <value>agricultural</value>
                </Data>
                <Data name="Type Of Well">
                    <value>Open Well</value>
                </Data>
                <Data name="Applicant Name">
                    <value>Satardekar Jeetendra Yeshwant,</value>
                </Data>
                <Data name="Applicant Address">
                    <value>H. No. 517, Lima wadda, Porvorim, Bardez Goa.</value>
                </Data>
                <Data name="latitude">
                    <value>15.55043</value>
                </Data>
                <Data name="longitude">
                    <value>73.82049</value>
                </Data>
                <Data name="taluka">
                    <value>Bardez</value>
                </Data>
                <Data name="village">
                    <value>Socorro</value>
                </Data>
            </ExtendedData>
            <Point id="1768">
                <coordinates>73.82049,15.55043,0.0</coordinates>
            </Point>
        </Placemark>
        <Placemark id="1784">
            <ExtendedData>
                <Data name="direction">
                    <value>https://maps.google.com?q=15.55142,73.83054&amp;t=h</value>
                </Data>
                <Data name="id">
                    <value>1109</value>
                </Data>
                <Data name="Sr.No">
                    <value>1109</value>
                </Data>
                <Data name="Reg No">
                    <value>69/bardez</value>
                </Data>
                <Data name="Category">
                    <value>agricultural</value>
                </Data>
                <Data name="Type Of Well">
                    <value>Open Well</value>
                </Data>
                <Data name="Applicant Name">
                    <value>Heredia Neville,</value>
                </Data>
                <Data name="Applicant Address">
                    <value>1029/1, Zoswaddo, Near Soccorro Church, Bardez Goa</value>
                </Data>
                <Data name="latitude">
                    <value>15.55142</value>
                </Data>
                <Data name="longitude">
                    <value>73.83054</value>
                </Data>
                <Data name="taluka">
                    <value>Bardez</value>
                </Data>
                <Data name="village">
                    <value>Socorro</value>
                </Data>
            </ExtendedData>
            <Point id="1783">
                <coordinates>73.83054,15.55142,0.0</coordinates>
            </Point>
        </Placemark>
        <Placemark id="1799">
            <ExtendedData>
                <Data name="direction">
                    <value>https://maps.google.com?q=15.55782,73.83631&amp;t=h</value>
                </Data>
                <Data name="id">
                    <value>1110</value>
                </Data>
                <Data name="Sr.No">
                    <value>1110</value>
                </Data>
                <Data name="Reg No">
                    <value>3288/bardez</value>
                </Data>
                <Data name="Category">
                    <value>agricultural</value>
                </Data>
                <Data name="Type Of Well">
                    <value>Open Well</value>
                </Data>
                <Data name="Applicant Name">
                    <value>Kautthankar Digambar Narayan,</value>
                </Data>
                <Data name="Applicant Address">
                    <value>Zoswaddo Soccorro, Porvorim, Bardez Goa.</value>
                </Data>
                <Data name="latitude">
                    <value>15.55782</value>
                </Data>
                <Data name="longitude">
                    <value>73.83631</value>
                </Data>
                <Data name="taluka">
                    <value>Bardez</value>
                </Data>
                <Data name="village">
                    <value>Socorro</value>
                </Data>
            </ExtendedData>
            <Point id="1798">
                <coordinates>73.83631,15.55782,0.0</coordinates>
            </Point>
        </Placemark>
        <Placemark id="1814">
            <ExtendedData>
                <Data name="direction">
                    <value>https://maps.google.com?q=15.563354,73.823084&amp;t=h</value>
                </Data>
                <Data name="id">
                    <value>1277</value>
                </Data>
                <Data name="Sr.No">
                    <value>1277</value>
                </Data>
                <Data name="Reg No">
                    <value>3310/Bardez</value>
                </Data>
                <Data name="Category">
                    <value>agricultural</value>
                </Data>
                <Data name="Type Of Well">
                    <value>Open Well</value>
                </Data>
                <Data name="Applicant Name">
                    <value>Smt. Malik Vimal Ramnath</value>
                </Data>
                <Data name="Applicant Address">
                    <value>H.No.196/1, Vaddem, Soccorro, Porvorim, Bardez Goa</value>
                </Data>
                <Data name="latitude">
                    <value>15.563354</value>
                </Data>
                <Data name="longitude">
                    <value>73.823084</value>
                </Data>
                <Data name="taluka">
                    <value>Bardez</value>
                </Data>
                <Data name="village">
                    <value>Socorro</value>
                </Data>
            </ExtendedData>
            <Point id="1813">
                <coordinates>73.823084,15.563354,0.0</coordinates>
            </Point>
        </Placemark>
        <Placemark id="1829">
            <ExtendedData>
                <Data name="direction">
                    <value>https://maps.google.com?q=15.552609,73.816991&amp;t=h</value>
                </Data>
                <Data name="id">
                    <value>1307</value>
                </Data>
                <Data name="Sr.No">
                    <value>1307</value>
                </Data>
                <Data name="Reg No">
                    <value>3443/Bardez</value>
                </Data>
                <Data name="Category">
                    <value>agricultural</value>
                </Data>
                <Data name="Type Of Well">
                    <value>Open Well</value>
                </Data>
                <Data name="Applicant Name">
                    <value>Mr.Mendosa Rozendo Avelino</value>
                </Data>
                <Data name="Applicant Address">
                    <value>H. No. 661/1, St. Anthony's Ward, Guirim, Bardez- Goa.</value>
                </Data>
                <Data name="latitude">
                    <value>15.552609</value>
                </Data>
                <Data name="longitude">
                    <value>73.816991</value>
                </Data>
                <Data name="taluka">
                    <value>Bardez</value>
                </Data>
                <Data name="village">
                    <value>Socorro</value>
                </Data>
            </ExtendedData>
            <Point id="1828">
                <coordinates>73.816991,15.552609,0.0</coordinates>
            </Point>
        </Placemark>
        <Placemark id="1844">
            <ExtendedData>
                <Data name="direction">
                    <value>https://maps.google.com?q=15.550312,73.819954&amp;t=h</value>
                </Data>
                <Data name="id">
                    <value>1312</value>
                </Data>
                <Data name="Sr.No">
                    <value>1312</value>
                </Data>
                <Data name="Reg No">
                    <value>2606/Bardez (B)</value>
                </Data>
                <Data name="Category">
                    <value>agricultural</value>
                </Data>
                <Data name="Type Of Well">
                    <value>Open Well</value>
                </Data>
                <Data name="Applicant Name">
                    <value>Satardekar Jeetendra Yeshwant</value>
                </Data>
                <Data name="Applicant Address">
                    <value>H. No. 517,Lima-Waddo, Porvorim, Bardez-Goa, 403501.</value>
                </Data>
                <Data name="latitude">
                    <value>15.550312</value>
                </Data>
                <Data name="longitude">
                    <value>73.819954</value>
                </Data>
                <Data name="taluka">
                    <value>Bardez</value>
                </Data>
                <Data name="village">
                    <value>Socorro</value>
                </Data>
            </ExtendedData>
            <Point id="1843">
                <coordinates>73.819954,15.550312,0.0</coordinates>
            </Point>
        </Placemark>
        <Placemark id="1859">
            <ExtendedData>
                <Data name="direction">
                    <value>https://maps.google.com?q=15.55185,73.82116&amp;t=h</value>
                </Data>
                <Data name="id">
                    <value>1317</value>
                </Data>
                <Data name="Sr.No">
                    <value>1317</value>
                </Data>
                <Data name="Reg No">
                    <value>3371/Bardez</value>
                </Data>
                <Data name="Category">
                    <value>agricultural</value>
                </Data>
                <Data name="Type Of Well">
                    <value>Open Well</value>
                </Data>
                <Data name="Applicant Name">
                    <value>Naik Mohini Mohan</value>
                </Data>
                <Data name="Applicant Address">
                    <value>H. No. 81/452(2) Arrarim, Soccoro, Porvorim, Bardez Goa.</value>
                </Data>
                <Data name="latitude">
                    <value>15.55185</value>
                </Data>
                <Data name="longitude">
                    <value>73.82116</value>
                </Data>
                <Data name="taluka">
                    <value>Bardez</value>
                </Data>
                <Data name="village">
                    <value>Socorro</value>
                </Data>
            </ExtendedData>
            <Point id="1858">
                <coordinates>73.82116,15.55185,0.0</coordinates>
            </Point>
        </Placemark>
        <Placemark id="1874">
            <ExtendedData>
                <Data name="direction">
                    <value>https://maps.google.com?q=15.551675,73.821893&amp;t=h</value>
                </Data>
                <Data name="id">
                    <value>1318</value>
                </Data>
                <Data name="Sr.No">
                    <value>1318</value>
                </Data>
                <Data name="Reg No">
                    <value>3119/Bardez</value>
                </Data>
                <Data name="Category">
                    <value>agricultural</value>
                </Data>
                <Data name="Type Of Well">
                    <value>Open Well</value>
                </Data>
                <Data name="Applicant Name">
                    <value>Smt. Fernandes Angela</value>
                </Data>
                <Data name="Applicant Address">
                    <value>H. No. 50,Arrarim, Soccoro Bardez Goa.</value>
                </Data>
                <Data name="latitude">
                    <value>15.551675</value>
                </Data>
                <Data name="longitude">
                    <value>73.821893</value>
                </Data>
                <Data name="taluka">
                    <value>Bardez</value>
                </Data>
                <Data name="village">
                    <value>Socorro</value>
                </Data>
            </ExtendedData>
            <Point id="1873">
                <coordinates>73.821893,15.551675,0.0</coordinates>
            </Point>
        </Placemark>
    </Document>
</kml>
