<?xml version="1.0" encoding="UTF-8"?>
<kml xmlns="http://www.opengis.net/kml/2.2" xmlns:gx="http://www.google.com/kml/ext/2.2">
    <Document id="1889">
        <Placemark id="1891">
            <ExtendedData>
                <Data name="direction">
                    <value>https://maps.google.com?q=15.62947,73.84129&amp;t=h</value>
                </Data>
                <Data name="id">
                    <value>762</value>
                </Data>
                <Data name="Sr.No">
                    <value>762</value>
                </Data>
                <Data name="Reg No">
                    <value>1584/Bardez</value>
                </Data>
                <Data name="Category">
                    <value>agricultural</value>
                </Data>
                <Data name="Type Of Well">
                    <value>Open Well</value>
                </Data>
                <Data name="Applicant Name">
                    <value>Shri Salgaonkar Suraj Surya</value>
                </Data>
                <Data name="Applicant Address">
                    <value>H. No. 1441, Madel, Tivim, Bardez Goa</value>
                </Data>
                <Data name="latitude">
                    <value>15.62947</value>
                </Data>
                <Data name="longitude">
                    <value>73.84129</value>
                </Data>
                <Data name="taluka">
                    <value>Bardez</value>
                </Data>
                <Data name="village">
                    <value>Tivim</value>
                </Data>
            </ExtendedData>
            <Point id="1890">
                <coordinates>73.84129,15.62947,0.0</coordinates>
            </Point>
        </Placemark>
        <Placemark id="1906">
            <ExtendedData>
                <Data name="direction">
                    <value>https://maps.google.com?q=15.62906,73.84002&amp;t=h</value>
                </Data>
                <Data name="id">
                    <value>763</value>
                </Data>
                <Data name="Sr.No">
                    <value>763</value>
                </Data>
                <Data name="Reg No">
                    <value>981/Bardez</value>
                </Data>
                <Data name="Category">
                    <value>horticulture</value>
                </Data>
                <Data name="Type Of Well">
                    <value>Open Well</value>
                </Data>
                <Data name="Applicant Name">
                    <value>Shri Salgaonkar Suraj Surya</value>
                </Data>
                <Data name="Applicant Address">
                    <value>H. No. 1441, Madel, Tivim, Bardez Goa</value>
                </Data>
                <Data name="latitude">
                    <value>15.62906</value>
                </Data>
                <Data name="longitude">
                    <value>73.84002</value>
                </Data>
                <Data name="taluka">
                    <value>Bardez</value>
                </Data>
                <Data name="village">
                    <value>Tivim</value>
                </Data>
            </ExtendedData>
            <Point id="1905">
                <coordinates>73.84002,15.62906,0.0</coordinates>
            </Point>
        </Placemark>
        <Placemark id="1921">
            <ExtendedData>
                <Data name="direction">
                    <value>https://maps.google.com?q=15.60876,73.86337&amp;t=h</value>
                </Data>
                <Data name="id">
                    <value>769</value>
                </Data>
                <Data name="Sr.No">
                    <value>769</value>
                </Data>
                <Data name="Reg No">
                    <value>1564/Bardez</value>
                </Data>
                <Data name="Category">
                    <value>horticulture</value>
                </Data>
                <Data name="Type Of Well">
                    <value>Open Well</value>
                </Data>
                <Data name="Applicant Name">
                    <value>Shri DSouza Raimundo Joao Augusto</value>
                </Data>
                <Data name="Applicant Address">
                    <value>H. No. 454, Danua, Castellino waddo, Tivim, Bardez Goa.</value>
                </Data>
                <Data name="latitude">
                    <value>15.60876</value>
                </Data>
                <Data name="longitude">
                    <value>73.86337</value>
                </Data>
                <Data name="taluka">
                    <value>Bardez</value>
                </Data>
                <Data name="village">
                    <value>Tivim</value>
                </Data>
            </ExtendedData>
            <Point id="1920">
                <coordinates>73.86337,15.60876,0.0</coordinates>
            </Point>
        </Placemark>
        <Placemark id="1936">
            <ExtendedData>
                <Data name="direction">
                    <value>https://maps.google.com?q=15.61139,73.86271&amp;t=h</value>
                </Data>
                <Data name="id">
                    <value>770</value>
                </Data>
                <Data name="Sr.No">
                    <value>770</value>
                </Data>
                <Data name="Reg No">
                    <value>1566/Bardez</value>
                </Data>
                <Data name="Category">
                    <value>horticulture</value>
                </Data>
                <Data name="Type Of Well">
                    <value>Open Well</value>
                </Data>
                <Data name="Applicant Name">
                    <value>Shri DSouza Raimundo Joao Augusto</value>
                </Data>
                <Data name="Applicant Address">
                    <value>H. No. 454, Danua, Castellino waddo, Tivim, Bardez Goa.</value>
                </Data>
                <Data name="latitude">
                    <value>15.61139</value>
                </Data>
                <Data name="longitude">
                    <value>73.86271</value>
                </Data>
                <Data name="taluka">
                    <value>Bardez</value>
                </Data>
                <Data name="village">
                    <value>Tivim</value>
                </Data>
            </ExtendedData>
            <Point id="1935">
                <coordinates>73.86271,15.61139,0.0</coordinates>
            </Point>
        </Placemark>
        <Placemark id="1951">
            <ExtendedData>
                <Data name="direction">
                    <value>https://maps.google.com?q=15.62031,73.84352&amp;t=h</value>
                </Data>
                <Data name="id">
                    <value>777</value>
                </Data>
                <Data name="Sr.No">
                    <value>777</value>
                </Data>
                <Data name="Reg No">
                    <value>1980/Bardez</value>
                </Data>
                <Data name="Category">
                    <value>agricultural</value>
                </Data>
                <Data name="Type Of Well">
                    <value>Open Well</value>
                </Data>
                <Data name="Applicant Name">
                    <value>Shri Fonseca Antonio Jose Andre</value>
                </Data>
                <Data name="Applicant Address">
                    <value>H. No. 1361, Chinchant, Tivim, Bardez Goa.</value>
                </Data>
                <Data name="latitude">
                    <value>15.62031</value>
                </Data>
                <Data name="longitude">
                    <value>73.84352</value>
                </Data>
                <Data name="taluka">
                    <value>Bardez</value>
                </Data>
                <Data name="village">
                    <value>Tivim</value>
                </Data>
            </ExtendedData>
            <Point id="1950">
                <coordinates>73.84352,15.62031,0.0</coordinates>
            </Point>
        </Placemark>
        <Placemark id="1966">
            <ExtendedData>
                <Data name="direction">
                    <value>https://maps.google.com?q=15.63733,73.87422&amp;t=h</value>
                </Data>
                <Data name="id">
                    <value>785</value>
                </Data>
                <Data name="Sr.No">
                    <value>785</value>
                </Data>
                <Data name="Reg No">
                    <value>1570/Bardez</value>
                </Data>
                <Data name="Category">
                    <value>agricultural</value>
                </Data>
                <Data name="Type Of Well">
                    <value>Open Well</value>
                </Data>
                <Data name="Applicant Name">
                    <value>Shri Pereira Dionosio Vitorino</value>
                </Data>
                <Data name="Applicant Address">
                    <value>H. No. 741, Mundo Cansa, Tivim, Bardez Goa.</value>
                </Data>
                <Data name="latitude">
                    <value>15.63733</value>
                </Data>
                <Data name="longitude">
                    <value>73.87422</value>
                </Data>
                <Data name="taluka">
                    <value>Bardez</value>
                </Data>
                <Data name="village">
                    <value>Tivim</value>
                </Data>
            </ExtendedData>
            <Point id="1965">
                <coordinates>73.87422,15.63733,0.0</coordinates>
            </Point>
        </Placemark>
    </Document>
</kml>
