<?xml version="1.0" encoding="UTF-8"?>
<kml xmlns="http://www.opengis.net/kml/2.2" xmlns:gx="http://www.google.com/kml/ext/2.2">
    <Document id="2636">
        <Placemark id="2638">
            <ExtendedData>
                <Data name="id">
                    <value>265</value>
                </Data>
                <Data name="taluka">
                    <value>Quepem</value>
                </Data>
                <Data name="village">
                    <value>Ambaulim</value>
                </Data>
                <Data name="lg_code">
                    <value>626947</value>
                </Data>
                <Data name="dslr_code">
                    <value>00027900</value>
                </Data>
            </ExtendedData>
            <Polygon id="2637">
                <outerBoundaryIs>
                    <LinearRing id="2641">
                        <coordinates>74.040432926,15.177026121,0.0 74.042125119,15.177641529,0.0 74.043232341,15.178286428,0.0 74.044240361,15.178195691,0.0 74.045248572,15.179010365,0.0 74.047311196,15.178670411,0.0 74.047812449,15.179321073,0.0 74.0493334,15.179948877,0.0 74.049560642,15.179926192,0.0 74.050114311,15.180424048,0.0 74.051390369,15.180310584,0.0 74.05207799,15.180519803,0.0 74.053854957,15.17961397,0.0 74.055562282,15.17983425,0.0 74.056459288,15.178594739,0.0 74.058096528,15.178243474,0.0 74.062345198,15.181394318,0.0 74.062148455,15.184093688,0.0 74.061733671,15.184948389,0.0 74.060845076,15.185822858,0.0 74.060039865,15.186833142,0.0 74.058880828,15.188193142,0.0 74.058631912,15.188617906,0.0 74.058202167,15.191637938,0.0 74.05750573,15.191307074,0.0 74.056760307,15.19300916,0.0 74.055659529,15.195165454,0.0 74.055485025,15.196368001,0.0 74.055412206,15.196455731,0.0 74.054867365,15.196501135,0.0 74.05407785,15.196840857,0.0 74.053652559,15.197248395,0.0 74.053571022,15.197429498,0.0 74.053358375,15.197633266,0.0 74.052796317,15.198759508,0.0 74.052717743,15.199144328,0.0 74.052968329,15.199178222,0.0 74.052939271,15.199495124,0.0 74.052758624,15.199503654,0.0 74.052726613,15.199662109,0.0 74.052237365,15.200692132,0.0 74.051998525,15.201037377,0.0 74.051701401,15.201345852,0.0 74.051727815,15.202129595,0.0 74.051853128,15.202220108,0.0 74.051879475,15.202723738,0.0 74.052468068,15.202794337,0.0 74.052870262,15.203187532,0.0 74.052407191,15.204056272,0.0 74.05330047,15.204899229,0.0 74.053725987,15.205317882,0.0 74.054026422,15.206557095,0.0 74.054011948,15.206930582,0.0 74.054233423,15.207035217,0.0 74.054527753,15.207176617,0.0 74.054527824,15.20745107,0.0 74.054344303,15.207640686,0.0 74.054323937,15.207762356,0.0 74.054417275,15.208135816,0.0 74.054268762,15.208495188,0.0 74.054277568,15.208744175,0.0 74.054423291,15.208868634,0.0 74.054382572,15.209160074,0.0 74.054222335,15.209253483,0.0 74.054216567,15.209488326,0.0 74.054164137,15.209559075,0.0 74.054170019,15.209774109,0.0 74.054137986,15.209847681,0.0 74.053555277,15.210082663,0.0 74.053121283,15.210753337,0.0 74.055544488,15.217602769,0.0 74.054641129,15.217464349,0.0 74.051406342,15.216191874,0.0 74.050739137,15.216542874,0.0 74.048408068,15.216874429,0.0 74.047866007,15.216568968,0.0 74.047565886,15.216631279,0.0 74.047341532,15.216716209,0.0 74.047265877,15.217197226,0.0 74.046531495,15.216886143,0.0 74.04627217,15.216954103,0.0 74.045972074,15.217135247,0.0 74.044602683,15.217899465,0.0 74.044521037,15.217639175,0.0 74.044162613,15.217596804,0.0 74.043871175,15.217387485,0.0 74.044182869,15.216914911,0.0 74.044462585,15.216810168,0.0 74.045126707,15.215613192,0.0 74.045263648,15.215550918,0.0 74.04542097,15.215415074,0.0 74.045359737,15.215222686,0.0 74.045487862,15.214815224,0.0 74.045537268,15.214209719,0.0 74.045266202,15.213864585,0.0 74.045387549,15.213641207,0.0 74.045427942,15.2130517,0.0 74.046403078,15.211911134,0.0 74.04671759,15.210653723,0.0 74.045558093,15.209602742,0.0 74.045562001,15.206795112,0.0 74.046604974,15.204507037,0.0 74.046606328,15.203829585,0.0 74.046537125,15.203647096,0.0 74.046412279,15.203407677,0.0 74.046185213,15.203269022,0.0 74.045986741,15.203245702,0.0 74.045965643,15.203022322,0.0 74.046084412,15.202972657,0.0 74.046284392,15.203016417,0.0 74.046358048,15.20293464,0.0 74.046413686,15.202966749,0.0 74.046555009,15.202925839,0.0 74.046750429,15.202743295,0.0 74.046812072,15.202731602,0.0 74.046851181,15.202808976,0.0 74.046962453,15.202857133,0.0 74.047085763,15.202946169,0.0 74.047115823,15.202896522,0.0 74.047169953,15.202906731,0.0 74.047236103,15.202881896,0.0 74.047297751,15.202893564,0.0 74.047333822,15.202830775,0.0 74.047401475,15.20280594,0.0 74.047472107,15.202649702,0.0 74.047565314,15.202595662,0.0 74.047574319,15.202521199,0.0 74.047691594,15.202519714,0.0 74.047754731,15.202468599,0.0 74.047823873,15.202378063,0.0 74.047748682,15.202313838,0.0 74.04770804,15.202107983,0.0 74.047784703,15.202027665,0.0 74.047759131,15.201975109,0.0 74.04771552,15.201940078,0.0 74.047709486,15.201849558,0.0 74.047775612,15.201719601,0.0 74.046879453,15.201474505,0.0 74.046780203,15.201394225,0.0 74.046557642,15.201220528,0.0 74.046593705,15.201118318,0.0 74.046453849,15.200991325,0.0 74.046459851,15.200935843,0.0 74.046437289,15.200897886,0.0 74.046359111,15.200918343,0.0 74.046303457,15.200810312,0.0 74.046214695,15.200563586,0.0 74.04591995,15.200313982,0.0 74.045759025,15.20008625,0.0 74.045656772,15.20002495,0.0 74.045626688,15.199960715,0.0 74.045525939,15.199900874,0.0 74.04515302,15.199683405,0.0 74.045157526,15.199660044,0.0 74.044992117,15.199554955,0.0 74.04470188,15.199279068,0.0 74.044746976,15.199232338,0.0 74.044316893,15.198857196,0.0 74.044331911,15.198778352,0.0 74.044387527,15.19871264,0.0 74.044393499,15.198511155,0.0 74.04444912,15.198468803,0.0 74.044459612,15.198311118,0.0 74.044321271,15.198225004,0.0 74.044315246,15.198173904,0.0 74.044328766,15.19811696,0.0 74.0443092,15.198017682,0.0 74.044321224,15.1979987,0.0 74.044381361,15.197985548,0.0 74.044357268,15.197805969,0.0 74.04428961,15.197805982,0.0 74.044161789,15.197693585,0.0 74.044154261,15.197642486,0.0 74.043858006,15.197330098,0.0 74.04360686,15.197030841,0.0 74.04346401,15.196944727,0.0 74.043426408,15.196873193,0.0 74.04339333,15.196867359,0.0 74.043381279,15.196753479,0.0 74.043333141,15.196626466,0.0 74.043160213,15.196496557,0.0 74.043045932,15.196420658,0.0 74.043112066,15.196327203,0.0 74.043394718,15.196303788,0.0 74.043538894,15.195527026,0.0 74.04323819,15.195492043,0.0 74.04313597,15.195579665,0.0 74.042985605,15.195497932,0.0 74.04275708,15.195521336,0.0 74.042696965,15.195643989,0.0 74.042023336,15.19531123,0.0 74.041770693,15.195019271,0.0 74.041259385,15.194382794,0.0 74.04088045,15.194079177,0.0 74.040200831,15.193828175,0.0 74.039960278,15.193845738,0.0 74.038871749,15.193775847,0.0 74.037398379,15.193980501,0.0 74.037314173,15.193916273,0.0 74.036514277,15.193641919,0.0 74.034860457,15.193653862,0.0 74.0345814,15.192655246,0.0 74.034797902,15.192672733,0.0 74.034924057,15.191840497,0.0 74.034851784,15.191192256,0.0 74.035041168,15.19087686,0.0 74.0345449,15.190088522,0.0 74.034662006,15.189089844,0.0 74.034986727,15.188958391,0.0 74.035212104,15.18811738,0.0 74.034950255,15.186593151,0.0 74.03508538,15.185480588,0.0 74.036140616,15.184525562,0.0 74.037953084,15.180924832,0.0 74.038394986,15.180407906,0.0 74.038728567,15.17947927,0.0 74.039651498,15.178150869,0.0 74.040432926,15.177026121,0.0</coordinates>
                    </LinearRing>
                </outerBoundaryIs>
            </Polygon>
        </Placemark>
    </Document>
</kml>
