<?xml version="1.0" encoding="UTF-8"?>
<kml xmlns="http://www.opengis.net/kml/2.2" xmlns:gx="http://www.google.com/kml/ext/2.2">
    <Document id="2650">
        <Placemark id="2652">
            <ExtendedData>
                <Data name="id">
                    <value>268</value>
                </Data>
                <Data name="taluka">
                    <value>Quepem</value>
                </Data>
                <Data name="village">
                    <value>Amona</value>
                </Data>
                <Data name="dslr_code">
                    <value>00038000</value>
                </Data>
            </ExtendedData>
            <Polygon id="2651">
                <outerBoundaryIs>
                    <LinearRing id="2655">
                        <coordinates>74.063272711,15.225577787,0.0 74.063704006,15.225628595,0.0 74.063908023,15.225737941,0.0 74.064222768,15.22582462,0.0 74.064632694,15.225873545,0.0 74.065106698,15.225822479,0.0 74.066190629,15.225507155,0.0 74.067144461,15.225395581,0.0 74.067348617,15.225938767,0.0 74.067364196,15.226055712,0.0 74.067410817,15.226042494,0.0 74.067548811,15.226236739,0.0 74.068094589,15.22585366,0.0 74.068246099,15.225787595,0.0 74.068391788,15.225744166,0.0 74.068659885,15.225755402,0.0 74.06918244,15.225655269,0.0 74.069302858,15.225564691,0.0 74.069500938,15.225334504,0.0 74.069630994,15.225015683,0.0 74.069885189,15.224110192,0.0 74.070240521,15.223564948,0.0 74.070354974,15.223068822,0.0 74.070751021,15.222289665,0.0 74.071277181,15.221385973,0.0 74.071426718,15.221242569,0.0 74.072139559,15.220900925,0.0 74.07241532,15.220616009,0.0 74.072859986,15.220029233,0.0 74.073015241,15.219572704,0.0 74.073127855,15.21939913,0.0 74.073582295,15.218997205,0.0 74.073988114,15.218444393,0.0 74.074094884,15.218229322,0.0 74.074133484,15.217506866,0.0 74.074230497,15.21716919,0.0 74.074199321,15.216899463,0.0 74.073965963,15.216203504,0.0 74.074776094,15.216373001,0.0 74.075349188,15.216431284,0.0 74.075473765,15.216443274,0.0 74.075786595,15.217320831,0.0 74.076023548,15.217188711,0.0 74.076061071,15.217093127,0.0 74.076209981,15.217025171,0.0 74.076272164,15.217076708,0.0 74.076390103,15.217316854,0.0 74.076558566,15.217599738,0.0 74.07654698,15.2177934,0.0 74.076479688,15.217939295,0.0 74.076482368,15.218185767,0.0 74.077371759,15.220813674,0.0 74.077286595,15.22167133,0.0 74.078326008,15.223655331,0.0 74.078358092,15.226362753,0.0 74.077634412,15.22719045,0.0 74.077546349,15.227210601,0.0 74.077517853,15.227200551,0.0 74.077497149,15.227250859,0.0 74.077437586,15.227288605,0.0 74.077388376,15.227303712,0.0 74.077370259,15.227346474,0.0 74.077289952,15.227323866,0.0 74.077261473,15.227364116,0.0 74.077152677,15.227351578,0.0 74.077121597,15.227361649,0.0 74.076867755,15.227379341,0.0 74.076007981,15.227945516,0.0 74.075761988,15.228187043,0.0 74.075512322,15.229022117,0.0 74.075095793,15.230463371,0.0 74.075132169,15.230777737,0.0 74.074282769,15.231431928,0.0 74.073733608,15.231409474,0.0 74.072630018,15.231105515,0.0 74.072184757,15.231918013,0.0 74.071938882,15.23253176,0.0 74.071863965,15.233130362,0.0 74.071659446,15.233482531,0.0 74.071322706,15.233507789,0.0 74.069714347,15.234295499,0.0 74.068458473,15.235714363,0.0 74.068080293,15.235769809,0.0 74.067774574,15.235606424,0.0 74.066645277,15.235971441,0.0 74.066456084,15.235669694,0.0 74.06611649,15.234862469,0.0 74.066275705,15.234564391,0.0 74.066485321,15.233911678,0.0 74.066434661,15.233440125,0.0 74.066490271,15.233178545,0.0 74.066623609,15.232969758,0.0 74.06609762,15.232502117,0.0 74.066084637,15.23240152,0.0 74.065071623,15.231798208,0.0 74.06504832,15.23183091,0.0 74.064926553,15.231765554,0.0 74.064908426,15.23178065,0.0 74.064807387,15.231732893,0.0 74.064794419,15.231680081,0.0 74.064653244,15.231675092,0.0 74.064605309,15.231628578,0.0 74.064587148,15.231535527,0.0 74.064619393,15.231096644,0.0 74.064704761,15.230724395,0.0 74.064922345,15.230711757,0.0 74.064900306,15.2306426,0.0 74.064677435,15.230308165,0.0 74.064541331,15.229941009,0.0 74.064278295,15.229552512,0.0 74.064081333,15.229229387,0.0 74.063822197,15.228884901,0.0 74.063517854,15.228945348,0.0 74.06321998,15.228984415,0.0 74.062891062,15.22916056,0.0 74.062779705,15.229251132,0.0 74.062738294,15.22936432,0.0 74.062546621,15.229399584,0.0 74.062489663,15.229500201,0.0 74.062357585,15.229593294,0.0 74.062122046,15.230209542,0.0 74.061311496,15.23097685,0.0 74.061114637,15.231002054,0.0 74.060640696,15.231316561,0.0 74.06052146,15.231037425,0.0 74.059943654,15.230469182,0.0 74.059754524,15.230343481,0.0 74.059632728,15.230162431,0.0 74.059575696,15.230003999,0.0 74.059560123,15.229893342,0.0 74.059101465,15.22928231,0.0 74.058878677,15.229209433,0.0 74.058508335,15.229473608,0.0 74.058316619,15.229355451,0.0 74.058205179,15.229151762,0.0 74.058233642,15.229038578,0.0 74.058461537,15.228849892,0.0 74.058673876,15.228608393,0.0 74.058816329,15.228558055,0.0 74.059018403,15.228666149,0.0 74.059215283,15.228723943,0.0 74.059386252,15.228754078,0.0 74.059515776,15.228786739,0.0 74.059735949,15.228774106,0.0 74.059917247,15.228688546,0.0 74.060360215,15.228778969,0.0 74.060743582,15.22878138,0.0 74.06090676,15.228741096,0.0 74.061018166,15.228819032,0.0 74.061095868,15.22879386,0.0 74.06108289,15.228700807,0.0 74.06102071,15.228658069,0.0 74.06105695,15.228575063,0.0 74.061132052,15.228514682,0.0 74.061295184,15.228318465,0.0 74.061662917,15.228009015,0.0 74.062061662,15.227458113,0.0 74.062237765,15.227329797,0.0 74.0625433,15.226927307,0.0 74.062543228,15.226680834,0.0 74.062931573,15.226016757,0.0 74.063272711,15.225577787,0.0</coordinates>
                    </LinearRing>
                </outerBoundaryIs>
            </Polygon>
        </Placemark>
    </Document>
</kml>
