<?xml version="1.0" encoding="UTF-8"?>
<kml xmlns="http://www.opengis.net/kml/2.2" xmlns:gx="http://www.google.com/kml/ext/2.2">
    <Document id="2677">
        <Placemark id="2679">
            <ExtendedData>
                <Data name="id">
                    <value>272</value>
                </Data>
                <Data name="taluka">
                    <value>Quepem</value>
                </Data>
                <Data name="village">
                    <value>Avedem</value>
                </Data>
                <Data name="lg_code">
                    <value>626939</value>
                </Data>
                <Data name="dslr_code">
                    <value>00027100</value>
                </Data>
            </ExtendedData>
            <Polygon id="2678">
                <outerBoundaryIs>
                    <LinearRing id="2682">
                        <coordinates>74.062261489,15.238593827,0.0 74.061810716,15.23809106,0.0 74.061702444,15.237445318,0.0 74.061170154,15.236795655,0.0 74.061228262,15.236484861,0.0 74.061078439,15.235895635,0.0 74.061323514,15.235241724,0.0 74.060400307,15.234010971,0.0 74.060321184,15.23351859,0.0 74.060325187,15.232977755,0.0 74.060516013,15.231597365,0.0 74.060640696,15.231316561,0.0 74.06052146,15.231037425,0.0 74.059943654,15.230469182,0.0 74.059754524,15.230343481,0.0 74.059632728,15.230162431,0.0 74.059575696,15.230003999,0.0 74.059560123,15.229893342,0.0 74.059101465,15.22928231,0.0 74.058878677,15.229209433,0.0 74.058508335,15.229473608,0.0 74.058316619,15.229355451,0.0 74.058205179,15.229151762,0.0 74.058233642,15.229038578,0.0 74.058461537,15.228849892,0.0 74.058673876,15.228608393,0.0 74.058816329,15.228558055,0.0 74.058669426,15.228200009,0.0 74.05809744,15.227508801,0.0 74.057388907,15.227198222,0.0 74.056856473,15.226458117,0.0 74.056245028,15.226095134,0.0 74.055619328,15.226220991,0.0 74.054508325,15.227045305,0.0 74.053879131,15.22758667,0.0 74.052505594,15.228421511,0.0 74.051103212,15.228994474,0.0 74.0493628,15.229658286,0.0 74.047687124,15.230391905,0.0 74.04624159,15.23109753,0.0 74.045810118,15.231457264,0.0 74.045695234,15.232365129,0.0 74.045752934,15.233105357,0.0 74.045753158,15.2341389,0.0 74.046026744,15.235367922,0.0 74.046185204,15.236387465,0.0 74.046660097,15.237183474,0.0 74.046876091,15.238147138,0.0 74.04686195,15.239250517,0.0 74.046842204,15.240308505,0.0 74.048165726,15.240500657,0.0 74.050090286,15.240847853,0.0 74.05048038,15.241195384,0.0 74.052456216,15.242008108,0.0 74.053894987,15.242783699,0.0 74.054969234,15.243199339,0.0 74.055308276,15.243869661,0.0 74.057453076,15.242794456,0.0 74.058267804,15.24109961,0.0 74.060056179,15.240237853,0.0 74.060473236,15.239800115,0.0 74.06102464,15.239646332,0.0 74.062261489,15.238593827,0.0</coordinates>
                    </LinearRing>
                </outerBoundaryIs>
            </Polygon>
        </Placemark>
    </Document>
</kml>
