<?xml version="1.0" encoding="UTF-8"?>
<kml xmlns="http://www.opengis.net/kml/2.2" xmlns:gx="http://www.google.com/kml/ext/2.2">
    <Document id="2775">
        <Placemark id="2777">
            <ExtendedData>
                <Data name="id">
                    <value>277</value>
                </Data>
                <Data name="taluka">
                    <value>Quepem</value>
                </Data>
                <Data name="village">
                    <value>Chaifi</value>
                </Data>
                <Data name="lg_code">
                    <value>626940</value>
                </Data>
                <Data name="dslr_code">
                    <value>00027200</value>
                </Data>
            </ExtendedData>
            <Polygon id="2776">
                <outerBoundaryIs>
                    <LinearRing id="2780">
                        <coordinates>74.060640696,15.231316561,0.0 74.060516013,15.231597365,0.0 74.060325187,15.232977755,0.0 74.060321184,15.23351859,0.0 74.060400307,15.234010971,0.0 74.061323514,15.235241724,0.0 74.061078439,15.235895635,0.0 74.061228262,15.236484861,0.0 74.061170154,15.236795655,0.0 74.061702444,15.237445318,0.0 74.061810716,15.23809106,0.0 74.062261489,15.238593827,0.0 74.063446596,15.238339832,0.0 74.064190785,15.238581785,0.0 74.064444488,15.238978256,0.0 74.06515651,15.239375604,0.0 74.0654439,15.238649566,0.0 74.066498383,15.237202917,0.0 74.066597301,15.236625594,0.0 74.066645277,15.235971441,0.0 74.066456084,15.235669694,0.0 74.06611649,15.234862469,0.0 74.066275705,15.234564391,0.0 74.066485321,15.233911678,0.0 74.066434661,15.233440125,0.0 74.066490271,15.233178545,0.0 74.066623609,15.232969758,0.0 74.06609762,15.232502117,0.0 74.066084637,15.23240152,0.0 74.065071623,15.231798208,0.0 74.06504832,15.23183091,0.0 74.064926553,15.231765554,0.0 74.064908426,15.23178065,0.0 74.064807387,15.231732893,0.0 74.064794419,15.231680081,0.0 74.064653244,15.231675092,0.0 74.064605309,15.231628578,0.0 74.064587148,15.231535527,0.0 74.064619393,15.231096644,0.0 74.064704761,15.230724395,0.0 74.064922345,15.230711757,0.0 74.064900306,15.2306426,0.0 74.064677435,15.230308165,0.0 74.064541331,15.229941009,0.0 74.064278295,15.229552512,0.0 74.064081333,15.229229387,0.0 74.063822197,15.228884901,0.0 74.063517854,15.228945348,0.0 74.06321998,15.228984415,0.0 74.062891062,15.22916056,0.0 74.062779705,15.229251132,0.0 74.062738294,15.22936432,0.0 74.062546621,15.229399584,0.0 74.062489663,15.229500201,0.0 74.062357585,15.229593294,0.0 74.062122046,15.230209542,0.0 74.061311496,15.23097685,0.0 74.061114637,15.231002054,0.0 74.060640696,15.231316561,0.0</coordinates>
                    </LinearRing>
                </outerBoundaryIs>
            </Polygon>
        </Placemark>
    </Document>
</kml>
