<?xml version="1.0" encoding="UTF-8"?>
<kml xmlns="http://www.opengis.net/kml/2.2" xmlns:gx="http://www.google.com/kml/ext/2.2">
    <Document id="2803">
        <Placemark id="2805">
            <ExtendedData>
                <Data name="id">
                    <value>328</value>
                </Data>
                <Data name="taluka">
                    <value>Quepem</value>
                </Data>
                <Data name="village">
                    <value>Corla</value>
                </Data>
                <Data name="lg_code">
                    <value>626966</value>
                </Data>
                <Data name="dslr_code">
                    <value>00029800</value>
                </Data>
            </ExtendedData>
            <Polygon id="2804">
                <outerBoundaryIs>
                    <LinearRing id="2808">
                        <coordinates>74.112548354,15.060933688,0.0 74.111945922,15.060688824,0.0 74.115467061,15.062119996,0.0 74.126325797,15.064936907,0.0 74.128824669,15.066731551,0.0 74.130164973,15.066140909,0.0 74.13080105,15.066867854,0.0 74.132368524,15.067140458,0.0 74.134753812,15.067572081,0.0 74.136775626,15.067708383,0.0 74.138888309,15.067390345,0.0 74.140205897,15.067980988,0.0 74.142529746,15.072322137,0.0 74.141303888,15.074663152,0.0 74.139903052,15.075080315,0.0 74.139440425,15.075924439,0.0 74.139660934,15.076689384,0.0 74.139256815,15.078478571,0.0 74.137334738,15.078693516,0.0 74.137104083,15.080156309,0.0 74.139493266,15.084925736,0.0 74.138645991,15.084791867,0.0 74.138058353,15.0851114,0.0 74.138196897,15.085464088,0.0 74.138439093,15.085682323,0.0 74.138232313,15.086757563,0.0 74.13831937,15.087698235,0.0 74.13828517,15.088286209,0.0 74.137507355,15.088639454,0.0 74.137040551,15.088673334,0.0 74.135086352,15.087968964,0.0 74.134308195,15.087784642,0.0 74.132890381,15.087701484,0.0 74.131956257,15.086929292,0.0 74.131627173,15.085988758,0.0 74.129430444,15.084427748,0.0 74.127960725,15.084243797,0.0 74.127562676,15.083588873,0.0 74.126317469,15.08296802,0.0 74.125591067,15.082548457,0.0 74.124605769,15.082884974,0.0 74.124242478,15.082515603,0.0 74.12393125,15.082482176,0.0 74.123602878,15.082700738,0.0 74.123533915,15.083036749,0.0 74.123309356,15.083389644,0.0 74.12265254,15.083709175,0.0 74.122030043,15.083575122,0.0 74.120905992,15.083155757,0.0 74.120560005,15.08280317,0.0 74.118623817,15.083207359,0.0 74.118122349,15.083073232,0.0 74.116618216,15.083158004,0.0 74.116272337,15.082990195,0.0 74.114664701,15.083511774,0.0 74.113315982,15.083243673,0.0 74.113368278,15.084049984,0.0 74.112884376,15.084436595,0.0 74.112339199,15.083797228,0.0 74.112009471,15.083224624,0.0 74.112078639,15.082870822,0.0 74.111124714,15.082247986,0.0 74.11074303,15.081776481,0.0 74.110950721,15.081068843,0.0 74.110620984,15.080462545,0.0 74.110498426,15.078154688,0.0 74.109301437,15.076824425,0.0 74.108607637,15.076251991,0.0 74.107045773,15.073304663,0.0 74.10631678,15.071654086,0.0 74.105917906,15.071418427,0.0 74.105744159,15.070660433,0.0 74.106038558,15.06998645,0.0 74.106402513,15.069733588,0.0 74.106697101,15.069447065,0.0 74.109626083,15.067508364,0.0 74.109851299,15.067188179,0.0 74.110665866,15.066665553,0.0 74.111809995,15.066462838,0.0 74.112450195,15.064053526,0.0 74.112293979,15.063699834,0.0 74.111894858,15.062975648,0.0 74.112189333,15.062503811,0.0 74.112349811,15.061801989,0.0 74.112548354,15.060933688,0.0</coordinates>
                    </LinearRing>
                </outerBoundaryIs>
            </Polygon>
        </Placemark>
    </Document>
</kml>
