<?xml version="1.0" encoding="UTF-8"?>
<kml xmlns="http://www.opengis.net/kml/2.2" xmlns:gx="http://www.google.com/kml/ext/2.2">
    <Document id="2956">
        <Placemark id="2958">
            <ExtendedData>
                <Data name="id">
                    <value>282</value>
                </Data>
                <Data name="taluka">
                    <value>Quepem</value>
                </Data>
                <Data name="village">
                    <value>Molcopona</value>
                </Data>
                <Data name="lg_code">
                    <value>626945</value>
                </Data>
                <Data name="dslr_code">
                    <value>00027700</value>
                </Data>
            </ExtendedData>
            <Polygon id="2957">
                <outerBoundaryIs>
                    <LinearRing id="2961">
                        <coordinates>74.143457644,15.169771023,0.0 74.143757167,15.169679907,0.0 74.14411282,15.169528138,0.0 74.144799369,15.16953376,0.0 74.145460842,15.16937573,0.0 74.146515382,15.169023471,0.0 74.146883176,15.168380694,0.0 74.147188873,15.168198645,0.0 74.147413517,15.168137881,0.0 74.147688243,15.168295305,0.0 74.148093813,15.168131374,0.0 74.148312084,15.167882702,0.0 74.148636415,15.167573343,0.0 74.148911039,15.167585285,0.0 74.150834131,15.168687231,0.0 74.15105899,15.168929547,0.0 74.151851982,15.169413948,0.0 74.152195393,15.16960769,0.0 74.152601144,15.16969834,0.0 74.153000598,15.169710193,0.0 74.154636275,15.170327367,0.0 74.155273706,15.171442276,0.0 74.15634778,15.172199241,0.0 74.15692215,15.172417062,0.0 74.157140747,15.172616945,0.0 74.157690077,15.172731733,0.0 74.157349168,15.17593253,0.0 74.156164591,15.177715483,0.0 74.156134394,15.179091501,0.0 74.155760195,15.179497892,0.0 74.154349459,15.179317013,0.0 74.154212275,15.179498956,0.0 74.153837822,15.179559829,0.0 74.153544852,15.180093455,0.0 74.153632449,15.180390417,0.0 74.152809229,15.181330534,0.0 74.152391133,15.181464174,0.0 74.150525512,15.182368616,0.0 74.149446155,15.183017932,0.0 74.148535559,15.184012647,0.0 74.147432032,15.18583187,0.0 74.146365765,15.187402536,0.0 74.145391726,15.186948542,0.0 74.145016723,15.186227447,0.0 74.144941582,15.185875919,0.0 74.144423318,15.185591353,0.0 74.144298326,15.18536109,0.0 74.144528884,15.184791146,0.0 74.144103745,15.183760936,0.0 74.143984815,15.183263956,0.0 74.141804328,15.180082965,0.0 74.141903276,15.178706905,0.0 74.142725595,15.176366583,0.0 74.142868477,15.175366317,0.0 74.142424365,15.173923921,0.0 74.142667472,15.173463081,0.0 74.142192807,15.17299057,0.0 74.142710471,15.17243257,0.0 74.142953506,15.17186868,0.0 74.143508929,15.171777403,0.0 74.143457644,15.169771023,0.0</coordinates>
                    </LinearRing>
                </outerBoundaryIs>
            </Polygon>
        </Placemark>
    </Document>
</kml>
