<?xml version="1.0" encoding="UTF-8"?>
<kml xmlns="http://www.opengis.net/kml/2.2" xmlns:gx="http://www.google.com/kml/ext/2.2">
    <Document id="3026">
        <Placemark id="3028">
            <ExtendedData>
                <Data name="id">
                    <value>321</value>
                </Data>
                <Data name="taluka">
                    <value>Quepem</value>
                </Data>
                <Data name="village">
                    <value>Pirla</value>
                </Data>
                <Data name="lg_code">
                    <value>626964</value>
                </Data>
                <Data name="dslr_code">
                    <value>00029600</value>
                </Data>
            </ExtendedData>
            <Polygon id="3027">
                <outerBoundaryIs>
                    <LinearRing id="3031">
                        <coordinates>74.099115089,15.088373927,0.0 74.100195437,15.087802297,0.0 74.101111796,15.08780189,0.0 74.102460111,15.087196531,0.0 74.104258123,15.086943731,0.0 74.104759451,15.086792312,0.0 74.106764773,15.086220221,0.0 74.108026876,15.086135629,0.0 74.109133072,15.085463152,0.0 74.110274238,15.085563391,0.0 74.110637633,15.086167966,0.0 74.111934437,15.086318518,0.0 74.112435978,15.086587048,0.0 74.113835925,15.085612026,0.0 74.112884376,15.084436595,0.0 74.113368278,15.084049984,0.0 74.113315982,15.083243673,0.0 74.114664701,15.083511774,0.0 74.116272337,15.082990195,0.0 74.116618216,15.083158004,0.0 74.118122349,15.083073232,0.0 74.118623817,15.083207359,0.0 74.120560005,15.08280317,0.0 74.120905992,15.083155757,0.0 74.122030043,15.083575122,0.0 74.12265254,15.083709175,0.0 74.123309356,15.083389644,0.0 74.123533915,15.083036749,0.0 74.123602878,15.082700738,0.0 74.12393125,15.082482176,0.0 74.124242478,15.082515603,0.0 74.124605769,15.082884974,0.0 74.125591067,15.082548457,0.0 74.126317469,15.08296802,0.0 74.127562676,15.083588873,0.0 74.127960725,15.084243797,0.0 74.129430444,15.084427748,0.0 74.131627173,15.085988758,0.0 74.131956257,15.086929292,0.0 74.132890381,15.087701484,0.0 74.134308195,15.087784642,0.0 74.135086352,15.087968964,0.0 74.137040551,15.088673334,0.0 74.137507355,15.088639454,0.0 74.13828517,15.088286209,0.0 74.13831937,15.087698235,0.0 74.138232313,15.086757563,0.0 74.138439093,15.085682323,0.0 74.138196897,15.085464088,0.0 74.138058353,15.0851114,0.0 74.138645991,15.084791867,0.0 74.139493266,15.084925736,0.0 74.139407388,15.085799319,0.0 74.140082596,15.087193192,0.0 74.140186676,15.087713886,0.0 74.141328344,15.08853631,0.0 74.141415582,15.08972896,0.0 74.141831109,15.090585432,0.0 74.143595219,15.091373857,0.0 74.144097605,15.092818221,0.0 74.144391776,15.093170806,0.0 74.144617083,15.093960198,0.0 74.14442723,15.094464279,0.0 74.144427582,15.094985036,0.0 74.144600906,15.095606475,0.0 74.144549489,15.096278454,0.0 74.14444594,15.096564097,0.0 74.144896266,15.097706117,0.0 74.144758226,15.098126171,0.0 74.143980873,15.099201779,0.0 74.142823239,15.10046241,0.0 74.142772175,15.101671944,0.0 74.142720571,15.102075144,0.0 74.142064041,15.102865093,0.0 74.141978021,15.103520293,0.0 74.141736526,15.104393974,0.0 74.141789046,15.105368261,0.0 74.141789292,15.105737831,0.0 74.142204471,15.106023147,0.0 74.142083622,15.1063088,0.0 74.141548673,15.107938602,0.0 74.141324396,15.108711479,0.0 74.140789058,15.109770126,0.0 74.141239439,15.110979346,0.0 74.141136522,15.112239307,0.0 74.141482824,15.112944632,0.0 74.141189374,15.113717552,0.0 74.141189652,15.114137517,0.0 74.141562807,15.114773696,0.0 74.140862555,15.115201236,0.0 74.139948895,15.115720254,0.0 74.139268111,15.11589945,0.0 74.138360042,15.115590129,0.0 74.13726222,15.115912595,0.0 74.136299425,15.116354158,0.0 74.135839492,15.116568966,0.0 74.135232513,15.117063943,0.0 74.134456717,15.117366835,0.0 74.134493703,15.117652855,0.0 74.133919247,15.118663281,0.0 74.1334,15.119682611,0.0 74.133565832,15.12000878,0.0 74.133441929,15.120518364,0.0 74.131864062,15.120845556,0.0 74.130511628,15.121172607,0.0 74.130272575,15.121481134,0.0 74.129863299,15.121803166,0.0 74.129384947,15.122022441,0.0 74.128982331,15.12252858,0.0 74.128173271,15.122215875,0.0 74.128310128,15.121627745,0.0 74.128075945,15.12143186,0.0 74.127849608,15.120859618,0.0 74.1278978,15.120467556,0.0 74.127784724,15.120334328,0.0 74.127703698,15.119809047,0.0 74.127348572,15.119817088,0.0 74.127017538,15.119621257,0.0 74.125499793,15.118994849,0.0 74.12480442,15.116846883,0.0 74.124384698,15.11680007,0.0 74.123868106,15.116721946,0.0 74.123400094,15.116910379,0.0 74.122915208,15.115828627,0.0 74.122366559,15.116142552,0.0 74.122318079,15.11604849,0.0 74.121736913,15.115954715,0.0 74.121365539,15.115766738,0.0 74.120171013,15.115736013,0.0 74.11942834,15.115485504,0.0 74.117749876,15.116035233,0.0 74.116345904,15.116741623,0.0 74.115780939,15.116757594,0.0 74.115361338,15.116930304,0.0 74.114505689,15.116711199,0.0 74.113166245,15.117370492,0.0 74.112512187,15.116798447,0.0 74.110679945,15.116579812,0.0 74.109654605,15.115960896,0.0 74.109395995,15.115302402,0.0 74.109452211,15.114753526,0.0 74.109104746,15.113946101,0.0 74.108854195,15.11325624,0.0 74.108450546,15.113052575,0.0 74.108547142,15.112550724,0.0 74.108401647,15.112119555,0.0 74.107909411,15.112292286,0.0 74.107134367,15.111814371,0.0 74.107448874,15.111304576,0.0 74.107585651,15.110457715,0.0 74.107319027,15.10988547,0.0 74.107342869,15.109148432,0.0 74.106680546,15.108105931,0.0 74.106018723,15.108059198,0.0 74.105461786,15.107941848,0.0 74.104880536,15.107620649,0.0 74.104081529,15.107605336,0.0 74.103605423,15.107738847,0.0 74.103145392,15.107739057,0.0 74.102604772,15.107982365,0.0 74.102175477,15.106632713,0.0 74.100930216,15.106028521,0.0 74.100108148,15.104466611,0.0 74.099347146,15.104055379,0.0 74.099753303,15.103660432,0.0 74.100064542,15.103660295,0.0 74.100410048,15.102988196,0.0 74.100461755,15.102635401,0.0 74.10074693,15.102366496,0.0 74.10139521,15.102089029,0.0 74.101360537,15.10189586,0.0 74.1021208,15.100770008,0.0 74.102120391,15.099913276,0.0 74.101964665,15.099686565,0.0 74.101713945,15.099678278,0.0 74.101341979,15.099224881,0.0 74.101350373,15.09869572,0.0 74.101255119,15.098368188,0.0 74.101038815,15.098007114,0.0 74.101185547,15.097503088,0.0 74.101297896,15.097419045,0.0 74.101410213,15.097267807,0.0 74.101219798,15.096805929,0.0 74.100761453,15.096495358,0.0 74.100199358,15.096168033,0.0 74.100086899,15.096016895,0.0 74.099827448,15.095815426,0.0 74.099827393,15.095697835,0.0 74.0997754,15.095437478,0.0 74.099870368,15.095160259,0.0 74.100060479,15.094983789,0.0 74.100034359,15.094589032,0.0 74.100518252,15.094084857,0.0 74.100431248,15.092908989,0.0 74.100275494,15.092606682,0.0 74.100016047,15.092405213,0.0 74.099150985,15.091212887,0.0 74.099254515,15.090759278,0.0 74.099132994,15.089701015,0.0 74.099126533,15.089222119,0.0 74.099115089,15.088373927,0.0</coordinates>
                    </LinearRing>
                </outerBoundaryIs>
            </Polygon>
        </Placemark>
    </Document>
</kml>
