<?xml version="1.0" encoding="UTF-8"?>
<kml xmlns="http://www.opengis.net/kml/2.2" xmlns:gx="http://www.google.com/kml/ext/2.2">
    <Document id="3040">
        <Placemark id="3042">
            <ExtendedData>
                <Data name="id">
                    <value>276</value>
                </Data>
                <Data name="taluka">
                    <value>Quepem</value>
                </Data>
                <Data name="village">
                    <value>Quedem</value>
                </Data>
                <Data name="lg_code">
                    <value>626960</value>
                </Data>
                <Data name="dslr_code">
                    <value>00029200</value>
                </Data>
            </ExtendedData>
            <Polygon id="3041">
                <outerBoundaryIs>
                    <LinearRing id="3045">
                        <coordinates>74.016486561,15.072376474,0.0 74.0166491,15.073229827,0.0 74.016796942,15.073592194,0.0 74.017035734,15.073777785,0.0 74.017288187,15.074157821,0.0 74.017483761,15.074199788,0.0 74.018229606,15.073589874,0.0 74.018525193,15.073105943,0.0 74.018561543,15.072701579,0.0 74.018672912,15.072021006,0.0 74.019114034,15.071517175,0.0 74.019393751,15.071623213,0.0 74.019543881,15.072087221,0.0 74.019714452,15.072279444,0.0 74.020232963,15.072555601,0.0 74.02074461,15.072387623,0.0 74.021087962,15.072078244,0.0 74.021490442,15.071808633,0.0 74.021801991,15.071843957,0.0 74.021879324,15.071996413,0.0 74.021915736,15.072259355,0.0 74.02182711,15.072869219,0.0 74.021911312,15.073472438,0.0 74.021986365,15.073558606,0.0 74.022200132,15.073604987,0.0 74.022463915,15.073514367,0.0 74.022668514,15.072880185,0.0 74.022839048,15.072685721,0.0 74.023960149,15.072595011,0.0 74.025065285,15.072113194,0.0 74.025238119,15.072163996,0.0 74.025244979,15.072482181,0.0 74.025183614,15.072773858,0.0 74.025101764,15.072915282,0.0 74.024938052,15.07309428,0.0 74.023889802,15.07393184,0.0 74.023121267,15.074868799,0.0 74.023344242,15.075920556,0.0 74.023981028,15.076278449,0.0 74.024233464,15.076373436,0.0 74.024538189,15.076340259,0.0 74.024540463,15.076338049,0.0 74.025370476,15.076059545,0.0 74.025854876,15.076205325,0.0 74.026553003,15.076037313,0.0 74.026773578,15.075940064,0.0 74.026978241,15.075895847,0.0 74.027264801,15.076083631,0.0 74.027289832,15.076213996,0.0 74.027262566,15.076390769,0.0 74.026901035,15.076799592,0.0 74.026653177,15.076949875,0.0 74.026393985,15.077407297,0.0 74.02638724,15.078030411,0.0 74.026792083,15.078436934,0.0 74.026901291,15.078834653,0.0 74.027170833,15.079295327,0.0 74.02735964,15.079719552,0.0 74.027434698,15.079803508,0.0 74.027732626,15.07993384,0.0 74.028310238,15.079792352,0.0 74.029069866,15.080282792,0.0 74.029194977,15.080525834,0.0 74.029197269,15.080660621,0.0 74.029072211,15.080802053,0.0 74.028847089,15.080941288,0.0 74.028674262,15.081003179,0.0 74.028594697,15.08122857,0.0 74.028617519,15.081831794,0.0 74.028990613,15.082808399,0.0 74.029024745,15.0829476,0.0 74.029281805,15.083526488,0.0 74.029420589,15.083957346,0.0 74.029673106,15.08455612,0.0 74.029711818,15.084925122,0.0 74.029748221,15.085040017,0.0 74.029820998,15.085059894,0.0 74.030059788,15.085062072,0.0 74.030250815,15.085024483,0.0 74.030378175,15.08505761,0.0 74.03045552,15.085216693,0.0 74.030496504,15.085556969,0.0 74.030307799,15.085934839,0.0 74.030116815,15.086283984,0.0 74.030028158,15.086544731,0.0 74.029823505,15.086730366,0.0 74.029689364,15.086995538,0.0 74.029625717,15.087220928,0.0 74.029614393,15.08756342,0.0 74.029396117,15.087919198,0.0 74.029305205,15.088330199,0.0 74.029591776,15.088467158,0.0 74.029889754,15.088851592,0.0 74.029896604,15.089048248,0.0 74.029819301,15.089200721,0.0 74.02970105,15.089262606,0.0 74.029819358,15.089607291,0.0 74.02996948,15.089764155,0.0 74.030167355,15.089876819,0.0 74.030133281,15.090161864,0.0 74.029978682,15.090515424,0.0 74.029639834,15.09062153,0.0 74.029651245,15.090908779,0.0 74.029749056,15.091039134,0.0 74.030031089,15.091220285,0.0 74.030433638,15.091257795,0.0 74.030722452,15.091147275,0.0 74.03077022,15.091204719,0.0 74.030854443,15.091728387,0.0 74.030824959,15.092291844,0.0 74.030761322,15.092585732,0.0 74.030781826,15.092837625,0.0 74.030574945,15.093383429,0.0 74.030397592,15.093664075,0.0 74.030329389,15.093847482,0.0 74.030313483,15.093942498,0.0 74.030190685,15.094039737,0.0 74.030147485,15.094123709,0.0 74.030124786,15.094435268,0.0 74.029654058,15.094797707,0.0 74.029654058,15.094795498,0.0 74.029476685,15.094954613,0.0 74.029449406,15.095047421,0.0 74.029126492,15.095312617,0.0 74.028958247,15.09570595,0.0 74.028812704,15.095798773,0.0 74.028451198,15.096614168,0.0 74.028353421,15.096751176,0.0 74.028235158,15.096760029,0.0 74.028107803,15.096810866,0.0 74.027919106,15.097361085,0.0 74.027864536,15.097460524,0.0 74.027837271,15.097670441,0.0 74.027885056,15.097851624,0.0 74.027810034,15.098090272,0.0 74.02761903,15.098397432,0.0 74.027487127,15.098465946,0.0 74.027439409,15.098799604,0.0 74.027439411,15.098812862,0.0 74.02758499,15.098978566,0.0 74.027671442,15.099190678,0.0 74.027892118,15.099685606,0.0 74.028196913,15.099930835,0.0 74.028080983,15.100403708,0.0 74.027971908,15.101121847,0.0 74.028037915,15.101508522,0.0 74.028103908,15.101780296,0.0 74.027599038,15.102089705,0.0 74.027019113,15.10240575,0.0 74.026780341,15.102704077,0.0 74.026511999,15.102986939,0.0 74.02650745,15.10298694,0.0 74.026189058,15.103159327,0.0 74.025984377,15.103269831,0.0 74.025781984,15.103497445,0.0 74.025634195,15.103881935,0.0 74.02537011,15.103951899,0.0 74.024104576,15.104083888,0.0 74.022727062,15.104097215,0.0 74.022313094,15.10376763,0.0 74.021895738,15.103467711,0.0 74.020823508,15.102663524,0.0 74.018950683,15.103125166,0.0 74.018489222,15.102782393,0.0 74.017878477,15.102452815,0.0 74.013508393,15.101371944,0.0 74.012775508,15.100870955,0.0 74.011662637,15.100541389,0.0 74.010169741,15.099565767,0.0 74.00711619,15.099249442,0.0 74.005456057,15.099710318,0.0 74.005031529,15.099232723,0.0 74.004312725,15.098335425,0.0 74.004013625,15.097655214,0.0 74.003608393,15.097486368,0.0 74.003651811,15.096994301,0.0 74.003381657,15.096357508,0.0 74.003130799,15.095686946,0.0 74.003039139,15.095021208,0.0 74.003116326,15.09403225,0.0 74.003015018,15.093684908,0.0 74.003251404,15.092980577,0.0 74.00306326,15.09233896,0.0 74.002920947,15.09170458,0.0 74.002945068,15.091029193,0.0 74.003475728,15.090346571,0.0 74.003152508,15.089902746,0.0 74.002814815,15.089314195,0.0 74.002747276,15.088677402,0.0 74.002530188,15.088050258,0.0 74.002727979,15.086800793,0.0 74.002930595,15.08501102,0.0 74.004546698,15.084253623,0.0 74.004382675,15.082873905,0.0 74.005101479,15.081701628,0.0 74.00708422,15.078855357,0.0 74.008594191,15.077374332,0.0 74.009163445,15.07759142,0.0 74.00975682,15.077128299,0.0 74.010649294,15.076153813,0.0 74.012082078,15.0759319,0.0 74.0125452,15.0745956,0.0 74.01290219,15.074055291,0.0 74.013379784,15.073621115,0.0 74.014059994,15.073186938,0.0 74.015338404,15.072714167,0.0 74.016154415,15.072474165,0.0 74.016486561,15.072376474,0.0</coordinates>
                    </LinearRing>
                </outerBoundaryIs>
            </Polygon>
        </Placemark>
    </Document>
</kml>
