<?xml version="1.0" encoding="UTF-8"?>
<kml xmlns="http://www.opengis.net/kml/2.2" xmlns:gx="http://www.google.com/kml/ext/2.2">
    <Document id="3068">
        <Placemark id="3070">
            <ExtendedData>
                <Data name="id">
                    <value>323</value>
                </Data>
                <Data name="taluka">
                    <value>Quepem</value>
                </Data>
                <Data name="village">
                    <value>Quisconda</value>
                </Data>
                <Data name="lg_code">
                    <value>626963</value>
                </Data>
                <Data name="dslr_code">
                    <value>00029500</value>
                </Data>
            </ExtendedData>
            <Polygon id="3069">
                <outerBoundaryIs>
                    <LinearRing id="3073">
                        <coordinates>74.112189333,15.062503811,0.0 74.111894858,15.062975648,0.0 74.112293979,15.063699834,0.0 74.112450195,15.064053526,0.0 74.111809995,15.066462838,0.0 74.110665866,15.066665553,0.0 74.109851299,15.067188179,0.0 74.109626083,15.067508364,0.0 74.106697101,15.069447065,0.0 74.106402513,15.069733588,0.0 74.106038558,15.06998645,0.0 74.105744159,15.070660433,0.0 74.105917906,15.071418427,0.0 74.10631678,15.071654086,0.0 74.107045773,15.073304663,0.0 74.108607637,15.076251991,0.0 74.109301437,15.076824425,0.0 74.110498426,15.078154688,0.0 74.110620984,15.080462545,0.0 74.110950721,15.081068843,0.0 74.11074303,15.081776481,0.0 74.111124714,15.082247986,0.0 74.112078639,15.082870822,0.0 74.112009471,15.083224624,0.0 74.112339199,15.083797228,0.0 74.112884376,15.084436595,0.0 74.113835925,15.085612026,0.0 74.112435978,15.086587048,0.0 74.111934437,15.086318518,0.0 74.110637633,15.086167966,0.0 74.110274238,15.085563391,0.0 74.109133072,15.085463152,0.0 74.108026876,15.086135629,0.0 74.106764773,15.086220221,0.0 74.104759451,15.086792312,0.0 74.104258123,15.086943731,0.0 74.102460111,15.087196531,0.0 74.101111796,15.08780189,0.0 74.100195437,15.087802297,0.0 74.099115089,15.088373927,0.0 74.095847383,15.08854332,0.0 74.095709319,15.089114533,0.0 74.095208106,15.08955151,0.0 74.094793192,15.089652476,0.0 74.092563595,15.091518051,0.0 74.092131234,15.091266247,0.0 74.091578088,15.091585647,0.0 74.091491896,15.092190434,0.0 74.089175694,15.093820829,0.0 74.088259253,15.093686799,0.0 74.088416175,15.093031068,0.0 74.088172834,15.091590821,0.0 74.087825564,15.090394883,0.0 74.087634748,15.090175957,0.0 74.087495792,15.089577974,0.0 74.087218101,15.08891266,0.0 74.086714681,15.087438819,0.0 74.086558337,15.086706073,0.0 74.086324018,15.08609128,0.0 74.08621121,15.085821785,0.0 74.086063677,15.085434381,0.0 74.085768809,15.085148109,0.0 74.085430481,15.084575469,0.0 74.085343359,15.08349735,0.0 74.085325591,15.082419206,0.0 74.08626133,15.0811217,0.0 74.086000927,15.08029634,0.0 74.085385138,15.079572189,0.0 74.085384947,15.079092075,0.0 74.085566816,15.078645584,0.0 74.085531918,15.078089675,0.0 74.085696513,15.077803229,0.0 74.085566338,15.07744951,0.0 74.085609494,15.076977802,0.0 74.085348904,15.075663903,0.0 74.084429657,15.074771402,0.0 74.084394796,15.074299724,0.0 74.084593978,15.073794266,0.0 74.084905879,15.07335615,0.0 74.085347544,15.072252562,0.0 74.086266118,15.071494139,0.0 74.086482719,15.071207672,0.0 74.086343854,15.070794995,0.0 74.086647205,15.070668533,0.0 74.086794452,15.07037367,0.0 74.086621022,15.070230544,0.0 74.086742229,15.069851459,0.0 74.086551482,15.069758879,0.0 74.086992984,15.068293096,0.0 74.086905882,15.067265515,0.0 74.086810423,15.067004436,0.0 74.086272812,15.066591911,0.0 74.086368073,15.066364452,0.0 74.086055864,15.066002379,0.0 74.085769769,15.065909833,0.0 74.08448631,15.064562624,0.0 74.083687455,15.061067345,0.0 74.084345687,15.059660448,0.0 74.084570959,15.059407672,0.0 74.083842735,15.05915525,0.0 74.083418114,15.059458637,0.0 74.081476564,15.059770996,0.0 74.081164465,15.059653185,0.0 74.080661723,15.059687056,0.0 74.080072121,15.059240842,0.0 74.07904057,15.059131704,0.0 74.078390286,15.058660237,0.0 74.077948187,15.058593005,0.0 74.07752329,15.05815515,0.0 74.076941895,15.056394925,0.0 74.076213465,15.055510747,0.0 74.075506874,15.053779063,0.0 74.080126002,15.051870833,0.0 74.08089838,15.051976846,0.0 74.081791916,15.052893099,0.0 74.082541578,15.053127842,0.0 74.084139342,15.052673502,0.0 74.085002589,15.052075287,0.0 74.085684099,15.051272619,0.0 74.086585208,15.051257474,0.0 74.087652908,15.05072741,0.0 74.088001236,15.050250353,0.0 74.089356684,15.049599131,0.0 74.090674272,15.049228087,0.0 74.092961119,15.047940789,0.0 74.093688063,15.045858395,0.0 74.095702306,15.043283799,0.0 74.096626131,15.042996051,0.0 74.105085382,15.056281722,0.0 74.11096909,15.060825126,0.0 74.111945922,15.060688824,0.0 74.112548354,15.060933688,0.0 74.112189333,15.062503811,0.0</coordinates>
                    </LinearRing>
                </outerBoundaryIs>
            </Polygon>
        </Placemark>
    </Document>
</kml>
