<?xml version="1.0" encoding="UTF-8"?>
<kml xmlns="http://www.opengis.net/kml/2.2" xmlns:gx="http://www.google.com/kml/ext/2.2">
    <Document id="3138">
        <Placemark id="3140">
            <ExtendedData>
                <Data name="id">
                    <value>281</value>
                </Data>
                <Data name="taluka">
                    <value>Quepem</value>
                </Data>
                <Data name="village">
                    <value>Undorna</value>
                </Data>
                <Data name="lg_code">
                    <value>626944</value>
                </Data>
                <Data name="dslr_code">
                    <value>00027600</value>
                </Data>
            </ExtendedData>
            <Polygon id="3139">
                <outerBoundaryIs>
                    <LinearRing id="3143">
                        <coordinates>74.146008707,15.190146426,0.0 74.146365765,15.187402536,0.0 74.147432032,15.18583187,0.0 74.148535559,15.184012647,0.0 74.149446155,15.183017932,0.0 74.150525512,15.182368616,0.0 74.152391133,15.181464174,0.0 74.152809229,15.181330534,0.0 74.153632449,15.180390417,0.0 74.153544852,15.180093455,0.0 74.153837822,15.179559829,0.0 74.154212275,15.179498956,0.0 74.154349459,15.179317013,0.0 74.155760195,15.179497892,0.0 74.156134394,15.179091501,0.0 74.156164591,15.177715483,0.0 74.157349168,15.17593253,0.0 74.157690077,15.172731733,0.0 74.158339328,15.172925251,0.0 74.159600168,15.173021348,0.0 74.160442727,15.172978319,0.0 74.16089847,15.173135597,0.0 74.162458836,15.173146601,0.0 74.162983162,15.173206839,0.0 74.164275493,15.173666587,0.0 74.164600128,15.173769399,0.0 74.165305335,15.173671896,0.0 74.165817407,15.174023096,0.0 74.167234474,15.174349379,0.0 74.167478029,15.174524986,0.0 74.167877368,15.17437921,0.0 74.168227494,15.175142718,0.0 74.168951679,15.175360396,0.0 74.170168837,15.175444343,0.0 74.173303953,15.177757508,0.0 74.173804963,15.179818086,0.0 74.173837004,15.180836419,0.0 74.173463618,15.18220058,0.0 74.173564149,15.183012764,0.0 74.174133019,15.184079176,0.0 74.175564267,15.186363309,0.0 74.175339712,15.186545333,0.0 74.174779315,15.188206662,0.0 74.174385948,15.188049364,0.0 74.173799323,15.188183174,0.0 74.172851226,15.189002226,0.0 74.172745414,15.189372068,0.0 74.172851749,15.189644761,0.0 74.172933012,15.189790178,0.0 74.172933244,15.190075076,0.0 74.172140378,15.189899895,0.0 74.171217948,15.191603923,0.0 74.170969075,15.192604285,0.0 74.169895064,15.192120165,0.0 74.167685173,15.191830863,0.0 74.167060747,15.191540368,0.0 74.166305541,15.191631852,0.0 74.165125686,15.191475117,0.0 74.163908841,15.191912445,0.0 74.161867858,15.192101833,0.0 74.160619379,15.191993618,0.0 74.160108776,15.193636689,0.0 74.159709947,15.194515912,0.0 74.159223881,15.195601293,0.0 74.159155554,15.196049903,0.0 74.158737796,15.196668487,0.0 74.158032983,15.197402442,0.0 74.157715012,15.197911844,0.0 74.15648499,15.198677735,0.0 74.149534511,15.192977095,0.0 74.146856353,15.190826965,0.0 74.146008707,15.190146426,0.0</coordinates>
                    </LinearRing>
                </outerBoundaryIs>
            </Polygon>
        </Placemark>
    </Document>
</kml>
