<?xml version="1.0" encoding="UTF-8"?>
<kml xmlns="http://www.opengis.net/kml/2.2" xmlns:gx="http://www.google.com/kml/ext/2.2">
    <Document id="3194">
        <Placemark id="3196">
            <ExtendedData>
                <Data name="id">
                    <value>278</value>
                </Data>
                <Data name="taluka">
                    <value>Quepem</value>
                </Data>
                <Data name="village">
                    <value>Zanodem</value>
                </Data>
                <Data name="lg_code">
                    <value>626943</value>
                </Data>
                <Data name="dslr_code">
                    <value>00027500</value>
                </Data>
            </ExtendedData>
            <Polygon id="3195">
                <outerBoundaryIs>
                    <LinearRing id="3199">
                        <coordinates>74.146008707,15.190146426,0.0 74.149534511,15.192977095,0.0 74.15648499,15.198677735,0.0 74.15539816,15.199474401,0.0 74.153451875,15.201311855,0.0 74.151880507,15.202623026,0.0 74.150694277,15.203488691,0.0 74.149821742,15.203276504,0.0 74.147838284,15.204294379,0.0 74.146422884,15.205323689,0.0 74.144922437,15.206613095,0.0 74.143502923,15.207602986,0.0 74.141515339,15.208624749,0.0 74.140683977,15.20933056,0.0 74.136505212,15.21039698,0.0 74.136249775,15.210708408,0.0 74.135877569,15.210853434,0.0 74.13560778,15.2109324,0.0 74.135358219,15.21091876,0.0 74.135125924,15.210936631,0.0 74.1348672,15.210868818,0.0 74.134671345,15.210761566,0.0 74.134325941,15.209979649,0.0 74.132946793,15.207509984,0.0 74.132767537,15.206363501,0.0 74.132285301,15.204113949,0.0 74.131845844,15.202128361,0.0 74.132398529,15.196993995,0.0 74.134613075,15.195668784,0.0 74.136421881,15.194391079,0.0 74.136580075,15.19432006,0.0 74.136855841,15.194103183,0.0 74.137070712,15.193835121,0.0 74.137443778,15.193499979,0.0 74.137763915,15.192885116,0.0 74.138506304,15.192707353,0.0 74.138883436,15.192391907,0.0 74.13922397,15.191954337,0.0 74.139953988,15.191481064,0.0 74.140497596,15.19135858,0.0 74.140773377,15.19117716,0.0 74.143686209,15.190643397,0.0 74.146008707,15.190146426,0.0</coordinates>
                    </LinearRing>
                </outerBoundaryIs>
            </Polygon>
        </Placemark>
    </Document>
</kml>
