<?xml version="1.0" encoding="UTF-8"?>
<kml xmlns="http://www.opengis.net/kml/2.2" xmlns:gx="http://www.google.com/kml/ext/2.2">
    <Document id="11796">
        <Placemark id="11798">
            <ExtendedData>
                <Data name="direction">
                    <value>https://maps.google.com?q=15.3989,74.00197&amp;t=h</value>
                </Data>
                <Data name="id">
                    <value>3565</value>
                </Data>
                <Data name="Sr.No">
                    <value>3565</value>
                </Data>
                <Data name="Reg No">
                    <value>851/PONDA</value>
                </Data>
                <Data name="Category">
                    <value>agricultural</value>
                </Data>
                <Data name="Type Of Well">
                    <value>Open Well</value>
                </Data>
                <Data name="Applicant Name">
                    <value>KURTARKAR SHANTADEEP RAGHU</value>
                </Data>
                <Data name="Applicant Address">
                    <value>KHADPABAND PONDA</value>
                </Data>
                <Data name="latitude">
                    <value>15.3989</value>
                </Data>
                <Data name="longitude">
                    <value>74.00197</value>
                </Data>
                <Data name="taluka">
                    <value>Ponda</value>
                </Data>
                <Data name="village">
                    <value>Ponda</value>
                </Data>
            </ExtendedData>
            <Point id="11797">
                <coordinates>74.00197,15.3989,0.0</coordinates>
            </Point>
        </Placemark>
        <Placemark id="11813">
            <ExtendedData>
                <Data name="direction">
                    <value>https://maps.google.com?q=15.3977,74.00109&amp;t=h</value>
                </Data>
                <Data name="id">
                    <value>3566</value>
                </Data>
                <Data name="Sr.No">
                    <value>3566</value>
                </Data>
                <Data name="Reg No">
                    <value>853/PONDA</value>
                </Data>
                <Data name="Category">
                    <value>agricultural</value>
                </Data>
                <Data name="Type Of Well">
                    <value>Open Well</value>
                </Data>
                <Data name="Applicant Name">
                    <value>SHRI. SADANAND VAMAN SODEKAR</value>
                </Data>
                <Data name="Applicant Address">
                    <value>KHADPABAND PONDA</value>
                </Data>
                <Data name="latitude">
                    <value>15.3977</value>
                </Data>
                <Data name="longitude">
                    <value>74.00109</value>
                </Data>
                <Data name="taluka">
                    <value>Ponda</value>
                </Data>
                <Data name="village">
                    <value>Ponda</value>
                </Data>
            </ExtendedData>
            <Point id="11812">
                <coordinates>74.00109,15.3977,0.0</coordinates>
            </Point>
        </Placemark>
        <Placemark id="11828">
            <ExtendedData>
                <Data name="direction">
                    <value>https://maps.google.com?q=15.3966,74.00064&amp;t=h</value>
                </Data>
                <Data name="id">
                    <value>3567</value>
                </Data>
                <Data name="Sr.No">
                    <value>3567</value>
                </Data>
                <Data name="Reg No">
                    <value>852/PONDA</value>
                </Data>
                <Data name="Category">
                    <value>horticulture</value>
                </Data>
                <Data name="Type Of Well">
                    <value>Open Well</value>
                </Data>
                <Data name="Applicant Name">
                    <value>ADITI CHANDRAKANT PISSURLEKAR</value>
                </Data>
                <Data name="Applicant Address">
                    <value>KHADPABAND PONDA</value>
                </Data>
                <Data name="latitude">
                    <value>15.3966</value>
                </Data>
                <Data name="longitude">
                    <value>74.00064</value>
                </Data>
                <Data name="taluka">
                    <value>Ponda</value>
                </Data>
                <Data name="village">
                    <value>Ponda</value>
                </Data>
            </ExtendedData>
            <Point id="11827">
                <coordinates>74.00064,15.3966,0.0</coordinates>
            </Point>
        </Placemark>
        <Placemark id="11843">
            <ExtendedData>
                <Data name="direction">
                    <value>https://maps.google.com?q=15.394,74.00228&amp;t=h</value>
                </Data>
                <Data name="id">
                    <value>3569</value>
                </Data>
                <Data name="Sr.No">
                    <value>3569</value>
                </Data>
                <Data name="Reg No">
                    <value>854/PONDA</value>
                </Data>
                <Data name="Category">
                    <value>horticulture</value>
                </Data>
                <Data name="Type Of Well">
                    <value>Open Well</value>
                </Data>
                <Data name="Applicant Name">
                    <value>NELSON SOARES</value>
                </Data>
                <Data name="Applicant Address">
                    <value>TISK PONDA</value>
                </Data>
                <Data name="latitude">
                    <value>15.394</value>
                </Data>
                <Data name="longitude">
                    <value>74.00228</value>
                </Data>
                <Data name="taluka">
                    <value>Ponda</value>
                </Data>
                <Data name="village">
                    <value>Ponda</value>
                </Data>
            </ExtendedData>
            <Point id="11842">
                <coordinates>74.00228,15.394,0.0</coordinates>
            </Point>
        </Placemark>
        <Placemark id="11858">
            <ExtendedData>
                <Data name="direction">
                    <value>https://maps.google.com?q=15.403377,74.00694&amp;t=h</value>
                </Data>
                <Data name="id">
                    <value>3813</value>
                </Data>
                <Data name="Sr.No">
                    <value>3813</value>
                </Data>
                <Data name="Reg No">
                    <value>101</value>
                </Data>
                <Data name="Category">
                    <value>agricultural</value>
                </Data>
                <Data name="Type Of Well">
                    <value>Open Well</value>
                </Data>
                <Data name="Applicant Name">
                    <value>Sulochana Surendra Naik</value>
                </Data>
                <Data name="Applicant Address">
                    <value>NULL</value>
                </Data>
                <Data name="latitude">
                    <value>15.403377</value>
                </Data>
                <Data name="longitude">
                    <value>74.00694</value>
                </Data>
                <Data name="taluka">
                    <value>Ponda</value>
                </Data>
                <Data name="village">
                    <value>Ponda</value>
                </Data>
            </ExtendedData>
            <Point id="11857">
                <coordinates>74.00694,15.403377,0.0</coordinates>
            </Point>
        </Placemark>
        <Placemark id="11873">
            <ExtendedData>
                <Data name="direction">
                    <value>https://maps.google.com?q=15.396332,74.012783&amp;t=h</value>
                </Data>
                <Data name="id">
                    <value>3814</value>
                </Data>
                <Data name="Sr.No">
                    <value>3814</value>
                </Data>
                <Data name="Reg No">
                    <value>122</value>
                </Data>
                <Data name="Category">
                    <value>agricultural</value>
                </Data>
                <Data name="Type Of Well">
                    <value>Open Well</value>
                </Data>
                <Data name="Applicant Name">
                    <value>Ratnakar Arjun Naik</value>
                </Data>
                <Data name="Applicant Address">
                    <value>Durgabhat</value>
                </Data>
                <Data name="latitude">
                    <value>15.396332</value>
                </Data>
                <Data name="longitude">
                    <value>74.012783</value>
                </Data>
                <Data name="taluka">
                    <value>Ponda</value>
                </Data>
                <Data name="village">
                    <value>Ponda</value>
                </Data>
            </ExtendedData>
            <Point id="11872">
                <coordinates>74.012783,15.396332,0.0</coordinates>
            </Point>
        </Placemark>
        <Placemark id="11888">
            <ExtendedData>
                <Data name="direction">
                    <value>https://maps.google.com?q=15.41143,74.008522&amp;t=h</value>
                </Data>
                <Data name="id">
                    <value>3865</value>
                </Data>
                <Data name="Sr.No">
                    <value>3865</value>
                </Data>
                <Data name="Reg No">
                    <value>274/\nPonda</value>
                </Data>
                <Data name="Category">
                    <value>horticulture</value>
                </Data>
                <Data name="Type Of Well">
                    <value>Open Well</value>
                </Data>
                <Data name="Applicant Name">
                    <value>Shri. Gurudas Madhav\nKhedekar</value>
                </Data>
                <Data name="Applicant Address">
                    <value>H. No. 49 - 1, Haveli, Curti, Ponda\nGoa 403401,</value>
                </Data>
                <Data name="latitude">
                    <value>15.41143</value>
                </Data>
                <Data name="longitude">
                    <value>74.008522</value>
                </Data>
                <Data name="taluka">
                    <value>Ponda</value>
                </Data>
                <Data name="village">
                    <value>Ponda</value>
                </Data>
            </ExtendedData>
            <Point id="11887">
                <coordinates>74.008522,15.41143,0.0</coordinates>
            </Point>
        </Placemark>
        <Placemark id="11903">
            <ExtendedData>
                <Data name="direction">
                    <value>https://maps.google.com?q=15.393747,74.002795&amp;t=h</value>
                </Data>
                <Data name="id">
                    <value>3866</value>
                </Data>
                <Data name="Sr.No">
                    <value>3866</value>
                </Data>
                <Data name="Reg No">
                    <value>232/\nPonda</value>
                </Data>
                <Data name="Category">
                    <value>horticulture</value>
                </Data>
                <Data name="Type Of Well">
                    <value>Open Well</value>
                </Data>
                <Data name="Applicant Name">
                    <value>Smt. Laxmi Anant\nBorkar</value>
                </Data>
                <Data name="Applicant Address">
                    <value>Near Saraswati Temple, Tisk,\nPonda Goa 403401,</value>
                </Data>
                <Data name="latitude">
                    <value>15.393747</value>
                </Data>
                <Data name="longitude">
                    <value>74.002795</value>
                </Data>
                <Data name="taluka">
                    <value>Ponda</value>
                </Data>
                <Data name="village">
                    <value>Ponda</value>
                </Data>
            </ExtendedData>
            <Point id="11902">
                <coordinates>74.002795,15.393747,0.0</coordinates>
            </Point>
        </Placemark>
    </Document>
</kml>
