<?xml version="1.0" encoding="UTF-8"?>
<kml xmlns="http://www.opengis.net/kml/2.2" xmlns:gx="http://www.google.com/kml/ext/2.2">
    <Document id="12492">
        <Placemark id="12494">
            <ExtendedData>
                <Data name="direction">
                    <value>https://maps.google.com?q=15.38311,74.00119&amp;t=h</value>
                </Data>
                <Data name="id">
                    <value>3450</value>
                </Data>
                <Data name="Sr.No">
                    <value>3450</value>
                </Data>
                <Data name="Reg No">
                    <value>27/PONDA</value>
                </Data>
                <Data name="Category">
                    <value>agricultural</value>
                </Data>
                <Data name="Type Of Well">
                    <value>Bore Well</value>
                </Data>
                <Data name="Applicant Name">
                    <value>SMT. NILIMA AMARANATH DHAVLIKAR</value>
                </Data>
                <Data name="Applicant Address">
                    <value>D4, NEAR IVBD HIGH SCHOOL, DHAVALI, PONDA - GOA.</value>
                </Data>
                <Data name="latitude">
                    <value>15.38311</value>
                </Data>
                <Data name="longitude">
                    <value>74.00119</value>
                </Data>
                <Data name="taluka">
                    <value>Ponda</value>
                </Data>
                <Data name="village">
                    <value>Queula</value>
                </Data>
            </ExtendedData>
            <Point id="12493">
                <coordinates>74.00119,15.38311,0.0</coordinates>
            </Point>
        </Placemark>
        <Placemark id="12509">
            <ExtendedData>
                <Data name="direction">
                    <value>https://maps.google.com?q=15.38983,73.99379&amp;t=h</value>
                </Data>
                <Data name="id">
                    <value>3574</value>
                </Data>
                <Data name="Sr.No">
                    <value>3574</value>
                </Data>
                <Data name="Reg No">
                    <value>417/PONDA</value>
                </Data>
                <Data name="Category">
                    <value>agricultural</value>
                </Data>
                <Data name="Type Of Well">
                    <value>Open Well</value>
                </Data>
                <Data name="Applicant Name">
                    <value>SHRI. BALKRISHNA SHRINIVAS SHENVI KULKARNI</value>
                </Data>
                <Data name="Applicant Address">
                    <value>QUELA, PONDA</value>
                </Data>
                <Data name="latitude">
                    <value>15.38983</value>
                </Data>
                <Data name="longitude">
                    <value>73.99379</value>
                </Data>
                <Data name="taluka">
                    <value>Ponda</value>
                </Data>
                <Data name="village">
                    <value>Queula</value>
                </Data>
            </ExtendedData>
            <Point id="12508">
                <coordinates>73.99379,15.38983,0.0</coordinates>
            </Point>
        </Placemark>
        <Placemark id="12524">
            <ExtendedData>
                <Data name="direction">
                    <value>https://maps.google.com?q=15.38645,73.99757&amp;t=h</value>
                </Data>
                <Data name="id">
                    <value>3575</value>
                </Data>
                <Data name="Sr.No">
                    <value>3575</value>
                </Data>
                <Data name="Reg No">
                    <value>414/PONDA</value>
                </Data>
                <Data name="Category">
                    <value>agricultural</value>
                </Data>
                <Data name="Type Of Well">
                    <value>Open Well</value>
                </Data>
                <Data name="Applicant Name">
                    <value>SHRI. PRADEEP VAMAN BHAKALE</value>
                </Data>
                <Data name="Applicant Address">
                    <value>KAVALEM PONDA</value>
                </Data>
                <Data name="latitude">
                    <value>15.38645</value>
                </Data>
                <Data name="longitude">
                    <value>73.99757</value>
                </Data>
                <Data name="taluka">
                    <value>Ponda</value>
                </Data>
                <Data name="village">
                    <value>Queula</value>
                </Data>
            </ExtendedData>
            <Point id="12523">
                <coordinates>73.99757,15.38645,0.0</coordinates>
            </Point>
        </Placemark>
        <Placemark id="12539">
            <ExtendedData>
                <Data name="direction">
                    <value>https://maps.google.com?q=15.40356,73.99379&amp;t=h</value>
                </Data>
                <Data name="id">
                    <value>3599</value>
                </Data>
                <Data name="Sr.No">
                    <value>3599</value>
                </Data>
                <Data name="Reg No">
                    <value>1054/PONDA</value>
                </Data>
                <Data name="Category">
                    <value>agricultural</value>
                </Data>
                <Data name="Type Of Well">
                    <value>Open Well</value>
                </Data>
                <Data name="Applicant Name">
                    <value>SMT. YOGITA SUHAS PATIL</value>
                </Data>
                <Data name="Applicant Address">
                    <value>KAVELEM PONDA GOA</value>
                </Data>
                <Data name="latitude">
                    <value>15.40356</value>
                </Data>
                <Data name="longitude">
                    <value>73.99379</value>
                </Data>
                <Data name="taluka">
                    <value>Ponda</value>
                </Data>
                <Data name="village">
                    <value>Queula</value>
                </Data>
            </ExtendedData>
            <Point id="12538">
                <coordinates>73.99379,15.40356,0.0</coordinates>
            </Point>
        </Placemark>
        <Placemark id="12554">
            <ExtendedData>
                <Data name="direction">
                    <value>https://maps.google.com?q=15.38783,74.00502&amp;t=h</value>
                </Data>
                <Data name="id">
                    <value>3805</value>
                </Data>
                <Data name="Sr.No">
                    <value>3805</value>
                </Data>
                <Data name="Reg No">
                    <value>207/ponda</value>
                </Data>
                <Data name="Category">
                    <value>horticulture</value>
                </Data>
                <Data name="Type Of Well">
                    <value>Bore well</value>
                </Data>
                <Data name="Applicant Name">
                    <value>Vidhya Gurunath Tengse</value>
                </Data>
                <Data name="Applicant Address">
                    <value>B4, Smadhan, dhavlimal, dhavli, Ponda</value>
                </Data>
                <Data name="latitude">
                    <value>15.38783</value>
                </Data>
                <Data name="longitude">
                    <value>74.00502</value>
                </Data>
                <Data name="taluka">
                    <value>Ponda</value>
                </Data>
                <Data name="village">
                    <value>Queula</value>
                </Data>
            </ExtendedData>
            <Point id="12553">
                <coordinates>74.00502,15.38783,0.0</coordinates>
            </Point>
        </Placemark>
        <Placemark id="12569">
            <ExtendedData>
                <Data name="direction">
                    <value>https://maps.google.com?q=15.379572,73.99747&amp;t=h</value>
                </Data>
                <Data name="id">
                    <value>3818</value>
                </Data>
                <Data name="Sr.No">
                    <value>3818</value>
                </Data>
                <Data name="Reg No">
                    <value>242</value>
                </Data>
                <Data name="Category">
                    <value>agricultural</value>
                </Data>
                <Data name="Type Of Well">
                    <value>Bore well</value>
                </Data>
                <Data name="Applicant Name">
                    <value>Deepak Raghu Naik</value>
                </Data>
                <Data name="Applicant Address">
                    <value>H. No. 70, Warchawada, Dhavali, Queula- Ponda.</value>
                </Data>
                <Data name="latitude">
                    <value>15.379572</value>
                </Data>
                <Data name="longitude">
                    <value>73.99747</value>
                </Data>
                <Data name="taluka">
                    <value>Ponda</value>
                </Data>
                <Data name="village">
                    <value>Queula</value>
                </Data>
            </ExtendedData>
            <Point id="12568">
                <coordinates>73.99747,15.379572,0.0</coordinates>
            </Point>
        </Placemark>
        <Placemark id="12584">
            <ExtendedData>
                <Data name="direction">
                    <value>https://maps.google.com?q=15.390792,73.995359&amp;t=h</value>
                </Data>
                <Data name="id">
                    <value>3819</value>
                </Data>
                <Data name="Sr.No">
                    <value>3819</value>
                </Data>
                <Data name="Reg No">
                    <value>167/Ponda</value>
                </Data>
                <Data name="Category">
                    <value>agricultural</value>
                </Data>
                <Data name="Type Of Well">
                    <value>Open Well</value>
                </Data>
                <Data name="Applicant Name">
                    <value>Anant mahadev naik</value>
                </Data>
                <Data name="Applicant Address">
                    <value>H.NO.49, PARVATI NIWAS, KAPILESHWARI, QUELA, PONDA - GOA</value>
                </Data>
                <Data name="latitude">
                    <value>15.390792</value>
                </Data>
                <Data name="longitude">
                    <value>73.995359</value>
                </Data>
                <Data name="taluka">
                    <value>Ponda</value>
                </Data>
                <Data name="village">
                    <value>Queula</value>
                </Data>
            </ExtendedData>
            <Point id="12583">
                <coordinates>73.995359,15.390792,0.0</coordinates>
            </Point>
        </Placemark>
        <Placemark id="12599">
            <ExtendedData>
                <Data name="direction">
                    <value>https://maps.google.com?q=15.3904,73.99324&amp;t=h</value>
                </Data>
                <Data name="id">
                    <value>3899</value>
                </Data>
                <Data name="Sr.No">
                    <value>3899</value>
                </Data>
                <Data name="Reg No">
                    <value>296/ponda</value>
                </Data>
                <Data name="Category">
                    <value>agricultural</value>
                </Data>
                <Data name="Type Of Well">
                    <value>Open Well</value>
                </Data>
                <Data name="Applicant Name">
                    <value>Shri. Gurudas Madhav Shivdekar Bhat</value>
                </Data>
                <Data name="Applicant Address">
                    <value>Hno 68 Kapileshwari,Kavlem ,Ponda Goa 403401</value>
                </Data>
                <Data name="latitude">
                    <value>15.3904</value>
                </Data>
                <Data name="longitude">
                    <value>73.99324</value>
                </Data>
                <Data name="taluka">
                    <value>Ponda</value>
                </Data>
                <Data name="village">
                    <value>Queula</value>
                </Data>
            </ExtendedData>
            <Point id="12598">
                <coordinates>73.99324,15.3904,0.0</coordinates>
            </Point>
        </Placemark>
    </Document>
</kml>
