<?xml version="1.0" encoding="UTF-8"?>
<kml xmlns="http://www.opengis.net/kml/2.2" xmlns:gx="http://www.google.com/kml/ext/2.2">
    <Document id="12646">
        <Placemark id="12648">
            <ExtendedData>
                <Data name="direction">
                    <value>https://maps.google.com?q=15.30378,74.05252&amp;t=h</value>
                </Data>
                <Data name="id">
                    <value>3520</value>
                </Data>
                <Data name="Sr.No">
                    <value>3520</value>
                </Data>
                <Data name="Reg No">
                    <value>1347/PONDA</value>
                </Data>
                <Data name="Category">
                    <value>agricultural</value>
                </Data>
                <Data name="Type Of Well">
                    <value>Open Well</value>
                </Data>
                <Data name="Applicant Name">
                    <value>FRANCISCA MINGUEL GOMES</value>
                </Data>
                <Data name="Applicant Address">
                    <value>SHIRODA PONDA</value>
                </Data>
                <Data name="latitude">
                    <value>15.30378</value>
                </Data>
                <Data name="longitude">
                    <value>74.05252</value>
                </Data>
                <Data name="taluka">
                    <value>Ponda</value>
                </Data>
                <Data name="village">
                    <value>Shiroda</value>
                </Data>
            </ExtendedData>
            <Point id="12647">
                <coordinates>74.05252,15.30378,0.0</coordinates>
            </Point>
        </Placemark>
        <Placemark id="12663">
            <ExtendedData>
                <Data name="direction">
                    <value>https://maps.google.com?q=15.34153,74.01874&amp;t=h</value>
                </Data>
                <Data name="id">
                    <value>3527</value>
                </Data>
                <Data name="Sr.No">
                    <value>3527</value>
                </Data>
                <Data name="Reg No">
                    <value>1420/PONDA</value>
                </Data>
                <Data name="Category">
                    <value>agricultural</value>
                </Data>
                <Data name="Type Of Well">
                    <value>Open Well</value>
                </Data>
                <Data name="Applicant Name">
                    <value>SHRI. ASHOK KESHAV PRABHU SAWKAR</value>
                </Data>
                <Data name="Applicant Address">
                    <value>SHIRODA PONDA</value>
                </Data>
                <Data name="latitude">
                    <value>15.34153</value>
                </Data>
                <Data name="longitude">
                    <value>74.01874</value>
                </Data>
                <Data name="taluka">
                    <value>Ponda</value>
                </Data>
                <Data name="village">
                    <value>Shiroda</value>
                </Data>
            </ExtendedData>
            <Point id="12662">
                <coordinates>74.01874,15.34153,0.0</coordinates>
            </Point>
        </Placemark>
        <Placemark id="12678">
            <ExtendedData>
                <Data name="direction">
                    <value>https://maps.google.com?q=15.3437,74.02005&amp;t=h</value>
                </Data>
                <Data name="id">
                    <value>3608</value>
                </Data>
                <Data name="Sr.No">
                    <value>3608</value>
                </Data>
                <Data name="Reg No">
                    <value>1323/PONDA</value>
                </Data>
                <Data name="Category">
                    <value>agricultural</value>
                </Data>
                <Data name="Type Of Well">
                    <value>Open Well</value>
                </Data>
                <Data name="Applicant Name">
                    <value>SRIPAD KRISHNA GAONKAR</value>
                </Data>
                <Data name="Applicant Address">
                    <value>TARVALEM PONDA</value>
                </Data>
                <Data name="latitude">
                    <value>15.3437</value>
                </Data>
                <Data name="longitude">
                    <value>74.02005</value>
                </Data>
                <Data name="taluka">
                    <value>Ponda</value>
                </Data>
                <Data name="village">
                    <value>Shiroda</value>
                </Data>
            </ExtendedData>
            <Point id="12677">
                <coordinates>74.02005,15.3437,0.0</coordinates>
            </Point>
        </Placemark>
        <Placemark id="12693">
            <ExtendedData>
                <Data name="direction">
                    <value>https://maps.google.com?q=15.33492,74.05584&amp;t=h</value>
                </Data>
                <Data name="id">
                    <value>3656</value>
                </Data>
                <Data name="Sr.No">
                    <value>3656</value>
                </Data>
                <Data name="Reg No">
                    <value>B.W.76/PONDA</value>
                </Data>
                <Data name="Category">
                    <value>agricultural</value>
                </Data>
                <Data name="Type Of Well">
                    <value>Bore Well</value>
                </Data>
                <Data name="Applicant Name">
                    <value>Anand B Khandeparkar</value>
                </Data>
                <Data name="Applicant Address">
                    <value>Makadsai, Shiroda, Ponda</value>
                </Data>
                <Data name="latitude">
                    <value>15.33492</value>
                </Data>
                <Data name="longitude">
                    <value>74.05584</value>
                </Data>
                <Data name="taluka">
                    <value>Ponda</value>
                </Data>
                <Data name="village">
                    <value>Shiroda</value>
                </Data>
            </ExtendedData>
            <Point id="12692">
                <coordinates>74.05584,15.33492,0.0</coordinates>
            </Point>
        </Placemark>
        <Placemark id="12708">
            <ExtendedData>
                <Data name="direction">
                    <value>https://maps.google.com?q=15.31871,74.03084&amp;t=h</value>
                </Data>
                <Data name="id">
                    <value>3661</value>
                </Data>
                <Data name="Sr.No">
                    <value>3661</value>
                </Data>
                <Data name="Reg No">
                    <value>1316/PONDA</value>
                </Data>
                <Data name="Category">
                    <value>agricultural</value>
                </Data>
                <Data name="Type Of Well">
                    <value>Open Well</value>
                </Data>
                <Data name="Applicant Name">
                    <value>GAJANAN GOPAL DHAWALIKAR</value>
                </Data>
                <Data name="Applicant Address">
                    <value>BHATWADA BAZAR, SHIRODA PONDA</value>
                </Data>
                <Data name="latitude">
                    <value>15.31871</value>
                </Data>
                <Data name="longitude">
                    <value>74.03084</value>
                </Data>
                <Data name="taluka">
                    <value>Ponda</value>
                </Data>
                <Data name="village">
                    <value>Shiroda</value>
                </Data>
            </ExtendedData>
            <Point id="12707">
                <coordinates>74.03084,15.31871,0.0</coordinates>
            </Point>
        </Placemark>
        <Placemark id="12723">
            <ExtendedData>
                <Data name="direction">
                    <value>https://maps.google.com?q=15.3182,74.03079&amp;t=h</value>
                </Data>
                <Data name="id">
                    <value>3662</value>
                </Data>
                <Data name="Sr.No">
                    <value>3662</value>
                </Data>
                <Data name="Reg No">
                    <value>1330/PONDA</value>
                </Data>
                <Data name="Category">
                    <value>agricultural</value>
                </Data>
                <Data name="Type Of Well">
                    <value>Open Well</value>
                </Data>
                <Data name="Applicant Name">
                    <value>GAJANAN GOPAL DHAWALIKAR</value>
                </Data>
                <Data name="Applicant Address">
                    <value>BHATWADA BAZAR, SHIRODA PONDA</value>
                </Data>
                <Data name="latitude">
                    <value>15.3182</value>
                </Data>
                <Data name="longitude">
                    <value>74.03079</value>
                </Data>
                <Data name="taluka">
                    <value>Ponda</value>
                </Data>
                <Data name="village">
                    <value>Shiroda</value>
                </Data>
            </ExtendedData>
            <Point id="12722">
                <coordinates>74.03079,15.3182,0.0</coordinates>
            </Point>
        </Placemark>
        <Placemark id="12738">
            <ExtendedData>
                <Data name="direction">
                    <value>https://maps.google.com?q=15.32308,74.03848&amp;t=h</value>
                </Data>
                <Data name="id">
                    <value>3663</value>
                </Data>
                <Data name="Sr.No">
                    <value>3663</value>
                </Data>
                <Data name="Reg No">
                    <value>1351/PONDA</value>
                </Data>
                <Data name="Category">
                    <value>agricultural</value>
                </Data>
                <Data name="Type Of Well">
                    <value>Open Well</value>
                </Data>
                <Data name="Applicant Name">
                    <value>DATTA PRASAD DESSAI</value>
                </Data>
                <Data name="Applicant Address">
                    <value>SHIRODA PONDA</value>
                </Data>
                <Data name="latitude">
                    <value>15.32308</value>
                </Data>
                <Data name="longitude">
                    <value>74.03848</value>
                </Data>
                <Data name="taluka">
                    <value>Ponda</value>
                </Data>
                <Data name="village">
                    <value>Shiroda</value>
                </Data>
            </ExtendedData>
            <Point id="12737">
                <coordinates>74.03848,15.32308,0.0</coordinates>
            </Point>
        </Placemark>
        <Placemark id="12753">
            <ExtendedData>
                <Data name="direction">
                    <value>https://maps.google.com?q=15.3412,74.01886&amp;t=h</value>
                </Data>
                <Data name="id">
                    <value>3666</value>
                </Data>
                <Data name="Sr.No">
                    <value>3666</value>
                </Data>
                <Data name="Reg No">
                    <value>1434/PONDA</value>
                </Data>
                <Data name="Category">
                    <value>agricultural</value>
                </Data>
                <Data name="Type Of Well">
                    <value>Open Well</value>
                </Data>
                <Data name="Applicant Name">
                    <value>ASHOK KESHAV PRABHU SAWKAR</value>
                </Data>
                <Data name="Applicant Address">
                    <value>SHIRODA PONDA</value>
                </Data>
                <Data name="latitude">
                    <value>15.3412</value>
                </Data>
                <Data name="longitude">
                    <value>74.01886</value>
                </Data>
                <Data name="taluka">
                    <value>Ponda</value>
                </Data>
                <Data name="village">
                    <value>Shiroda</value>
                </Data>
            </ExtendedData>
            <Point id="12752">
                <coordinates>74.01886,15.3412,0.0</coordinates>
            </Point>
        </Placemark>
        <Placemark id="12768">
            <ExtendedData>
                <Data name="direction">
                    <value>https://maps.google.com?q=15.32548,74.01299&amp;t=h</value>
                </Data>
                <Data name="id">
                    <value>3673</value>
                </Data>
                <Data name="Sr.No">
                    <value>3673</value>
                </Data>
                <Data name="Reg No">
                    <value>1433/PONDA</value>
                </Data>
                <Data name="Category">
                    <value>agricultural</value>
                </Data>
                <Data name="Type Of Well">
                    <value>Open Well</value>
                </Data>
                <Data name="Applicant Name">
                    <value>MINGUEL TOLENTINO COLACO</value>
                </Data>
                <Data name="Applicant Address">
                    <value>SHIRODA PONDA</value>
                </Data>
                <Data name="latitude">
                    <value>15.32548</value>
                </Data>
                <Data name="longitude">
                    <value>74.01299</value>
                </Data>
                <Data name="taluka">
                    <value>Ponda</value>
                </Data>
                <Data name="village">
                    <value>Shiroda</value>
                </Data>
            </ExtendedData>
            <Point id="12767">
                <coordinates>74.01299,15.32548,0.0</coordinates>
            </Point>
        </Placemark>
        <Placemark id="12783">
            <ExtendedData>
                <Data name="direction">
                    <value>https://maps.google.com?q=15.324634,74.068532&amp;t=h</value>
                </Data>
                <Data name="id">
                    <value>3699</value>
                </Data>
                <Data name="Sr.No">
                    <value>3699</value>
                </Data>
                <Data name="Reg No">
                    <value>155/Ponda</value>
                </Data>
                <Data name="Category">
                    <value>agricultural</value>
                </Data>
                <Data name="Type Of Well">
                    <value>Open Well</value>
                </Data>
                <Data name="Applicant Name">
                    <value>Pradeep Tendulkar</value>
                </Data>
                <Data name="Applicant Address">
                    <value>H.N0. 1593, Torla, Shiroda, Ponda Goa</value>
                </Data>
                <Data name="latitude">
                    <value>15.324634</value>
                </Data>
                <Data name="longitude">
                    <value>74.068532</value>
                </Data>
                <Data name="taluka">
                    <value>Ponda</value>
                </Data>
                <Data name="village">
                    <value>Shiroda</value>
                </Data>
            </ExtendedData>
            <Point id="12782">
                <coordinates>74.068532,15.324634,0.0</coordinates>
            </Point>
        </Placemark>
        <Placemark id="12798">
            <ExtendedData>
                <Data name="direction">
                    <value>https://maps.google.com?q=15.330014,74.046759&amp;t=h</value>
                </Data>
                <Data name="id">
                    <value>3700</value>
                </Data>
                <Data name="Sr.No">
                    <value>3700</value>
                </Data>
                <Data name="Reg No">
                    <value>247A/Ponda</value>
                </Data>
                <Data name="Category">
                    <value>agricultural</value>
                </Data>
                <Data name="Type Of Well">
                    <value>Open Well</value>
                </Data>
                <Data name="Applicant Name">
                    <value>Mohan miringar</value>
                </Data>
                <Data name="Applicant Address">
                    <value>Chikangal Shiroda Ponda Goa</value>
                </Data>
                <Data name="latitude">
                    <value>15.330014</value>
                </Data>
                <Data name="longitude">
                    <value>74.046759</value>
                </Data>
                <Data name="taluka">
                    <value>Ponda</value>
                </Data>
                <Data name="village">
                    <value>Shiroda</value>
                </Data>
            </ExtendedData>
            <Point id="12797">
                <coordinates>74.046759,15.330014,0.0</coordinates>
            </Point>
        </Placemark>
        <Placemark id="12813">
            <ExtendedData>
                <Data name="direction">
                    <value>https://maps.google.com?q=15.330456,74.047184&amp;t=h</value>
                </Data>
                <Data name="id">
                    <value>3701</value>
                </Data>
                <Data name="Sr.No">
                    <value>3701</value>
                </Data>
                <Data name="Reg No">
                    <value>185/Ponda</value>
                </Data>
                <Data name="Category">
                    <value>agricultural</value>
                </Data>
                <Data name="Type Of Well">
                    <value>Open Well</value>
                </Data>
                <Data name="Applicant Name">
                    <value>Mohan Miringkar</value>
                </Data>
                <Data name="Applicant Address">
                    <value>Chikangal Shiroda Ponda Goa</value>
                </Data>
                <Data name="latitude">
                    <value>15.330456</value>
                </Data>
                <Data name="longitude">
                    <value>74.047184</value>
                </Data>
                <Data name="taluka">
                    <value>Ponda</value>
                </Data>
                <Data name="village">
                    <value>Shiroda</value>
                </Data>
            </ExtendedData>
            <Point id="12812">
                <coordinates>74.047184,15.330456,0.0</coordinates>
            </Point>
        </Placemark>
        <Placemark id="12828">
            <ExtendedData>
                <Data name="direction">
                    <value>https://maps.google.com?q=15.333036,74.043996&amp;t=h</value>
                </Data>
                <Data name="id">
                    <value>3702</value>
                </Data>
                <Data name="Sr.No">
                    <value>3702</value>
                </Data>
                <Data name="Reg No">
                    <value>186/Ponda</value>
                </Data>
                <Data name="Category">
                    <value>agricultural</value>
                </Data>
                <Data name="Type Of Well">
                    <value>Open Well</value>
                </Data>
                <Data name="Applicant Name">
                    <value>Mohan Miringkar</value>
                </Data>
                <Data name="Applicant Address">
                    <value>Chikangal Shiroda Ponda Goa</value>
                </Data>
                <Data name="latitude">
                    <value>15.333036</value>
                </Data>
                <Data name="longitude">
                    <value>74.043996</value>
                </Data>
                <Data name="taluka">
                    <value>Ponda</value>
                </Data>
                <Data name="village">
                    <value>Shiroda</value>
                </Data>
            </ExtendedData>
            <Point id="12827">
                <coordinates>74.043996,15.333036,0.0</coordinates>
            </Point>
        </Placemark>
        <Placemark id="12843">
            <ExtendedData>
                <Data name="direction">
                    <value>https://maps.google.com?q=15.332996,74.043803&amp;t=h</value>
                </Data>
                <Data name="id">
                    <value>3703</value>
                </Data>
                <Data name="Sr.No">
                    <value>3703</value>
                </Data>
                <Data name="Reg No">
                    <value>187/Ponda</value>
                </Data>
                <Data name="Category">
                    <value>agricultural</value>
                </Data>
                <Data name="Type Of Well">
                    <value>Open Well</value>
                </Data>
                <Data name="Applicant Name">
                    <value>Mohan Miringkar</value>
                </Data>
                <Data name="Applicant Address">
                    <value>Chikangal Shiroda Ponda Goa</value>
                </Data>
                <Data name="latitude">
                    <value>15.332996</value>
                </Data>
                <Data name="longitude">
                    <value>74.043803</value>
                </Data>
                <Data name="taluka">
                    <value>Ponda</value>
                </Data>
                <Data name="village">
                    <value>Shiroda</value>
                </Data>
            </ExtendedData>
            <Point id="12842">
                <coordinates>74.043803,15.332996,0.0</coordinates>
            </Point>
        </Placemark>
        <Placemark id="12858">
            <ExtendedData>
                <Data name="direction">
                    <value>https://maps.google.com?q=15.329559,74.034349&amp;t=h</value>
                </Data>
                <Data name="id">
                    <value>3765</value>
                </Data>
                <Data name="Sr.No">
                    <value>3765</value>
                </Data>
                <Data name="Reg No">
                    <value>174/Ponda</value>
                </Data>
                <Data name="Category">
                    <value>irrigation</value>
                </Data>
                <Data name="Type Of Well">
                    <value>Bore well</value>
                </Data>
                <Data name="Applicant Name">
                    <value>Shri Abhay Venkatesh Prabhu</value>
                </Data>
                <Data name="Applicant Address">
                    <value>913, Dawan, Satore, Shiroda - Ponda</value>
                </Data>
                <Data name="latitude">
                    <value>15.329559</value>
                </Data>
                <Data name="longitude">
                    <value>74.034349</value>
                </Data>
                <Data name="taluka">
                    <value>Ponda</value>
                </Data>
                <Data name="village">
                    <value>Shiroda</value>
                </Data>
            </ExtendedData>
            <Point id="12857">
                <coordinates>74.034349,15.329559,0.0</coordinates>
            </Point>
        </Placemark>
        <Placemark id="12873">
            <ExtendedData>
                <Data name="direction">
                    <value>https://maps.google.com?q=15.329708,74.033834&amp;t=h</value>
                </Data>
                <Data name="id">
                    <value>3766</value>
                </Data>
                <Data name="Sr.No">
                    <value>3766</value>
                </Data>
                <Data name="Reg No">
                    <value>175/Ponda</value>
                </Data>
                <Data name="Category">
                    <value>agricultural</value>
                </Data>
                <Data name="Type Of Well">
                    <value>Open Well</value>
                </Data>
                <Data name="Applicant Name">
                    <value>Shri Abhay Venkatesh Prabhu (A)</value>
                </Data>
                <Data name="Applicant Address">
                    <value>913, Dawan, Satore, Shiroda - Ponda</value>
                </Data>
                <Data name="latitude">
                    <value>15.329708</value>
                </Data>
                <Data name="longitude">
                    <value>74.033834</value>
                </Data>
                <Data name="taluka">
                    <value>Ponda</value>
                </Data>
                <Data name="village">
                    <value>Shiroda</value>
                </Data>
            </ExtendedData>
            <Point id="12872">
                <coordinates>74.033834,15.329708,0.0</coordinates>
            </Point>
        </Placemark>
        <Placemark id="12888">
            <ExtendedData>
                <Data name="direction">
                    <value>https://maps.google.com?q=15.327822,74.03449&amp;t=h</value>
                </Data>
                <Data name="id">
                    <value>3768</value>
                </Data>
                <Data name="Sr.No">
                    <value>3768</value>
                </Data>
                <Data name="Reg No">
                    <value>177/Ponda</value>
                </Data>
                <Data name="Category">
                    <value>agricultural</value>
                </Data>
                <Data name="Type Of Well">
                    <value>Open Well</value>
                </Data>
                <Data name="Applicant Name">
                    <value>Shri Abhay Venkatesh Prabhu (D)</value>
                </Data>
                <Data name="Applicant Address">
                    <value>913, Dawan, Satore, Shiroda - Ponda</value>
                </Data>
                <Data name="latitude">
                    <value>15.327822</value>
                </Data>
                <Data name="longitude">
                    <value>74.03449</value>
                </Data>
                <Data name="taluka">
                    <value>Ponda</value>
                </Data>
                <Data name="village">
                    <value>Shiroda</value>
                </Data>
            </ExtendedData>
            <Point id="12887">
                <coordinates>74.03449,15.327822,0.0</coordinates>
            </Point>
        </Placemark>
        <Placemark id="12903">
            <ExtendedData>
                <Data name="direction">
                    <value>https://maps.google.com?q=15.326369,74.032818&amp;t=h</value>
                </Data>
                <Data name="id">
                    <value>3770</value>
                </Data>
                <Data name="Sr.No">
                    <value>3770</value>
                </Data>
                <Data name="Reg No">
                    <value>57/Ponda</value>
                </Data>
                <Data name="Category">
                    <value>agricultural</value>
                </Data>
                <Data name="Type Of Well">
                    <value>Open Well</value>
                </Data>
                <Data name="Applicant Name">
                    <value>Vijwal Ramkrishna Prabhu Dessai</value>
                </Data>
                <Data name="Applicant Address">
                    <value>H.no 921, Satorem- Shiroda, Goa 403601</value>
                </Data>
                <Data name="latitude">
                    <value>15.326369</value>
                </Data>
                <Data name="longitude">
                    <value>74.032818</value>
                </Data>
                <Data name="taluka">
                    <value>Ponda</value>
                </Data>
                <Data name="village">
                    <value>Shiroda</value>
                </Data>
            </ExtendedData>
            <Point id="12902">
                <coordinates>74.032818,15.326369,0.0</coordinates>
            </Point>
        </Placemark>
        <Placemark id="12918">
            <ExtendedData>
                <Data name="direction">
                    <value>https://maps.google.com?q=15.350731,74.021918&amp;t=h</value>
                </Data>
                <Data name="id">
                    <value>3802</value>
                </Data>
                <Data name="Sr.No">
                    <value>3802</value>
                </Data>
                <Data name="Reg No">
                    <value>225/Shiroda</value>
                </Data>
                <Data name="Category">
                    <value>agricultural</value>
                </Data>
                <Data name="Type Of Well">
                    <value>Open Well</value>
                </Data>
                <Data name="Applicant Name">
                    <value>Jayant Naik shirodkar</value>
                </Data>
                <Data name="Applicant Address">
                    <value>NULL</value>
                </Data>
                <Data name="latitude">
                    <value>15.350731</value>
                </Data>
                <Data name="longitude">
                    <value>74.021918</value>
                </Data>
                <Data name="taluka">
                    <value>Ponda</value>
                </Data>
                <Data name="village">
                    <value>Shiroda</value>
                </Data>
            </ExtendedData>
            <Point id="12917">
                <coordinates>74.021918,15.350731,0.0</coordinates>
            </Point>
        </Placemark>
        <Placemark id="12933">
            <ExtendedData>
                <Data name="direction">
                    <value>https://maps.google.com?q=15.323151,74.038512&amp;t=h</value>
                </Data>
                <Data name="id">
                    <value>3826</value>
                </Data>
                <Data name="Sr.No">
                    <value>3826</value>
                </Data>
                <Data name="Reg No">
                    <value>76/Shiroda</value>
                </Data>
                <Data name="Category">
                    <value>agricultural</value>
                </Data>
                <Data name="Type Of Well">
                    <value>Open Well</value>
                </Data>
                <Data name="Applicant Name">
                    <value>Dattaprasad shripad dessai</value>
                </Data>
                <Data name="Applicant Address">
                    <value>NULL</value>
                </Data>
                <Data name="latitude">
                    <value>15.323151</value>
                </Data>
                <Data name="longitude">
                    <value>74.038512</value>
                </Data>
                <Data name="taluka">
                    <value>Ponda</value>
                </Data>
                <Data name="village">
                    <value>Shiroda</value>
                </Data>
            </ExtendedData>
            <Point id="12932">
                <coordinates>74.038512,15.323151,0.0</coordinates>
            </Point>
        </Placemark>
    </Document>
</kml>
