<?xml version="1.0" encoding="UTF-8"?>
<kml xmlns="http://www.opengis.net/kml/2.2" xmlns:gx="http://www.google.com/kml/ext/2.2">
    <Document id="5185">
        <Placemark id="5187">
            <ExtendedData>
                <Data name="direction">
                    <value>https://maps.google.com?q=15.039495,74.014561&amp;t=h</value>
                </Data>
                <Data name="id">
                    <value>3307</value>
                </Data>
                <Data name="Sr.No">
                    <value>3307</value>
                </Data>
                <Data name="Reg No">
                    <value>34/Canacona</value>
                </Data>
                <Data name="Category">
                    <value>agricultural</value>
                </Data>
                <Data name="Type Of Well">
                    <value>Bore well</value>
                </Data>
                <Data name="Applicant Name">
                    <value>Ajaia Gopinath Naik Gaonkar</value>
                </Data>
                <Data name="Applicant Address">
                    <value>H.no 542, Karashirmol, Agonda,</value>
                </Data>
                <Data name="latitude">
                    <value>15.039495</value>
                </Data>
                <Data name="longitude">
                    <value>74.014561</value>
                </Data>
                <Data name="taluka">
                    <value>Canacona</value>
                </Data>
                <Data name="village">
                    <value>Agonda</value>
                </Data>
            </ExtendedData>
            <Point id="5186">
                <coordinates>74.014561,15.039495,0.0</coordinates>
            </Point>
        </Placemark>
        <Placemark id="5202">
            <ExtendedData>
                <Data name="direction">
                    <value>https://maps.google.com?q=15.049917,73.996012&amp;t=h</value>
                </Data>
                <Data name="id">
                    <value>3336</value>
                </Data>
                <Data name="Sr.No">
                    <value>3336</value>
                </Data>
                <Data name="Reg No">
                    <value>106/Canacona</value>
                </Data>
                <Data name="Category">
                    <value>agricultural</value>
                </Data>
                <Data name="Type Of Well">
                    <value>Open Well</value>
                </Data>
                <Data name="Applicant Name">
                    <value>Mrs. Reshma Pereira</value>
                </Data>
                <Data name="Applicant Address">
                    <value>H.No. 551/E-1, Karashirmoll, Agonda, Canacona</value>
                </Data>
                <Data name="latitude">
                    <value>15.049917</value>
                </Data>
                <Data name="longitude">
                    <value>73.996012</value>
                </Data>
                <Data name="taluka">
                    <value>Canacona</value>
                </Data>
                <Data name="village">
                    <value>Agonda</value>
                </Data>
            </ExtendedData>
            <Point id="5201">
                <coordinates>73.996012,15.049917,0.0</coordinates>
            </Point>
        </Placemark>
        <Placemark id="5217">
            <ExtendedData>
                <Data name="direction">
                    <value>https://maps.google.com?q=15.052054,73.988506&amp;t=h</value>
                </Data>
                <Data name="id">
                    <value>3337</value>
                </Data>
                <Data name="Sr.No">
                    <value>3337</value>
                </Data>
                <Data name="Reg No">
                    <value>9/Canacona</value>
                </Data>
                <Data name="Category">
                    <value>agricultural</value>
                </Data>
                <Data name="Type Of Well">
                    <value>Open Well</value>
                </Data>
                <Data name="Applicant Name">
                    <value>Ticiano Coutinho</value>
                </Data>
                <Data name="Applicant Address">
                    <value>H.no 551/E-1, Karashirmol, Agonda,</value>
                </Data>
                <Data name="latitude">
                    <value>15.052054</value>
                </Data>
                <Data name="longitude">
                    <value>73.988506</value>
                </Data>
                <Data name="taluka">
                    <value>Canacona</value>
                </Data>
                <Data name="village">
                    <value>Agonda</value>
                </Data>
            </ExtendedData>
            <Point id="5216">
                <coordinates>73.988506,15.052054,0.0</coordinates>
            </Point>
        </Placemark>
        <Placemark id="5232">
            <ExtendedData>
                <Data name="direction">
                    <value>https://maps.google.com?q=15.029585,74.007303&amp;t=h</value>
                </Data>
                <Data name="id">
                    <value>3379</value>
                </Data>
                <Data name="Sr.No">
                    <value>3379</value>
                </Data>
                <Data name="Reg No">
                    <value>122/Canacona</value>
                </Data>
                <Data name="Category">
                    <value>agricultural</value>
                </Data>
                <Data name="Type Of Well">
                    <value>Open Well</value>
                </Data>
                <Data name="Applicant Name">
                    <value>Shri. Meghnath Raghoba Naik Gaonkar</value>
                </Data>
                <Data name="Applicant Address">
                    <value>H. No. T-4, 3rd Floor, Building Kurtarkar Township Ambaji, Fatorda, Margao Goa</value>
                </Data>
                <Data name="latitude">
                    <value>15.029585</value>
                </Data>
                <Data name="longitude">
                    <value>74.007303</value>
                </Data>
                <Data name="taluka">
                    <value>Canacona</value>
                </Data>
                <Data name="village">
                    <value>Agonda</value>
                </Data>
            </ExtendedData>
            <Point id="5231">
                <coordinates>74.007303,15.029585,0.0</coordinates>
            </Point>
        </Placemark>
        <Placemark id="5247">
            <ExtendedData>
                <Data name="direction">
                    <value>https://maps.google.com?q=15.042086,74.000814&amp;t=h</value>
                </Data>
                <Data name="id">
                    <value>3380</value>
                </Data>
                <Data name="Sr.No">
                    <value>3380</value>
                </Data>
                <Data name="Reg No">
                    <value>322</value>
                </Data>
                <Data name="Category">
                    <value>agricultural</value>
                </Data>
                <Data name="Type Of Well">
                    <value>Open Well</value>
                </Data>
                <Data name="Applicant Name">
                    <value>Navnath Balkrishna Sawant</value>
                </Data>
                <Data name="Applicant Address">
                    <value>Sawant Bag, Agonda, Canacona</value>
                </Data>
                <Data name="latitude">
                    <value>15.042086</value>
                </Data>
                <Data name="longitude">
                    <value>74.000814</value>
                </Data>
                <Data name="taluka">
                    <value>Canacona</value>
                </Data>
                <Data name="village">
                    <value>Agonda</value>
                </Data>
            </ExtendedData>
            <Point id="5246">
                <coordinates>74.000814,15.042086,0.0</coordinates>
            </Point>
        </Placemark>
        <Placemark id="5262">
            <ExtendedData>
                <Data name="direction">
                    <value>https://maps.google.com?q=15.047025,73.987691&amp;t=h</value>
                </Data>
                <Data name="id">
                    <value>3382</value>
                </Data>
                <Data name="Sr.No">
                    <value>3382</value>
                </Data>
                <Data name="Reg No">
                    <value>11/Canacona</value>
                </Data>
                <Data name="Category">
                    <value>agricultural</value>
                </Data>
                <Data name="Type Of Well">
                    <value>Open Well</value>
                </Data>
                <Data name="Applicant Name">
                    <value>Heraldo Fernandes</value>
                </Data>
                <Data name="Applicant Address">
                    <value>R/O Mahal Chaktem, Agonda, Canacona</value>
                </Data>
                <Data name="latitude">
                    <value>15.047025</value>
                </Data>
                <Data name="longitude">
                    <value>73.987691</value>
                </Data>
                <Data name="taluka">
                    <value>Canacona</value>
                </Data>
                <Data name="village">
                    <value>Agonda</value>
                </Data>
            </ExtendedData>
            <Point id="5261">
                <coordinates>73.987691,15.047025,0.0</coordinates>
            </Point>
        </Placemark>
        <Placemark id="5277">
            <ExtendedData>
                <Data name="direction">
                    <value>https://maps.google.com?q=15.05049,73.995455&amp;t=h</value>
                </Data>
                <Data name="id">
                    <value>3385</value>
                </Data>
                <Data name="Sr.No">
                    <value>3385</value>
                </Data>
                <Data name="Reg No">
                    <value>38/Canacona</value>
                </Data>
                <Data name="Category">
                    <value>agricultural</value>
                </Data>
                <Data name="Type Of Well">
                    <value>Open Well</value>
                </Data>
                <Data name="Applicant Name">
                    <value>Mariano Fernandes</value>
                </Data>
                <Data name="Applicant Address">
                    <value>H.no 641, Karashir moll, Agonda</value>
                </Data>
                <Data name="latitude">
                    <value>15.05049</value>
                </Data>
                <Data name="longitude">
                    <value>73.995455</value>
                </Data>
                <Data name="taluka">
                    <value>Canacona</value>
                </Data>
                <Data name="village">
                    <value>Agonda</value>
                </Data>
            </ExtendedData>
            <Point id="5276">
                <coordinates>73.995455,15.05049,0.0</coordinates>
            </Point>
        </Placemark>
        <Placemark id="5292">
            <ExtendedData>
                <Data name="direction">
                    <value>https://maps.google.com?q=15.039936,74.002376&amp;t=h</value>
                </Data>
                <Data name="id">
                    <value>3428</value>
                </Data>
                <Data name="Sr.No">
                    <value>3428</value>
                </Data>
                <Data name="Reg No">
                    <value>66/Canacona</value>
                </Data>
                <Data name="Category">
                    <value>agricultural</value>
                </Data>
                <Data name="Type Of Well">
                    <value>Open Well</value>
                </Data>
                <Data name="Applicant Name">
                    <value>Shri.Premanand Alias Nilu Putunaik Gaonkar</value>
                </Data>
                <Data name="Applicant Address">
                    <value>H.no-445,guraval Agonda, Canacona</value>
                </Data>
                <Data name="latitude">
                    <value>15.039936</value>
                </Data>
                <Data name="longitude">
                    <value>74.002376</value>
                </Data>
                <Data name="taluka">
                    <value>Canacona</value>
                </Data>
                <Data name="village">
                    <value>Agonda</value>
                </Data>
            </ExtendedData>
            <Point id="5291">
                <coordinates>74.002376,15.039936,0.0</coordinates>
            </Point>
        </Placemark>
    </Document>
</kml>
