<?xml version="1.0" encoding="UTF-8"?>
<kml xmlns="http://www.opengis.net/kml/2.2" xmlns:gx="http://www.google.com/kml/ext/2.2">
    <Document id="5718">
        <Placemark id="5720">
            <ExtendedData>
                <Data name="direction">
                    <value>https://maps.google.com?q=15.032939,74.117474&amp;t=h</value>
                </Data>
                <Data name="id">
                    <value>3308</value>
                </Data>
                <Data name="Sr.No">
                    <value>3308</value>
                </Data>
                <Data name="Reg No">
                    <value>46/Canacona</value>
                </Data>
                <Data name="Category">
                    <value>agricultural</value>
                </Data>
                <Data name="Type Of Well">
                    <value>Open Well</value>
                </Data>
                <Data name="Applicant Name">
                    <value>Prakash Deu Gaonkar</value>
                </Data>
                <Data name="Applicant Address">
                    <value>H.no 144, Shristhal, Gaondongrim, Canacona, G</value>
                </Data>
                <Data name="latitude">
                    <value>15.032939</value>
                </Data>
                <Data name="longitude">
                    <value>74.117474</value>
                </Data>
                <Data name="taluka">
                    <value>Canacona</value>
                </Data>
                <Data name="village">
                    <value>Gaodongrem</value>
                </Data>
            </ExtendedData>
            <Point id="5719">
                <coordinates>74.117474,15.032939,0.0</coordinates>
            </Point>
        </Placemark>
        <Placemark id="5735">
            <ExtendedData>
                <Data name="direction">
                    <value>https://maps.google.com?q=15.036758,74.117235&amp;t=h</value>
                </Data>
                <Data name="id">
                    <value>3309</value>
                </Data>
                <Data name="Sr.No">
                    <value>3309</value>
                </Data>
                <Data name="Reg No">
                    <value>90/Canacona</value>
                </Data>
                <Data name="Category">
                    <value>agricultural</value>
                </Data>
                <Data name="Type Of Well">
                    <value>Bore well</value>
                </Data>
                <Data name="Applicant Name">
                    <value>Prashant R. kale</value>
                </Data>
                <Data name="Applicant Address">
                    <value>H.no:-132, Shristhal, Gaondongrim - Canacona</value>
                </Data>
                <Data name="latitude">
                    <value>15.036758</value>
                </Data>
                <Data name="longitude">
                    <value>74.117235</value>
                </Data>
                <Data name="taluka">
                    <value>Canacona</value>
                </Data>
                <Data name="village">
                    <value>Gaodongrem</value>
                </Data>
            </ExtendedData>
            <Point id="5734">
                <coordinates>74.117235,15.036758,0.0</coordinates>
            </Point>
        </Placemark>
        <Placemark id="5750">
            <ExtendedData>
                <Data name="direction">
                    <value>https://maps.google.com?q=15.026051,74.13066&amp;t=h</value>
                </Data>
                <Data name="id">
                    <value>3310</value>
                </Data>
                <Data name="Sr.No">
                    <value>3310</value>
                </Data>
                <Data name="Reg No">
                    <value>120/Canacona</value>
                </Data>
                <Data name="Category">
                    <value>agricultural</value>
                </Data>
                <Data name="Type Of Well">
                    <value>Bore well</value>
                </Data>
                <Data name="Applicant Name">
                    <value>Shri. Puno Bhisso Gaonkar &amp; Janu Bhisso Gaonkar</value>
                </Data>
                <Data name="Applicant Address">
                    <value>H. NO. 277,, Ziltawadi, Gaondongrem, Canacona</value>
                </Data>
                <Data name="latitude">
                    <value>15.026051</value>
                </Data>
                <Data name="longitude">
                    <value>74.13066</value>
                </Data>
                <Data name="taluka">
                    <value>Canacona</value>
                </Data>
                <Data name="village">
                    <value>Gaodongrem</value>
                </Data>
            </ExtendedData>
            <Point id="5749">
                <coordinates>74.13066,15.026051,0.0</coordinates>
            </Point>
        </Placemark>
        <Placemark id="5765">
            <ExtendedData>
                <Data name="direction">
                    <value>https://maps.google.com?q=15.026772,74.130308&amp;t=h</value>
                </Data>
                <Data name="id">
                    <value>3311</value>
                </Data>
                <Data name="Sr.No">
                    <value>3311</value>
                </Data>
                <Data name="Reg No">
                    <value>92/Canacona</value>
                </Data>
                <Data name="Category">
                    <value>agricultural</value>
                </Data>
                <Data name="Type Of Well">
                    <value>Bore well</value>
                </Data>
                <Data name="Applicant Name">
                    <value>Mr.Madhu Shabu Gaonkar</value>
                </Data>
                <Data name="Applicant Address">
                    <value>H.no.301, Ziltawadi,Gaondongrim, Canacona</value>
                </Data>
                <Data name="latitude">
                    <value>15.026772</value>
                </Data>
                <Data name="longitude">
                    <value>74.130308</value>
                </Data>
                <Data name="taluka">
                    <value>Canacona</value>
                </Data>
                <Data name="village">
                    <value>Gaodongrem</value>
                </Data>
            </ExtendedData>
            <Point id="5764">
                <coordinates>74.130308,15.026772,0.0</coordinates>
            </Point>
        </Placemark>
        <Placemark id="5780">
            <ExtendedData>
                <Data name="direction">
                    <value>https://maps.google.com?q=15.02606,74.133301&amp;t=h</value>
                </Data>
                <Data name="id">
                    <value>3312</value>
                </Data>
                <Data name="Sr.No">
                    <value>3312</value>
                </Data>
                <Data name="Reg No">
                    <value>93/Canacona</value>
                </Data>
                <Data name="Category">
                    <value>agricultural</value>
                </Data>
                <Data name="Type Of Well">
                    <value>Bore well</value>
                </Data>
                <Data name="Applicant Name">
                    <value>Mr.Subhash M.Gaonkar</value>
                </Data>
                <Data name="Applicant Address">
                    <value>Ziltawadi ,Gaondongrim</value>
                </Data>
                <Data name="latitude">
                    <value>15.02606</value>
                </Data>
                <Data name="longitude">
                    <value>74.133301</value>
                </Data>
                <Data name="taluka">
                    <value>Canacona</value>
                </Data>
                <Data name="village">
                    <value>Gaodongrem</value>
                </Data>
            </ExtendedData>
            <Point id="5779">
                <coordinates>74.133301,15.02606,0.0</coordinates>
            </Point>
        </Placemark>
        <Placemark id="5795">
            <ExtendedData>
                <Data name="direction">
                    <value>https://maps.google.com?q=15.026105,74.132051&amp;t=h</value>
                </Data>
                <Data name="id">
                    <value>3313</value>
                </Data>
                <Data name="Sr.No">
                    <value>3313</value>
                </Data>
                <Data name="Reg No">
                    <value>96/Canacona</value>
                </Data>
                <Data name="Category">
                    <value>agricultural</value>
                </Data>
                <Data name="Type Of Well">
                    <value>Bore well</value>
                </Data>
                <Data name="Applicant Name">
                    <value>Mr.Tukaram Dev Gaonkar</value>
                </Data>
                <Data name="Applicant Address">
                    <value>Hno.295,Ziltawada,Gaondongrim,Canacona</value>
                </Data>
                <Data name="latitude">
                    <value>15.026105</value>
                </Data>
                <Data name="longitude">
                    <value>74.132051</value>
                </Data>
                <Data name="taluka">
                    <value>Canacona</value>
                </Data>
                <Data name="village">
                    <value>Gaodongrem</value>
                </Data>
            </ExtendedData>
            <Point id="5794">
                <coordinates>74.132051,15.026105,0.0</coordinates>
            </Point>
        </Placemark>
        <Placemark id="5810">
            <ExtendedData>
                <Data name="direction">
                    <value>https://maps.google.com?q=15.025591,74.130887&amp;t=h</value>
                </Data>
                <Data name="id">
                    <value>3314</value>
                </Data>
                <Data name="Sr.No">
                    <value>3314</value>
                </Data>
                <Data name="Reg No">
                    <value>130/Canacona</value>
                </Data>
                <Data name="Category">
                    <value>agricultural</value>
                </Data>
                <Data name="Type Of Well">
                    <value>Bore well</value>
                </Data>
                <Data name="Applicant Name">
                    <value>Shri. Laxman Lingu Gaonkar</value>
                </Data>
                <Data name="Applicant Address">
                    <value>H. No. 284, Ziltawadi, Gaondongrem, Canacona</value>
                </Data>
                <Data name="latitude">
                    <value>15.025591</value>
                </Data>
                <Data name="longitude">
                    <value>74.130887</value>
                </Data>
                <Data name="taluka">
                    <value>Canacona</value>
                </Data>
                <Data name="village">
                    <value>Gaodongrem</value>
                </Data>
            </ExtendedData>
            <Point id="5809">
                <coordinates>74.130887,15.025591,0.0</coordinates>
            </Point>
        </Placemark>
        <Placemark id="5825">
            <ExtendedData>
                <Data name="direction">
                    <value>https://maps.google.com?q=15.021559,74.124386&amp;t=h</value>
                </Data>
                <Data name="id">
                    <value>3316</value>
                </Data>
                <Data name="Sr.No">
                    <value>3316</value>
                </Data>
                <Data name="Reg No">
                    <value>62/Canacona</value>
                </Data>
                <Data name="Category">
                    <value>agricultural</value>
                </Data>
                <Data name="Type Of Well">
                    <value>Open Well</value>
                </Data>
                <Data name="Applicant Name">
                    <value>Jayanti Ulhas Gaonkar</value>
                </Data>
                <Data name="Applicant Address">
                    <value>H.No.368/2, Talem, Gaodongrem, Canacona</value>
                </Data>
                <Data name="latitude">
                    <value>15.021559</value>
                </Data>
                <Data name="longitude">
                    <value>74.124386</value>
                </Data>
                <Data name="taluka">
                    <value>Canacona</value>
                </Data>
                <Data name="village">
                    <value>Gaodongrem</value>
                </Data>
            </ExtendedData>
            <Point id="5824">
                <coordinates>74.124386,15.021559,0.0</coordinates>
            </Point>
        </Placemark>
        <Placemark id="5840">
            <ExtendedData>
                <Data name="direction">
                    <value>https://maps.google.com?q=14.992848,74.15063&amp;t=h</value>
                </Data>
                <Data name="id">
                    <value>3317</value>
                </Data>
                <Data name="Sr.No">
                    <value>3317</value>
                </Data>
                <Data name="Reg No">
                    <value>97/Canacona</value>
                </Data>
                <Data name="Category">
                    <value>agricultural</value>
                </Data>
                <Data name="Type Of Well">
                    <value>Bore well</value>
                </Data>
                <Data name="Applicant Name">
                    <value>Mr.Kiran Shivram Desai</value>
                </Data>
                <Data name="Applicant Address">
                    <value>H.no.136/2,manem,cotigao, Canacona</value>
                </Data>
                <Data name="latitude">
                    <value>14.992848</value>
                </Data>
                <Data name="longitude">
                    <value>74.15063</value>
                </Data>
                <Data name="taluka">
                    <value>Canacona</value>
                </Data>
                <Data name="village">
                    <value>Gaodongrem</value>
                </Data>
            </ExtendedData>
            <Point id="5839">
                <coordinates>74.15063,14.992848,0.0</coordinates>
            </Point>
        </Placemark>
        <Placemark id="5855">
            <ExtendedData>
                <Data name="direction">
                    <value>https://maps.google.com?q=15.007124,74.163295&amp;t=h</value>
                </Data>
                <Data name="id">
                    <value>3318</value>
                </Data>
                <Data name="Sr.No">
                    <value>3318</value>
                </Data>
                <Data name="Reg No">
                    <value>54/Canacona</value>
                </Data>
                <Data name="Category">
                    <value>agricultural</value>
                </Data>
                <Data name="Type Of Well">
                    <value>Open Well</value>
                </Data>
                <Data name="Applicant Name">
                    <value>Sushant Tolu Velip</value>
                </Data>
                <Data name="Applicant Address">
                    <value>H.no 107, Avem, Cotigao, Gaodongarim</value>
                </Data>
                <Data name="latitude">
                    <value>15.007124</value>
                </Data>
                <Data name="longitude">
                    <value>74.163295</value>
                </Data>
                <Data name="taluka">
                    <value>Canacona</value>
                </Data>
                <Data name="village">
                    <value>Gaodongrem</value>
                </Data>
            </ExtendedData>
            <Point id="5854">
                <coordinates>74.163295,15.007124,0.0</coordinates>
            </Point>
        </Placemark>
        <Placemark id="5870">
            <ExtendedData>
                <Data name="direction">
                    <value>https://maps.google.com?q=15.004893,74.16908&amp;t=h</value>
                </Data>
                <Data name="id">
                    <value>3325</value>
                </Data>
                <Data name="Sr.No">
                    <value>3325</value>
                </Data>
                <Data name="Reg No">
                    <value>45/Canacona</value>
                </Data>
                <Data name="Category">
                    <value>agricultural</value>
                </Data>
                <Data name="Type Of Well">
                    <value>Bore well</value>
                </Data>
                <Data name="Applicant Name">
                    <value>Shri.Jeeva Yeshwant Desai</value>
                </Data>
                <Data name="Applicant Address">
                    <value>H.no-103,Avem,Cotigao,Canacona</value>
                </Data>
                <Data name="latitude">
                    <value>15.004893</value>
                </Data>
                <Data name="longitude">
                    <value>74.16908</value>
                </Data>
                <Data name="taluka">
                    <value>Canacona</value>
                </Data>
                <Data name="village">
                    <value>Gaodongrem</value>
                </Data>
            </ExtendedData>
            <Point id="5869">
                <coordinates>74.16908,15.004893,0.0</coordinates>
            </Point>
        </Placemark>
        <Placemark id="5885">
            <ExtendedData>
                <Data name="direction">
                    <value>https://maps.google.com?q=15.005393,74.095307&amp;t=h</value>
                </Data>
                <Data name="id">
                    <value>3368</value>
                </Data>
                <Data name="Sr.No">
                    <value>3368</value>
                </Data>
                <Data name="Reg No">
                    <value>31/Canacona</value>
                </Data>
                <Data name="Category">
                    <value>agricultural</value>
                </Data>
                <Data name="Type Of Well">
                    <value>Open Well</value>
                </Data>
                <Data name="Applicant Name">
                    <value>Vinay Manguesh Dalal</value>
                </Data>
                <Data name="Applicant Address">
                    <value>Vazrem, 385-D-1, Gaondongrim, Canacona</value>
                </Data>
                <Data name="latitude">
                    <value>15.005393</value>
                </Data>
                <Data name="longitude">
                    <value>74.095307</value>
                </Data>
                <Data name="taluka">
                    <value>Canacona</value>
                </Data>
                <Data name="village">
                    <value>Gaodongrem</value>
                </Data>
            </ExtendedData>
            <Point id="5884">
                <coordinates>74.095307,15.005393,0.0</coordinates>
            </Point>
        </Placemark>
        <Placemark id="5900">
            <ExtendedData>
                <Data name="direction">
                    <value>https://maps.google.com?q=15.051245,74.110717&amp;t=h</value>
                </Data>
                <Data name="id">
                    <value>3369</value>
                </Data>
                <Data name="Sr.No">
                    <value>3369</value>
                </Data>
                <Data name="Reg No">
                    <value>284</value>
                </Data>
                <Data name="Category">
                    <value>agricultural</value>
                </Data>
                <Data name="Type Of Well">
                    <value>Open Well</value>
                </Data>
                <Data name="Applicant Name">
                    <value>Subhash Arjun Velip</value>
                </Data>
                <Data name="Applicant Address">
                    <value>H.no 99, Chal Goandongrem,Canacona</value>
                </Data>
                <Data name="latitude">
                    <value>15.051245</value>
                </Data>
                <Data name="longitude">
                    <value>74.110717</value>
                </Data>
                <Data name="taluka">
                    <value>Canacona</value>
                </Data>
                <Data name="village">
                    <value>Gaodongrem</value>
                </Data>
            </ExtendedData>
            <Point id="5899">
                <coordinates>74.110717,15.051245,0.0</coordinates>
            </Point>
        </Placemark>
        <Placemark id="5915">
            <ExtendedData>
                <Data name="direction">
                    <value>https://maps.google.com?q=15.038869,74.130408&amp;t=h</value>
                </Data>
                <Data name="id">
                    <value>3370</value>
                </Data>
                <Data name="Sr.No">
                    <value>3370</value>
                </Data>
                <Data name="Reg No">
                    <value>136/Canacona</value>
                </Data>
                <Data name="Category">
                    <value>agricultural</value>
                </Data>
                <Data name="Type Of Well">
                    <value>Bore well</value>
                </Data>
                <Data name="Applicant Name">
                    <value>Shri. Ganesh Kust Shet</value>
                </Data>
                <Data name="Applicant Address">
                    <value>H. No. 274, Tudal, Gaondongrem, Canacona</value>
                </Data>
                <Data name="latitude">
                    <value>15.038869</value>
                </Data>
                <Data name="longitude">
                    <value>74.130408</value>
                </Data>
                <Data name="taluka">
                    <value>Canacona</value>
                </Data>
                <Data name="village">
                    <value>Gaodongrem</value>
                </Data>
            </ExtendedData>
            <Point id="5914">
                <coordinates>74.130408,15.038869,0.0</coordinates>
            </Point>
        </Placemark>
        <Placemark id="5930">
            <ExtendedData>
                <Data name="direction">
                    <value>https://maps.google.com?q=15.043428,74.135701&amp;t=h</value>
                </Data>
                <Data name="id">
                    <value>3371</value>
                </Data>
                <Data name="Sr.No">
                    <value>3371</value>
                </Data>
                <Data name="Reg No">
                    <value>372</value>
                </Data>
                <Data name="Category">
                    <value>agricultural</value>
                </Data>
                <Data name="Type Of Well">
                    <value>Bore well</value>
                </Data>
                <Data name="Applicant Name">
                    <value>Brijesh Vithoba Faldessai</value>
                </Data>
                <Data name="Applicant Address">
                    <value>H.no 216, Tudal,Gaodongarim- Canacona</value>
                </Data>
                <Data name="latitude">
                    <value>15.043428</value>
                </Data>
                <Data name="longitude">
                    <value>74.135701</value>
                </Data>
                <Data name="taluka">
                    <value>Canacona</value>
                </Data>
                <Data name="village">
                    <value>Gaodongrem</value>
                </Data>
            </ExtendedData>
            <Point id="5929">
                <coordinates>74.135701,15.043428,0.0</coordinates>
            </Point>
        </Placemark>
        <Placemark id="5945">
            <ExtendedData>
                <Data name="direction">
                    <value>https://maps.google.com?q=15.040098,74.143424&amp;t=h</value>
                </Data>
                <Data name="id">
                    <value>3372</value>
                </Data>
                <Data name="Sr.No">
                    <value>3372</value>
                </Data>
                <Data name="Reg No">
                    <value>56/Canacona</value>
                </Data>
                <Data name="Category">
                    <value>agricultural</value>
                </Data>
                <Data name="Type Of Well">
                    <value>Open Well</value>
                </Data>
                <Data name="Applicant Name">
                    <value>Bhisso Bityo Gaonkar</value>
                </Data>
                <Data name="Applicant Address">
                    <value>H.no 261, Badsorem, Gaodongarim</value>
                </Data>
                <Data name="latitude">
                    <value>15.040098</value>
                </Data>
                <Data name="longitude">
                    <value>74.143424</value>
                </Data>
                <Data name="taluka">
                    <value>Canacona</value>
                </Data>
                <Data name="village">
                    <value>Gaodongrem</value>
                </Data>
            </ExtendedData>
            <Point id="5944">
                <coordinates>74.143424,15.040098,0.0</coordinates>
            </Point>
        </Placemark>
        <Placemark id="5960">
            <ExtendedData>
                <Data name="direction">
                    <value>https://maps.google.com?q=15.002835,74.108404&amp;t=h</value>
                </Data>
                <Data name="id">
                    <value>3420</value>
                </Data>
                <Data name="Sr.No">
                    <value>3420</value>
                </Data>
                <Data name="Reg No">
                    <value>67/Canacona</value>
                </Data>
                <Data name="Category">
                    <value>agricultural</value>
                </Data>
                <Data name="Type Of Well">
                    <value>Open Well</value>
                </Data>
                <Data name="Applicant Name">
                    <value>Amey Arvind Puranik</value>
                </Data>
                <Data name="Applicant Address">
                    <value>R/O. Partagal, Gaodongarim</value>
                </Data>
                <Data name="latitude">
                    <value>15.002835</value>
                </Data>
                <Data name="longitude">
                    <value>74.108404</value>
                </Data>
                <Data name="taluka">
                    <value>Canacona</value>
                </Data>
                <Data name="village">
                    <value>Gaodongrem</value>
                </Data>
            </ExtendedData>
            <Point id="5959">
                <coordinates>74.108404,15.002835,0.0</coordinates>
            </Point>
        </Placemark>
    </Document>
</kml>
