<?xml version="1.0" encoding="UTF-8"?>
<kml xmlns="http://www.opengis.net/kml/2.2" xmlns:gx="http://www.google.com/kml/ext/2.2">
    <Document id="6761">
        <Placemark id="6763">
            <ExtendedData>
                <Data name="direction">
                    <value>https://maps.google.com?q=15.43793,74.15224&amp;t=h</value>
                </Data>
                <Data name="id">
                    <value>3614</value>
                </Data>
                <Data name="Sr.No">
                    <value>3614</value>
                </Data>
                <Data name="Reg No">
                    <value>1076/PONDA</value>
                </Data>
                <Data name="Category">
                    <value>agricultural</value>
                </Data>
                <Data name="Type Of Well">
                    <value>Bore Well</value>
                </Data>
                <Data name="Applicant Name">
                    <value>SHRI. RAJENDRA J. DESSAI</value>
                </Data>
                <Data name="Applicant Address">
                    <value>SACORDA PONDA GOA</value>
                </Data>
                <Data name="latitude">
                    <value>15.43793</value>
                </Data>
                <Data name="longitude">
                    <value>74.15224</value>
                </Data>
                <Data name="taluka">
                    <value>Dharbandora</value>
                </Data>
                <Data name="village">
                    <value>Aglote</value>
                </Data>
            </ExtendedData>
            <Point id="6762">
                <coordinates>74.15224,15.43793,0.0</coordinates>
            </Point>
        </Placemark>
        <Placemark id="6778">
            <ExtendedData>
                <Data name="direction">
                    <value>https://maps.google.com?q=15.429265,74.170269&amp;t=h</value>
                </Data>
                <Data name="id">
                    <value>4253</value>
                </Data>
                <Data name="Sr.No">
                    <value>4253</value>
                </Data>
                <Data name="Reg No">
                    <value>30/Dharbandora</value>
                </Data>
                <Data name="Category">
                    <value>agricultural</value>
                </Data>
                <Data name="Type Of Well">
                    <value>Open Well</value>
                </Data>
                <Data name="Applicant Name">
                    <value>Anand venetesh dessai</value>
                </Data>
                <Data name="Applicant Address">
                    <value>murge sacorda dharbandora goa.</value>
                </Data>
                <Data name="latitude">
                    <value>15.429265</value>
                </Data>
                <Data name="longitude">
                    <value>74.170269</value>
                </Data>
                <Data name="taluka">
                    <value>Dharbandora</value>
                </Data>
                <Data name="village">
                    <value>Aglote</value>
                </Data>
            </ExtendedData>
            <Point id="6777">
                <coordinates>74.170269,15.429265,0.0</coordinates>
            </Point>
        </Placemark>
        <Placemark id="6793">
            <ExtendedData>
                <Data name="direction">
                    <value>https://maps.google.com?q=15.432648,74.166801&amp;t=h</value>
                </Data>
                <Data name="id">
                    <value>4254</value>
                </Data>
                <Data name="Sr.No">
                    <value>4254</value>
                </Data>
                <Data name="Reg No">
                    <value>750/Dharbandora</value>
                </Data>
                <Data name="Category">
                    <value>agricultural</value>
                </Data>
                <Data name="Type Of Well">
                    <value>Dug well</value>
                </Data>
                <Data name="Applicant Name">
                    <value>anil krishna dessai</value>
                </Data>
                <Data name="Applicant Address">
                    <value>aglot sacorda dharbandora goa.</value>
                </Data>
                <Data name="latitude">
                    <value>15.432648</value>
                </Data>
                <Data name="longitude">
                    <value>74.166801</value>
                </Data>
                <Data name="taluka">
                    <value>Dharbandora</value>
                </Data>
                <Data name="village">
                    <value>Aglote</value>
                </Data>
            </ExtendedData>
            <Point id="6792">
                <coordinates>74.166801,15.432648,0.0</coordinates>
            </Point>
        </Placemark>
        <Placemark id="6808">
            <ExtendedData>
                <Data name="direction">
                    <value>https://maps.google.com?q=15.434493,74.169897&amp;t=h</value>
                </Data>
                <Data name="id">
                    <value>4255</value>
                </Data>
                <Data name="Sr.No">
                    <value>4255</value>
                </Data>
                <Data name="Reg No">
                    <value>749/Dharbandora</value>
                </Data>
                <Data name="Category">
                    <value>agricultural</value>
                </Data>
                <Data name="Type Of Well">
                    <value>Open Well</value>
                </Data>
                <Data name="Applicant Name">
                    <value>Chintu shankar agottkar</value>
                </Data>
                <Data name="Applicant Address">
                    <value>aglot sacorda dharbandora goa.</value>
                </Data>
                <Data name="latitude">
                    <value>15.434493</value>
                </Data>
                <Data name="longitude">
                    <value>74.169897</value>
                </Data>
                <Data name="taluka">
                    <value>Dharbandora</value>
                </Data>
                <Data name="village">
                    <value>Aglote</value>
                </Data>
            </ExtendedData>
            <Point id="6807">
                <coordinates>74.169897,15.434493,0.0</coordinates>
            </Point>
        </Placemark>
        <Placemark id="6823">
            <ExtendedData>
                <Data name="direction">
                    <value>https://maps.google.com?q=15.43454,74.157018&amp;t=h</value>
                </Data>
                <Data name="id">
                    <value>4256</value>
                </Data>
                <Data name="Sr.No">
                    <value>4256</value>
                </Data>
                <Data name="Reg No">
                    <value>729/Dharbandora</value>
                </Data>
                <Data name="Category">
                    <value>agricultural</value>
                </Data>
                <Data name="Type Of Well">
                    <value>Open Well</value>
                </Data>
                <Data name="Applicant Name">
                    <value>Aikar preetam shivaji</value>
                </Data>
                <Data name="Applicant Address">
                    <value>nave aglot sacorda dharbandora goa.</value>
                </Data>
                <Data name="latitude">
                    <value>15.43454</value>
                </Data>
                <Data name="longitude">
                    <value>74.157018</value>
                </Data>
                <Data name="taluka">
                    <value>Dharbandora</value>
                </Data>
                <Data name="village">
                    <value>Aglote</value>
                </Data>
            </ExtendedData>
            <Point id="6822">
                <coordinates>74.157018,15.43454,0.0</coordinates>
            </Point>
        </Placemark>
        <Placemark id="6838">
            <ExtendedData>
                <Data name="direction">
                    <value>https://maps.google.com?q=15.417553,74.155226&amp;t=h</value>
                </Data>
                <Data name="id">
                    <value>4257</value>
                </Data>
                <Data name="Sr.No">
                    <value>4257</value>
                </Data>
                <Data name="Reg No">
                    <value>794/Dharbandora</value>
                </Data>
                <Data name="Category">
                    <value>agricultural</value>
                </Data>
                <Data name="Type Of Well">
                    <value>Open Well</value>
                </Data>
                <Data name="Applicant Name">
                    <value>mahadev pandurang gaonkar</value>
                </Data>
                <Data name="Applicant Address">
                    <value>udalshem aglot sacorda dharbandora goa.</value>
                </Data>
                <Data name="latitude">
                    <value>15.417553</value>
                </Data>
                <Data name="longitude">
                    <value>74.155226</value>
                </Data>
                <Data name="taluka">
                    <value>Dharbandora</value>
                </Data>
                <Data name="village">
                    <value>Aglote</value>
                </Data>
            </ExtendedData>
            <Point id="6837">
                <coordinates>74.155226,15.417553,0.0</coordinates>
            </Point>
        </Placemark>
        <Placemark id="6853">
            <ExtendedData>
                <Data name="direction">
                    <value>https://maps.google.com?q=15.416126,74.159699&amp;t=h</value>
                </Data>
                <Data name="id">
                    <value>4259</value>
                </Data>
                <Data name="Sr.No">
                    <value>4259</value>
                </Data>
                <Data name="Reg No">
                    <value>677/Dharbandora</value>
                </Data>
                <Data name="Category">
                    <value>agricultural</value>
                </Data>
                <Data name="Type Of Well">
                    <value>Open Well</value>
                </Data>
                <Data name="Applicant Name">
                    <value>Mapari jayantibai prabhakar</value>
                </Data>
                <Data name="Applicant Address">
                    <value>udalshem sacorda dharbandora goa.</value>
                </Data>
                <Data name="latitude">
                    <value>15.416126</value>
                </Data>
                <Data name="longitude">
                    <value>74.159699</value>
                </Data>
                <Data name="taluka">
                    <value>Dharbandora</value>
                </Data>
                <Data name="village">
                    <value>Aglote</value>
                </Data>
            </ExtendedData>
            <Point id="6852">
                <coordinates>74.159699,15.416126,0.0</coordinates>
            </Point>
        </Placemark>
        <Placemark id="6868">
            <ExtendedData>
                <Data name="direction">
                    <value>https://maps.google.com?q=15.429946,74.172927&amp;t=h</value>
                </Data>
                <Data name="id">
                    <value>4260</value>
                </Data>
                <Data name="Sr.No">
                    <value>4260</value>
                </Data>
                <Data name="Reg No">
                    <value>31/Dharbandora</value>
                </Data>
                <Data name="Category">
                    <value>agricultural</value>
                </Data>
                <Data name="Type Of Well">
                    <value>Open Well</value>
                </Data>
                <Data name="Applicant Name">
                    <value>anand venetesh dessai</value>
                </Data>
                <Data name="Applicant Address">
                    <value>murge sacorda dharbandora goa.</value>
                </Data>
                <Data name="latitude">
                    <value>15.429946</value>
                </Data>
                <Data name="longitude">
                    <value>74.172927</value>
                </Data>
                <Data name="taluka">
                    <value>Dharbandora</value>
                </Data>
                <Data name="village">
                    <value>Aglote</value>
                </Data>
            </ExtendedData>
            <Point id="6867">
                <coordinates>74.172927,15.429946,0.0</coordinates>
            </Point>
        </Placemark>
        <Placemark id="6883">
            <ExtendedData>
                <Data name="direction">
                    <value>https://maps.google.com?q=15.416698,74.188039&amp;t=h</value>
                </Data>
                <Data name="id">
                    <value>4291</value>
                </Data>
                <Data name="Sr.No">
                    <value>4291</value>
                </Data>
                <Data name="Reg No">
                    <value>793/Dharbandora</value>
                </Data>
                <Data name="Category">
                    <value>agricultural</value>
                </Data>
                <Data name="Type Of Well">
                    <value>Open Well</value>
                </Data>
                <Data name="Applicant Name">
                    <value>Sandesh v rane</value>
                </Data>
                <Data name="Applicant Address">
                    <value>deumal sacorda dharbandora goa.</value>
                </Data>
                <Data name="latitude">
                    <value>15.416698</value>
                </Data>
                <Data name="longitude">
                    <value>74.188039</value>
                </Data>
                <Data name="taluka">
                    <value>Dharbandora</value>
                </Data>
                <Data name="village">
                    <value>Aglote</value>
                </Data>
            </ExtendedData>
            <Point id="6882">
                <coordinates>74.188039,15.416698,0.0</coordinates>
            </Point>
        </Placemark>
    </Document>
</kml>
