<?xml version="1.0" encoding="UTF-8"?>
<kml xmlns="http://www.opengis.net/kml/2.2" xmlns:gx="http://www.google.com/kml/ext/2.2">
    <Document id="7082">
        <Placemark id="7084">
            <ExtendedData>
                <Data name="direction">
                    <value>https://maps.google.com?q=15.354311,74.103041&amp;t=h</value>
                </Data>
                <Data name="id">
                    <value>4190</value>
                </Data>
                <Data name="Sr.No">
                    <value>4190</value>
                </Data>
                <Data name="Reg No">
                    <value>766/Dharbandora</value>
                </Data>
                <Data name="Category">
                    <value>agricultural</value>
                </Data>
                <Data name="Type Of Well">
                    <value>Open Well</value>
                </Data>
                <Data name="Applicant Name">
                    <value>Tirodkar Siddharth devidas</value>
                </Data>
                <Data name="Applicant Address">
                    <value>voilowado dabal Dharbandora</value>
                </Data>
                <Data name="latitude">
                    <value>15.354311</value>
                </Data>
                <Data name="longitude">
                    <value>74.103041</value>
                </Data>
                <Data name="taluka">
                    <value>Dharbandora</value>
                </Data>
                <Data name="village">
                    <value>Codli</value>
                </Data>
            </ExtendedData>
            <Point id="7083">
                <coordinates>74.103041,15.354311,0.0</coordinates>
            </Point>
        </Placemark>
        <Placemark id="7099">
            <ExtendedData>
                <Data name="direction">
                    <value>https://maps.google.com?q=15.360111,74.103842&amp;t=h</value>
                </Data>
                <Data name="id">
                    <value>4192</value>
                </Data>
                <Data name="Sr.No">
                    <value>4192</value>
                </Data>
                <Data name="Reg No">
                    <value>394/Dharbandora</value>
                </Data>
                <Data name="Category">
                    <value>irrigation</value>
                </Data>
                <Data name="Type Of Well">
                    <value>Open Well</value>
                </Data>
                <Data name="Applicant Name">
                    <value>Dabholkar gurunath kashinath</value>
                </Data>
                <Data name="Applicant Address">
                    <value>kirlapal Dharbandora</value>
                </Data>
                <Data name="latitude">
                    <value>15.360111</value>
                </Data>
                <Data name="longitude">
                    <value>74.103842</value>
                </Data>
                <Data name="taluka">
                    <value>Dharbandora</value>
                </Data>
                <Data name="village">
                    <value>Codli</value>
                </Data>
            </ExtendedData>
            <Point id="7098">
                <coordinates>74.103842,15.360111,0.0</coordinates>
            </Point>
        </Placemark>
        <Placemark id="7114">
            <ExtendedData>
                <Data name="direction">
                    <value>https://maps.google.com?q=15.356164,74.124027&amp;t=h</value>
                </Data>
                <Data name="id">
                    <value>4194</value>
                </Data>
                <Data name="Sr.No">
                    <value>4194</value>
                </Data>
                <Data name="Reg No">
                    <value>768/Dharbandora</value>
                </Data>
                <Data name="Category">
                    <value>irrigation</value>
                </Data>
                <Data name="Type Of Well">
                    <value>NULL</value>
                </Data>
                <Data name="Applicant Name">
                    <value>Roque victor azavedo</value>
                </Data>
                <Data name="Applicant Address">
                    <value>codli tisk dabal goa</value>
                </Data>
                <Data name="latitude">
                    <value>15.356164</value>
                </Data>
                <Data name="longitude">
                    <value>74.124027</value>
                </Data>
                <Data name="taluka">
                    <value>Dharbandora</value>
                </Data>
                <Data name="village">
                    <value>Codli</value>
                </Data>
            </ExtendedData>
            <Point id="7113">
                <coordinates>74.124027,15.356164,0.0</coordinates>
            </Point>
        </Placemark>
        <Placemark id="7129">
            <ExtendedData>
                <Data name="direction">
                    <value>https://maps.google.com?q=15.322681,74.119851&amp;t=h</value>
                </Data>
                <Data name="id">
                    <value>4195</value>
                </Data>
                <Data name="Sr.No">
                    <value>4195</value>
                </Data>
                <Data name="Reg No">
                    <value>1382/Dharbandora</value>
                </Data>
                <Data name="Category">
                    <value>agricultural</value>
                </Data>
                <Data name="Type Of Well">
                    <value>Open Well</value>
                </Data>
                <Data name="Applicant Name">
                    <value>Mahesh krishna patil</value>
                </Data>
                <Data name="Applicant Address">
                    <value>Kirlapal Dharbandora</value>
                </Data>
                <Data name="latitude">
                    <value>15.322681</value>
                </Data>
                <Data name="longitude">
                    <value>74.119851</value>
                </Data>
                <Data name="taluka">
                    <value>Dharbandora</value>
                </Data>
                <Data name="village">
                    <value>Codli</value>
                </Data>
            </ExtendedData>
            <Point id="7128">
                <coordinates>74.119851,15.322681,0.0</coordinates>
            </Point>
        </Placemark>
        <Placemark id="7144">
            <ExtendedData>
                <Data name="direction">
                    <value>https://maps.google.com?q=15.320293,74.119319&amp;t=h</value>
                </Data>
                <Data name="id">
                    <value>4196</value>
                </Data>
                <Data name="Sr.No">
                    <value>4196</value>
                </Data>
                <Data name="Reg No">
                    <value>7/Dharbandora</value>
                </Data>
                <Data name="Category">
                    <value>agricultural</value>
                </Data>
                <Data name="Type Of Well">
                    <value>Bore well</value>
                </Data>
                <Data name="Applicant Name">
                    <value>Mahesh k patil</value>
                </Data>
                <Data name="Applicant Address">
                    <value>Kirlapal Dharbandora</value>
                </Data>
                <Data name="latitude">
                    <value>15.320293</value>
                </Data>
                <Data name="longitude">
                    <value>74.119319</value>
                </Data>
                <Data name="taluka">
                    <value>Dharbandora</value>
                </Data>
                <Data name="village">
                    <value>Codli</value>
                </Data>
            </ExtendedData>
            <Point id="7143">
                <coordinates>74.119319,15.320293,0.0</coordinates>
            </Point>
        </Placemark>
        <Placemark id="7159">
            <ExtendedData>
                <Data name="direction">
                    <value>https://maps.google.com?q=15.321696,74.118054&amp;t=h</value>
                </Data>
                <Data name="id">
                    <value>4197</value>
                </Data>
                <Data name="Sr.No">
                    <value>4197</value>
                </Data>
                <Data name="Reg No">
                    <value>393/Dharbandora</value>
                </Data>
                <Data name="Category">
                    <value>agricultural</value>
                </Data>
                <Data name="Type Of Well">
                    <value>Bore well</value>
                </Data>
                <Data name="Applicant Name">
                    <value>Mahesh krishna patil</value>
                </Data>
                <Data name="Applicant Address">
                    <value>Kirlapal Dharbandora</value>
                </Data>
                <Data name="latitude">
                    <value>15.321696</value>
                </Data>
                <Data name="longitude">
                    <value>74.118054</value>
                </Data>
                <Data name="taluka">
                    <value>Dharbandora</value>
                </Data>
                <Data name="village">
                    <value>Codli</value>
                </Data>
            </ExtendedData>
            <Point id="7158">
                <coordinates>74.118054,15.321696,0.0</coordinates>
            </Point>
        </Placemark>
        <Placemark id="7174">
            <ExtendedData>
                <Data name="direction">
                    <value>https://maps.google.com?q=15.324155,74.114884&amp;t=h</value>
                </Data>
                <Data name="id">
                    <value>4201</value>
                </Data>
                <Data name="Sr.No">
                    <value>4201</value>
                </Data>
                <Data name="Reg No">
                    <value>19/Dharbandora</value>
                </Data>
                <Data name="Category">
                    <value>agricultural</value>
                </Data>
                <Data name="Type Of Well">
                    <value>Open Well</value>
                </Data>
                <Data name="Applicant Name">
                    <value>Jayesh ashok patil</value>
                </Data>
                <Data name="Applicant Address">
                    <value>Kirlapal Dharbandora</value>
                </Data>
                <Data name="latitude">
                    <value>15.324155</value>
                </Data>
                <Data name="longitude">
                    <value>74.114884</value>
                </Data>
                <Data name="taluka">
                    <value>Dharbandora</value>
                </Data>
                <Data name="village">
                    <value>Codli</value>
                </Data>
            </ExtendedData>
            <Point id="7173">
                <coordinates>74.114884,15.324155,0.0</coordinates>
            </Point>
        </Placemark>
        <Placemark id="7189">
            <ExtendedData>
                <Data name="direction">
                    <value>https://maps.google.com?q=15.335564,74.105759&amp;t=h</value>
                </Data>
                <Data name="id">
                    <value>4202</value>
                </Data>
                <Data name="Sr.No">
                    <value>4202</value>
                </Data>
                <Data name="Reg No">
                    <value>737/Dharbandora</value>
                </Data>
                <Data name="Category">
                    <value>horticulture</value>
                </Data>
                <Data name="Type Of Well">
                    <value>Open Well</value>
                </Data>
                <Data name="Applicant Name">
                    <value>Gaonkar Ramchandra govind</value>
                </Data>
                <Data name="Applicant Address">
                    <value>Kirlapal Dharbandora</value>
                </Data>
                <Data name="latitude">
                    <value>15.335564</value>
                </Data>
                <Data name="longitude">
                    <value>74.105759</value>
                </Data>
                <Data name="taluka">
                    <value>Dharbandora</value>
                </Data>
                <Data name="village">
                    <value>Codli</value>
                </Data>
            </ExtendedData>
            <Point id="7188">
                <coordinates>74.105759,15.335564,0.0</coordinates>
            </Point>
        </Placemark>
        <Placemark id="7204">
            <ExtendedData>
                <Data name="direction">
                    <value>https://maps.google.com?q=15.325448,74.123776&amp;t=h</value>
                </Data>
                <Data name="id">
                    <value>4298</value>
                </Data>
                <Data name="Sr.No">
                    <value>4298</value>
                </Data>
                <Data name="Reg No">
                    <value>756/Dharbandora</value>
                </Data>
                <Data name="Category">
                    <value>agricultural</value>
                </Data>
                <Data name="Type Of Well">
                    <value>Open Well</value>
                </Data>
                <Data name="Applicant Name">
                    <value>Pandu Khoddo Gaonkar</value>
                </Data>
                <Data name="Applicant Address">
                    <value>Kirlapal Dharbandora Goa.</value>
                </Data>
                <Data name="latitude">
                    <value>15.325448</value>
                </Data>
                <Data name="longitude">
                    <value>74.123776</value>
                </Data>
                <Data name="taluka">
                    <value>Dharbandora</value>
                </Data>
                <Data name="village">
                    <value>Codli</value>
                </Data>
            </ExtendedData>
            <Point id="7203">
                <coordinates>74.123776,15.325448,0.0</coordinates>
            </Point>
        </Placemark>
        <Placemark id="7219">
            <ExtendedData>
                <Data name="direction">
                    <value>https://maps.google.com?q=15.346721,74.116963&amp;t=h</value>
                </Data>
                <Data name="id">
                    <value>4307</value>
                </Data>
                <Data name="Sr.No">
                    <value>4307</value>
                </Data>
                <Data name="Reg No">
                    <value>1576/Dharbandora</value>
                </Data>
                <Data name="Category">
                    <value>agricultural</value>
                </Data>
                <Data name="Type Of Well">
                    <value>Open Well</value>
                </Data>
                <Data name="Applicant Name">
                    <value>Raghuvir shantaram gaonkar</value>
                </Data>
                <Data name="Applicant Address">
                    <value>kalsai Dharbandora goa.</value>
                </Data>
                <Data name="latitude">
                    <value>15.346721</value>
                </Data>
                <Data name="longitude">
                    <value>74.116963</value>
                </Data>
                <Data name="taluka">
                    <value>Dharbandora</value>
                </Data>
                <Data name="village">
                    <value>Codli</value>
                </Data>
            </ExtendedData>
            <Point id="7218">
                <coordinates>74.116963,15.346721,0.0</coordinates>
            </Point>
        </Placemark>
        <Placemark id="7234">
            <ExtendedData>
                <Data name="direction">
                    <value>https://maps.google.com?q=15.357212,74.105115&amp;t=h</value>
                </Data>
                <Data name="id">
                    <value>4308</value>
                </Data>
                <Data name="Sr.No">
                    <value>4308</value>
                </Data>
                <Data name="Reg No">
                    <value>1305/Dharbandora</value>
                </Data>
                <Data name="Category">
                    <value>agricultural</value>
                </Data>
                <Data name="Type Of Well">
                    <value>Open Well</value>
                </Data>
                <Data name="Applicant Name">
                    <value>Ratnakar pandari patil</value>
                </Data>
                <Data name="Applicant Address">
                    <value>Dabal Dharbandora goa.</value>
                </Data>
                <Data name="latitude">
                    <value>15.357212</value>
                </Data>
                <Data name="longitude">
                    <value>74.105115</value>
                </Data>
                <Data name="taluka">
                    <value>Dharbandora</value>
                </Data>
                <Data name="village">
                    <value>Codli</value>
                </Data>
            </ExtendedData>
            <Point id="7233">
                <coordinates>74.105115,15.357212,0.0</coordinates>
            </Point>
        </Placemark>
        <Placemark id="7249">
            <ExtendedData>
                <Data name="direction">
                    <value>https://maps.google.com?q=15.336972,74.095104&amp;t=h</value>
                </Data>
                <Data name="id">
                    <value>4314</value>
                </Data>
                <Data name="Sr.No">
                    <value>4314</value>
                </Data>
                <Data name="Reg No">
                    <value>1623/Dharbandora</value>
                </Data>
                <Data name="Category">
                    <value>agricultural</value>
                </Data>
                <Data name="Type Of Well">
                    <value>Open Well</value>
                </Data>
                <Data name="Applicant Name">
                    <value>Vishant Shankar Gaonkar</value>
                </Data>
                <Data name="Applicant Address">
                    <value>Haluli Dharbandora Goa.</value>
                </Data>
                <Data name="latitude">
                    <value>15.336972</value>
                </Data>
                <Data name="longitude">
                    <value>74.095104</value>
                </Data>
                <Data name="taluka">
                    <value>Dharbandora</value>
                </Data>
                <Data name="village">
                    <value>Codli</value>
                </Data>
            </ExtendedData>
            <Point id="7248">
                <coordinates>74.095104,15.336972,0.0</coordinates>
            </Point>
        </Placemark>
        <Placemark id="7264">
            <ExtendedData>
                <Data name="direction">
                    <value>https://maps.google.com?q=15.359308,74.102658&amp;t=h</value>
                </Data>
                <Data name="id">
                    <value>4327</value>
                </Data>
                <Data name="Sr.No">
                    <value>4327</value>
                </Data>
                <Data name="Reg No">
                    <value>682</value>
                </Data>
                <Data name="Category">
                    <value>agricultural</value>
                </Data>
                <Data name="Type Of Well">
                    <value>Open Well</value>
                </Data>
                <Data name="Applicant Name">
                    <value>PRABHU VELGUEKAR UMESH</value>
                </Data>
                <Data name="Applicant Address">
                    <value>Kirlapal-Dabal</value>
                </Data>
                <Data name="latitude">
                    <value>15.359308</value>
                </Data>
                <Data name="longitude">
                    <value>74.102658</value>
                </Data>
                <Data name="taluka">
                    <value>Dharbandora</value>
                </Data>
                <Data name="village">
                    <value>Codli</value>
                </Data>
            </ExtendedData>
            <Point id="7263">
                <coordinates>74.102658,15.359308,0.0</coordinates>
            </Point>
        </Placemark>
        <Placemark id="7279">
            <ExtendedData>
                <Data name="direction">
                    <value>https://maps.google.com?q=15.357104,74.104961&amp;t=h</value>
                </Data>
                <Data name="id">
                    <value>4468</value>
                </Data>
                <Data name="Sr.No">
                    <value>4468</value>
                </Data>
                <Data name="Reg No">
                    <value>1278</value>
                </Data>
                <Data name="Category">
                    <value>agricultural</value>
                </Data>
                <Data name="Type Of Well">
                    <value>Open Well</value>
                </Data>
                <Data name="Applicant Name">
                    <value>RATNAKAR PANDARI PATIL</value>
                </Data>
                <Data name="Applicant Address">
                    <value>H.no: 718, Kirlapal, Dabal, Dharbandora</value>
                </Data>
                <Data name="latitude">
                    <value>15.357104</value>
                </Data>
                <Data name="longitude">
                    <value>74.104961</value>
                </Data>
                <Data name="taluka">
                    <value>Dharbandora</value>
                </Data>
                <Data name="village">
                    <value>Codli</value>
                </Data>
            </ExtendedData>
            <Point id="7278">
                <coordinates>74.104961,15.357104,0.0</coordinates>
            </Point>
        </Placemark>
    </Document>
</kml>
