<?xml version="1.0" encoding="UTF-8"?>
<kml xmlns="http://www.opengis.net/kml/2.2" xmlns:gx="http://www.google.com/kml/ext/2.2">
    <Document id="7294">
        <Placemark id="7296">
            <ExtendedData>
                <Data name="direction">
                    <value>https://maps.google.com?q=15.326565,74.232947&amp;t=h</value>
                </Data>
                <Data name="id">
                    <value>4218</value>
                </Data>
                <Data name="Sr.No">
                    <value>4218</value>
                </Data>
                <Data name="Reg No">
                    <value>962/Dharbandora</value>
                </Data>
                <Data name="Category">
                    <value>agricultural</value>
                </Data>
                <Data name="Type Of Well">
                    <value>Open Well</value>
                </Data>
                <Data name="Applicant Name">
                    <value>Jano sidho lambor</value>
                </Data>
                <Data name="Applicant Address">
                    <value>Bharipwada collem</value>
                </Data>
                <Data name="latitude">
                    <value>15.326565</value>
                </Data>
                <Data name="longitude">
                    <value>74.232947</value>
                </Data>
                <Data name="taluka">
                    <value>Dharbandora</value>
                </Data>
                <Data name="village">
                    <value>Colem</value>
                </Data>
            </ExtendedData>
            <Point id="7295">
                <coordinates>74.232947,15.326565,0.0</coordinates>
            </Point>
        </Placemark>
        <Placemark id="7311">
            <ExtendedData>
                <Data name="direction">
                    <value>https://maps.google.com?q=15.325072,74.233322&amp;t=h</value>
                </Data>
                <Data name="id">
                    <value>4220</value>
                </Data>
                <Data name="Sr.No">
                    <value>4220</value>
                </Data>
                <Data name="Reg No">
                    <value>734/Dharbandora</value>
                </Data>
                <Data name="Category">
                    <value>agricultural</value>
                </Data>
                <Data name="Type Of Well">
                    <value>Open Well</value>
                </Data>
                <Data name="Applicant Name">
                    <value>Rekado jano navlo</value>
                </Data>
                <Data name="Applicant Address">
                    <value>bharipwada collem</value>
                </Data>
                <Data name="latitude">
                    <value>15.325072</value>
                </Data>
                <Data name="longitude">
                    <value>74.233322</value>
                </Data>
                <Data name="taluka">
                    <value>Dharbandora</value>
                </Data>
                <Data name="village">
                    <value>Colem</value>
                </Data>
            </ExtendedData>
            <Point id="7310">
                <coordinates>74.233322,15.325072,0.0</coordinates>
            </Point>
        </Placemark>
        <Placemark id="7326">
            <ExtendedData>
                <Data name="direction">
                    <value>https://maps.google.com?q=15.325333,74.232771&amp;t=h</value>
                </Data>
                <Data name="id">
                    <value>4221</value>
                </Data>
                <Data name="Sr.No">
                    <value>4221</value>
                </Data>
                <Data name="Reg No">
                    <value>944/Dharbandora</value>
                </Data>
                <Data name="Category">
                    <value>agricultural</value>
                </Data>
                <Data name="Type Of Well">
                    <value>Open Well</value>
                </Data>
                <Data name="Applicant Name">
                    <value>bhago sidho lambor</value>
                </Data>
                <Data name="Applicant Address">
                    <value>bharipwada collem</value>
                </Data>
                <Data name="latitude">
                    <value>15.325333</value>
                </Data>
                <Data name="longitude">
                    <value>74.232771</value>
                </Data>
                <Data name="taluka">
                    <value>Dharbandora</value>
                </Data>
                <Data name="village">
                    <value>Colem</value>
                </Data>
            </ExtendedData>
            <Point id="7325">
                <coordinates>74.232771,15.325333,0.0</coordinates>
            </Point>
        </Placemark>
        <Placemark id="7341">
            <ExtendedData>
                <Data name="direction">
                    <value>https://maps.google.com?q=15.330207,74.235772&amp;t=h</value>
                </Data>
                <Data name="id">
                    <value>4226</value>
                </Data>
                <Data name="Sr.No">
                    <value>4226</value>
                </Data>
                <Data name="Reg No">
                    <value>1449/Dharbandora</value>
                </Data>
                <Data name="Category">
                    <value>agricultural</value>
                </Data>
                <Data name="Type Of Well">
                    <value>Open Well</value>
                </Data>
                <Data name="Applicant Name">
                    <value>Janba navu lambor</value>
                </Data>
                <Data name="Applicant Address">
                    <value>Collem sanguem</value>
                </Data>
                <Data name="latitude">
                    <value>15.330207</value>
                </Data>
                <Data name="longitude">
                    <value>74.235772</value>
                </Data>
                <Data name="taluka">
                    <value>Dharbandora</value>
                </Data>
                <Data name="village">
                    <value>Colem</value>
                </Data>
            </ExtendedData>
            <Point id="7340">
                <coordinates>74.235772,15.330207,0.0</coordinates>
            </Point>
        </Placemark>
        <Placemark id="7356">
            <ExtendedData>
                <Data name="direction">
                    <value>https://maps.google.com?q=15.323528,74.237583&amp;t=h</value>
                </Data>
                <Data name="id">
                    <value>4333</value>
                </Data>
                <Data name="Sr.No">
                    <value>4333</value>
                </Data>
                <Data name="Reg No">
                    <value>44</value>
                </Data>
                <Data name="Category">
                    <value>agricultural</value>
                </Data>
                <Data name="Type Of Well">
                    <value>Open Well</value>
                </Data>
                <Data name="Applicant Name">
                    <value>Shri. Vitho Gango Patkaro</value>
                </Data>
                <Data name="Applicant Address">
                    <value>H.no:761,Souzamol,Collem</value>
                </Data>
                <Data name="latitude">
                    <value>15.323528</value>
                </Data>
                <Data name="longitude">
                    <value>74.237583</value>
                </Data>
                <Data name="taluka">
                    <value>Dharbandora</value>
                </Data>
                <Data name="village">
                    <value>Colem</value>
                </Data>
            </ExtendedData>
            <Point id="7355">
                <coordinates>74.237583,15.323528,0.0</coordinates>
            </Point>
        </Placemark>
        <Placemark id="7371">
            <ExtendedData>
                <Data name="direction">
                    <value>https://maps.google.com?q=15.325397,74.233324&amp;t=h</value>
                </Data>
                <Data name="id">
                    <value>4334</value>
                </Data>
                <Data name="Sr.No">
                    <value>4334</value>
                </Data>
                <Data name="Reg No">
                    <value>1114</value>
                </Data>
                <Data name="Category">
                    <value>agricultural</value>
                </Data>
                <Data name="Type Of Well">
                    <value>Open Well</value>
                </Data>
                <Data name="Applicant Name">
                    <value>Jano Navlo Rekdo</value>
                </Data>
                <Data name="Applicant Address">
                    <value>H.no:92,Bazarwada,Collem</value>
                </Data>
                <Data name="latitude">
                    <value>15.325397</value>
                </Data>
                <Data name="longitude">
                    <value>74.233324</value>
                </Data>
                <Data name="taluka">
                    <value>Dharbandora</value>
                </Data>
                <Data name="village">
                    <value>Colem</value>
                </Data>
            </ExtendedData>
            <Point id="7370">
                <coordinates>74.233324,15.325397,0.0</coordinates>
            </Point>
        </Placemark>
        <Placemark id="7386">
            <ExtendedData>
                <Data name="direction">
                    <value>https://maps.google.com?q=15.335614,74.236813&amp;t=h</value>
                </Data>
                <Data name="id">
                    <value>4341</value>
                </Data>
                <Data name="Sr.No">
                    <value>4341</value>
                </Data>
                <Data name="Reg No">
                    <value>45</value>
                </Data>
                <Data name="Category">
                    <value>agricultural</value>
                </Data>
                <Data name="Type Of Well">
                    <value>Open Well</value>
                </Data>
                <Data name="Applicant Name">
                    <value>Tukaram Rekdo</value>
                </Data>
                <Data name="Applicant Address">
                    <value>Collem</value>
                </Data>
                <Data name="latitude">
                    <value>15.335614</value>
                </Data>
                <Data name="longitude">
                    <value>74.236813</value>
                </Data>
                <Data name="taluka">
                    <value>Dharbandora</value>
                </Data>
                <Data name="village">
                    <value>Colem</value>
                </Data>
            </ExtendedData>
            <Point id="7385">
                <coordinates>74.236813,15.335614,0.0</coordinates>
            </Point>
        </Placemark>
    </Document>
</kml>
