<?xml version="1.0" encoding="UTF-8"?>
<kml xmlns="http://www.opengis.net/kml/2.2" xmlns:gx="http://www.google.com/kml/ext/2.2">
    <Document id="7741">
        <Placemark id="7743">
            <ExtendedData>
                <Data name="direction">
                    <value>https://maps.google.com?q=15.36693,74.17771&amp;t=h</value>
                </Data>
                <Data name="id">
                    <value>3546</value>
                </Data>
                <Data name="Sr.No">
                    <value>3546</value>
                </Data>
                <Data name="Reg No">
                    <value>690/PONDA</value>
                </Data>
                <Data name="Category">
                    <value>agricultural</value>
                </Data>
                <Data name="Type Of Well">
                    <value>Open Well</value>
                </Data>
                <Data name="Applicant Name">
                    <value>PRABHUDESSAI SHABANI BABLO</value>
                </Data>
                <Data name="Applicant Address">
                    <value>USGAO PONDA</value>
                </Data>
                <Data name="latitude">
                    <value>15.36693</value>
                </Data>
                <Data name="longitude">
                    <value>74.17771</value>
                </Data>
                <Data name="taluka">
                    <value>Dharbandora</value>
                </Data>
                <Data name="village">
                    <value>Sangod</value>
                </Data>
            </ExtendedData>
            <Point id="7742">
                <coordinates>74.17771,15.36693,0.0</coordinates>
            </Point>
        </Placemark>
        <Placemark id="7758">
            <ExtendedData>
                <Data name="direction">
                    <value>https://maps.google.com?q=15.37076,74.18108&amp;t=h</value>
                </Data>
                <Data name="id">
                    <value>3547</value>
                </Data>
                <Data name="Sr.No">
                    <value>3547</value>
                </Data>
                <Data name="Reg No">
                    <value>695/PONDA</value>
                </Data>
                <Data name="Category">
                    <value>agricultural</value>
                </Data>
                <Data name="Type Of Well">
                    <value>Bore Well</value>
                </Data>
                <Data name="Applicant Name">
                    <value>PRABHUDESSAI SHABANI BABLO</value>
                </Data>
                <Data name="Applicant Address">
                    <value>USGAO PONDA</value>
                </Data>
                <Data name="latitude">
                    <value>15.37076</value>
                </Data>
                <Data name="longitude">
                    <value>74.18108</value>
                </Data>
                <Data name="taluka">
                    <value>Dharbandora</value>
                </Data>
                <Data name="village">
                    <value>Sangod</value>
                </Data>
            </ExtendedData>
            <Point id="7757">
                <coordinates>74.18108,15.37076,0.0</coordinates>
            </Point>
        </Placemark>
        <Placemark id="7773">
            <ExtendedData>
                <Data name="direction">
                    <value>https://maps.google.com?q=15.37164,74.18277&amp;t=h</value>
                </Data>
                <Data name="id">
                    <value>3548</value>
                </Data>
                <Data name="Sr.No">
                    <value>3548</value>
                </Data>
                <Data name="Reg No">
                    <value>691/PONDA</value>
                </Data>
                <Data name="Category">
                    <value>agricultural</value>
                </Data>
                <Data name="Type Of Well">
                    <value>Open Well</value>
                </Data>
                <Data name="Applicant Name">
                    <value>PRABHUDESSAI SHABANI BABLO</value>
                </Data>
                <Data name="Applicant Address">
                    <value>USGAO PONDA</value>
                </Data>
                <Data name="latitude">
                    <value>15.37164</value>
                </Data>
                <Data name="longitude">
                    <value>74.18277</value>
                </Data>
                <Data name="taluka">
                    <value>Dharbandora</value>
                </Data>
                <Data name="village">
                    <value>Sangod</value>
                </Data>
            </ExtendedData>
            <Point id="7772">
                <coordinates>74.18277,15.37164,0.0</coordinates>
            </Point>
        </Placemark>
        <Placemark id="7788">
            <ExtendedData>
                <Data name="direction">
                    <value>https://maps.google.com?q=15.36382,74.17537&amp;t=h</value>
                </Data>
                <Data name="id">
                    <value>3549</value>
                </Data>
                <Data name="Sr.No">
                    <value>3549</value>
                </Data>
                <Data name="Reg No">
                    <value>692/PONDA</value>
                </Data>
                <Data name="Category">
                    <value>agricultural</value>
                </Data>
                <Data name="Type Of Well">
                    <value>Open Well</value>
                </Data>
                <Data name="Applicant Name">
                    <value>PRABHUDESSAI SHABANI BABLO</value>
                </Data>
                <Data name="Applicant Address">
                    <value>USGAO PONDA</value>
                </Data>
                <Data name="latitude">
                    <value>15.36382</value>
                </Data>
                <Data name="longitude">
                    <value>74.17537</value>
                </Data>
                <Data name="taluka">
                    <value>Dharbandora</value>
                </Data>
                <Data name="village">
                    <value>Sangod</value>
                </Data>
            </ExtendedData>
            <Point id="7787">
                <coordinates>74.17537,15.36382,0.0</coordinates>
            </Point>
        </Placemark>
        <Placemark id="7803">
            <ExtendedData>
                <Data name="direction">
                    <value>https://maps.google.com?q=15.363186,74.175685&amp;t=h</value>
                </Data>
                <Data name="id">
                    <value>4270</value>
                </Data>
                <Data name="Sr.No">
                    <value>4270</value>
                </Data>
                <Data name="Reg No">
                    <value>689/Dharbandora</value>
                </Data>
                <Data name="Category">
                    <value>agricultural</value>
                </Data>
                <Data name="Type Of Well">
                    <value>Open Well</value>
                </Data>
                <Data name="Applicant Name">
                    <value>Prabhudessai rajendra bablo</value>
                </Data>
                <Data name="Applicant Address">
                    <value>sangod mollem dharbandora goa.</value>
                </Data>
                <Data name="latitude">
                    <value>15.363186</value>
                </Data>
                <Data name="longitude">
                    <value>74.175685</value>
                </Data>
                <Data name="taluka">
                    <value>Dharbandora</value>
                </Data>
                <Data name="village">
                    <value>Sangod</value>
                </Data>
            </ExtendedData>
            <Point id="7802">
                <coordinates>74.175685,15.363186,0.0</coordinates>
            </Point>
        </Placemark>
        <Placemark id="7818">
            <ExtendedData>
                <Data name="direction">
                    <value>https://maps.google.com?q=15.361899,74.172972&amp;t=h</value>
                </Data>
                <Data name="id">
                    <value>4271</value>
                </Data>
                <Data name="Sr.No">
                    <value>4271</value>
                </Data>
                <Data name="Reg No">
                    <value>688/Dharbandora</value>
                </Data>
                <Data name="Category">
                    <value>agricultural</value>
                </Data>
                <Data name="Type Of Well">
                    <value>Open Well</value>
                </Data>
                <Data name="Applicant Name">
                    <value>Prabhudessai rajendra bablo</value>
                </Data>
                <Data name="Applicant Address">
                    <value>sangod mollem dharbandora goa.</value>
                </Data>
                <Data name="latitude">
                    <value>15.361899</value>
                </Data>
                <Data name="longitude">
                    <value>74.172972</value>
                </Data>
                <Data name="taluka">
                    <value>Dharbandora</value>
                </Data>
                <Data name="village">
                    <value>Sangod</value>
                </Data>
            </ExtendedData>
            <Point id="7817">
                <coordinates>74.172972,15.361899,0.0</coordinates>
            </Point>
        </Placemark>
        <Placemark id="7833">
            <ExtendedData>
                <Data name="direction">
                    <value>https://maps.google.com?q=15.362599,74.172378&amp;t=h</value>
                </Data>
                <Data name="id">
                    <value>4272</value>
                </Data>
                <Data name="Sr.No">
                    <value>4272</value>
                </Data>
                <Data name="Reg No">
                    <value>694/Dharbandora</value>
                </Data>
                <Data name="Category">
                    <value>agricultural</value>
                </Data>
                <Data name="Type Of Well">
                    <value>Open Well</value>
                </Data>
                <Data name="Applicant Name">
                    <value>Prabhudessai rajendra bablo</value>
                </Data>
                <Data name="Applicant Address">
                    <value>sangod mollem dharbandora goa.</value>
                </Data>
                <Data name="latitude">
                    <value>15.362599</value>
                </Data>
                <Data name="longitude">
                    <value>74.172378</value>
                </Data>
                <Data name="taluka">
                    <value>Dharbandora</value>
                </Data>
                <Data name="village">
                    <value>Sangod</value>
                </Data>
            </ExtendedData>
            <Point id="7832">
                <coordinates>74.172378,15.362599,0.0</coordinates>
            </Point>
        </Placemark>
        <Placemark id="7848">
            <ExtendedData>
                <Data name="direction">
                    <value>https://maps.google.com?q=15.363692,74.17096&amp;t=h</value>
                </Data>
                <Data name="id">
                    <value>4273</value>
                </Data>
                <Data name="Sr.No">
                    <value>4273</value>
                </Data>
                <Data name="Reg No">
                    <value>686/Dharbandora</value>
                </Data>
                <Data name="Category">
                    <value>agricultural</value>
                </Data>
                <Data name="Type Of Well">
                    <value>Open Well</value>
                </Data>
                <Data name="Applicant Name">
                    <value>Prabhudessai rajendra bablo</value>
                </Data>
                <Data name="Applicant Address">
                    <value>sangod mollem dharbandora goa.</value>
                </Data>
                <Data name="latitude">
                    <value>15.363692</value>
                </Data>
                <Data name="longitude">
                    <value>74.17096</value>
                </Data>
                <Data name="taluka">
                    <value>Dharbandora</value>
                </Data>
                <Data name="village">
                    <value>Sangod</value>
                </Data>
            </ExtendedData>
            <Point id="7847">
                <coordinates>74.17096,15.363692,0.0</coordinates>
            </Point>
        </Placemark>
        <Placemark id="7863">
            <ExtendedData>
                <Data name="direction">
                    <value>https://maps.google.com?q=15.355494,74.164226&amp;t=h</value>
                </Data>
                <Data name="id">
                    <value>4277</value>
                </Data>
                <Data name="Sr.No">
                    <value>4277</value>
                </Data>
                <Data name="Reg No">
                    <value>751/Dharbandora</value>
                </Data>
                <Data name="Category">
                    <value>agricultural</value>
                </Data>
                <Data name="Type Of Well">
                    <value>Open Well</value>
                </Data>
                <Data name="Applicant Name">
                    <value>Venkatesh pandurang prabhu</value>
                </Data>
                <Data name="Applicant Address">
                    <value>kajumol sangod mollem dharbandora goa.</value>
                </Data>
                <Data name="latitude">
                    <value>15.355494</value>
                </Data>
                <Data name="longitude">
                    <value>74.164226</value>
                </Data>
                <Data name="taluka">
                    <value>Dharbandora</value>
                </Data>
                <Data name="village">
                    <value>Sangod</value>
                </Data>
            </ExtendedData>
            <Point id="7862">
                <coordinates>74.164226,15.355494,0.0</coordinates>
            </Point>
        </Placemark>
        <Placemark id="7878">
            <ExtendedData>
                <Data name="direction">
                    <value>https://maps.google.com?q=15.354066,74.171583&amp;t=h</value>
                </Data>
                <Data name="id">
                    <value>4278</value>
                </Data>
                <Data name="Sr.No">
                    <value>4278</value>
                </Data>
                <Data name="Reg No">
                    <value>17/Dharbandora</value>
                </Data>
                <Data name="Category">
                    <value>agricultural</value>
                </Data>
                <Data name="Type Of Well">
                    <value>Open Well</value>
                </Data>
                <Data name="Applicant Name">
                    <value>sushant vasant prabhu tendulkar</value>
                </Data>
                <Data name="Applicant Address">
                    <value>kajumol mollem dharbandora goa.</value>
                </Data>
                <Data name="latitude">
                    <value>15.354066</value>
                </Data>
                <Data name="longitude">
                    <value>74.171583</value>
                </Data>
                <Data name="taluka">
                    <value>Dharbandora</value>
                </Data>
                <Data name="village">
                    <value>Sangod</value>
                </Data>
            </ExtendedData>
            <Point id="7877">
                <coordinates>74.171583,15.354066,0.0</coordinates>
            </Point>
        </Placemark>
        <Placemark id="7893">
            <ExtendedData>
                <Data name="direction">
                    <value>https://maps.google.com?q=15.349342,74.169864&amp;t=h</value>
                </Data>
                <Data name="id">
                    <value>4279</value>
                </Data>
                <Data name="Sr.No">
                    <value>4279</value>
                </Data>
                <Data name="Reg No">
                    <value>746/Dharbandora</value>
                </Data>
                <Data name="Category">
                    <value>agricultural</value>
                </Data>
                <Data name="Type Of Well">
                    <value>Open Well</value>
                </Data>
                <Data name="Applicant Name">
                    <value>Vatsala krishna khutkar</value>
                </Data>
                <Data name="Applicant Address">
                    <value>kajumol mollem dharbandora goa.</value>
                </Data>
                <Data name="latitude">
                    <value>15.349342</value>
                </Data>
                <Data name="longitude">
                    <value>74.169864</value>
                </Data>
                <Data name="taluka">
                    <value>Dharbandora</value>
                </Data>
                <Data name="village">
                    <value>Sangod</value>
                </Data>
            </ExtendedData>
            <Point id="7892">
                <coordinates>74.169864,15.349342,0.0</coordinates>
            </Point>
        </Placemark>
    </Document>
</kml>
