<?xml version="1.0" encoding="UTF-8"?>
<kml xmlns="http://www.opengis.net/kml/2.2" xmlns:gx="http://www.google.com/kml/ext/2.2">
    <Document id="75913">
        <Placemark id="75915">
            <ExtendedData>
                <Data name="direction">
                    <value>https://maps.google.com?q=15.49826,74.11849&amp;t=h</value>
                </Data>
                <Data name="id">
                    <value>2363</value>
                </Data>
                <Data name="name">
                    <value>Field of Ajit Sukhija; Sukali Gal</value>
                </Data>
                <Data name="taluka">
                    <value>Sattari</value>
                </Data>
                <Data name="syno">
                    <value>18</value>
                </Data>
                <Data name="subdiv">
                    <value>3</value>
                </Data>
                <Data name="village">
                    <value>Advoi</value>
                </Data>
                <Data name="latitude">
                    <value>15.49826</value>
                </Data>
                <Data name="longitude">
                    <value>74.11849</value>
                </Data>
                <Data name="photo_1">
                    <value>DCIM/20191104_143307.jpg</value>
                </Data>
                <Data name="photo_2">
                    <value>DCIM/20191104_143310.jpg</value>
                </Data>
                <Data name="syno_pt_list">
                    <value>18/3</value>
                </Data>
                <Data name="constituency">
                    <value>18 - Poriem</value>
                </Data>
                <Data name="status">
                    <value>Completed</value>
                </Data>
                <Data name="panchayat">
                    <value>Birondem</value>
                </Data>
                <Data name="wb_type">
                    <value>Tank</value>
                </Data>
                <Data name="owner_type">
                    <value>Private</value>
                </Data>
                <Data name="purpose">
                    <value>Storage</value>
                </Data>
                <Data name="construction">
                    <value>Man Made</value>
                </Data>
                <Data name="condition">
                    <value>Good</value>
                </Data>
                <Data name="print_order">
                    <value>046</value>
                </Data>
                <Data name="wb_id">
                    <value>St/Advo/01</value>
                </Data>
                <Data name="storage_capacity">
                    <value>5699.0</value>
                </Data>
                <Data name="wb_surface_id">
                    <value>85</value>
                </Data>
                <Data name="created_at">
                    <value>2020-02-28 15:24:34</value>
                </Data>
                <Data name="updated_at">
                    <value>2023-07-22 14:03:14.307690</value>
                </Data>
                <Data name="book_id">
                    <value>1</value>
                </Data>
                <Data name="owners">
                    <value>Ajit Sukhija
Gitanjali Sukhija
Jack Ajit Sukhija
Maria Lilia de Sequeira Sukhija
Nina Sukhija</value>
                </Data>
                <Data name="label_x">
                    <value>998722.0</value>
                </Data>
                <Data name="label_y">
                    <value>1014547.35417379</value>
                </Data>
            </ExtendedData>
            <Point id="75914">
                <coordinates>74.118485839,15.498255812,0.0</coordinates>
            </Point>
        </Placemark>
        <Placemark id="75948">
            <ExtendedData>
                <Data name="direction">
                    <value>https://maps.google.com?q=15.4967,74.10054&amp;t=h</value>
                </Data>
                <Data name="id">
                    <value>2362</value>
                </Data>
                <Data name="name">
                    <value>Field of Padmakar Raghunath Savaikar; Dhat</value>
                </Data>
                <Data name="taluka">
                    <value>Sattari</value>
                </Data>
                <Data name="syno">
                    <value>44</value>
                </Data>
                <Data name="subdiv">
                    <value>5</value>
                </Data>
                <Data name="village">
                    <value>Advoi</value>
                </Data>
                <Data name="latitude">
                    <value>15.4967</value>
                </Data>
                <Data name="longitude">
                    <value>74.10054</value>
                </Data>
                <Data name="photo_1">
                    <value>DCIM/20230224105630821.jpg</value>
                </Data>
                <Data name="photo_2">
                    <value>DCIM/20230224105513410.jpg</value>
                </Data>
                <Data name="syno_pt_list">
                    <value>44/1-2,5-6</value>
                </Data>
                <Data name="constituency">
                    <value>18 - Poriem</value>
                </Data>
                <Data name="status">
                    <value>Completed</value>
                </Data>
                <Data name="panchayat">
                    <value>Birondem</value>
                </Data>
                <Data name="wb_type">
                    <value>Pond</value>
                </Data>
                <Data name="owner_type">
                    <value>Private</value>
                </Data>
                <Data name="purpose">
                    <value>Irrigation</value>
                </Data>
                <Data name="construction">
                    <value>Natural</value>
                </Data>
                <Data name="condition">
                    <value>Needs Maintenance</value>
                </Data>
                <Data name="print_order">
                    <value>002</value>
                </Data>
                <Data name="wb_id">
                    <value>St/Advo/02</value>
                </Data>
                <Data name="storage_capacity">
                    <value>676.0</value>
                </Data>
                <Data name="wb_surface_id">
                    <value>237</value>
                </Data>
                <Data name="created_at">
                    <value>2020-02-28 15:24:34</value>
                </Data>
                <Data name="updated_at">
                    <value>2023-07-22 14:03:14.307690</value>
                </Data>
                <Data name="book_id">
                    <value>1</value>
                </Data>
                <Data name="owners">
                    <value>1)Padmakar Raghunath Savaikar
2)Krishna Vassudev Savaikar
3)Raghunath Vaman Savaikar
4)Laxman Venkatesh Savaikar
5)Achut Yeshwant Savaikar</value>
                </Data>
                <Data name="label_x">
                    <value>998722.0</value>
                </Data>
                <Data name="label_y">
                    <value>1013647.35417379</value>
                </Data>
            </ExtendedData>
            <Point id="75947">
                <coordinates>74.100543931,15.496697788,0.0</coordinates>
            </Point>
        </Placemark>
        <Placemark id="75981">
            <ExtendedData>
                <Data name="direction">
                    <value>https://maps.google.com?q=15.49838,74.1095&amp;t=h</value>
                </Data>
                <Data name="id">
                    <value>2325</value>
                </Data>
                <Data name="name">
                    <value>Field of Krishna Parshuram Joshi; Gimonem</value>
                </Data>
                <Data name="taluka">
                    <value>Sattari</value>
                </Data>
                <Data name="syno">
                    <value>24</value>
                </Data>
                <Data name="subdiv">
                    <value>1</value>
                </Data>
                <Data name="village">
                    <value>Advoi</value>
                </Data>
                <Data name="latitude">
                    <value>15.49838</value>
                </Data>
                <Data name="longitude">
                    <value>74.1095</value>
                </Data>
                <Data name="photo_1">
                    <value>DCIM/20200824063600718.jpg</value>
                </Data>
                <Data name="photo_2">
                    <value>DCIM/20200824063610876.jpg</value>
                </Data>
                <Data name="syno_pt_list">
                    <value>24/1</value>
                </Data>
                <Data name="constituency">
                    <value>18 - Poriem</value>
                </Data>
                <Data name="status">
                    <value>Completed</value>
                </Data>
                <Data name="panchayat">
                    <value>Birondem</value>
                </Data>
                <Data name="wb_type">
                    <value>Tank</value>
                </Data>
                <Data name="owner_type">
                    <value>Private</value>
                </Data>
                <Data name="purpose">
                    <value>Irrigation</value>
                </Data>
                <Data name="construction">
                    <value>Man Made</value>
                </Data>
                <Data name="condition">
                    <value>Good</value>
                </Data>
                <Data name="print_order">
                    <value>048</value>
                </Data>
                <Data name="wb_id">
                    <value>St/Advo/04</value>
                </Data>
                <Data name="storage_capacity">
                    <value>120.0</value>
                </Data>
                <Data name="wb_surface_id">
                    <value>2036</value>
                </Data>
                <Data name="created_at">
                    <value>2020-02-28 15:24:34</value>
                </Data>
                <Data name="updated_at">
                    <value>2023-07-22 14:03:14.307690</value>
                </Data>
                <Data name="book_id">
                    <value>1</value>
                </Data>
                <Data name="owners">
                    <value>1) Krishna Parshuram Joshi   |-1/3part
2) Ramchandra Pandurang Joshi|
3) Narayan Vinayak Joshi|-1/6 part
4) Vasudev Vinayak Joshi|
5) Mohan Yeshwant Joshi     |
6) Vaman Raghunath Joshi    |-1/6 part
7) Subhadna Balchandra Joshi|</value>
                </Data>
                <Data name="label_x">
                    <value>998722.0</value>
                </Data>
                <Data name="label_y">
                    <value>1013947.35417379</value>
                </Data>
            </ExtendedData>
            <Point id="75980">
                <coordinates>74.109495,15.498378333,0.0</coordinates>
            </Point>
        </Placemark>
        <Placemark id="76014">
            <ExtendedData>
                <Data name="direction">
                    <value>https://maps.google.com?q=15.50531,74.10717&amp;t=h</value>
                </Data>
                <Data name="id">
                    <value>3146</value>
                </Data>
                <Data name="name">
                    <value>Field of Dadasaheb Daulatrao Dessai; Pimlpe Dandya Varil Moli</value>
                </Data>
                <Data name="taluka">
                    <value>Sattari</value>
                </Data>
                <Data name="syno">
                    <value>3</value>
                </Data>
                <Data name="subdiv">
                    <value>1</value>
                </Data>
                <Data name="village">
                    <value>Advoi</value>
                </Data>
                <Data name="latitude">
                    <value>15.50531</value>
                </Data>
                <Data name="longitude">
                    <value>74.10717</value>
                </Data>
                <Data name="photo_1">
                    <value>DCIM/20200824064947802.jpg</value>
                </Data>
                <Data name="photo_2">
                    <value>DCIM/20200824064954457.jpg</value>
                </Data>
                <Data name="syno_pt_list">
                    <value>3/1</value>
                </Data>
                <Data name="constituency">
                    <value>18 - Poriem</value>
                </Data>
                <Data name="status">
                    <value>Completed</value>
                </Data>
                <Data name="panchayat">
                    <value>Birondem</value>
                </Data>
                <Data name="wb_type">
                    <value>Tank</value>
                </Data>
                <Data name="owner_type">
                    <value>Private</value>
                </Data>
                <Data name="purpose">
                    <value>Storage</value>
                </Data>
                <Data name="construction">
                    <value>Laterite</value>
                </Data>
                <Data name="condition">
                    <value>Good</value>
                </Data>
                <Data name="print_order">
                    <value>047</value>
                </Data>
                <Data name="wb_id">
                    <value>St/Advo/03</value>
                </Data>
                <Data name="storage_capacity">
                    <value>255.0</value>
                </Data>
                <Data name="wb_surface_id">
                    <value>210</value>
                </Data>
                <Data name="created_at">
                    <value>2020-08-24 14:51:39</value>
                </Data>
                <Data name="updated_at">
                    <value>2023-07-22 14:03:14.307690</value>
                </Data>
                <Data name="book_id">
                    <value>1</value>
                </Data>
                <Data name="owners">
                    <value>1) Dadasaheb Daulatrao Dessai
3) Indroji Daulatrao Dessai
Bhimrao  Bapusaheb Rane Sardessai
Dilip  Bapusaheb Rane Sardessai
Kamalabai Balasaheb Rane
Prashant Vyankatesh Dessai
Subhash  Bapusaheb Rane Sardessai
Sushil Balasaheb Rane
Umesh  Bapusaheb Rane Sardessai</value>
                </Data>
                <Data name="label_x">
                    <value>998722.0</value>
                </Data>
                <Data name="label_y">
                    <value>1015147.35417379</value>
                </Data>
            </ExtendedData>
            <Point id="76013">
                <coordinates>74.107171239,15.505309566,0.0</coordinates>
            </Point>
        </Placemark>
    </Document>
</kml>
