<?xml version="1.0" encoding="UTF-8"?>
<kml xmlns="http://www.opengis.net/kml/2.2" xmlns:gx="http://www.google.com/kml/ext/2.2">
    <Document id="76148">
        <Placemark id="76150">
            <ExtendedData>
                <Data name="direction">
                    <value>https://maps.google.com?q=15.56973,74.16267&amp;t=h</value>
                </Data>
                <Data name="id">
                    <value>2587</value>
                </Data>
                <Data name="name">
                    <value>Brahmadev Temple Tank; Vadakadil Tukdo</value>
                </Data>
                <Data name="taluka">
                    <value>Sattari</value>
                </Data>
                <Data name="syno">
                    <value>1</value>
                </Data>
                <Data name="subdiv">
                    <value>2</value>
                </Data>
                <Data name="village">
                    <value>Carambolim-Brama</value>
                </Data>
                <Data name="latitude">
                    <value>15.56973</value>
                </Data>
                <Data name="longitude">
                    <value>74.16267</value>
                </Data>
                <Data name="photo_1">
                    <value>DCIM/20200513063941798.jpg</value>
                </Data>
                <Data name="photo_2">
                    <value>DCIM/20221004104634917.jpg</value>
                </Data>
                <Data name="syno_pt_list">
                    <value>1/1-2</value>
                </Data>
                <Data name="constituency">
                    <value>19 - Valpoi</value>
                </Data>
                <Data name="status">
                    <value>Completed</value>
                </Data>
                <Data name="panchayat">
                    <value>Nagargao</value>
                </Data>
                <Data name="wb_type">
                    <value>Temple Tank</value>
                </Data>
                <Data name="owner_type">
                    <value>Private</value>
                </Data>
                <Data name="purpose">
                    <value>Storage</value>
                </Data>
                <Data name="construction">
                    <value>Concrete</value>
                </Data>
                <Data name="condition">
                    <value>Good</value>
                </Data>
                <Data name="print_order">
                    <value>043</value>
                </Data>
                <Data name="wb_id">
                    <value>St/Carr/02</value>
                </Data>
                <Data name="storage_capacity">
                    <value>167.0</value>
                </Data>
                <Data name="wb_surface_id">
                    <value>590</value>
                </Data>
                <Data name="created_at">
                    <value>2020-03-26 07:40:26</value>
                </Data>
                <Data name="updated_at">
                    <value>2023-07-22 14:03:14.307690</value>
                </Data>
                <Data name="book_id">
                    <value>1</value>
                </Data>
                <Data name="owners">
                    <value>Bramma.
Shri Brammadev Devasthan of Carambolim</value>
                </Data>
                <Data name="label_x">
                    <value>1030746.0</value>
                </Data>
                <Data name="label_y">
                    <value>1023438.96349877</value>
                </Data>
            </ExtendedData>
            <Point id="76149">
                <coordinates>74.16267422,15.569726752,0.0</coordinates>
            </Point>
        </Placemark>
        <Placemark id="76183">
            <ExtendedData>
                <Data name="direction">
                    <value>https://maps.google.com?q=15.57104,74.16437&amp;t=h</value>
                </Data>
                <Data name="id">
                    <value>3130</value>
                </Data>
                <Data name="name">
                    <value>Field of Dr. Ashok Anant Amshekar; Canto Denominacao Especial</value>
                </Data>
                <Data name="taluka">
                    <value>Sattari</value>
                </Data>
                <Data name="syno">
                    <value>26</value>
                </Data>
                <Data name="subdiv">
                    <value>7</value>
                </Data>
                <Data name="village">
                    <value>Carambolim-Brama</value>
                </Data>
                <Data name="latitude">
                    <value>15.57104</value>
                </Data>
                <Data name="longitude">
                    <value>74.16437</value>
                </Data>
                <Data name="photo_1">
                    <value>DCIM/20200817121148690.jpg</value>
                </Data>
                <Data name="photo_2">
                    <value>DCIM/20200817121209978.jpg</value>
                </Data>
                <Data name="syno_pt_list">
                    <value>26/7</value>
                </Data>
                <Data name="constituency">
                    <value>19 - Valpoi</value>
                </Data>
                <Data name="status">
                    <value>Completed</value>
                </Data>
                <Data name="panchayat">
                    <value>Nagargao</value>
                </Data>
                <Data name="wb_type">
                    <value>Tank</value>
                </Data>
                <Data name="owner_type">
                    <value>Private</value>
                </Data>
                <Data name="purpose">
                    <value>Storage</value>
                </Data>
                <Data name="construction">
                    <value>Concrete</value>
                </Data>
                <Data name="condition">
                    <value>Needs Maintenance</value>
                </Data>
                <Data name="print_order">
                    <value>065</value>
                </Data>
                <Data name="wb_id">
                    <value>St/Carr/06</value>
                </Data>
                <Data name="storage_capacity">
                    <value>48.0</value>
                </Data>
                <Data name="wb_surface_id">
                    <value>1928</value>
                </Data>
                <Data name="created_at">
                    <value>2020-08-18 15:13:05</value>
                </Data>
                <Data name="updated_at">
                    <value>2023-07-22 14:03:14.307690</value>
                </Data>
                <Data name="book_id">
                    <value>1</value>
                </Data>
                <Data name="owners">
                    <value>Dr. Ashok Anant Amshekar</value>
                </Data>
                <Data name="label_x">
                    <value>1030746.0</value>
                </Data>
                <Data name="label_y">
                    <value>1024038.96349877</value>
                </Data>
            </ExtendedData>
            <Point id="76182">
                <coordinates>74.164368523,15.571036054,0.0</coordinates>
            </Point>
        </Placemark>
        <Placemark id="76216">
            <ExtendedData>
                <Data name="direction">
                    <value>https://maps.google.com?q=15.56669,74.16338&amp;t=h</value>
                </Data>
                <Data name="id">
                    <value>3212</value>
                </Data>
                <Data name="name">
                    <value>Field of Damodar Ramkrishna Gadgil; Baag</value>
                </Data>
                <Data name="taluka">
                    <value>Sattari</value>
                </Data>
                <Data name="syno">
                    <value>16</value>
                </Data>
                <Data name="subdiv">
                    <value>1</value>
                </Data>
                <Data name="village">
                    <value>Carambolim-Brama</value>
                </Data>
                <Data name="latitude">
                    <value>15.56669</value>
                </Data>
                <Data name="longitude">
                    <value>74.16338</value>
                </Data>
                <Data name="photo_1">
                    <value>DCIM/20200903080308045.jpg</value>
                </Data>
                <Data name="photo_2">
                    <value>DCIM/20200903080316723.jpg</value>
                </Data>
                <Data name="syno_pt_list">
                    <value>16/1</value>
                </Data>
                <Data name="constituency">
                    <value>19 - Valpoi</value>
                </Data>
                <Data name="status">
                    <value>Completed</value>
                </Data>
                <Data name="panchayat">
                    <value>Nagargao</value>
                </Data>
                <Data name="wb_type">
                    <value>Tank</value>
                </Data>
                <Data name="owner_type">
                    <value>Private</value>
                </Data>
                <Data name="purpose">
                    <value>Irrigation</value>
                </Data>
                <Data name="construction">
                    <value>LDPE Sheets</value>
                </Data>
                <Data name="condition">
                    <value>Good</value>
                </Data>
                <Data name="print_order">
                    <value>062</value>
                </Data>
                <Data name="wb_id">
                    <value>St/Carr/03</value>
                </Data>
                <Data name="storage_capacity">
                    <value>166.0</value>
                </Data>
                <Data name="wb_surface_id">
                    <value>1930</value>
                </Data>
                <Data name="created_at">
                    <value>2020-09-21 09:09:10</value>
                </Data>
                <Data name="updated_at">
                    <value>2023-07-22 14:03:14.307690</value>
                </Data>
                <Data name="book_id">
                    <value>1</value>
                </Data>
                <Data name="owners">
                    <value>Damodar Ramkrishna Gadgil
Kavita Kishor Bhave alias Navanita Ramchandra Vaze
Kishor Narayan Bhave
Narayan Dattatray Bhave
Shashikala Narayan Bhave</value>
                </Data>
                <Data name="label_x">
                    <value>1030746.0</value>
                </Data>
                <Data name="label_y">
                    <value>1022538.96349877</value>
                </Data>
            </ExtendedData>
            <Point id="76215">
                <coordinates>74.163380742,15.56668839,0.0</coordinates>
            </Point>
        </Placemark>
        <Placemark id="76249">
            <ExtendedData>
                <Data name="direction">
                    <value>https://maps.google.com?q=15.56804,74.1626&amp;t=h</value>
                </Data>
                <Data name="id">
                    <value>3008</value>
                </Data>
                <Data name="name">
                    <value>Field of Yeshwant Ramkrishna Gadgil; Thikan</value>
                </Data>
                <Data name="taluka">
                    <value>Sattari</value>
                </Data>
                <Data name="syno">
                    <value>15</value>
                </Data>
                <Data name="subdiv">
                    <value>1</value>
                </Data>
                <Data name="village">
                    <value>Carambolim-Brama</value>
                </Data>
                <Data name="latitude">
                    <value>15.56804</value>
                </Data>
                <Data name="longitude">
                    <value>74.1626</value>
                </Data>
                <Data name="photo_1">
                    <value>DCIM/20200817103822102.jpg</value>
                </Data>
                <Data name="photo_2">
                    <value>DCIM/20200817103839126.jpg</value>
                </Data>
                <Data name="syno_pt_list">
                    <value>15/0; 18/1</value>
                </Data>
                <Data name="constituency">
                    <value>19 - Valpoi</value>
                </Data>
                <Data name="status">
                    <value>Completed</value>
                </Data>
                <Data name="panchayat">
                    <value>Nagargao</value>
                </Data>
                <Data name="wb_type">
                    <value>Tank</value>
                </Data>
                <Data name="owner_type">
                    <value>Private</value>
                </Data>
                <Data name="purpose">
                    <value>Storage</value>
                </Data>
                <Data name="construction">
                    <value>Concrete</value>
                </Data>
                <Data name="condition">
                    <value>Good</value>
                </Data>
                <Data name="print_order">
                    <value>064</value>
                </Data>
                <Data name="wb_id">
                    <value>St/Carr/05</value>
                </Data>
                <Data name="storage_capacity">
                    <value>54.0</value>
                </Data>
                <Data name="wb_surface_id">
                    <value>1929</value>
                </Data>
                <Data name="created_at">
                    <value>2020-05-18 13:01:06</value>
                </Data>
                <Data name="updated_at">
                    <value>2023-07-22 14:03:14.307690</value>
                </Data>
                <Data name="book_id">
                    <value>1</value>
                </Data>
                <Data name="owners">
                    <value>Yeshwant Ramkrishna Gadgil</value>
                </Data>
                <Data name="label_x">
                    <value>1030746.0</value>
                </Data>
                <Data name="label_y">
                    <value>1022838.96349877</value>
                </Data>
            </ExtendedData>
            <Point id="76248">
                <coordinates>74.162595,15.568036667,0.0</coordinates>
            </Point>
        </Placemark>
        <Placemark id="76282">
            <ExtendedData>
                <Data name="direction">
                    <value>https://maps.google.com?q=15.57029,74.1611&amp;t=h</value>
                </Data>
                <Data name="id">
                    <value>2997</value>
                </Data>
                <Data name="name">
                    <value>Field of Purushottam Khadilkar; Chaudivadow or Salecadil Tukado</value>
                </Data>
                <Data name="taluka">
                    <value>Sattari</value>
                </Data>
                <Data name="syno">
                    <value>12</value>
                </Data>
                <Data name="subdiv">
                    <value>1</value>
                </Data>
                <Data name="village">
                    <value>Carambolim-Brama</value>
                </Data>
                <Data name="latitude">
                    <value>15.57029</value>
                </Data>
                <Data name="longitude">
                    <value>74.1611</value>
                </Data>
                <Data name="photo_1">
                    <value>DCIM/20200817105300251.jpg</value>
                </Data>
                <Data name="photo_2">
                    <value>DCIM/20200817105314226.jpg</value>
                </Data>
                <Data name="syno_pt_list">
                    <value>12/1</value>
                </Data>
                <Data name="constituency">
                    <value>19 - Valpoi</value>
                </Data>
                <Data name="status">
                    <value>Completed</value>
                </Data>
                <Data name="panchayat">
                    <value>Nagargao</value>
                </Data>
                <Data name="wb_type">
                    <value>Tank</value>
                </Data>
                <Data name="owner_type">
                    <value>Private</value>
                </Data>
                <Data name="purpose">
                    <value>Storage</value>
                </Data>
                <Data name="construction">
                    <value>Concrete</value>
                </Data>
                <Data name="condition">
                    <value>Good</value>
                </Data>
                <Data name="print_order">
                    <value>063</value>
                </Data>
                <Data name="wb_id">
                    <value>St/Carr/04</value>
                </Data>
                <Data name="storage_capacity">
                    <value>158.0</value>
                </Data>
                <Data name="wb_surface_id">
                    <value>1927</value>
                </Data>
                <Data name="created_at">
                    <value>2020-05-18 11:17:34</value>
                </Data>
                <Data name="updated_at">
                    <value>2023-07-22 14:03:14.307690</value>
                </Data>
                <Data name="book_id">
                    <value>1</value>
                </Data>
                <Data name="owners">
                    <value>Purushottam Anant Khadilkar</value>
                </Data>
                <Data name="label_x">
                    <value>1030746.0</value>
                </Data>
                <Data name="label_y">
                    <value>1023738.96349877</value>
                </Data>
            </ExtendedData>
            <Point id="76281">
                <coordinates>74.161097065,15.570287736,0.0</coordinates>
            </Point>
        </Placemark>
        <Placemark id="76315">
            <ExtendedData>
                <Data name="direction">
                    <value>https://maps.google.com?q=15.56953,74.15175&amp;t=h</value>
                </Data>
                <Data name="id">
                    <value>5919</value>
                </Data>
                <Data name="name">
                    <value>Dudgalichem Mol</value>
                </Data>
                <Data name="taluka">
                    <value>Sattari</value>
                </Data>
                <Data name="syno">
                    <value>51</value>
                </Data>
                <Data name="subdiv">
                    <value>1</value>
                </Data>
                <Data name="village">
                    <value>Carambolim-Brama</value>
                </Data>
                <Data name="latitude">
                    <value>15.56953</value>
                </Data>
                <Data name="longitude">
                    <value>74.15175</value>
                </Data>
                <Data name="photo_1">
                    <value>DCIM/20230228104914852.jpg</value>
                </Data>
                <Data name="photo_2">
                    <value>DCIM/20230228104935658.jpg</value>
                </Data>
                <Data name="constituency">
                    <value>19 - Valpoi</value>
                </Data>
                <Data name="status">
                    <value>Completed</value>
                </Data>
                <Data name="panchayat">
                    <value>Nagargao</value>
                </Data>
                <Data name="wb_type">
                    <value>Tank</value>
                </Data>
                <Data name="owner_type">
                    <value>Public</value>
                </Data>
                <Data name="purpose">
                    <value>Irrigation</value>
                </Data>
                <Data name="construction">
                    <value>Man Made</value>
                </Data>
                <Data name="condition">
                    <value>Needs Maintenance</value>
                </Data>
                <Data name="print_order">
                    <value>061</value>
                </Data>
                <Data name="wb_id">
                    <value>St/Carr/01</value>
                </Data>
                <Data name="storage_capacity">
                    <value>255.0</value>
                </Data>
                <Data name="wb_surface_id">
                    <value>5394</value>
                </Data>
                <Data name="created_at">
                    <value>2023-02-28 00:00:00</value>
                </Data>
                <Data name="updated_at">
                    <value>2023-07-22 14:03:14.307690</value>
                </Data>
                <Data name="book_id">
                    <value>1</value>
                </Data>
                <Data name="owners">
                    <value>Government of Goa Daman &amp; Diu</value>
                </Data>
                <Data name="label_x">
                    <value>998722.0</value>
                </Data>
                <Data name="label_y">
                    <value>1019947.35417379</value>
                </Data>
            </ExtendedData>
            <Point id="76314">
                <coordinates>74.151750125,15.569534292,0.0</coordinates>
            </Point>
        </Placemark>
    </Document>
</kml>
