<?xml version="1.0" encoding="UTF-8"?>
<kml xmlns="http://www.opengis.net/kml/2.2" xmlns:gx="http://www.google.com/kml/ext/2.2">
    <Document id="77655">
        <Placemark id="77657">
            <ExtendedData>
                <Data name="direction">
                    <value>https://maps.google.com?q=15.53561,74.17934&amp;t=h</value>
                </Data>
                <Data name="id">
                    <value>2989</value>
                </Data>
                <Data name="name">
                    <value>Field of Rajeshwari Rane Sardesai; Suranguicho Waddo and Bodguich</value>
                </Data>
                <Data name="taluka">
                    <value>Sattari</value>
                </Data>
                <Data name="syno">
                    <value>51</value>
                </Data>
                <Data name="subdiv">
                    <value>0</value>
                </Data>
                <Data name="village">
                    <value>Davem</value>
                </Data>
                <Data name="latitude">
                    <value>15.53561</value>
                </Data>
                <Data name="longitude">
                    <value>74.17934</value>
                </Data>
                <Data name="photo_1">
                    <value>DCIM/20200827114813912.jpg</value>
                </Data>
                <Data name="photo_2">
                    <value>DCIM/20200827114840988.jpg</value>
                </Data>
                <Data name="syno_pt_list">
                    <value>51/0</value>
                </Data>
                <Data name="constituency">
                    <value>19 - Valpoi</value>
                </Data>
                <Data name="status">
                    <value>Completed</value>
                </Data>
                <Data name="panchayat">
                    <value>Nagargao</value>
                </Data>
                <Data name="wb_type">
                    <value>Tank</value>
                </Data>
                <Data name="owner_type">
                    <value>Private</value>
                </Data>
                <Data name="purpose">
                    <value>Irrigation</value>
                </Data>
                <Data name="construction">
                    <value>Concrete</value>
                </Data>
                <Data name="condition">
                    <value>Good</value>
                </Data>
                <Data name="print_order">
                    <value>092</value>
                </Data>
                <Data name="wb_id">
                    <value>St/Dave/08</value>
                </Data>
                <Data name="storage_capacity">
                    <value>278.0</value>
                </Data>
                <Data name="wb_surface_id">
                    <value>1998</value>
                </Data>
                <Data name="created_at">
                    <value>2020-05-18 10:48:41</value>
                </Data>
                <Data name="updated_at">
                    <value>2023-07-22 14:03:14.307690</value>
                </Data>
                <Data name="book_id">
                    <value>1</value>
                </Data>
                <Data name="owners">
                    <value>Dnynsagar Kala Sangh`s Education Society
Rajeshwari Ranjitsing Rane Sardesai
Ranjitsing Jaisingrao Rane Sardesai</value>
                </Data>
                <Data name="label_x">
                    <value>1030746.0</value>
                </Data>
                <Data name="label_y">
                    <value>1014138.96349877</value>
                </Data>
            </ExtendedData>
            <Point id="77656">
                <coordinates>74.179339385,15.535611744,0.0</coordinates>
            </Point>
        </Placemark>
        <Placemark id="77690">
            <ExtendedData>
                <Data name="direction">
                    <value>https://maps.google.com?q=15.56069,74.18781&amp;t=h</value>
                </Data>
                <Data name="id">
                    <value>2360</value>
                </Data>
                <Data name="name">
                    <value>Field of Bhagurathi Babal Kerkar ; Ozreachem Thikan</value>
                </Data>
                <Data name="taluka">
                    <value>Sattari</value>
                </Data>
                <Data name="syno">
                    <value>30</value>
                </Data>
                <Data name="subdiv">
                    <value>0</value>
                </Data>
                <Data name="village">
                    <value>Davem</value>
                </Data>
                <Data name="latitude">
                    <value>15.56069</value>
                </Data>
                <Data name="longitude">
                    <value>74.18781</value>
                </Data>
                <Data name="photo_1">
                    <value>DCIM/20200903050134701.jpg</value>
                </Data>
                <Data name="photo_2">
                    <value>DCIM/20200903050143871.jpg</value>
                </Data>
                <Data name="syno_pt_list">
                    <value>30/0</value>
                </Data>
                <Data name="constituency">
                    <value>19 - Valpoi</value>
                </Data>
                <Data name="status">
                    <value>Completed</value>
                </Data>
                <Data name="panchayat">
                    <value>Nagargao</value>
                </Data>
                <Data name="wb_type">
                    <value>Tank</value>
                </Data>
                <Data name="owner_type">
                    <value>Private</value>
                </Data>
                <Data name="purpose">
                    <value>Storage</value>
                </Data>
                <Data name="construction">
                    <value>Concrete</value>
                </Data>
                <Data name="condition">
                    <value>Needs Maintenance</value>
                </Data>
                <Data name="print_order">
                    <value>091</value>
                </Data>
                <Data name="wb_id">
                    <value>St/Dave/06</value>
                </Data>
                <Data name="storage_capacity">
                    <value>293.0</value>
                </Data>
                <Data name="wb_surface_id">
                    <value>105</value>
                </Data>
                <Data name="created_at">
                    <value>2020-02-28 15:24:34</value>
                </Data>
                <Data name="updated_at">
                    <value>2023-07-22 14:03:14.307690</value>
                </Data>
                <Data name="book_id">
                    <value>1</value>
                </Data>
                <Data name="owners">
                    <value>Bhagurathi Babal Kerkar       1/3
Ganesh Kusno Kerkar       }   1/3
Rukmini Rama Kerkar           1/3
Sango Kusno Kerkar        }</value>
                </Data>
                <Data name="label_x">
                    <value>1030746.0</value>
                </Data>
                <Data name="label_y">
                    <value>1021638.96349877</value>
                </Data>
            </ExtendedData>
            <Point id="77689">
                <coordinates>74.187805914,15.560692054,0.0</coordinates>
            </Point>
        </Placemark>
        <Placemark id="77723">
            <ExtendedData>
                <Data name="direction">
                    <value>https://maps.google.com?q=15.55854,74.18791&amp;t=h</value>
                </Data>
                <Data name="id">
                    <value>3270</value>
                </Data>
                <Data name="name">
                    <value>Field of Bhagurathi Babal Kerkar; Ozreachem Thikan</value>
                </Data>
                <Data name="taluka">
                    <value>Sattari</value>
                </Data>
                <Data name="syno">
                    <value>30</value>
                </Data>
                <Data name="subdiv">
                    <value>0</value>
                </Data>
                <Data name="village">
                    <value>Davem</value>
                </Data>
                <Data name="latitude">
                    <value>15.55854</value>
                </Data>
                <Data name="longitude">
                    <value>74.18791</value>
                </Data>
                <Data name="photo_1">
                    <value>DCIM/20200923134228947.jpg</value>
                </Data>
                <Data name="photo_2">
                    <value>DCIM/20200923134236494.jpg</value>
                </Data>
                <Data name="syno_pt_list">
                    <value>30/0</value>
                </Data>
                <Data name="constituency">
                    <value>19 - Valpoi</value>
                </Data>
                <Data name="status">
                    <value>Completed</value>
                </Data>
                <Data name="panchayat">
                    <value>Nagargao</value>
                </Data>
                <Data name="wb_type">
                    <value>Pond</value>
                </Data>
                <Data name="owner_type">
                    <value>Private</value>
                </Data>
                <Data name="purpose">
                    <value>Irrigation</value>
                </Data>
                <Data name="construction">
                    <value>Natural</value>
                </Data>
                <Data name="condition">
                    <value>Needs Maintenance</value>
                </Data>
                <Data name="print_order">
                    <value>012</value>
                </Data>
                <Data name="wb_id">
                    <value>St/Dave/07</value>
                </Data>
                <Data name="storage_capacity">
                    <value>287.0</value>
                </Data>
                <Data name="wb_surface_id">
                    <value>2024</value>
                </Data>
                <Data name="created_at">
                    <value>2020-09-25 16:49:11</value>
                </Data>
                <Data name="updated_at">
                    <value>2023-07-22 14:03:14.307690</value>
                </Data>
                <Data name="book_id">
                    <value>1</value>
                </Data>
                <Data name="owners">
                    <value>Bhagurathi Babal Kerkar       1/3
Ganesh Kusno Kerkar       }   1/3
Rukmini Rama Kerkar           1/3
Sango Kusno Kerkar        }</value>
                </Data>
                <Data name="label_x">
                    <value>1030746.0</value>
                </Data>
                <Data name="label_y">
                    <value>1021038.96349877</value>
                </Data>
            </ExtendedData>
            <Point id="77722">
                <coordinates>74.187911484,15.558540922,0.0</coordinates>
            </Point>
        </Placemark>
        <Placemark id="77756">
            <ExtendedData>
                <Data name="direction">
                    <value>https://maps.google.com?q=15.557,74.17242&amp;t=h</value>
                </Data>
                <Data name="id">
                    <value>2993</value>
                </Data>
                <Data name="name">
                    <value>Field of Bhaskar Rama Gadgil; Bimbol Patto</value>
                </Data>
                <Data name="taluka">
                    <value>Sattari</value>
                </Data>
                <Data name="syno">
                    <value>12</value>
                </Data>
                <Data name="subdiv">
                    <value>1</value>
                </Data>
                <Data name="village">
                    <value>Davem</value>
                </Data>
                <Data name="latitude">
                    <value>15.557</value>
                </Data>
                <Data name="longitude">
                    <value>74.17242</value>
                </Data>
                <Data name="photo_1">
                    <value>DCIM/20200902071403451.jpg</value>
                </Data>
                <Data name="photo_2">
                    <value>DCIM/20200902071421481.jpg</value>
                </Data>
                <Data name="syno_pt_list">
                    <value>12/1</value>
                </Data>
                <Data name="constituency">
                    <value>19 - Valpoi</value>
                </Data>
                <Data name="status">
                    <value>Completed</value>
                </Data>
                <Data name="panchayat">
                    <value>Nagargao</value>
                </Data>
                <Data name="wb_type">
                    <value>Tank</value>
                </Data>
                <Data name="owner_type">
                    <value>Private</value>
                </Data>
                <Data name="purpose">
                    <value>Storage</value>
                </Data>
                <Data name="construction">
                    <value>Concrete</value>
                </Data>
                <Data name="condition">
                    <value>Good</value>
                </Data>
                <Data name="print_order">
                    <value>095</value>
                </Data>
                <Data name="wb_id">
                    <value>St/Dave/12</value>
                </Data>
                <Data name="storage_capacity">
                    <value>107.0</value>
                </Data>
                <Data name="wb_surface_id">
                    <value>1986</value>
                </Data>
                <Data name="created_at">
                    <value>2020-05-18 11:07:34</value>
                </Data>
                <Data name="updated_at">
                    <value>2023-07-22 14:03:14.307690</value>
                </Data>
                <Data name="book_id">
                    <value>1</value>
                </Data>
                <Data name="owners">
                    <value>Bhaskar Rama Gadgil</value>
                </Data>
                <Data name="label_x">
                    <value>1030746.0</value>
                </Data>
                <Data name="label_y">
                    <value>1019538.96349877</value>
                </Data>
            </ExtendedData>
            <Point id="77755">
                <coordinates>74.172419068,15.557003279,0.0</coordinates>
            </Point>
        </Placemark>
        <Placemark id="77789">
            <ExtendedData>
                <Data name="direction">
                    <value>https://maps.google.com?q=15.55483,74.1839&amp;t=h</value>
                </Data>
                <Data name="id">
                    <value>2963</value>
                </Data>
                <Data name="name">
                    <value>Field of Narayan Govind Joshi; Uthal Tolli</value>
                </Data>
                <Data name="taluka">
                    <value>Sattari</value>
                </Data>
                <Data name="syno">
                    <value>40</value>
                </Data>
                <Data name="subdiv">
                    <value>7</value>
                </Data>
                <Data name="village">
                    <value>Davem</value>
                </Data>
                <Data name="latitude">
                    <value>15.55483</value>
                </Data>
                <Data name="longitude">
                    <value>74.1839</value>
                </Data>
                <Data name="photo_1">
                    <value>DCIM/20200518040718915.jpg</value>
                </Data>
                <Data name="photo_2">
                    <value>DCIM/20200518040735546.jpg</value>
                </Data>
                <Data name="syno_pt_list">
                    <value>40/2,7</value>
                </Data>
                <Data name="constituency">
                    <value>19 - Valpoi</value>
                </Data>
                <Data name="status">
                    <value>Completed</value>
                </Data>
                <Data name="panchayat">
                    <value>Nagargao</value>
                </Data>
                <Data name="wb_type">
                    <value>Tank</value>
                </Data>
                <Data name="owner_type">
                    <value>Private</value>
                </Data>
                <Data name="purpose">
                    <value>Irrigation</value>
                </Data>
                <Data name="construction">
                    <value>Laterite</value>
                </Data>
                <Data name="condition">
                    <value>Good</value>
                </Data>
                <Data name="print_order">
                    <value>089</value>
                </Data>
                <Data name="wb_id">
                    <value>St/Dave/04</value>
                </Data>
                <Data name="storage_capacity">
                    <value>673.0</value>
                </Data>
                <Data name="wb_surface_id">
                    <value>2002</value>
                </Data>
                <Data name="created_at">
                    <value>2020-05-14 11:37:11</value>
                </Data>
                <Data name="updated_at">
                    <value>2023-07-22 14:03:14.307690</value>
                </Data>
                <Data name="book_id">
                    <value>1</value>
                </Data>
                <Data name="owners">
                    <value>Narayan Govind Joshi</value>
                </Data>
                <Data name="label_x">
                    <value>1030746.0</value>
                </Data>
                <Data name="label_y">
                    <value>1018038.96349877</value>
                </Data>
            </ExtendedData>
            <Point id="77788">
                <coordinates>74.18389611,15.554833964,0.0</coordinates>
            </Point>
        </Placemark>
        <Placemark id="77822">
            <ExtendedData>
                <Data name="direction">
                    <value>https://maps.google.com?q=15.55607,74.17214&amp;t=h</value>
                </Data>
                <Data name="id">
                    <value>3197</value>
                </Data>
                <Data name="name">
                    <value>Field of Gulndapant Vasudeo Bhave; Bimbol Patto Bharadakadil</value>
                </Data>
                <Data name="taluka">
                    <value>Sattari</value>
                </Data>
                <Data name="syno">
                    <value>10</value>
                </Data>
                <Data name="subdiv">
                    <value>1</value>
                </Data>
                <Data name="village">
                    <value>Davem</value>
                </Data>
                <Data name="latitude">
                    <value>15.55607</value>
                </Data>
                <Data name="longitude">
                    <value>74.17214</value>
                </Data>
                <Data name="photo_1">
                    <value>DCIM/20200902075524716.jpg</value>
                </Data>
                <Data name="photo_2">
                    <value>DCIM/20200902075539838.jpg</value>
                </Data>
                <Data name="syno_pt_list">
                    <value>10/1</value>
                </Data>
                <Data name="constituency">
                    <value>19 - Valpoi</value>
                </Data>
                <Data name="status">
                    <value>Completed</value>
                </Data>
                <Data name="panchayat">
                    <value>Nagargao</value>
                </Data>
                <Data name="wb_type">
                    <value>Tank</value>
                </Data>
                <Data name="owner_type">
                    <value>Private</value>
                </Data>
                <Data name="purpose">
                    <value>Storage</value>
                </Data>
                <Data name="construction">
                    <value>Man Made</value>
                </Data>
                <Data name="condition">
                    <value>Good</value>
                </Data>
                <Data name="print_order">
                    <value>098</value>
                </Data>
                <Data name="wb_id">
                    <value>St/Dave/19</value>
                </Data>
                <Data name="storage_capacity">
                    <value>36.0</value>
                </Data>
                <Data name="wb_surface_id">
                    <value>1990</value>
                </Data>
                <Data name="created_at">
                    <value>2020-09-21 09:09:10</value>
                </Data>
                <Data name="updated_at">
                    <value>2023-07-22 14:03:14.307690</value>
                </Data>
                <Data name="book_id">
                    <value>1</value>
                </Data>
                <Data name="owners">
                    <value>Gulndapant Vasudeo Bhave</value>
                </Data>
                <Data name="label_x">
                    <value>1030746.0</value>
                </Data>
                <Data name="label_y">
                    <value>1017138.96349877</value>
                </Data>
            </ExtendedData>
            <Point id="77821">
                <coordinates>74.17214,15.556065,0.0</coordinates>
            </Point>
        </Placemark>
        <Placemark id="77855">
            <ExtendedData>
                <Data name="direction">
                    <value>https://maps.google.com?q=15.55712,74.17594&amp;t=h</value>
                </Data>
                <Data name="id">
                    <value>3196</value>
                </Data>
                <Data name="name">
                    <value>Field of Mahadeo Atmaram Joshi; Sukad Patto</value>
                </Data>
                <Data name="taluka">
                    <value>Sattari</value>
                </Data>
                <Data name="syno">
                    <value>22</value>
                </Data>
                <Data name="subdiv">
                    <value>1</value>
                </Data>
                <Data name="village">
                    <value>Davem</value>
                </Data>
                <Data name="latitude">
                    <value>15.55712</value>
                </Data>
                <Data name="longitude">
                    <value>74.17594</value>
                </Data>
                <Data name="photo_1">
                    <value>DCIM/20200902070711935.jpg</value>
                </Data>
                <Data name="photo_2">
                    <value>DCIM/20200902070720875.jpg</value>
                </Data>
                <Data name="syno_pt_list">
                    <value>22/1</value>
                </Data>
                <Data name="constituency">
                    <value>19 - Valpoi</value>
                </Data>
                <Data name="status">
                    <value>Completed</value>
                </Data>
                <Data name="panchayat">
                    <value>Nagargao</value>
                </Data>
                <Data name="wb_type">
                    <value>Tank</value>
                </Data>
                <Data name="owner_type">
                    <value>Private</value>
                </Data>
                <Data name="purpose">
                    <value>Storage</value>
                </Data>
                <Data name="construction">
                    <value>Concrete</value>
                </Data>
                <Data name="condition">
                    <value>Good</value>
                </Data>
                <Data name="print_order">
                    <value>096</value>
                </Data>
                <Data name="wb_id">
                    <value>St/Dave/13</value>
                </Data>
                <Data name="storage_capacity">
                    <value>107.0</value>
                </Data>
                <Data name="wb_surface_id">
                    <value>1989</value>
                </Data>
                <Data name="created_at">
                    <value>2020-09-21 09:09:10</value>
                </Data>
                <Data name="updated_at">
                    <value>2023-07-22 14:03:14.307690</value>
                </Data>
                <Data name="book_id">
                    <value>1</value>
                </Data>
                <Data name="owners">
                    <value>Mahadeo Atmaram Joshi</value>
                </Data>
                <Data name="label_x">
                    <value>1030746.0</value>
                </Data>
                <Data name="label_y">
                    <value>1019838.96349877</value>
                </Data>
            </ExtendedData>
            <Point id="77854">
                <coordinates>74.175936263,15.557121591,0.0</coordinates>
            </Point>
        </Placemark>
        <Placemark id="77888">
            <ExtendedData>
                <Data name="direction">
                    <value>https://maps.google.com?q=15.55222,74.1812&amp;t=h</value>
                </Data>
                <Data name="id">
                    <value>2542</value>
                </Data>
                <Data name="name">
                    <value>Field of Prasad V. Keni; Uthal Bhag</value>
                </Data>
                <Data name="taluka">
                    <value>Sattari</value>
                </Data>
                <Data name="syno">
                    <value>42</value>
                </Data>
                <Data name="subdiv">
                    <value>1</value>
                </Data>
                <Data name="village">
                    <value>Davem</value>
                </Data>
                <Data name="latitude">
                    <value>15.55222</value>
                </Data>
                <Data name="longitude">
                    <value>74.1812</value>
                </Data>
                <Data name="photo_1">
                    <value>DCIM/20200902055806354.jpg</value>
                </Data>
                <Data name="photo_2">
                    <value>DCIM/20200902055818850.jpg</value>
                </Data>
                <Data name="syno_pt_list">
                    <value>42/1</value>
                </Data>
                <Data name="constituency">
                    <value>19 - Valpoi</value>
                </Data>
                <Data name="status">
                    <value>Completed</value>
                </Data>
                <Data name="panchayat">
                    <value>Nagargao</value>
                </Data>
                <Data name="wb_type">
                    <value>Tank</value>
                </Data>
                <Data name="owner_type">
                    <value>Private</value>
                </Data>
                <Data name="purpose">
                    <value>Irrigation</value>
                </Data>
                <Data name="construction">
                    <value>Concrete</value>
                </Data>
                <Data name="condition">
                    <value>Good</value>
                </Data>
                <Data name="print_order">
                    <value>088</value>
                </Data>
                <Data name="wb_id">
                    <value>St/Dave/02</value>
                </Data>
                <Data name="storage_capacity">
                    <value>977.0</value>
                </Data>
                <Data name="wb_surface_id">
                    <value>592</value>
                </Data>
                <Data name="created_at">
                    <value>2020-03-26 07:23:33</value>
                </Data>
                <Data name="updated_at">
                    <value>2023-07-22 14:03:14.307690</value>
                </Data>
                <Data name="book_id">
                    <value>1</value>
                </Data>
                <Data name="owners">
                    <value>Prasad V. Keni</value>
                </Data>
                <Data name="label_x">
                    <value>1030746.0</value>
                </Data>
                <Data name="label_y">
                    <value>1016238.96349877</value>
                </Data>
            </ExtendedData>
            <Point id="77887">
                <coordinates>74.181198245,15.552219281,0.0</coordinates>
            </Point>
        </Placemark>
        <Placemark id="77921">
            <ExtendedData>
                <Data name="direction">
                    <value>https://maps.google.com?q=15.55489,74.18434&amp;t=h</value>
                </Data>
                <Data name="id">
                    <value>3208</value>
                </Data>
                <Data name="name">
                    <value>Field of Moreshwar Ramchandra Joshi; Uthalacho Bhag</value>
                </Data>
                <Data name="taluka">
                    <value>Sattari</value>
                </Data>
                <Data name="syno">
                    <value>40</value>
                </Data>
                <Data name="subdiv">
                    <value>6</value>
                </Data>
                <Data name="village">
                    <value>Davem</value>
                </Data>
                <Data name="latitude">
                    <value>15.55489</value>
                </Data>
                <Data name="longitude">
                    <value>74.18434</value>
                </Data>
                <Data name="photo_1">
                    <value>DCIM/20200903061850219.jpg</value>
                </Data>
                <Data name="photo_2">
                    <value>DCIM/20200903061901790.jpg</value>
                </Data>
                <Data name="syno_pt_list">
                    <value>40/6</value>
                </Data>
                <Data name="constituency">
                    <value>19 - Valpoi</value>
                </Data>
                <Data name="status">
                    <value>Completed</value>
                </Data>
                <Data name="panchayat">
                    <value>Nagargao</value>
                </Data>
                <Data name="wb_type">
                    <value>Tank</value>
                </Data>
                <Data name="owner_type">
                    <value>Private</value>
                </Data>
                <Data name="purpose">
                    <value>Irrigation</value>
                </Data>
                <Data name="construction">
                    <value>Concrete</value>
                </Data>
                <Data name="condition">
                    <value>Good</value>
                </Data>
                <Data name="print_order">
                    <value>094</value>
                </Data>
                <Data name="wb_id">
                    <value>St/Dave/10</value>
                </Data>
                <Data name="storage_capacity">
                    <value>204.0</value>
                </Data>
                <Data name="wb_surface_id">
                    <value>1992</value>
                </Data>
                <Data name="created_at">
                    <value>2020-09-21 09:09:10</value>
                </Data>
                <Data name="updated_at">
                    <value>2023-07-22 14:03:14.307690</value>
                </Data>
                <Data name="book_id">
                    <value>1</value>
                </Data>
                <Data name="owners">
                    <value>Moreshwar Ramchandra Joshi</value>
                </Data>
                <Data name="label_x">
                    <value>1030746.0</value>
                </Data>
                <Data name="label_y">
                    <value>1018338.96349877</value>
                </Data>
            </ExtendedData>
            <Point id="77920">
                <coordinates>74.184338333,15.554888333,0.0</coordinates>
            </Point>
        </Placemark>
        <Placemark id="77954">
            <ExtendedData>
                <Data name="direction">
                    <value>https://maps.google.com?q=15.55159,74.18688&amp;t=h</value>
                </Data>
                <Data name="id">
                    <value>2991</value>
                </Data>
                <Data name="name">
                    <value>Field of Manda Laxman Bapat; Karvantakadil Kulagar or Shet</value>
                </Data>
                <Data name="taluka">
                    <value>Sattari</value>
                </Data>
                <Data name="syno">
                    <value>36</value>
                </Data>
                <Data name="subdiv">
                    <value>0</value>
                </Data>
                <Data name="village">
                    <value>Davem</value>
                </Data>
                <Data name="latitude">
                    <value>15.55159</value>
                </Data>
                <Data name="longitude">
                    <value>74.18688</value>
                </Data>
                <Data name="photo_1">
                    <value>DCIM/20200902063934245.jpg</value>
                </Data>
                <Data name="photo_2">
                    <value>DCIM/20200902063947218.jpg</value>
                </Data>
                <Data name="syno_pt_list">
                    <value>36/0</value>
                </Data>
                <Data name="constituency">
                    <value>19 - Valpoi</value>
                </Data>
                <Data name="status">
                    <value>Completed</value>
                </Data>
                <Data name="panchayat">
                    <value>Nagargao</value>
                </Data>
                <Data name="wb_type">
                    <value>Pond</value>
                </Data>
                <Data name="owner_type">
                    <value>Private</value>
                </Data>
                <Data name="purpose">
                    <value>Storage</value>
                </Data>
                <Data name="construction">
                    <value>Natural</value>
                </Data>
                <Data name="condition">
                    <value>Good</value>
                </Data>
                <Data name="print_order">
                    <value>015</value>
                </Data>
                <Data name="wb_id">
                    <value>St/Dave/15</value>
                </Data>
                <Data name="storage_capacity">
                    <value>55.0</value>
                </Data>
                <Data name="wb_surface_id">
                    <value>1867</value>
                </Data>
                <Data name="created_at">
                    <value>2020-05-18 10:59:37</value>
                </Data>
                <Data name="updated_at">
                    <value>2023-07-22 14:03:14.307690</value>
                </Data>
                <Data name="book_id">
                    <value>1</value>
                </Data>
                <Data name="owners">
                    <value>Manda Laximan @ Laxman Bapat
Manohar @ Narshiva Shripad Monerkar @ Manerikar
Shubhada Manohar Monerkar @ Manerikar</value>
                </Data>
                <Data name="label_x">
                    <value>1030746.0</value>
                </Data>
                <Data name="label_y">
                    <value>1016838.96349877</value>
                </Data>
            </ExtendedData>
            <Point id="77953">
                <coordinates>74.186878456,15.551590705,0.0</coordinates>
            </Point>
        </Placemark>
        <Placemark id="77987">
            <ExtendedData>
                <Data name="direction">
                    <value>https://maps.google.com?q=15.55732,74.17261&amp;t=h</value>
                </Data>
                <Data name="id">
                    <value>2994</value>
                </Data>
                <Data name="name">
                    <value>Field of Bhaskar Rama Gadgil; Bimbol Patto</value>
                </Data>
                <Data name="taluka">
                    <value>Sattari</value>
                </Data>
                <Data name="syno">
                    <value>12</value>
                </Data>
                <Data name="subdiv">
                    <value>1</value>
                </Data>
                <Data name="village">
                    <value>Davem</value>
                </Data>
                <Data name="latitude">
                    <value>15.55732</value>
                </Data>
                <Data name="longitude">
                    <value>74.17261</value>
                </Data>
                <Data name="photo_1">
                    <value>DCIM/20200902071734414.jpg</value>
                </Data>
                <Data name="photo_2">
                    <value>DCIM/20200902071748666.jpg</value>
                </Data>
                <Data name="syno_pt_list">
                    <value>12/1</value>
                </Data>
                <Data name="constituency">
                    <value>19 - Valpoi</value>
                </Data>
                <Data name="status">
                    <value>Completed</value>
                </Data>
                <Data name="panchayat">
                    <value>Nagargao</value>
                </Data>
                <Data name="wb_type">
                    <value>Pond</value>
                </Data>
                <Data name="owner_type">
                    <value>Private</value>
                </Data>
                <Data name="purpose">
                    <value>Storage</value>
                </Data>
                <Data name="construction">
                    <value>Natural</value>
                </Data>
                <Data name="condition">
                    <value>Good</value>
                </Data>
                <Data name="print_order">
                    <value>017</value>
                </Data>
                <Data name="wb_id">
                    <value>St/Dave/17</value>
                </Data>
                <Data name="storage_capacity">
                    <value>38.0</value>
                </Data>
                <Data name="wb_surface_id">
                    <value>1985</value>
                </Data>
                <Data name="created_at">
                    <value>2020-05-18 11:07:34</value>
                </Data>
                <Data name="updated_at">
                    <value>2023-07-22 14:03:14.307690</value>
                </Data>
                <Data name="book_id">
                    <value>1</value>
                </Data>
                <Data name="owners">
                    <value>Bhaskar Rama Gadgil</value>
                </Data>
                <Data name="label_x">
                    <value>1030746.0</value>
                </Data>
                <Data name="label_y">
                    <value>1020438.96349877</value>
                </Data>
            </ExtendedData>
            <Point id="77986">
                <coordinates>74.172612536,15.557324983,0.0</coordinates>
            </Point>
        </Placemark>
        <Placemark id="78020">
            <ExtendedData>
                <Data name="direction">
                    <value>https://maps.google.com?q=15.55737,74.17142&amp;t=h</value>
                </Data>
                <Data name="id">
                    <value>3201</value>
                </Data>
                <Data name="name">
                    <value>Field of Govind Ramchandra Gadgil; Bimbol Potto</value>
                </Data>
                <Data name="taluka">
                    <value>Sattari</value>
                </Data>
                <Data name="syno">
                    <value>13</value>
                </Data>
                <Data name="subdiv">
                    <value>6</value>
                </Data>
                <Data name="village">
                    <value>Davem</value>
                </Data>
                <Data name="latitude">
                    <value>15.55737</value>
                </Data>
                <Data name="longitude">
                    <value>74.17142</value>
                </Data>
                <Data name="photo_1">
                    <value>DCIM/20200902081324374.jpg</value>
                </Data>
                <Data name="photo_2">
                    <value>DCIM/20200902081335071.jpg</value>
                </Data>
                <Data name="syno_pt_list">
                    <value>13/6</value>
                </Data>
                <Data name="constituency">
                    <value>19 - Valpoi</value>
                </Data>
                <Data name="status">
                    <value>Completed</value>
                </Data>
                <Data name="panchayat">
                    <value>Nagargao</value>
                </Data>
                <Data name="wb_type">
                    <value>Pond</value>
                </Data>
                <Data name="owner_type">
                    <value>Private</value>
                </Data>
                <Data name="purpose">
                    <value>Irrigation</value>
                </Data>
                <Data name="construction">
                    <value>Natural</value>
                </Data>
                <Data name="condition">
                    <value>Needs Maintenance</value>
                </Data>
                <Data name="print_order">
                    <value>014</value>
                </Data>
                <Data name="wb_id">
                    <value>St/Dave/14</value>
                </Data>
                <Data name="storage_capacity">
                    <value>64.0</value>
                </Data>
                <Data name="wb_surface_id">
                    <value>1983</value>
                </Data>
                <Data name="created_at">
                    <value>2020-09-21 09:09:10</value>
                </Data>
                <Data name="updated_at">
                    <value>2023-07-22 14:03:14.307690</value>
                </Data>
                <Data name="book_id">
                    <value>1</value>
                </Data>
                <Data name="owners">
                    <value>1)Govind Ramchandra Gadgil
2)Vasudeo Ramchandra Gadgil
3)Bhaskar Ramchandra Gadgil
Balkrishna Ramchandra Gadgil
Gajanan Ramchandra Gadgil
Moreshwar Ramchandra Gadgil
Prakash Ramchandra Gadgil</value>
                </Data>
                <Data name="label_x">
                    <value>1030746.0</value>
                </Data>
                <Data name="label_y">
                    <value>1020738.96349877</value>
                </Data>
            </ExtendedData>
            <Point id="78019">
                <coordinates>74.171418333,15.557366667,0.0</coordinates>
            </Point>
        </Placemark>
        <Placemark id="78053">
            <ExtendedData>
                <Data name="direction">
                    <value>https://maps.google.com?q=15.55171,74.17523&amp;t=h</value>
                </Data>
                <Data name="id">
                    <value>2541</value>
                </Data>
                <Data name="name">
                    <value>Tolli</value>
                </Data>
                <Data name="taluka">
                    <value>Sattari</value>
                </Data>
                <Data name="syno">
                    <value>1</value>
                </Data>
                <Data name="subdiv">
                    <value>7</value>
                </Data>
                <Data name="village">
                    <value>Davem</value>
                </Data>
                <Data name="latitude">
                    <value>15.55171</value>
                </Data>
                <Data name="longitude">
                    <value>74.17523</value>
                </Data>
                <Data name="photo_1">
                    <value>DCIM/20200902065705030.jpg</value>
                </Data>
                <Data name="photo_2">
                    <value>DCIM/20200902065714258.jpg</value>
                </Data>
                <Data name="syno_pt_list">
                    <value>1/7-8; 2/5P</value>
                </Data>
                <Data name="constituency">
                    <value>19 - Valpoi</value>
                </Data>
                <Data name="status">
                    <value>Completed</value>
                </Data>
                <Data name="panchayat">
                    <value>Nagargao</value>
                </Data>
                <Data name="wb_type">
                    <value>Tank</value>
                </Data>
                <Data name="owner_type">
                    <value>Public</value>
                </Data>
                <Data name="purpose">
                    <value>Irrigation</value>
                </Data>
                <Data name="construction">
                    <value>Concrete</value>
                </Data>
                <Data name="condition">
                    <value>Good</value>
                </Data>
                <Data name="print_order">
                    <value>087</value>
                </Data>
                <Data name="wb_id">
                    <value>St/Dave/01</value>
                </Data>
                <Data name="storage_capacity">
                    <value>1339.0</value>
                </Data>
                <Data name="wb_surface_id">
                    <value>593</value>
                </Data>
                <Data name="created_at">
                    <value>2020-03-26 07:23:32</value>
                </Data>
                <Data name="updated_at">
                    <value>2023-07-22 14:03:14.307690</value>
                </Data>
                <Data name="book_id">
                    <value>1</value>
                </Data>
                <Data name="owners">
                    <value>Government of Goa Daman and Diu
One</value>
                </Data>
                <Data name="label_x">
                    <value>1030746.0</value>
                </Data>
                <Data name="label_y">
                    <value>1015638.96349877</value>
                </Data>
            </ExtendedData>
            <Point id="78052">
                <coordinates>74.175232713,15.551710679,0.0</coordinates>
            </Point>
        </Placemark>
        <Placemark id="78086">
            <ExtendedData>
                <Data name="direction">
                    <value>https://maps.google.com?q=15.55208,74.18095&amp;t=h</value>
                </Data>
                <Data name="id">
                    <value>3195</value>
                </Data>
                <Data name="name">
                    <value>Field of Prasad V. Keni; Uthal Bhag</value>
                </Data>
                <Data name="taluka">
                    <value>Sattari</value>
                </Data>
                <Data name="syno">
                    <value>42</value>
                </Data>
                <Data name="subdiv">
                    <value>1</value>
                </Data>
                <Data name="village">
                    <value>Davem</value>
                </Data>
                <Data name="latitude">
                    <value>15.55208</value>
                </Data>
                <Data name="longitude">
                    <value>74.18095</value>
                </Data>
                <Data name="photo_1">
                    <value>DCIM/20200902060143287.jpg</value>
                </Data>
                <Data name="photo_2">
                    <value>DCIM/20200902060152043.jpg</value>
                </Data>
                <Data name="syno_pt_list">
                    <value>42/1</value>
                </Data>
                <Data name="constituency">
                    <value>19 - Valpoi</value>
                </Data>
                <Data name="status">
                    <value>Completed</value>
                </Data>
                <Data name="panchayat">
                    <value>Nagargao</value>
                </Data>
                <Data name="wb_type">
                    <value>Pond</value>
                </Data>
                <Data name="owner_type">
                    <value>Private</value>
                </Data>
                <Data name="purpose">
                    <value>Irrigation</value>
                </Data>
                <Data name="construction">
                    <value>Natural/Man Made</value>
                </Data>
                <Data name="condition">
                    <value>Good</value>
                </Data>
                <Data name="print_order">
                    <value>016</value>
                </Data>
                <Data name="wb_id">
                    <value>St/Dave/16</value>
                </Data>
                <Data name="storage_capacity">
                    <value>55.0</value>
                </Data>
                <Data name="wb_surface_id">
                    <value>1996</value>
                </Data>
                <Data name="created_at">
                    <value>2020-09-21 09:09:10</value>
                </Data>
                <Data name="updated_at">
                    <value>2023-07-22 14:03:14.307690</value>
                </Data>
                <Data name="book_id">
                    <value>1</value>
                </Data>
                <Data name="owners">
                    <value>Prasad V. Keni</value>
                </Data>
                <Data name="label_x">
                    <value>1030746.0</value>
                </Data>
                <Data name="label_y">
                    <value>1015938.96349877</value>
                </Data>
            </ExtendedData>
            <Point id="78085">
                <coordinates>74.180951667,15.552081667,0.0</coordinates>
            </Point>
        </Placemark>
        <Placemark id="78119">
            <ExtendedData>
                <Data name="direction">
                    <value>https://maps.google.com?q=15.55657,74.17298&amp;t=h</value>
                </Data>
                <Data name="id">
                    <value>3199</value>
                </Data>
                <Data name="name">
                    <value>Field of Purushottam Vishram Kelkar; Bimbol Patto</value>
                </Data>
                <Data name="taluka">
                    <value>Sattari</value>
                </Data>
                <Data name="syno">
                    <value>12</value>
                </Data>
                <Data name="subdiv">
                    <value>4</value>
                </Data>
                <Data name="village">
                    <value>Davem</value>
                </Data>
                <Data name="latitude">
                    <value>15.55657</value>
                </Data>
                <Data name="longitude">
                    <value>74.17298</value>
                </Data>
                <Data name="photo_1">
                    <value>DCIM/20200902080544817.jpg</value>
                </Data>
                <Data name="photo_2">
                    <value>DCIM/20200902080552843.jpg</value>
                </Data>
                <Data name="syno_pt_list">
                    <value>12/4</value>
                </Data>
                <Data name="constituency">
                    <value>19 - Valpoi</value>
                </Data>
                <Data name="status">
                    <value>Completed</value>
                </Data>
                <Data name="panchayat">
                    <value>Nagargao</value>
                </Data>
                <Data name="wb_type">
                    <value>Tank</value>
                </Data>
                <Data name="owner_type">
                    <value>Private</value>
                </Data>
                <Data name="purpose">
                    <value>Irrigation</value>
                </Data>
                <Data name="construction">
                    <value>LDPE Sheets</value>
                </Data>
                <Data name="condition">
                    <value>Good</value>
                </Data>
                <Data name="print_order">
                    <value>099</value>
                </Data>
                <Data name="wb_id">
                    <value>St/Dave/20</value>
                </Data>
                <Data name="storage_capacity">
                    <value>26.0</value>
                </Data>
                <Data name="wb_surface_id">
                    <value>1988</value>
                </Data>
                <Data name="created_at">
                    <value>2020-09-21 09:09:10</value>
                </Data>
                <Data name="updated_at">
                    <value>2023-07-22 14:03:14.307690</value>
                </Data>
                <Data name="book_id">
                    <value>1</value>
                </Data>
                <Data name="owners">
                    <value>Purushottam Vishram Kelkar</value>
                </Data>
                <Data name="label_x">
                    <value>1030746.0</value>
                </Data>
                <Data name="label_y">
                    <value>1018638.96349877</value>
                </Data>
            </ExtendedData>
            <Point id="78118">
                <coordinates>74.172983412,15.556570549,0.0</coordinates>
            </Point>
        </Placemark>
        <Placemark id="78152">
            <ExtendedData>
                <Data name="direction">
                    <value>https://maps.google.com?q=15.55676,74.17258&amp;t=h</value>
                </Data>
                <Data name="id">
                    <value>3198</value>
                </Data>
                <Data name="name">
                    <value>Field of Kalidas Sakharam Kelkar; Bimbol Potto</value>
                </Data>
                <Data name="taluka">
                    <value>Sattari</value>
                </Data>
                <Data name="syno">
                    <value>12</value>
                </Data>
                <Data name="subdiv">
                    <value>2</value>
                </Data>
                <Data name="village">
                    <value>Davem</value>
                </Data>
                <Data name="latitude">
                    <value>15.55676</value>
                </Data>
                <Data name="longitude">
                    <value>74.17258</value>
                </Data>
                <Data name="photo_1">
                    <value>DCIM/20200902080328056.jpg</value>
                </Data>
                <Data name="photo_2">
                    <value>DCIM/20200902080336793.jpg</value>
                </Data>
                <Data name="syno_pt_list">
                    <value>12/2</value>
                </Data>
                <Data name="constituency">
                    <value>19 - Valpoi</value>
                </Data>
                <Data name="status">
                    <value>Completed</value>
                </Data>
                <Data name="panchayat">
                    <value>Nagargao</value>
                </Data>
                <Data name="wb_type">
                    <value>Tank</value>
                </Data>
                <Data name="owner_type">
                    <value>Private</value>
                </Data>
                <Data name="purpose">
                    <value>Irrigation</value>
                </Data>
                <Data name="construction">
                    <value>LDPE Sheets</value>
                </Data>
                <Data name="condition">
                    <value>Good</value>
                </Data>
                <Data name="print_order">
                    <value>097</value>
                </Data>
                <Data name="wb_id">
                    <value>St/Dave/18</value>
                </Data>
                <Data name="storage_capacity">
                    <value>38.0</value>
                </Data>
                <Data name="wb_surface_id">
                    <value>1987</value>
                </Data>
                <Data name="created_at">
                    <value>2020-09-21 09:09:10</value>
                </Data>
                <Data name="updated_at">
                    <value>2023-07-22 14:03:14.307690</value>
                </Data>
                <Data name="book_id">
                    <value>1</value>
                </Data>
                <Data name="owners">
                    <value>Kalidas Sakharam Kelkar
Laxman Moreshwar Kelkar</value>
                </Data>
                <Data name="label_x">
                    <value>1030746.0</value>
                </Data>
                <Data name="label_y">
                    <value>1019238.96349877</value>
                </Data>
            </ExtendedData>
            <Point id="78151">
                <coordinates>74.17258,15.55676,0.0</coordinates>
            </Point>
        </Placemark>
        <Placemark id="78185">
            <ExtendedData>
                <Data name="direction">
                    <value>https://maps.google.com?q=15.55572,74.18442&amp;t=h</value>
                </Data>
                <Data name="id">
                    <value>3107</value>
                </Data>
                <Data name="name">
                    <value>Field of Moreshwar Ramchandra Joshi; Uthalacho Bhag</value>
                </Data>
                <Data name="taluka">
                    <value>Sattari</value>
                </Data>
                <Data name="syno">
                    <value>40</value>
                </Data>
                <Data name="subdiv">
                    <value>6</value>
                </Data>
                <Data name="village">
                    <value>Davem</value>
                </Data>
                <Data name="latitude">
                    <value>15.55572</value>
                </Data>
                <Data name="longitude">
                    <value>74.18442</value>
                </Data>
                <Data name="photo_1">
                    <value>DCIM/20200903054307785.jpg</value>
                </Data>
                <Data name="photo_2">
                    <value>DCIM/20200903054320253.jpg</value>
                </Data>
                <Data name="syno_pt_list">
                    <value>40/6</value>
                </Data>
                <Data name="constituency">
                    <value>19 - Valpoi</value>
                </Data>
                <Data name="status">
                    <value>Completed</value>
                </Data>
                <Data name="panchayat">
                    <value>Nagargao</value>
                </Data>
                <Data name="wb_type">
                    <value>Pond</value>
                </Data>
                <Data name="owner_type">
                    <value>Private</value>
                </Data>
                <Data name="purpose">
                    <value>Storage</value>
                </Data>
                <Data name="construction">
                    <value>Natural</value>
                </Data>
                <Data name="condition">
                    <value>Good</value>
                </Data>
                <Data name="print_order">
                    <value>013</value>
                </Data>
                <Data name="wb_id">
                    <value>St/Dave/11</value>
                </Data>
                <Data name="storage_capacity">
                    <value>128.0</value>
                </Data>
                <Data name="wb_surface_id">
                    <value>1991</value>
                </Data>
                <Data name="created_at">
                    <value>2020-07-24 07:54:41</value>
                </Data>
                <Data name="updated_at">
                    <value>2023-07-22 14:03:14.307690</value>
                </Data>
                <Data name="book_id">
                    <value>1</value>
                </Data>
                <Data name="owners">
                    <value>Moreshwar Ramchandra Joshi</value>
                </Data>
                <Data name="label_x">
                    <value>1030746.0</value>
                </Data>
                <Data name="label_y">
                    <value>1018938.96349877</value>
                </Data>
            </ExtendedData>
            <Point id="78184">
                <coordinates>74.184421484,15.555715898,0.0</coordinates>
            </Point>
        </Placemark>
        <Placemark id="78218">
            <ExtendedData>
                <Data name="direction">
                    <value>https://maps.google.com?q=15.55492,74.18319&amp;t=h</value>
                </Data>
                <Data name="id">
                    <value>3207</value>
                </Data>
                <Data name="name">
                    <value>Field of Manikrao Amrutrao P. Dessai; Uthal Bhag</value>
                </Data>
                <Data name="taluka">
                    <value>Sattari</value>
                </Data>
                <Data name="syno">
                    <value>40</value>
                </Data>
                <Data name="subdiv">
                    <value>1</value>
                </Data>
                <Data name="village">
                    <value>Davem</value>
                </Data>
                <Data name="latitude">
                    <value>15.55492</value>
                </Data>
                <Data name="longitude">
                    <value>74.18319</value>
                </Data>
                <Data name="photo_1">
                    <value>DCIM/20200903055834372.jpg</value>
                </Data>
                <Data name="photo_2">
                    <value>DCIM/20200903055846653.jpg</value>
                </Data>
                <Data name="syno_pt_list">
                    <value>40/1</value>
                </Data>
                <Data name="constituency">
                    <value>19 - Valpoi</value>
                </Data>
                <Data name="status">
                    <value>Completed</value>
                </Data>
                <Data name="panchayat">
                    <value>Nagargao</value>
                </Data>
                <Data name="wb_type">
                    <value>Tank</value>
                </Data>
                <Data name="owner_type">
                    <value>Private</value>
                </Data>
                <Data name="purpose">
                    <value>Irrigation</value>
                </Data>
                <Data name="construction">
                    <value>Concrete</value>
                </Data>
                <Data name="condition">
                    <value>Good</value>
                </Data>
                <Data name="print_order">
                    <value>093</value>
                </Data>
                <Data name="wb_id">
                    <value>St/Dave/09</value>
                </Data>
                <Data name="storage_capacity">
                    <value>255.0</value>
                </Data>
                <Data name="wb_surface_id">
                    <value>1993</value>
                </Data>
                <Data name="created_at">
                    <value>2020-09-21 09:09:10</value>
                </Data>
                <Data name="updated_at">
                    <value>2023-07-22 14:03:14.307690</value>
                </Data>
                <Data name="book_id">
                    <value>1</value>
                </Data>
                <Data name="owners">
                    <value>1) Manikrao Amrutrao P. Dessai
2) Krishnarao Amrutrao P. Dessai
3) Jaisingrao Amrutrao P. Dessai
4) Shripadrao Amrutrao P. Dessai</value>
                </Data>
                <Data name="label_x">
                    <value>1030746.0</value>
                </Data>
                <Data name="label_y">
                    <value>1017738.96349877</value>
                </Data>
            </ExtendedData>
            <Point id="78217">
                <coordinates>74.183188333,15.554923333,0.0</coordinates>
            </Point>
        </Placemark>
        <Placemark id="78251">
            <ExtendedData>
                <Data name="direction">
                    <value>https://maps.google.com?q=15.55452,74.18232&amp;t=h</value>
                </Data>
                <Data name="id">
                    <value>2992</value>
                </Data>
                <Data name="name">
                    <value>Field of Vaman B. Joshi; Devlakadil Moll</value>
                </Data>
                <Data name="taluka">
                    <value>Sattari</value>
                </Data>
                <Data name="syno">
                    <value>41</value>
                </Data>
                <Data name="subdiv">
                    <value>1</value>
                </Data>
                <Data name="village">
                    <value>Davem</value>
                </Data>
                <Data name="latitude">
                    <value>15.55452</value>
                </Data>
                <Data name="longitude">
                    <value>74.18232</value>
                </Data>
                <Data name="photo_1">
                    <value>DCIM/20200902054037083.jpg</value>
                </Data>
                <Data name="photo_2">
                    <value>DCIM/20200902054050055.jpg</value>
                </Data>
                <Data name="syno_pt_list">
                    <value>41/1</value>
                </Data>
                <Data name="constituency">
                    <value>19 - Valpoi</value>
                </Data>
                <Data name="status">
                    <value>Completed</value>
                </Data>
                <Data name="panchayat">
                    <value>Nagargao</value>
                </Data>
                <Data name="wb_type">
                    <value>Tank</value>
                </Data>
                <Data name="owner_type">
                    <value>Private</value>
                </Data>
                <Data name="purpose">
                    <value>Irrigation</value>
                </Data>
                <Data name="construction">
                    <value>Natural</value>
                </Data>
                <Data name="condition">
                    <value>Needs Maintenance</value>
                </Data>
                <Data name="print_order">
                    <value>090</value>
                </Data>
                <Data name="wb_id">
                    <value>St/Dave/05</value>
                </Data>
                <Data name="storage_capacity">
                    <value>602.0</value>
                </Data>
                <Data name="wb_surface_id">
                    <value>1994</value>
                </Data>
                <Data name="created_at">
                    <value>2020-05-18 11:07:34</value>
                </Data>
                <Data name="updated_at">
                    <value>2023-07-22 14:03:14.307690</value>
                </Data>
                <Data name="book_id">
                    <value>1</value>
                </Data>
                <Data name="owners">
                    <value>2)Vaman B. Joshi
3)Manohar V. Joshi
4)Balkrishna V. Joshi
Deepak Vinayak Joshi
Vilas Vinayak Joshi</value>
                </Data>
                <Data name="label_x">
                    <value>1030746.0</value>
                </Data>
                <Data name="label_y">
                    <value>1017438.96349877</value>
                </Data>
            </ExtendedData>
            <Point id="78250">
                <coordinates>74.182318764,15.554521743,0.0</coordinates>
            </Point>
        </Placemark>
        <Placemark id="78284">
            <ExtendedData>
                <Data name="direction">
                    <value>https://maps.google.com?q=15.5591,74.17868&amp;t=h</value>
                </Data>
                <Data name="id">
                    <value>3203</value>
                </Data>
                <Data name="name">
                    <value>Field of Gopal Ramchandra Joshi; Sukad Patto</value>
                </Data>
                <Data name="taluka">
                    <value>Sattari</value>
                </Data>
                <Data name="syno">
                    <value>20</value>
                </Data>
                <Data name="subdiv">
                    <value>0</value>
                </Data>
                <Data name="village">
                    <value>Davem</value>
                </Data>
                <Data name="latitude">
                    <value>15.5591</value>
                </Data>
                <Data name="longitude">
                    <value>74.17868</value>
                </Data>
                <Data name="photo_1">
                    <value>DCIM/20200902111223607.jpg</value>
                </Data>
                <Data name="photo_2">
                    <value>DCIM/20200902111235657.jpg</value>
                </Data>
                <Data name="syno_pt_list">
                    <value>22/8-9</value>
                </Data>
                <Data name="constituency">
                    <value>19 - Valpoi</value>
                </Data>
                <Data name="status">
                    <value>Completed</value>
                </Data>
                <Data name="panchayat">
                    <value>Nagargao</value>
                </Data>
                <Data name="wb_type">
                    <value>Pond</value>
                </Data>
                <Data name="owner_type">
                    <value>Private</value>
                </Data>
                <Data name="purpose">
                    <value>Irrigation</value>
                </Data>
                <Data name="construction">
                    <value>Natural</value>
                </Data>
                <Data name="condition">
                    <value>Good</value>
                </Data>
                <Data name="print_order">
                    <value>011</value>
                </Data>
                <Data name="wb_id">
                    <value>St/Dave/03</value>
                </Data>
                <Data name="storage_capacity">
                    <value>842.0</value>
                </Data>
                <Data name="wb_surface_id">
                    <value>1982</value>
                </Data>
                <Data name="created_at">
                    <value>2020-09-21 09:09:10</value>
                </Data>
                <Data name="updated_at">
                    <value>2023-07-22 14:03:14.307690</value>
                </Data>
                <Data name="book_id">
                    <value>1</value>
                </Data>
                <Data name="owners">
                    <value>Gopal Ramchandra Joshi
Gajanan Ramchandra Joshi
Shankar Ramchandra Josh</value>
                </Data>
                <Data name="label_x">
                    <value>1030746.0</value>
                </Data>
                <Data name="label_y">
                    <value>1021338.96349877</value>
                </Data>
            </ExtendedData>
            <Point id="78283">
                <coordinates>74.178678164,15.559102608,0.0</coordinates>
            </Point>
        </Placemark>
    </Document>
</kml>
