<?xml version="1.0" encoding="UTF-8"?>
<kml xmlns="http://www.opengis.net/kml/2.2" xmlns:gx="http://www.google.com/kml/ext/2.2">
    <Document id="78750">
        <Placemark id="78752">
            <ExtendedData>
                <Data name="direction">
                    <value>https://maps.google.com?q=15.6031,74.05602&amp;t=h</value>
                </Data>
                <Data name="id">
                    <value>2356</value>
                </Data>
                <Data name="name">
                    <value>Field of Rama Monohor Gaons; Algancho Gundo</value>
                </Data>
                <Data name="taluka">
                    <value>Sattari</value>
                </Data>
                <Data name="syno">
                    <value>10</value>
                </Data>
                <Data name="subdiv">
                    <value>11</value>
                </Data>
                <Data name="village">
                    <value>Gonteli</value>
                </Data>
                <Data name="latitude">
                    <value>15.6031</value>
                </Data>
                <Data name="longitude">
                    <value>74.05602</value>
                </Data>
                <Data name="photo_1">
                    <value>DCIM/20230314091530546.jpg</value>
                </Data>
                <Data name="photo_2">
                    <value>DCIM/20230314091536372.jpg</value>
                </Data>
                <Data name="syno_pt_list">
                    <value>10/11</value>
                </Data>
                <Data name="constituency">
                    <value>18 - Poriem</value>
                </Data>
                <Data name="status">
                    <value>Completed</value>
                </Data>
                <Data name="panchayat">
                    <value>Kerim</value>
                </Data>
                <Data name="wb_type">
                    <value>Tank</value>
                </Data>
                <Data name="owner_type">
                    <value>Private</value>
                </Data>
                <Data name="purpose">
                    <value>Storage</value>
                </Data>
                <Data name="construction">
                    <value>Natural/Man Made</value>
                </Data>
                <Data name="condition">
                    <value>Good</value>
                </Data>
                <Data name="print_order">
                    <value>109</value>
                </Data>
                <Data name="wb_id">
                    <value>St/Gont/01</value>
                </Data>
                <Data name="storage_capacity">
                    <value>1772.0</value>
                </Data>
                <Data name="wb_surface_id">
                    <value>227</value>
                </Data>
                <Data name="created_at">
                    <value>2020-02-28 15:24:34</value>
                </Data>
                <Data name="updated_at">
                    <value>2023-07-22 14:03:14.307690</value>
                </Data>
                <Data name="book_id">
                    <value>1</value>
                </Data>
                <Data name="owners">
                    <value>1) Rama Monohor Gaons
2) Laxman Monohor Gaons</value>
                </Data>
                <Data name="label_x">
                    <value>998722.0</value>
                </Data>
                <Data name="label_y">
                    <value>1022347.35417379</value>
                </Data>
            </ExtendedData>
            <Point id="78751">
                <coordinates>74.056017345,15.603100402,0.0</coordinates>
            </Point>
        </Placemark>
        <Placemark id="78785">
            <ExtendedData>
                <Data name="direction">
                    <value>https://maps.google.com?q=15.60318,74.0562&amp;t=h</value>
                </Data>
                <Data name="id">
                    <value>2357</value>
                </Data>
                <Data name="name">
                    <value>Field of Rama Monohor Gaons; Algancho Gundo</value>
                </Data>
                <Data name="taluka">
                    <value>Sattari</value>
                </Data>
                <Data name="syno">
                    <value>10</value>
                </Data>
                <Data name="subdiv">
                    <value>11</value>
                </Data>
                <Data name="village">
                    <value>Gonteli</value>
                </Data>
                <Data name="latitude">
                    <value>15.60318</value>
                </Data>
                <Data name="longitude">
                    <value>74.0562</value>
                </Data>
                <Data name="photo_1">
                    <value>DCIM/20230314091346161.jpg</value>
                </Data>
                <Data name="photo_2">
                    <value>DCIM/20230314091512211.jpg</value>
                </Data>
                <Data name="syno_pt_list">
                    <value>10/11</value>
                </Data>
                <Data name="constituency">
                    <value>18 - Poriem</value>
                </Data>
                <Data name="status">
                    <value>Completed</value>
                </Data>
                <Data name="panchayat">
                    <value>Kerim</value>
                </Data>
                <Data name="wb_type">
                    <value>Tank</value>
                </Data>
                <Data name="owner_type">
                    <value>Private</value>
                </Data>
                <Data name="purpose">
                    <value>Storage</value>
                </Data>
                <Data name="construction">
                    <value>Natural/Man Made</value>
                </Data>
                <Data name="condition">
                    <value>Good</value>
                </Data>
                <Data name="print_order">
                    <value>110</value>
                </Data>
                <Data name="wb_id">
                    <value>St/Gont/02</value>
                </Data>
                <Data name="storage_capacity">
                    <value>643.0</value>
                </Data>
                <Data name="wb_surface_id">
                    <value>226</value>
                </Data>
                <Data name="created_at">
                    <value>2020-02-28 15:24:34</value>
                </Data>
                <Data name="updated_at">
                    <value>2023-07-22 14:03:14.307690</value>
                </Data>
                <Data name="book_id">
                    <value>1</value>
                </Data>
                <Data name="owners">
                    <value>1) Rama Monohor Gaons
2) Laxman Monohor Gaons</value>
                </Data>
                <Data name="label_x">
                    <value>998722.0</value>
                </Data>
                <Data name="label_y">
                    <value>1022647.35417379</value>
                </Data>
            </ExtendedData>
            <Point id="78784">
                <coordinates>74.056199838,15.603179792,0.0</coordinates>
            </Point>
        </Placemark>
    </Document>
</kml>
