<?xml version="1.0" encoding="UTF-8"?>
<kml xmlns="http://www.opengis.net/kml/2.2" xmlns:gx="http://www.google.com/kml/ext/2.2">
    <Document id="78989">
        <Placemark id="78991">
            <ExtendedData>
                <Data name="direction">
                    <value>https://maps.google.com?q=15.57634,74.1871&amp;t=h</value>
                </Data>
                <Data name="id">
                    <value>2342</value>
                </Data>
                <Data name="name">
                    <value>Field of Disha Devidas Bagi; Belachem Mol Kavaleachem Poni</value>
                </Data>
                <Data name="taluka">
                    <value>Sattari</value>
                </Data>
                <Data name="syno">
                    <value>12</value>
                </Data>
                <Data name="subdiv">
                    <value>1</value>
                </Data>
                <Data name="village">
                    <value>Maloli</value>
                </Data>
                <Data name="latitude">
                    <value>15.57634</value>
                </Data>
                <Data name="longitude">
                    <value>74.1871</value>
                </Data>
                <Data name="photo_1">
                    <value>DCIM/20200828105751461.jpg</value>
                </Data>
                <Data name="photo_2">
                    <value>DCIM/20200828105805324.jpg</value>
                </Data>
                <Data name="syno_pt_list">
                    <value>12/1- G</value>
                </Data>
                <Data name="constituency">
                    <value>19 - Valpoi</value>
                </Data>
                <Data name="status">
                    <value>Completed</value>
                </Data>
                <Data name="panchayat">
                    <value>Nagargao</value>
                </Data>
                <Data name="wb_type">
                    <value>Tank</value>
                </Data>
                <Data name="owner_type">
                    <value>Private</value>
                </Data>
                <Data name="purpose">
                    <value>Storage</value>
                </Data>
                <Data name="construction">
                    <value>Laterite</value>
                </Data>
                <Data name="condition">
                    <value>Good</value>
                </Data>
                <Data name="print_order">
                    <value>114</value>
                </Data>
                <Data name="wb_id">
                    <value>St/Malo/01</value>
                </Data>
                <Data name="storage_capacity">
                    <value>1311.0</value>
                </Data>
                <Data name="wb_surface_id">
                    <value>168</value>
                </Data>
                <Data name="created_at">
                    <value>2020-02-28 15:24:34</value>
                </Data>
                <Data name="updated_at">
                    <value>2023-07-22 14:03:14.307690</value>
                </Data>
                <Data name="book_id">
                    <value>1</value>
                </Data>
                <Data name="owners">
                    <value>Disha Devidas Bagi @ Sushma Sachin Parsekar
M/S Madhukant Shantaram Harmalkar
Narayan Rajgo Pawar
Narayan Shridhar Nayak
Santosh Shivnath Tari
Sufal  Narayan  Nayak
Surabhi Santosh Tari
Usha Ravi Naik</value>
                </Data>
                <Data name="label_x">
                    <value>1030746.0</value>
                </Data>
                <Data name="label_y">
                    <value>1025538.96349877</value>
                </Data>
            </ExtendedData>
            <Point id="78990">
                <coordinates>74.187100347,15.576340633,0.0</coordinates>
            </Point>
        </Placemark>
        <Placemark id="79024">
            <ExtendedData>
                <Data name="direction">
                    <value>https://maps.google.com?q=15.57489,74.18586&amp;t=h</value>
                </Data>
                <Data name="id">
                    <value>3183</value>
                </Data>
                <Data name="name">
                    <value>Field of Disha Devidas Bagi; Belachem Mol Kavaleachem Poni</value>
                </Data>
                <Data name="taluka">
                    <value>Sattari</value>
                </Data>
                <Data name="syno">
                    <value>12</value>
                </Data>
                <Data name="subdiv">
                    <value>1</value>
                </Data>
                <Data name="village">
                    <value>Maloli</value>
                </Data>
                <Data name="latitude">
                    <value>15.57489</value>
                </Data>
                <Data name="longitude">
                    <value>74.18586</value>
                </Data>
                <Data name="photo_1">
                    <value>DCIM/20200828101118704.jpg</value>
                </Data>
                <Data name="photo_2">
                    <value>DCIM/20200828101138153.jpg</value>
                </Data>
                <Data name="syno_pt_list">
                    <value>12/1- G</value>
                </Data>
                <Data name="constituency">
                    <value>19 - Valpoi</value>
                </Data>
                <Data name="status">
                    <value>Completed</value>
                </Data>
                <Data name="panchayat">
                    <value>Nagargao</value>
                </Data>
                <Data name="wb_type">
                    <value>Tank</value>
                </Data>
                <Data name="owner_type">
                    <value>Private</value>
                </Data>
                <Data name="purpose">
                    <value>Irrigation</value>
                </Data>
                <Data name="construction">
                    <value>Concrete</value>
                </Data>
                <Data name="condition">
                    <value>Good</value>
                </Data>
                <Data name="print_order">
                    <value>115</value>
                </Data>
                <Data name="wb_id">
                    <value>St/Malo/02</value>
                </Data>
                <Data name="storage_capacity">
                    <value>1160.0</value>
                </Data>
                <Data name="wb_surface_id">
                    <value>1980</value>
                </Data>
                <Data name="created_at">
                    <value>2020-08-28 15:49:28</value>
                </Data>
                <Data name="updated_at">
                    <value>2023-07-22 14:03:14.307690</value>
                </Data>
                <Data name="book_id">
                    <value>1</value>
                </Data>
                <Data name="owners">
                    <value>Disha Devidas Bagi @ Sushma Sachin Parsekar
M/S Madhukant Shantaram Harmalkar
Narayan Rajgo Pawar
Narayan Shridhar Nayak
Santosh Shivnath Tari
Sufal  Narayan  Nayak
Surabhi Santosh Tari
Usha Ravi Naik</value>
                </Data>
                <Data name="label_x">
                    <value>1030746.0</value>
                </Data>
                <Data name="label_y">
                    <value>1024338.96349877</value>
                </Data>
            </ExtendedData>
            <Point id="79023">
                <coordinates>74.185864345,15.574889914,0.0</coordinates>
            </Point>
        </Placemark>
        <Placemark id="79057">
            <ExtendedData>
                <Data name="direction">
                    <value>https://maps.google.com?q=15.57501,74.18522&amp;t=h</value>
                </Data>
                <Data name="id">
                    <value>3184</value>
                </Data>
                <Data name="name">
                    <value>Field of Mahesh Harmalkar; Kaliacho Paniya Varil Thikan-Antod</value>
                </Data>
                <Data name="taluka">
                    <value>Sattari</value>
                </Data>
                <Data name="syno">
                    <value>11</value>
                </Data>
                <Data name="subdiv">
                    <value>3</value>
                </Data>
                <Data name="village">
                    <value>Maloli</value>
                </Data>
                <Data name="latitude">
                    <value>15.57501</value>
                </Data>
                <Data name="longitude">
                    <value>74.18522</value>
                </Data>
                <Data name="photo_1">
                    <value>DCIM/20200828101624296.jpg</value>
                </Data>
                <Data name="photo_2">
                    <value>DCIM/20200828101646639.jpg</value>
                </Data>
                <Data name="syno_pt_list">
                    <value>11/3-B</value>
                </Data>
                <Data name="constituency">
                    <value>19 - Valpoi</value>
                </Data>
                <Data name="status">
                    <value>Completed</value>
                </Data>
                <Data name="panchayat">
                    <value>Nagargao</value>
                </Data>
                <Data name="wb_type">
                    <value>Tank</value>
                </Data>
                <Data name="owner_type">
                    <value>Private</value>
                </Data>
                <Data name="purpose">
                    <value>Irrigation</value>
                </Data>
                <Data name="construction">
                    <value>Concrete</value>
                </Data>
                <Data name="condition">
                    <value>Good</value>
                </Data>
                <Data name="print_order">
                    <value>120</value>
                </Data>
                <Data name="wb_id">
                    <value>St/Malo/08</value>
                </Data>
                <Data name="storage_capacity">
                    <value>184.0</value>
                </Data>
                <Data name="wb_surface_id">
                    <value>1979</value>
                </Data>
                <Data name="created_at">
                    <value>2020-08-28 15:49:28</value>
                </Data>
                <Data name="updated_at">
                    <value>2023-07-22 14:03:14.307690</value>
                </Data>
                <Data name="book_id">
                    <value>1</value>
                </Data>
                <Data name="owners">
                    <value>Mahesh Madhukant Harmalkar
Rama Sadyo Bagi</value>
                </Data>
                <Data name="label_x">
                    <value>1030746.0</value>
                </Data>
                <Data name="label_y">
                    <value>1025238.96349877</value>
                </Data>
            </ExtendedData>
            <Point id="79056">
                <coordinates>74.185216667,15.575006667,0.0</coordinates>
            </Point>
        </Placemark>
        <Placemark id="79090">
            <ExtendedData>
                <Data name="direction">
                    <value>https://maps.google.com?q=15.57915,74.18686&amp;t=h</value>
                </Data>
                <Data name="id">
                    <value>2343</value>
                </Data>
                <Data name="name">
                    <value>Field of Disha Devidas Bagi; Belachem Mol Kavaleachem Poni</value>
                </Data>
                <Data name="taluka">
                    <value>Sattari</value>
                </Data>
                <Data name="syno">
                    <value>12</value>
                </Data>
                <Data name="subdiv">
                    <value>1</value>
                </Data>
                <Data name="village">
                    <value>Maloli</value>
                </Data>
                <Data name="latitude">
                    <value>15.57915</value>
                </Data>
                <Data name="longitude">
                    <value>74.18686</value>
                </Data>
                <Data name="photo_1">
                    <value>DCIM/20200828103502534.jpg</value>
                </Data>
                <Data name="photo_2">
                    <value>DCIM/20200828103516078.jpg</value>
                </Data>
                <Data name="syno_pt_list">
                    <value>12/1-A,1-B</value>
                </Data>
                <Data name="constituency">
                    <value>19 - Valpoi</value>
                </Data>
                <Data name="status">
                    <value>Completed</value>
                </Data>
                <Data name="panchayat">
                    <value>Nagargao</value>
                </Data>
                <Data name="wb_type">
                    <value>Tank</value>
                </Data>
                <Data name="owner_type">
                    <value>Private</value>
                </Data>
                <Data name="purpose">
                    <value>Irrigation</value>
                </Data>
                <Data name="construction">
                    <value>Laterite</value>
                </Data>
                <Data name="condition">
                    <value>Good</value>
                </Data>
                <Data name="print_order">
                    <value>116</value>
                </Data>
                <Data name="wb_id">
                    <value>St/Malo/03</value>
                </Data>
                <Data name="storage_capacity">
                    <value>849.0</value>
                </Data>
                <Data name="wb_surface_id">
                    <value>167</value>
                </Data>
                <Data name="created_at">
                    <value>2020-02-28 15:24:34</value>
                </Data>
                <Data name="updated_at">
                    <value>2023-07-22 14:03:14.307690</value>
                </Data>
                <Data name="book_id">
                    <value>1</value>
                </Data>
                <Data name="owners">
                    <value>Disha Devidas Bagi @ Sushma Sachin Parsekar
M/S Madhukant Shantaram Harmalkar
Narayan Rajgo Pawar
Narayan Shridhar Nayak
Santosh Shivnath Tari
Sufal  Narayan  Nayak
Surabhi Santosh Tari
Usha Ravi Naik</value>
                </Data>
                <Data name="label_x">
                    <value>1030746.0</value>
                </Data>
                <Data name="label_y">
                    <value>1027638.96349877</value>
                </Data>
            </ExtendedData>
            <Point id="79089">
                <coordinates>74.186860385,15.579150109,0.0</coordinates>
            </Point>
        </Placemark>
        <Placemark id="79123">
            <ExtendedData>
                <Data name="direction">
                    <value>https://maps.google.com?q=15.5814,74.19662&amp;t=h</value>
                </Data>
                <Data name="id">
                    <value>3211</value>
                </Data>
                <Data name="name">
                    <value>Field of Gopal Narayan Barve; Ghotchi Mali Bombe Thikan</value>
                </Data>
                <Data name="taluka">
                    <value>Sattari</value>
                </Data>
                <Data name="syno">
                    <value>18</value>
                </Data>
                <Data name="subdiv">
                    <value>7</value>
                </Data>
                <Data name="village">
                    <value>Maloli</value>
                </Data>
                <Data name="latitude">
                    <value>15.5814</value>
                </Data>
                <Data name="longitude">
                    <value>74.19662</value>
                </Data>
                <Data name="photo_1">
                    <value>DCIM/20200903073832985.jpg</value>
                </Data>
                <Data name="photo_2">
                    <value>DCIM/20200903073841635.jpg</value>
                </Data>
                <Data name="syno_pt_list">
                    <value>18/7</value>
                </Data>
                <Data name="constituency">
                    <value>19 - Valpoi</value>
                </Data>
                <Data name="status">
                    <value>Completed</value>
                </Data>
                <Data name="panchayat">
                    <value>Nagargao</value>
                </Data>
                <Data name="wb_type">
                    <value>Tank</value>
                </Data>
                <Data name="owner_type">
                    <value>Private</value>
                </Data>
                <Data name="purpose">
                    <value>Irrigation</value>
                </Data>
                <Data name="construction">
                    <value>Concrete</value>
                </Data>
                <Data name="condition">
                    <value>Good</value>
                </Data>
                <Data name="print_order">
                    <value>123</value>
                </Data>
                <Data name="wb_id">
                    <value>St/Malo/11</value>
                </Data>
                <Data name="storage_capacity">
                    <value>79.0</value>
                </Data>
                <Data name="wb_surface_id">
                    <value>1954</value>
                </Data>
                <Data name="created_at">
                    <value>2020-09-21 09:09:10</value>
                </Data>
                <Data name="updated_at">
                    <value>2023-07-22 14:03:14.307690</value>
                </Data>
                <Data name="book_id">
                    <value>1</value>
                </Data>
                <Data name="owners">
                    <value>Gopal Narayan Barve
Laxman Ram Savadekar
Papiha Manik Desai
Sitaram Krishna Barve
Vishwanath Gajanan Kelkar
Vithal Masso Bandekar</value>
                </Data>
                <Data name="label_x">
                    <value>1030746.0</value>
                </Data>
                <Data name="label_y">
                    <value>1026138.96349877</value>
                </Data>
            </ExtendedData>
            <Point id="79122">
                <coordinates>74.196617504,15.581404402,0.0</coordinates>
            </Point>
        </Placemark>
        <Placemark id="79156">
            <ExtendedData>
                <Data name="direction">
                    <value>https://maps.google.com?q=15.57931,74.18864&amp;t=h</value>
                </Data>
                <Data name="id">
                    <value>3194</value>
                </Data>
                <Data name="name">
                    <value>Govt Field; Hember Mal</value>
                </Data>
                <Data name="taluka">
                    <value>Sattari</value>
                </Data>
                <Data name="syno">
                    <value>15</value>
                </Data>
                <Data name="subdiv">
                    <value>6</value>
                </Data>
                <Data name="village">
                    <value>Maloli</value>
                </Data>
                <Data name="latitude">
                    <value>15.57931</value>
                </Data>
                <Data name="longitude">
                    <value>74.18864</value>
                </Data>
                <Data name="photo_1">
                    <value>DCIM/20200829120221244.jpg</value>
                </Data>
                <Data name="photo_2">
                    <value>DCIM/20200829120231007.jpg</value>
                </Data>
                <Data name="syno_pt_list">
                    <value>15/5-6</value>
                </Data>
                <Data name="constituency">
                    <value>19 - Valpoi</value>
                </Data>
                <Data name="status">
                    <value>Completed</value>
                </Data>
                <Data name="panchayat">
                    <value>Nagargao</value>
                </Data>
                <Data name="wb_type">
                    <value>Tank</value>
                </Data>
                <Data name="owner_type">
                    <value>Public</value>
                </Data>
                <Data name="purpose">
                    <value>Irrigation</value>
                </Data>
                <Data name="construction">
                    <value>Concrete</value>
                </Data>
                <Data name="condition">
                    <value>Good</value>
                </Data>
                <Data name="print_order">
                    <value>124</value>
                </Data>
                <Data name="wb_id">
                    <value>St/Malo/12</value>
                </Data>
                <Data name="storage_capacity">
                    <value>76.0</value>
                </Data>
                <Data name="wb_surface_id">
                    <value>1975</value>
                </Data>
                <Data name="created_at">
                    <value>2020-09-21 09:09:10</value>
                </Data>
                <Data name="updated_at">
                    <value>2023-07-22 14:03:14.307690</value>
                </Data>
                <Data name="book_id">
                    <value>1</value>
                </Data>
                <Data name="owners">
                    <value>Government of Goa Daman and Diu</value>
                </Data>
                <Data name="label_x">
                    <value>1030746.0</value>
                </Data>
                <Data name="label_y">
                    <value>1027038.96349877</value>
                </Data>
            </ExtendedData>
            <Point id="79155">
                <coordinates>74.188635806,15.579305705,0.0</coordinates>
            </Point>
        </Placemark>
        <Placemark id="79189">
            <ExtendedData>
                <Data name="direction">
                    <value>https://maps.google.com?q=15.57929,74.18629&amp;t=h</value>
                </Data>
                <Data name="id">
                    <value>2962</value>
                </Data>
                <Data name="name">
                    <value>Field of Disha Devidas Bagi; Belachem Mol Kavaleachem Poni</value>
                </Data>
                <Data name="taluka">
                    <value>Sattari</value>
                </Data>
                <Data name="syno">
                    <value>12</value>
                </Data>
                <Data name="subdiv">
                    <value>1</value>
                </Data>
                <Data name="village">
                    <value>Maloli</value>
                </Data>
                <Data name="latitude">
                    <value>15.57929</value>
                </Data>
                <Data name="longitude">
                    <value>74.18629</value>
                </Data>
                <Data name="photo_1">
                    <value>DCIM/20200828103754685.jpg</value>
                </Data>
                <Data name="photo_2">
                    <value>DCIM/20200828103803733.jpg</value>
                </Data>
                <Data name="syno_pt_list">
                    <value>12/1-A,1-L</value>
                </Data>
                <Data name="constituency">
                    <value>19 - Valpoi</value>
                </Data>
                <Data name="status">
                    <value>Completed</value>
                </Data>
                <Data name="panchayat">
                    <value>Nagargao</value>
                </Data>
                <Data name="wb_type">
                    <value>Tank</value>
                </Data>
                <Data name="owner_type">
                    <value>Private</value>
                </Data>
                <Data name="purpose">
                    <value>Irrigation</value>
                </Data>
                <Data name="construction">
                    <value>Natural/Man Made</value>
                </Data>
                <Data name="condition">
                    <value>Needs Maintenance</value>
                </Data>
                <Data name="print_order">
                    <value>119</value>
                </Data>
                <Data name="wb_id">
                    <value>St/Malo/07</value>
                </Data>
                <Data name="storage_capacity">
                    <value>189.0</value>
                </Data>
                <Data name="wb_surface_id">
                    <value>1972</value>
                </Data>
                <Data name="created_at">
                    <value>2020-05-14 11:37:11</value>
                </Data>
                <Data name="updated_at">
                    <value>2023-07-22 14:03:14.307690</value>
                </Data>
                <Data name="book_id">
                    <value>1</value>
                </Data>
                <Data name="owners">
                    <value>Disha Devidas Bagi @ Sushma Sachin Parsekar
M/S Madhukant Shantaram Harmalkar
Narayan Rajgo Pawar
Narayan Shridhar Nayak
Santosh Shivnath Tari
Sufal  Narayan  Nayak
Surabhi Santosh Tari
Usha Ravi Naik</value>
                </Data>
                <Data name="label_x">
                    <value>1030746.0</value>
                </Data>
                <Data name="label_y">
                    <value>1027938.96349877</value>
                </Data>
            </ExtendedData>
            <Point id="79188">
                <coordinates>74.18629,15.579293333,0.0</coordinates>
            </Point>
        </Placemark>
        <Placemark id="79222">
            <ExtendedData>
                <Data name="direction">
                    <value>https://maps.google.com?q=15.56744,74.18607&amp;t=h</value>
                </Data>
                <Data name="id">
                    <value>2341</value>
                </Data>
                <Data name="name">
                    <value>Field of Narahari Ramkrishna Kale; Kavaleachem Pani</value>
                </Data>
                <Data name="taluka">
                    <value>Sattari</value>
                </Data>
                <Data name="syno">
                    <value>9</value>
                </Data>
                <Data name="subdiv">
                    <value>8</value>
                </Data>
                <Data name="village">
                    <value>Maloli</value>
                </Data>
                <Data name="latitude">
                    <value>15.56744</value>
                </Data>
                <Data name="longitude">
                    <value>74.18607</value>
                </Data>
                <Data name="photo_1">
                    <value>DCIM/20200903064154921.jpg</value>
                </Data>
                <Data name="photo_2">
                    <value>DCIM/20200903064203957.jpg</value>
                </Data>
                <Data name="syno_pt_list">
                    <value>9/7-8</value>
                </Data>
                <Data name="constituency">
                    <value>19 - Valpoi</value>
                </Data>
                <Data name="status">
                    <value>Completed</value>
                </Data>
                <Data name="panchayat">
                    <value>Nagargao</value>
                </Data>
                <Data name="wb_type">
                    <value>Pond</value>
                </Data>
                <Data name="owner_type">
                    <value>Private</value>
                </Data>
                <Data name="purpose">
                    <value>Storage</value>
                </Data>
                <Data name="construction">
                    <value>Concrete</value>
                </Data>
                <Data name="condition">
                    <value>Good</value>
                </Data>
                <Data name="print_order">
                    <value>024</value>
                </Data>
                <Data name="wb_id">
                    <value>St/Malo/04</value>
                </Data>
                <Data name="storage_capacity">
                    <value>710.0</value>
                </Data>
                <Data name="wb_surface_id">
                    <value>233</value>
                </Data>
                <Data name="created_at">
                    <value>2020-02-28 15:24:34</value>
                </Data>
                <Data name="updated_at">
                    <value>2023-07-22 14:03:14.307690</value>
                </Data>
                <Data name="book_id">
                    <value>1</value>
                </Data>
                <Data name="owners">
                    <value>1) Narahari Ramkrishna Kale
2) Mahadev Atmaram Joshi
3) Shridhar Sitaram Kale
4) Rama Rajgo Mankar</value>
                </Data>
                <Data name="label_x">
                    <value>1030746.0</value>
                </Data>
                <Data name="label_y">
                    <value>1021938.96349877</value>
                </Data>
            </ExtendedData>
            <Point id="79221">
                <coordinates>74.18607083,15.567441417,0.0</coordinates>
            </Point>
        </Placemark>
        <Placemark id="79255">
            <ExtendedData>
                <Data name="direction">
                    <value>https://maps.google.com?q=15.578,74.19958&amp;t=h</value>
                </Data>
                <Data name="id">
                    <value>3192</value>
                </Data>
                <Data name="name">
                    <value>Govt Field; Vaigonacho Pon</value>
                </Data>
                <Data name="taluka">
                    <value>Sattari</value>
                </Data>
                <Data name="syno">
                    <value>3</value>
                </Data>
                <Data name="subdiv">
                    <value>4</value>
                </Data>
                <Data name="village">
                    <value>Maloli</value>
                </Data>
                <Data name="latitude">
                    <value>15.578</value>
                </Data>
                <Data name="longitude">
                    <value>74.19958</value>
                </Data>
                <Data name="photo_1">
                    <value>DCIM/20200829113254814.jpg</value>
                </Data>
                <Data name="photo_2">
                    <value>DCIM/20200829113308593.jpg</value>
                </Data>
                <Data name="syno_pt_list">
                    <value>3/4</value>
                </Data>
                <Data name="constituency">
                    <value>19 - Valpoi</value>
                </Data>
                <Data name="status">
                    <value>Completed</value>
                </Data>
                <Data name="panchayat">
                    <value>Nagargao</value>
                </Data>
                <Data name="wb_type">
                    <value>Tank</value>
                </Data>
                <Data name="owner_type">
                    <value>Public</value>
                </Data>
                <Data name="purpose">
                    <value>Irrigation</value>
                </Data>
                <Data name="construction">
                    <value>Concrete</value>
                </Data>
                <Data name="condition">
                    <value>Needs Maintenance</value>
                </Data>
                <Data name="print_order">
                    <value>127</value>
                </Data>
                <Data name="wb_id">
                    <value>St/Malo/17</value>
                </Data>
                <Data name="storage_capacity">
                    <value>26.0</value>
                </Data>
                <Data name="wb_surface_id">
                    <value>2003</value>
                </Data>
                <Data name="created_at">
                    <value>2020-09-21 09:09:10</value>
                </Data>
                <Data name="updated_at">
                    <value>2023-07-22 14:03:14.307690</value>
                </Data>
                <Data name="book_id">
                    <value>1</value>
                </Data>
                <Data name="owners">
                    <value>Government of Goa Daman and Diu</value>
                </Data>
                <Data name="label_x">
                    <value>1030746.0</value>
                </Data>
                <Data name="label_y">
                    <value>1024638.96349877</value>
                </Data>
            </ExtendedData>
            <Point id="79254">
                <coordinates>74.19958,15.577996667,0.0</coordinates>
            </Point>
        </Placemark>
        <Placemark id="79288">
            <ExtendedData>
                <Data name="direction">
                    <value>https://maps.google.com?q=15.57763,74.18715&amp;t=h</value>
                </Data>
                <Data name="id">
                    <value>3185</value>
                </Data>
                <Data name="name">
                    <value>Field of Disha Devidas Bagi; Belachem Mol Kavaleachem Poni</value>
                </Data>
                <Data name="taluka">
                    <value>Sattari</value>
                </Data>
                <Data name="syno">
                    <value>12</value>
                </Data>
                <Data name="subdiv">
                    <value>1</value>
                </Data>
                <Data name="village">
                    <value>Maloli</value>
                </Data>
                <Data name="latitude">
                    <value>15.57763</value>
                </Data>
                <Data name="longitude">
                    <value>74.18715</value>
                </Data>
                <Data name="photo_1">
                    <value>DCIM/20200828102758790.jpg</value>
                </Data>
                <Data name="photo_2">
                    <value>DCIM/20200828102809596.jpg</value>
                </Data>
                <Data name="syno_pt_list">
                    <value>12/1</value>
                </Data>
                <Data name="constituency">
                    <value>19 - Valpoi</value>
                </Data>
                <Data name="status">
                    <value>Completed</value>
                </Data>
                <Data name="panchayat">
                    <value>Nagargao</value>
                </Data>
                <Data name="wb_type">
                    <value>Tank</value>
                </Data>
                <Data name="owner_type">
                    <value>Private</value>
                </Data>
                <Data name="purpose">
                    <value>Irrigation</value>
                </Data>
                <Data name="construction">
                    <value>Man Made</value>
                </Data>
                <Data name="condition">
                    <value>Needs Maintenance</value>
                </Data>
                <Data name="print_order">
                    <value>126</value>
                </Data>
                <Data name="wb_id">
                    <value>St/Malo/14</value>
                </Data>
                <Data name="storage_capacity">
                    <value>43.0</value>
                </Data>
                <Data name="wb_surface_id">
                    <value>1976</value>
                </Data>
                <Data name="created_at">
                    <value>2020-08-28 15:49:28</value>
                </Data>
                <Data name="updated_at">
                    <value>2023-07-22 14:03:14.307690</value>
                </Data>
                <Data name="book_id">
                    <value>1</value>
                </Data>
                <Data name="owners">
                    <value>Disha Devidas Bagi @ Sushma Sachin Parsekar
M/S Madhukant Shantaram Harmalkar
Narayan Rajgo Pawar
Narayan Shridhar Nayak
Santosh Shivnath Tari
Sufal  Narayan  Nayak
Surabhi Santosh Tari
Usha Ravi Naik</value>
                </Data>
                <Data name="label_x">
                    <value>1030746.0</value>
                </Data>
                <Data name="label_y">
                    <value>1025838.96349877</value>
                </Data>
            </ExtendedData>
            <Point id="79287">
                <coordinates>74.187153333,15.577633333,0.0</coordinates>
            </Point>
        </Placemark>
        <Placemark id="79321">
            <ExtendedData>
                <Data name="direction">
                    <value>https://maps.google.com?q=15.57871,74.18797&amp;t=h</value>
                </Data>
                <Data name="id">
                    <value>3186</value>
                </Data>
                <Data name="name">
                    <value>Field of Disha Devidas Bagi; Belachem Mol Kavaleachem Poni</value>
                </Data>
                <Data name="taluka">
                    <value>Sattari</value>
                </Data>
                <Data name="syno">
                    <value>12</value>
                </Data>
                <Data name="subdiv">
                    <value>1</value>
                </Data>
                <Data name="village">
                    <value>Maloli</value>
                </Data>
                <Data name="latitude">
                    <value>15.57871</value>
                </Data>
                <Data name="longitude">
                    <value>74.18797</value>
                </Data>
                <Data name="photo_1">
                    <value>DCIM/20200828104616141.jpg</value>
                </Data>
                <Data name="photo_2">
                    <value>DCIM/20200828104624125.jpg</value>
                </Data>
                <Data name="syno_pt_list">
                    <value>12/1-C</value>
                </Data>
                <Data name="constituency">
                    <value>19 - Valpoi</value>
                </Data>
                <Data name="status">
                    <value>Completed</value>
                </Data>
                <Data name="panchayat">
                    <value>Nagargao</value>
                </Data>
                <Data name="wb_type">
                    <value>Tank</value>
                </Data>
                <Data name="owner_type">
                    <value>Private</value>
                </Data>
                <Data name="purpose">
                    <value>Irrigation</value>
                </Data>
                <Data name="construction">
                    <value>Natural/Man Made</value>
                </Data>
                <Data name="condition">
                    <value>Good</value>
                </Data>
                <Data name="print_order">
                    <value>121</value>
                </Data>
                <Data name="wb_id">
                    <value>St/Malo/09</value>
                </Data>
                <Data name="storage_capacity">
                    <value>163.0</value>
                </Data>
                <Data name="wb_surface_id">
                    <value>1977</value>
                </Data>
                <Data name="created_at">
                    <value>2020-08-28 15:49:28</value>
                </Data>
                <Data name="updated_at">
                    <value>2023-07-22 14:03:14.307690</value>
                </Data>
                <Data name="book_id">
                    <value>1</value>
                </Data>
                <Data name="owners">
                    <value>Disha Devidas Bagi @ Sushma Sachin Parsekar
M/S Madhukant Shantaram Harmalkar
Narayan Rajgo Pawar
Narayan Shridhar Nayak
Santosh Shivnath Tari
Sufal  Narayan  Nayak
Surabhi Santosh Tari
Usha Ravi Naik</value>
                </Data>
                <Data name="label_x">
                    <value>1030746.0</value>
                </Data>
                <Data name="label_y">
                    <value>1026438.96349877</value>
                </Data>
            </ExtendedData>
            <Point id="79320">
                <coordinates>74.187965,15.578713333,0.0</coordinates>
            </Point>
        </Placemark>
        <Placemark id="79354">
            <ExtendedData>
                <Data name="direction">
                    <value>https://maps.google.com?q=15.57943,74.18915&amp;t=h</value>
                </Data>
                <Data name="id">
                    <value>3193</value>
                </Data>
                <Data name="name">
                    <value>Govt Field; Hember</value>
                </Data>
                <Data name="taluka">
                    <value>Sattari</value>
                </Data>
                <Data name="syno">
                    <value>15</value>
                </Data>
                <Data name="subdiv">
                    <value>7</value>
                </Data>
                <Data name="village">
                    <value>Maloli</value>
                </Data>
                <Data name="latitude">
                    <value>15.57943</value>
                </Data>
                <Data name="longitude">
                    <value>74.18915</value>
                </Data>
                <Data name="photo_1">
                    <value>DCIM/20200829115859020.jpg</value>
                </Data>
                <Data name="photo_2">
                    <value>DCIM/20200829115906268.jpg</value>
                </Data>
                <Data name="syno_pt_list">
                    <value>15/7</value>
                </Data>
                <Data name="constituency">
                    <value>19 - Valpoi</value>
                </Data>
                <Data name="status">
                    <value>Completed</value>
                </Data>
                <Data name="panchayat">
                    <value>Nagargao</value>
                </Data>
                <Data name="wb_type">
                    <value>Tank</value>
                </Data>
                <Data name="owner_type">
                    <value>Public</value>
                </Data>
                <Data name="purpose">
                    <value>Irrigation</value>
                </Data>
                <Data name="construction">
                    <value>Concrete</value>
                </Data>
                <Data name="condition">
                    <value>Good</value>
                </Data>
                <Data name="print_order">
                    <value>117</value>
                </Data>
                <Data name="wb_id">
                    <value>St/Malo/05</value>
                </Data>
                <Data name="storage_capacity">
                    <value>280.0</value>
                </Data>
                <Data name="wb_surface_id">
                    <value>1974</value>
                </Data>
                <Data name="created_at">
                    <value>2020-09-21 09:09:10</value>
                </Data>
                <Data name="updated_at">
                    <value>2023-07-22 14:03:14.307690</value>
                </Data>
                <Data name="book_id">
                    <value>1</value>
                </Data>
                <Data name="owners">
                    <value>Government of Goa Daman and Diu</value>
                </Data>
                <Data name="label_x">
                    <value>1030746.0</value>
                </Data>
                <Data name="label_y">
                    <value>1026738.96349877</value>
                </Data>
            </ExtendedData>
            <Point id="79353">
                <coordinates>74.18915,15.579425,0.0</coordinates>
            </Point>
        </Placemark>
        <Placemark id="79387">
            <ExtendedData>
                <Data name="direction">
                    <value>https://maps.google.com?q=15.57543,74.1873&amp;t=h</value>
                </Data>
                <Data name="id">
                    <value>3210</value>
                </Data>
                <Data name="name">
                    <value>Govt Field; Madyachem Bharad</value>
                </Data>
                <Data name="taluka">
                    <value>Sattari</value>
                </Data>
                <Data name="syno">
                    <value>13</value>
                </Data>
                <Data name="subdiv">
                    <value>6</value>
                </Data>
                <Data name="village">
                    <value>Maloli</value>
                </Data>
                <Data name="latitude">
                    <value>15.57543</value>
                </Data>
                <Data name="longitude">
                    <value>74.1873</value>
                </Data>
                <Data name="photo_1">
                    <value>DCIM/20200903070123336.jpg</value>
                </Data>
                <Data name="photo_2">
                    <value>DCIM/20200903070131673.jpg</value>
                </Data>
                <Data name="syno_pt_list">
                    <value>13/6</value>
                </Data>
                <Data name="constituency">
                    <value>19 - Valpoi</value>
                </Data>
                <Data name="status">
                    <value>Completed</value>
                </Data>
                <Data name="panchayat">
                    <value>Nagargao</value>
                </Data>
                <Data name="wb_type">
                    <value>Tank</value>
                </Data>
                <Data name="owner_type">
                    <value>Public</value>
                </Data>
                <Data name="purpose">
                    <value>Irrigation</value>
                </Data>
                <Data name="construction">
                    <value>Concrete</value>
                </Data>
                <Data name="condition">
                    <value>Good</value>
                </Data>
                <Data name="print_order">
                    <value>118</value>
                </Data>
                <Data name="wb_id">
                    <value>St/Malo/06</value>
                </Data>
                <Data name="storage_capacity">
                    <value>255.0</value>
                </Data>
                <Data name="wb_surface_id">
                    <value>1978</value>
                </Data>
                <Data name="created_at">
                    <value>2020-09-21 09:09:10</value>
                </Data>
                <Data name="updated_at">
                    <value>2023-07-22 14:03:14.307690</value>
                </Data>
                <Data name="book_id">
                    <value>1</value>
                </Data>
                <Data name="owners">
                    <value>Government of Goa Daman and Diu</value>
                </Data>
                <Data name="label_x">
                    <value>1030746.0</value>
                </Data>
                <Data name="label_y">
                    <value>1024938.96349877</value>
                </Data>
            </ExtendedData>
            <Point id="79386">
                <coordinates>74.187298333,15.575426667,0.0</coordinates>
            </Point>
        </Placemark>
        <Placemark id="79420">
            <ExtendedData>
                <Data name="direction">
                    <value>https://maps.google.com?q=15.5681,74.18609&amp;t=h</value>
                </Data>
                <Data name="id">
                    <value>3209</value>
                </Data>
                <Data name="name">
                    <value>Field of Krishnanath Narahari Kale; Kavalechem Pani</value>
                </Data>
                <Data name="taluka">
                    <value>Sattari</value>
                </Data>
                <Data name="syno">
                    <value>9</value>
                </Data>
                <Data name="subdiv">
                    <value>7</value>
                </Data>
                <Data name="village">
                    <value>Maloli</value>
                </Data>
                <Data name="latitude">
                    <value>15.5681</value>
                </Data>
                <Data name="longitude">
                    <value>74.18609</value>
                </Data>
                <Data name="photo_1">
                    <value>DCIM/20200903064442811.jpg</value>
                </Data>
                <Data name="photo_2">
                    <value>DCIM/20200903064454256.jpg</value>
                </Data>
                <Data name="syno_pt_list">
                    <value>9/7</value>
                </Data>
                <Data name="constituency">
                    <value>19 - Valpoi</value>
                </Data>
                <Data name="status">
                    <value>Completed</value>
                </Data>
                <Data name="panchayat">
                    <value>Nagargao</value>
                </Data>
                <Data name="wb_type">
                    <value>Tank</value>
                </Data>
                <Data name="owner_type">
                    <value>Private</value>
                </Data>
                <Data name="purpose">
                    <value>Irrigation</value>
                </Data>
                <Data name="construction">
                    <value>Concrete</value>
                </Data>
                <Data name="condition">
                    <value>Good</value>
                </Data>
                <Data name="print_order">
                    <value>122</value>
                </Data>
                <Data name="wb_id">
                    <value>St/Malo/10</value>
                </Data>
                <Data name="storage_capacity">
                    <value>153.0</value>
                </Data>
                <Data name="wb_surface_id">
                    <value>1981</value>
                </Data>
                <Data name="created_at">
                    <value>2020-09-21 09:09:10</value>
                </Data>
                <Data name="updated_at">
                    <value>2023-07-22 14:03:14.307690</value>
                </Data>
                <Data name="book_id">
                    <value>1</value>
                </Data>
                <Data name="owners">
                    <value>Krishnanath Narahari Kale</value>
                </Data>
                <Data name="label_x">
                    <value>1030746.0</value>
                </Data>
                <Data name="label_y">
                    <value>1022238.96349877</value>
                </Data>
            </ExtendedData>
            <Point id="79419">
                <coordinates>74.186086667,15.568101667,0.0</coordinates>
            </Point>
        </Placemark>
        <Placemark id="79453">
            <ExtendedData>
                <Data name="direction">
                    <value>https://maps.google.com?q=15.5717,74.18731&amp;t=h</value>
                </Data>
                <Data name="id">
                    <value>2340</value>
                </Data>
                <Data name="name">
                    <value>Field of Mahadev Atmaram Joshi; Kavaleachem Pani</value>
                </Data>
                <Data name="taluka">
                    <value>Sattari</value>
                </Data>
                <Data name="syno">
                    <value>9</value>
                </Data>
                <Data name="subdiv">
                    <value>5</value>
                </Data>
                <Data name="village">
                    <value>Maloli</value>
                </Data>
                <Data name="latitude">
                    <value>15.5717</value>
                </Data>
                <Data name="longitude">
                    <value>74.18731</value>
                </Data>
                <Data name="photo_1">
                    <value>DCIM/20191127092039777.jpg</value>
                </Data>
                <Data name="photo_2">
                    <value>DCIM/20191127092045175.jpg</value>
                </Data>
                <Data name="syno_pt_list">
                    <value>9/5</value>
                </Data>
                <Data name="constituency">
                    <value>19 - Valpoi</value>
                </Data>
                <Data name="status">
                    <value>Completed</value>
                </Data>
                <Data name="panchayat">
                    <value>Nagargao</value>
                </Data>
                <Data name="wb_type">
                    <value>Pond</value>
                </Data>
                <Data name="owner_type">
                    <value>Private</value>
                </Data>
                <Data name="purpose">
                    <value>Irrigation</value>
                </Data>
                <Data name="construction">
                    <value>Natural</value>
                </Data>
                <Data name="condition">
                    <value>Needs Maintenance</value>
                </Data>
                <Data name="print_order">
                    <value>025</value>
                </Data>
                <Data name="wb_id">
                    <value>St/Malo/15</value>
                </Data>
                <Data name="storage_capacity">
                    <value>34.0</value>
                </Data>
                <Data name="wb_surface_id">
                    <value>128</value>
                </Data>
                <Data name="created_at">
                    <value>2020-02-28 15:24:34</value>
                </Data>
                <Data name="updated_at">
                    <value>2023-07-22 14:03:14.307690</value>
                </Data>
                <Data name="book_id">
                    <value>1</value>
                </Data>
                <Data name="owners">
                    <value>Mahadev Atmaram Joshi
Narhari Ramkrishna Kale
Rama Tajgo Mankar</value>
                </Data>
                <Data name="label_x">
                    <value>1030746.0</value>
                </Data>
                <Data name="label_y">
                    <value>1023138.96349877</value>
                </Data>
            </ExtendedData>
            <Point id="79452">
                <coordinates>74.187307113,15.571702208,0.0</coordinates>
            </Point>
        </Placemark>
        <Placemark id="79486">
            <ExtendedData>
                <Data name="direction">
                    <value>https://maps.google.com?q=15.57994,74.18945&amp;t=h</value>
                </Data>
                <Data name="id">
                    <value>3191</value>
                </Data>
                <Data name="name">
                    <value>Field of Sodyo Narayan Bagi; Hember Mal</value>
                </Data>
                <Data name="taluka">
                    <value>Sattari</value>
                </Data>
                <Data name="syno">
                    <value>15</value>
                </Data>
                <Data name="subdiv">
                    <value>9</value>
                </Data>
                <Data name="village">
                    <value>Maloli</value>
                </Data>
                <Data name="latitude">
                    <value>15.57994</value>
                </Data>
                <Data name="longitude">
                    <value>74.18945</value>
                </Data>
                <Data name="photo_1">
                    <value>DCIM/20200829111545731.jpg</value>
                </Data>
                <Data name="photo_2">
                    <value>DCIM/20200829111556729.jpg</value>
                </Data>
                <Data name="syno_pt_list">
                    <value>15/9</value>
                </Data>
                <Data name="constituency">
                    <value>19 - Valpoi</value>
                </Data>
                <Data name="status">
                    <value>Completed</value>
                </Data>
                <Data name="panchayat">
                    <value>Nagargao</value>
                </Data>
                <Data name="wb_type">
                    <value>Tank</value>
                </Data>
                <Data name="owner_type">
                    <value>Private</value>
                </Data>
                <Data name="purpose">
                    <value>Irrigation</value>
                </Data>
                <Data name="construction">
                    <value>Concrete</value>
                </Data>
                <Data name="condition">
                    <value>Good</value>
                </Data>
                <Data name="print_order">
                    <value>125</value>
                </Data>
                <Data name="wb_id">
                    <value>St/Malo/13</value>
                </Data>
                <Data name="storage_capacity">
                    <value>61.0</value>
                </Data>
                <Data name="wb_surface_id">
                    <value>1973</value>
                </Data>
                <Data name="created_at">
                    <value>2020-09-21 09:09:10</value>
                </Data>
                <Data name="updated_at">
                    <value>2023-07-22 14:03:14.307690</value>
                </Data>
                <Data name="book_id">
                    <value>1</value>
                </Data>
                <Data name="owners">
                    <value>Sodyo Narayan Bagi</value>
                </Data>
                <Data name="label_x">
                    <value>1030746.0</value>
                </Data>
                <Data name="label_y">
                    <value>1027338.96349877</value>
                </Data>
            </ExtendedData>
            <Point id="79485">
                <coordinates>74.189446247,15.579937565,0.0</coordinates>
            </Point>
        </Placemark>
    </Document>
</kml>
