<?xml version="1.0" encoding="UTF-8"?>
<kml xmlns="http://www.opengis.net/kml/2.2" xmlns:gx="http://www.google.com/kml/ext/2.2">
    <Document id="81790">
        <Placemark id="81792">
            <ExtendedData>
                <Data name="direction">
                    <value>https://maps.google.com?q=15.61094,74.071&amp;t=h</value>
                </Data>
                <Data name="id">
                    <value>5348</value>
                </Data>
                <Data name="name">
                    <value>Puram</value>
                </Data>
                <Data name="taluka">
                    <value>Sattari</value>
                </Data>
                <Data name="syno">
                    <value>48</value>
                </Data>
                <Data name="subdiv">
                    <value>1</value>
                </Data>
                <Data name="village">
                    <value>Querim</value>
                </Data>
                <Data name="latitude">
                    <value>15.61094</value>
                </Data>
                <Data name="longitude">
                    <value>74.071</value>
                </Data>
                <Data name="photo_1">
                    <value>DCIM/20230314090646061.jpg</value>
                </Data>
                <Data name="photo_2">
                    <value>DCIM/20230314090652382.jpg</value>
                </Data>
                <Data name="syno_pt_list">
                    <value>48/1</value>
                </Data>
                <Data name="constituency">
                    <value>18 - Poriem</value>
                </Data>
                <Data name="status">
                    <value>Completed</value>
                </Data>
                <Data name="panchayat">
                    <value>Kerim</value>
                </Data>
                <Data name="wb_type">
                    <value>Tank</value>
                </Data>
                <Data name="owner_type">
                    <value>Private</value>
                </Data>
                <Data name="purpose">
                    <value>Fish Farming</value>
                </Data>
                <Data name="construction">
                    <value>Man Made</value>
                </Data>
                <Data name="condition">
                    <value>Good</value>
                </Data>
                <Data name="print_order">
                    <value>089</value>
                </Data>
                <Data name="wb_id">
                    <value>St/Quer/02</value>
                </Data>
                <Data name="storage_capacity">
                    <value>1352.0</value>
                </Data>
                <Data name="wb_surface_id">
                    <value>4165</value>
                </Data>
                <Data name="created_at">
                    <value>2022-08-01 06:21:36.063111</value>
                </Data>
                <Data name="updated_at">
                    <value>2023-07-22 14:03:14.307690</value>
                </Data>
                <Data name="book_id">
                    <value>2</value>
                </Data>
                <Data name="owners">
                    <value>Ahmmad Khan Ismail Khan.</value>
                </Data>
                <Data name="label_x">
                    <value>1030747.0</value>
                </Data>
                <Data name="label_y">
                    <value>1028647.35417379</value>
                </Data>
            </ExtendedData>
            <Point id="81791">
                <coordinates>74.07099724,15.61094484,0.0</coordinates>
            </Point>
        </Placemark>
        <Placemark id="81825">
            <ExtendedData>
                <Data name="direction">
                    <value>https://maps.google.com?q=15.60521,74.07645&amp;t=h</value>
                </Data>
                <Data name="id">
                    <value>3263</value>
                </Data>
                <Data name="name">
                    <value>Field of Bagwantrao Laxmanrao Rane</value>
                </Data>
                <Data name="taluka">
                    <value>Sattari</value>
                </Data>
                <Data name="syno">
                    <value>33</value>
                </Data>
                <Data name="subdiv">
                    <value>1</value>
                </Data>
                <Data name="village">
                    <value>Querim</value>
                </Data>
                <Data name="latitude">
                    <value>15.60521</value>
                </Data>
                <Data name="longitude">
                    <value>74.07645</value>
                </Data>
                <Data name="photo_1">
                    <value>DCIM/20200914124210205.jpg</value>
                </Data>
                <Data name="photo_2">
                    <value>DCIM/20200914124217645.jpg</value>
                </Data>
                <Data name="syno_pt_list">
                    <value>33/1</value>
                </Data>
                <Data name="constituency">
                    <value>18 - Poriem</value>
                </Data>
                <Data name="status">
                    <value>Completed</value>
                </Data>
                <Data name="panchayat">
                    <value>Kerim</value>
                </Data>
                <Data name="wb_type">
                    <value>Tank</value>
                </Data>
                <Data name="owner_type">
                    <value>Private / Public</value>
                </Data>
                <Data name="purpose">
                    <value>Irrigation</value>
                </Data>
                <Data name="construction">
                    <value>Concrete</value>
                </Data>
                <Data name="condition">
                    <value>Needs Maintenance</value>
                </Data>
                <Data name="print_order">
                    <value>090</value>
                </Data>
                <Data name="wb_id">
                    <value>St/Quer/04</value>
                </Data>
                <Data name="storage_capacity">
                    <value>400.0</value>
                </Data>
                <Data name="wb_surface_id">
                    <value>2015</value>
                </Data>
                <Data name="created_at">
                    <value>2020-09-25 16:49:11</value>
                </Data>
                <Data name="updated_at">
                    <value>2023-07-22 14:03:14.307690</value>
                </Data>
                <Data name="book_id">
                    <value>2</value>
                </Data>
                <Data name="owners">
                    <value>Bagwantrao Laxmanrao Rane.
Executive Engineer, Works Division V, Irrigation Department, Kerim-Satari-Goa.
Executive Engineer, Works Division VI, Irrigation Department, Bicholim Goa.
Madhavrao Laxmanrao Rane.
Pramilabai Vishwasrao Rane.</value>
                </Data>
                <Data name="label_x">
                    <value>1030747.0</value>
                </Data>
                <Data name="label_y">
                    <value>1026247.35417379</value>
                </Data>
            </ExtendedData>
            <Point id="81824">
                <coordinates>74.076454238,15.605205387,0.0</coordinates>
            </Point>
        </Placemark>
        <Placemark id="81858">
            <ExtendedData>
                <Data name="direction">
                    <value>https://maps.google.com?q=15.61576,74.06977&amp;t=h</value>
                </Data>
                <Data name="id">
                    <value>5905</value>
                </Data>
                <Data name="name">
                    <value>Talem</value>
                </Data>
                <Data name="taluka">
                    <value>Sattari</value>
                </Data>
                <Data name="syno">
                    <value>74</value>
                </Data>
                <Data name="subdiv">
                    <value>7</value>
                </Data>
                <Data name="village">
                    <value>Querim</value>
                </Data>
                <Data name="latitude">
                    <value>15.61576</value>
                </Data>
                <Data name="longitude">
                    <value>74.06977</value>
                </Data>
                <Data name="photo_1">
                    <value>DCIM/20230314090529840.jpg</value>
                </Data>
                <Data name="photo_2">
                    <value>DCIM/20230314090537506.jpg</value>
                </Data>
                <Data name="constituency">
                    <value>18 - Poriem</value>
                </Data>
                <Data name="status">
                    <value>Completed</value>
                </Data>
                <Data name="panchayat">
                    <value>Kerim</value>
                </Data>
                <Data name="wb_type">
                    <value>Pond</value>
                </Data>
                <Data name="owner_type">
                    <value>Private</value>
                </Data>
                <Data name="purpose">
                    <value>Irrigation</value>
                </Data>
                <Data name="construction">
                    <value>Natural/Man Made</value>
                </Data>
                <Data name="condition">
                    <value>Good</value>
                </Data>
                <Data name="print_order">
                    <value>018</value>
                </Data>
                <Data name="wb_id">
                    <value>St/Quer/03</value>
                </Data>
                <Data name="storage_capacity">
                    <value>405.0</value>
                </Data>
                <Data name="wb_surface_id">
                    <value>5400</value>
                </Data>
                <Data name="created_at">
                    <value>2023-02-23 00:00:00</value>
                </Data>
                <Data name="updated_at">
                    <value>2023-07-22 14:03:14.307690</value>
                </Data>
                <Data name="book_id">
                    <value>2</value>
                </Data>
                <Data name="owners">
                    <value>Krishna Raghunath Chari</value>
                </Data>
                <Data name="label_x">
                    <value>1030747.0</value>
                </Data>
                <Data name="label_y">
                    <value>1029247.35417379</value>
                </Data>
            </ExtendedData>
            <Point id="81857">
                <coordinates>74.069766475,15.615758,0.0</coordinates>
            </Point>
        </Placemark>
        <Placemark id="81890">
            <ExtendedData>
                <Data name="direction">
                    <value>https://maps.google.com?q=15.6052,74.07315&amp;t=h</value>
                </Data>
                <Data name="id">
                    <value>2350</value>
                </Data>
                <Data name="name">
                    <value>Azoba Devastan; Tolyacodil Shet</value>
                </Data>
                <Data name="taluka">
                    <value>Sattari</value>
                </Data>
                <Data name="syno">
                    <value>35</value>
                </Data>
                <Data name="subdiv">
                    <value>15</value>
                </Data>
                <Data name="village">
                    <value>Querim</value>
                </Data>
                <Data name="latitude">
                    <value>15.6052</value>
                </Data>
                <Data name="longitude">
                    <value>74.07315</value>
                </Data>
                <Data name="photo_1">
                    <value>DCIM/20230314092941027.jpg</value>
                </Data>
                <Data name="photo_2">
                    <value>DCIM/20230314092953143.jpg</value>
                </Data>
                <Data name="syno_pt_list">
                    <value>35/12-15,18</value>
                </Data>
                <Data name="constituency">
                    <value>18 - Poriem</value>
                </Data>
                <Data name="status">
                    <value>Completed</value>
                </Data>
                <Data name="panchayat">
                    <value>Kerim</value>
                </Data>
                <Data name="wb_type">
                    <value>Tank</value>
                </Data>
                <Data name="owner_type">
                    <value>Private</value>
                </Data>
                <Data name="purpose">
                    <value>Storage</value>
                </Data>
                <Data name="construction">
                    <value>Man Made</value>
                </Data>
                <Data name="condition">
                    <value>Good</value>
                </Data>
                <Data name="print_order">
                    <value>088</value>
                </Data>
                <Data name="wb_id">
                    <value>St/Quer/01</value>
                </Data>
                <Data name="storage_capacity">
                    <value>4995.0</value>
                </Data>
                <Data name="wb_surface_id">
                    <value>175</value>
                </Data>
                <Data name="created_at">
                    <value>2020-02-28 15:24:34</value>
                </Data>
                <Data name="updated_at">
                    <value>2023-07-22 14:03:14.307690</value>
                </Data>
                <Data name="book_id">
                    <value>2</value>
                </Data>
                <Data name="owners">
                    <value>1) Monoramabai Raujirao Rane &amp; heirs
1/12
1/18
1/36
1/54
10)Indurao Venkatrao Rane Sardessai
11)Shabaka Bacharam Prabhu Dessai 1/18
12)Annantrao Dinkarrao Rane Sardessai
13)Balasaheb Rausaheb Rane Sardessai
14)Ganpatrao Balasaheb Rane Sardessai
15)Tulsibai Bala Rane         }
16)Madhavrao Laxmanrao Rane Sardessai}
17)Vishwasrao Laxmanrao Rane Sardessai
18)Bhagwantrao Laxmanrao Rane Sardessa
19)Ramrai Venkatrao Rane Sardessai1/54
2) Ganpat Rauji Jugar            |
20)Shripadrao Venkatrao Rane Sardessai
21)Govindrao Venkatrao Rane Sardessai
3) Zoiba Sotroji Rane Sar Dessai |-1/4
5) Krishnarao Sotroji Rane Sar
6) Dattajirao Amrutrao Rane Sar
7)Dattajirao Amrutrao Rane Sar Dessai
8)Jayaji Nanasaheb Rane Sardessai 1/48
9)Jaisingrao Venkatrao Rane Sardessai
Dessai.   1/12
Dessai.   1/24
Pratapsingh Rauji Rane
of Raujirao Rane.    1/4
}1/36</value>
                </Data>
                <Data name="label_x">
                    <value>1030747.0</value>
                </Data>
                <Data name="label_y">
                    <value>1026847.35417379</value>
                </Data>
            </ExtendedData>
            <Point id="81889">
                <coordinates>74.073152585,15.605195264,0.0</coordinates>
            </Point>
        </Placemark>
    </Document>
</kml>
