<?xml version="1.0" encoding="UTF-8"?>
<kml xmlns="http://www.opengis.net/kml/2.2" xmlns:gx="http://www.google.com/kml/ext/2.2">
    <Document id="82494">
        <Placemark id="82496">
            <ExtendedData>
                <Data name="direction">
                    <value>https://maps.google.com?q=15.61581,74.21443&amp;t=h</value>
                </Data>
                <Data name="id">
                    <value>3009</value>
                </Data>
                <Data name="name">
                    <value>Govt Field; Gauthan Xet</value>
                </Data>
                <Data name="taluka">
                    <value>Sattari</value>
                </Data>
                <Data name="syno">
                    <value>1</value>
                </Data>
                <Data name="subdiv">
                    <value>22</value>
                </Data>
                <Data name="village">
                    <value>Satrem</value>
                </Data>
                <Data name="latitude">
                    <value>15.61581</value>
                </Data>
                <Data name="longitude">
                    <value>74.21443</value>
                </Data>
                <Data name="photo_1">
                    <value>DCIM/20200828112736951.jpg</value>
                </Data>
                <Data name="photo_2">
                    <value>DCIM/20200828112757142.jpg</value>
                </Data>
                <Data name="syno_pt_list">
                    <value>1/22</value>
                </Data>
                <Data name="constituency">
                    <value>19 - Valpoi</value>
                </Data>
                <Data name="status">
                    <value>Completed</value>
                </Data>
                <Data name="panchayat">
                    <value>Nagargao</value>
                </Data>
                <Data name="wb_type">
                    <value>Tank</value>
                </Data>
                <Data name="owner_type">
                    <value>Public</value>
                </Data>
                <Data name="purpose">
                    <value>Irrigation</value>
                </Data>
                <Data name="construction">
                    <value>Laterite</value>
                </Data>
                <Data name="condition">
                    <value>Good</value>
                </Data>
                <Data name="print_order">
                    <value>104</value>
                </Data>
                <Data name="wb_id">
                    <value>St/Satr/02</value>
                </Data>
                <Data name="storage_capacity">
                    <value>115.0</value>
                </Data>
                <Data name="wb_surface_id">
                    <value>2032</value>
                </Data>
                <Data name="created_at">
                    <value>2020-05-18 13:03:26</value>
                </Data>
                <Data name="updated_at">
                    <value>2023-07-22 14:03:14.307690</value>
                </Data>
                <Data name="book_id">
                    <value>2</value>
                </Data>
                <Data name="owners">
                    <value>Goa Daman and Diu.
Government Forest Department of</value>
                </Data>
                <Data name="label_x">
                    <value>1030747.0</value>
                </Data>
                <Data name="label_y">
                    <value>1027147.35417379</value>
                </Data>
            </ExtendedData>
            <Point id="82495">
                <coordinates>74.214428451,15.615809674,0.0</coordinates>
            </Point>
        </Placemark>
        <Placemark id="82529">
            <ExtendedData>
                <Data name="direction">
                    <value>https://maps.google.com?q=15.61617,74.21675&amp;t=h</value>
                </Data>
                <Data name="id">
                    <value>3187</value>
                </Data>
                <Data name="name">
                    <value>Govt Field; Gauthan Xet</value>
                </Data>
                <Data name="taluka">
                    <value>Sattari</value>
                </Data>
                <Data name="syno">
                    <value>1</value>
                </Data>
                <Data name="subdiv">
                    <value>22</value>
                </Data>
                <Data name="village">
                    <value>Satrem</value>
                </Data>
                <Data name="latitude">
                    <value>15.61617</value>
                </Data>
                <Data name="longitude">
                    <value>74.21675</value>
                </Data>
                <Data name="photo_1">
                    <value>DCIM/20200828112050722.jpg</value>
                </Data>
                <Data name="photo_2">
                    <value>DCIM/20200828112100884.jpg</value>
                </Data>
                <Data name="syno_pt_list">
                    <value>1/22</value>
                </Data>
                <Data name="constituency">
                    <value>19 - Valpoi</value>
                </Data>
                <Data name="status">
                    <value>Completed</value>
                </Data>
                <Data name="panchayat">
                    <value>Nagargao</value>
                </Data>
                <Data name="wb_type">
                    <value>Tank</value>
                </Data>
                <Data name="owner_type">
                    <value>Public</value>
                </Data>
                <Data name="purpose">
                    <value>Irrigation</value>
                </Data>
                <Data name="construction">
                    <value>Natural/Man Made</value>
                </Data>
                <Data name="condition">
                    <value>Good</value>
                </Data>
                <Data name="print_order">
                    <value>105</value>
                </Data>
                <Data name="wb_id">
                    <value>St/Satr/03</value>
                </Data>
                <Data name="storage_capacity">
                    <value>74.0</value>
                </Data>
                <Data name="wb_surface_id">
                    <value>1943</value>
                </Data>
                <Data name="created_at">
                    <value>2020-08-28 15:49:28</value>
                </Data>
                <Data name="updated_at">
                    <value>2023-07-22 14:03:14.307690</value>
                </Data>
                <Data name="book_id">
                    <value>2</value>
                </Data>
                <Data name="owners">
                    <value>Goa Daman and Diu.
Government Forest Department of</value>
                </Data>
                <Data name="label_x">
                    <value>1030747.0</value>
                </Data>
                <Data name="label_y">
                    <value>1027447.35417379</value>
                </Data>
            </ExtendedData>
            <Point id="82528">
                <coordinates>74.216748767,15.616165563,0.0</coordinates>
            </Point>
        </Placemark>
        <Placemark id="82562">
            <ExtendedData>
                <Data name="direction">
                    <value>https://maps.google.com?q=15.61246,74.21392&amp;t=h</value>
                </Data>
                <Data name="id">
                    <value>3188</value>
                </Data>
                <Data name="name">
                    <value>Govt Field; Margachya Dhatichi Molli</value>
                </Data>
                <Data name="taluka">
                    <value>Sattari</value>
                </Data>
                <Data name="syno">
                    <value>6</value>
                </Data>
                <Data name="subdiv">
                    <value>2</value>
                </Data>
                <Data name="village">
                    <value>Satrem</value>
                </Data>
                <Data name="latitude">
                    <value>15.61246</value>
                </Data>
                <Data name="longitude">
                    <value>74.21392</value>
                </Data>
                <Data name="photo_1">
                    <value>DCIM/20200828113259015.jpg</value>
                </Data>
                <Data name="photo_2">
                    <value>DCIM/20200828113309503.jpg</value>
                </Data>
                <Data name="syno_pt_list">
                    <value>6/2</value>
                </Data>
                <Data name="constituency">
                    <value>19 - Valpoi</value>
                </Data>
                <Data name="status">
                    <value>Completed</value>
                </Data>
                <Data name="panchayat">
                    <value>Nagargao</value>
                </Data>
                <Data name="wb_type">
                    <value>Tank</value>
                </Data>
                <Data name="owner_type">
                    <value>Public</value>
                </Data>
                <Data name="purpose">
                    <value>Irrigation</value>
                </Data>
                <Data name="construction">
                    <value>Concrete</value>
                </Data>
                <Data name="condition">
                    <value>Good</value>
                </Data>
                <Data name="print_order">
                    <value>103</value>
                </Data>
                <Data name="wb_id">
                    <value>St/Satr/01</value>
                </Data>
                <Data name="storage_capacity">
                    <value>161.0</value>
                </Data>
                <Data name="wb_surface_id">
                    <value>1945</value>
                </Data>
                <Data name="created_at">
                    <value>2020-08-28 15:49:28</value>
                </Data>
                <Data name="updated_at">
                    <value>2023-07-22 14:03:14.307690</value>
                </Data>
                <Data name="book_id">
                    <value>2</value>
                </Data>
                <Data name="owners">
                    <value>Government of Goa Daman and Diu.</value>
                </Data>
                <Data name="label_x">
                    <value>1030747.0</value>
                </Data>
                <Data name="label_y">
                    <value>1026547.35417379</value>
                </Data>
            </ExtendedData>
            <Point id="82561">
                <coordinates>74.213918333,15.612463333,0.0</coordinates>
            </Point>
        </Placemark>
    </Document>
</kml>
