<?xml version="1.0" encoding="UTF-8"?>
<kml xmlns="http://www.opengis.net/kml/2.2" xmlns:gx="http://www.google.com/kml/ext/2.2">
    <Document id="82595">
        <Placemark id="82597">
            <ExtendedData>
                <Data name="direction">
                    <value>https://maps.google.com?q=15.59975,74.15983&amp;t=h</value>
                </Data>
                <Data name="id">
                    <value>2332</value>
                </Data>
                <Data name="name">
                    <value>Bimal</value>
                </Data>
                <Data name="taluka">
                    <value>Sattari</value>
                </Data>
                <Data name="syno">
                    <value>14</value>
                </Data>
                <Data name="subdiv">
                    <value>1</value>
                </Data>
                <Data name="village">
                    <value>Sigonem</value>
                </Data>
                <Data name="latitude">
                    <value>15.59975</value>
                </Data>
                <Data name="longitude">
                    <value>74.15983</value>
                </Data>
                <Data name="photo_1">
                    <value>DCIM/20200903103702931.jpg</value>
                </Data>
                <Data name="photo_2">
                    <value>DCIM/20200903103713424.jpg</value>
                </Data>
                <Data name="syno_pt_list">
                    <value>14/1-2</value>
                </Data>
                <Data name="constituency">
                    <value>19 - Valpoi</value>
                </Data>
                <Data name="status">
                    <value>Completed</value>
                </Data>
                <Data name="panchayat">
                    <value>Nagargao</value>
                </Data>
                <Data name="wb_type">
                    <value>Tank</value>
                </Data>
                <Data name="owner_type">
                    <value>Private</value>
                </Data>
                <Data name="purpose">
                    <value>Storage</value>
                </Data>
                <Data name="construction">
                    <value>Concrete</value>
                </Data>
                <Data name="condition">
                    <value>Needs Maintenance</value>
                </Data>
                <Data name="print_order">
                    <value>106</value>
                </Data>
                <Data name="wb_id">
                    <value>St/Sigo/01</value>
                </Data>
                <Data name="storage_capacity">
                    <value>1181.0</value>
                </Data>
                <Data name="wb_surface_id">
                    <value>166</value>
                </Data>
                <Data name="created_at">
                    <value>2020-02-28 15:24:34</value>
                </Data>
                <Data name="updated_at">
                    <value>2023-07-22 14:03:14.307690</value>
                </Data>
                <Data name="book_id">
                    <value>2</value>
                </Data>
                <Data name="owners">
                    <value>Devasthan of Shri Maruti of Valpoi</value>
                </Data>
                <Data name="label_x">
                    <value>1030747.0</value>
                </Data>
                <Data name="label_y">
                    <value>1024747.35417379</value>
                </Data>
            </ExtendedData>
            <Point id="82596">
                <coordinates>74.159833801,15.599746894,0.0</coordinates>
            </Point>
        </Placemark>
    </Document>
</kml>
