<?xml version="1.0" encoding="UTF-8"?>
<kml xmlns="http://www.opengis.net/kml/2.2" xmlns:gx="http://www.google.com/kml/ext/2.2">
    <Document id="82834">
        <Placemark id="82836">
            <ExtendedData>
                <Data name="direction">
                    <value>https://maps.google.com?q=15.51237,74.07199&amp;t=h</value>
                </Data>
                <Data name="id">
                    <value>3151</value>
                </Data>
                <Data name="name">
                    <value>Govt Field</value>
                </Data>
                <Data name="taluka">
                    <value>Sattari</value>
                </Data>
                <Data name="syno">
                    <value>19</value>
                </Data>
                <Data name="subdiv">
                    <value>1</value>
                </Data>
                <Data name="village">
                    <value>Sonus-Vonvoliem</value>
                </Data>
                <Data name="latitude">
                    <value>15.51237</value>
                </Data>
                <Data name="longitude">
                    <value>74.07199</value>
                </Data>
                <Data name="photo_1">
                    <value>DCIM/20200824090319299.jpg</value>
                </Data>
                <Data name="photo_2">
                    <value>DCIM/20200824090336264.jpg</value>
                </Data>
                <Data name="syno_pt_list">
                    <value>19/0</value>
                </Data>
                <Data name="constituency">
                    <value>18 - Poriem</value>
                </Data>
                <Data name="status">
                    <value>Completed</value>
                </Data>
                <Data name="panchayat">
                    <value>Honda</value>
                </Data>
                <Data name="wb_type">
                    <value>Pond</value>
                </Data>
                <Data name="owner_type">
                    <value>Public</value>
                </Data>
                <Data name="purpose">
                    <value>Irrigation</value>
                </Data>
                <Data name="construction">
                    <value>Natural/Man Made</value>
                </Data>
                <Data name="condition">
                    <value>Needs Maintenance</value>
                </Data>
                <Data name="print_order">
                    <value>025</value>
                </Data>
                <Data name="wb_id">
                    <value>St/Sonu/05</value>
                </Data>
                <Data name="storage_capacity">
                    <value>273.0</value>
                </Data>
                <Data name="wb_surface_id">
                    <value>1887</value>
                </Data>
                <Data name="created_at">
                    <value>2020-08-24 14:51:39</value>
                </Data>
                <Data name="updated_at">
                    <value>2023-07-22 14:03:14.307690</value>
                </Data>
                <Data name="book_id">
                    <value>2</value>
                </Data>
                <Data name="owners">
                    <value>Government of Goa Daman Diu
One</value>
                </Data>
                <Data name="label_x">
                    <value>998723.0</value>
                </Data>
                <Data name="label_y">
                    <value>1011875.74999705</value>
                </Data>
            </ExtendedData>
            <Point id="82835">
                <coordinates>74.071990596,15.512374303,0.0</coordinates>
            </Point>
        </Placemark>
        <Placemark id="82869">
            <ExtendedData>
                <Data name="direction">
                    <value>https://maps.google.com?q=15.5101,74.06115&amp;t=h</value>
                </Data>
                <Data name="id">
                    <value>2327</value>
                </Data>
                <Data name="name">
                    <value>Brahmacodil Thikan</value>
                </Data>
                <Data name="taluka">
                    <value>Sattari</value>
                </Data>
                <Data name="syno">
                    <value>27</value>
                </Data>
                <Data name="subdiv">
                    <value>6</value>
                </Data>
                <Data name="village">
                    <value>Sonus-Vonvoliem</value>
                </Data>
                <Data name="latitude">
                    <value>15.5101</value>
                </Data>
                <Data name="longitude">
                    <value>74.06115</value>
                </Data>
                <Data name="photo_1">
                    <value>DCIM/20200824083330452.jpg</value>
                </Data>
                <Data name="photo_2">
                    <value>DCIM/20200824083342508.jpg</value>
                </Data>
                <Data name="syno_pt_list">
                    <value>27/2</value>
                </Data>
                <Data name="constituency">
                    <value>18 - Poriem</value>
                </Data>
                <Data name="status">
                    <value>Completed</value>
                </Data>
                <Data name="panchayat">
                    <value>Honda</value>
                </Data>
                <Data name="wb_type">
                    <value>Tank</value>
                </Data>
                <Data name="owner_type">
                    <value>Public</value>
                </Data>
                <Data name="purpose">
                    <value>Storage</value>
                </Data>
                <Data name="construction">
                    <value>Concrete</value>
                </Data>
                <Data name="condition">
                    <value>Good</value>
                </Data>
                <Data name="print_order">
                    <value>112</value>
                </Data>
                <Data name="wb_id">
                    <value>St/Sonu/04</value>
                </Data>
                <Data name="storage_capacity">
                    <value>1655.0</value>
                </Data>
                <Data name="wb_surface_id">
                    <value>241</value>
                </Data>
                <Data name="created_at">
                    <value>2020-02-28 15:24:34</value>
                </Data>
                <Data name="updated_at">
                    <value>2023-07-22 14:03:14.307690</value>
                </Data>
                <Data name="book_id">
                    <value>2</value>
                </Data>
                <Data name="owners">
                    <value>Government of Goa Daman &amp; Diu
One</value>
                </Data>
                <Data name="label_x">
                    <value>998723.0</value>
                </Data>
                <Data name="label_y">
                    <value>1012775.74999705</value>
                </Data>
            </ExtendedData>
            <Point id="82868">
                <coordinates>74.061147572,15.510099415,0.0</coordinates>
            </Point>
        </Placemark>
    </Document>
</kml>
