<?xml version="1.0" encoding="UTF-8"?>
<kml xmlns="http://www.opengis.net/kml/2.2" xmlns:gx="http://www.google.com/kml/ext/2.2">
    <Document id="3222">
        <Placemark id="3224">
            <ExtendedData>
                <Data name="id">
                    <value>361</value>
                </Data>
                <Data name="taluka">
                    <value>Salcete</value>
                </Data>
                <Data name="village">
                    <value>Ambelim</value>
                </Data>
                <Data name="lg_code">
                    <value>626922</value>
                </Data>
                <Data name="dslr_code">
                    <value>00026400</value>
                </Data>
            </ExtendedData>
            <Polygon id="3223">
                <outerBoundaryIs>
                    <LinearRing id="3227">
                        <coordinates>73.951773302,15.166175462,0.0 73.952094277,15.166303225,0.0 73.95234207,15.166260097,0.0 73.952744227,15.166456132,0.0 73.953260125,15.166871726,0.0 73.953719152,15.166997188,0.0 73.953962883,15.166926616,0.0 73.95471845,15.166961902,0.0 73.955762432,15.166832519,0.0 73.955965541,15.166832519,0.0 73.956327076,15.166730581,0.0 73.956542372,15.166644326,0.0 73.956814538,15.166805074,0.0 73.957143576,15.166918774,0.0 73.957237006,15.166710977,0.0 73.957415742,15.166805074,0.0 73.957525421,15.166934457,0.0 73.957655411,15.167299081,0.0 73.958130687,15.167420622,0.0 73.958500346,15.167710753,0.0 73.958995933,15.167875421,0.0 73.959085301,15.168134185,0.0 73.959601199,15.168302774,0.0 73.959848992,15.168240043,0.0 73.960442072,15.167938152,0.0 73.960742673,15.167785245,0.0 73.961018902,15.167891104,0.0 73.961193576,15.167895024,0.0 73.961461681,15.167706832,0.0 73.961977578,15.167628418,0.0 73.962712834,15.167851897,0.0 73.962846886,15.168016565,0.0 73.96296469,15.168185154,0.0 73.963175924,15.168322377,0.0 73.964483948,15.16893008,0.0 73.964699244,15.16887127,0.0 73.96526795,15.169043779,0.0 73.965682293,15.169094747,0.0 73.966072263,15.169079064,0.0 73.966291621,15.168839905,0.0 73.967095934,15.168294933,0.0 73.967526526,15.16793031,0.0 73.967879936,15.167789166,0.0 73.968306466,15.166938378,0.0 73.968806115,15.166899171,0.0 73.968883297,15.166750184,0.0 73.971007821,15.16683644,0.0 73.971178432,15.166879567,0.0 73.97117437,15.167165778,0.0 73.971162184,15.167299081,0.0 73.971385604,15.167495115,0.0 73.971739014,15.16763626,0.0 73.971946186,15.167632339,0.0 73.97247427,15.167851897,0.0 73.972969857,15.167922469,0.0 73.973453257,15.168094979,0.0 73.974078834,15.168087137,0.0 73.974875023,15.167730356,0.0 73.975573719,15.167648022,0.0 73.975862134,15.166436529,0.0 73.976134301,15.165750405,0.0 73.976430841,15.165491638,0.0 73.976585204,15.165087803,0.0 73.975752455,15.164915291,0.0 73.975801202,15.164519297,0.0 73.975748393,15.164366388,0.0 73.975598092,15.164331102,0.0 73.975585906,15.164001759,0.0 73.975675274,15.163629288,0.0 73.97555747,15.163578318,0.0 73.975581843,15.163205846,0.0 73.976304913,15.16327642,0.0 73.976402405,15.162641256,0.0 73.976276477,15.162319753,0.0 73.97654052,15.161947278,0.0 73.976723318,15.161849259,0.0 73.97689393,15.161876704,0.0 73.977324522,15.161994328,0.0 73.977625124,15.161962962,0.0 73.978210079,15.161692427,0.0 73.978449748,15.161664982,0.0 73.978437561,15.161590487,0.0 73.978238514,15.161461101,0.0 73.978303509,15.161155278,0.0 73.978405064,15.160974922,0.0 73.978571613,15.160998446,0.0 73.97893721,15.160986684,0.0 73.97929062,15.16121017,0.0 73.979806518,15.161347398,0.0 73.979778083,15.161465021,0.0 73.979879638,15.161653219,0.0 73.980241172,15.16170419,0.0 73.980826127,15.160684782,0.0 73.981086107,15.160606366,0.0 73.981532948,15.159743786,0.0 73.981549196,15.159594795,0.0 73.982662236,15.159045878,0.0 73.982572868,15.158206817,0.0 73.982747542,15.157618688,0.0 73.983734653,15.156669837,0.0 73.983750902,15.155646484,0.0 73.983417803,15.154583917,0.0 73.983669658,15.152984176,0.0 73.985534181,15.152384635,0.0 73.985618125,15.152210348,0.0 73.986934954,15.153020042,0.0 73.986984151,15.153107191,0.0 73.987105701,15.153242134,0.0 73.987178058,15.153233704,0.0 73.987308298,15.153261823,0.0 73.987406695,15.153379898,0.0 73.988101297,15.153714463,0.0 73.988827754,15.153756668,0.0 73.989195318,15.153897244,0.0 73.98941527,15.154130581,0.0 73.989655487,15.154268339,0.0 73.990491907,15.15478844,0.0 73.991192315,15.154940271,0.0 73.991238625,15.154895294,0.0 73.991507793,15.154878438,0.0 73.991551202,15.155007753,0.0 73.991669865,15.155061169,0.0 73.991695916,15.154993702,0.0 73.992393435,15.155055572,0.0 73.992624971,15.155227061,0.0 73.992749428,15.155145541,0.0 73.993354327,15.155297362,0.0 73.993611913,15.155449172,0.0 73.994429853,15.155545094,0.0 73.994313506,15.156232987,0.0 73.994331542,15.15636001,0.0 73.993894066,15.157805431,0.0 73.993497167,15.159399775,0.0 73.992897364,15.159780826,0.0 73.992026982,15.160026082,0.0 73.992374203,15.160766331,0.0 73.992392222,15.161344504,0.0 73.991264721,15.162947579,0.0 73.991061778,15.163035173,0.0 73.991111356,15.16373161,0.0 73.991264688,15.163757896,0.0 73.991084215,15.165715792,0.0 73.991129298,15.166061821,0.0 73.991043608,15.1661538,0.0 73.991034578,15.166390325,0.0 73.99109771,15.16653925,0.0 73.991115711,15.167441551,0.0 73.990579029,15.167634253,0.0 73.990497839,15.167892675,0.0 73.990569983,15.168216805,0.0 73.990578988,15.168540932,0.0 73.990551913,15.168895719,0.0 73.99027229,15.169097191,0.0 73.989370304,15.169211033,0.0 73.988838133,15.169263568,0.0 73.98871636,15.169373065,0.0 73.988608122,15.169359919,0.0 73.988517929,15.169276693,0.0 73.988130074,15.169337994,0.0 73.987674576,15.169281028,0.0 73.987615951,15.169224084,0.0 73.987426534,15.169237214,0.0 73.987422015,15.169386137,0.0 73.987241618,15.169408027,0.0 73.98718748,15.16971463,0.0 73.987110811,15.169723386,0.0 73.987110802,15.169867929,0.0 73.987025112,15.169902965,0.0 73.986880777,15.170187663,0.0 73.986758988,15.170516163,0.0 73.986145635,15.170551167,0.0 73.985491695,15.170546745,0.0 73.984697967,15.170270747,0.0 73.984165799,15.170231289,0.0 73.983773444,15.170117379,0.0 73.983408141,15.170108592,0.0 73.98331343,15.170139246,0.0 73.983182642,15.170139236,0.0 73.983164608,15.170073533,0.0 73.98129749,15.170187269,0.0 73.981135112,15.17041502,0.0 73.981058423,15.170642778,0.0 73.980724697,15.170542008,0.0 73.980390963,15.170533219,0.0 73.980296177,15.171365428,0.0 73.980205976,15.171387321,0.0 73.980223983,15.17173773,0.0 73.980314174,15.17182534,0.0 73.980250964,15.17259185,0.0 73.979858592,15.172626856,0.0 73.979881134,15.17271446,0.0 73.979353464,15.172740693,0.0 73.97929033,15.172683746,0.0 73.977432233,15.172556545,0.0 73.977382634,15.172447038,0.0 73.977459309,15.172398864,0.0 73.977513444,15.172254327,0.0 73.977526989,15.172114165,0.0 73.977671311,15.172079139,0.0 73.977689357,15.172022199,0.0 73.977536023,15.171978383,0.0 73.977617229,15.171728726,0.0 73.977409817,15.171290696,0.0 73.976904696,15.171356346,0.0 73.976800958,15.171439557,0.0 73.976589004,15.171312513,0.0 73.976561953,15.171233668,0.0 73.976489794,15.171233661,0.0 73.976444703,15.171159195,0.0 73.976543925,15.171128544,0.0 73.976503348,15.171014658,0.0 73.976534931,15.170896398,0.0 73.976525926,15.170760615,0.0 73.976440255,15.170594162,0.0 73.976038869,15.17061164,0.0 73.975795322,15.170703596,0.0 73.975484129,15.170769264,0.0 73.974884292,15.170904981,0.0 73.974823368,15.171240051,0.0 73.975030772,15.171691224,0.0 73.975084822,15.172286922,0.0 73.975075752,15.17271179,0.0 73.975183955,15.173022789,0.0 73.97505767,15.173070956,0.0 73.974965315,15.173123468,0.0 73.974932482,15.173183676,0.0 73.974623853,15.173231208,0.0 73.974403873,15.173240714,0.0 73.974403873,15.173443519,0.0 73.974170759,15.173506896,0.0 73.974114943,15.173215364,0.0 73.9736323,15.17319952,0.0 73.973596184,15.17322487,0.0 73.973159507,15.173079104,0.0 73.972988776,15.172907987,0.0 73.972857444,15.172866792,0.0 73.972581648,15.172996715,0.0 73.972121988,15.173003052,0.0 73.972092438,15.17273687,0.0 73.971819926,15.172603779,0.0 73.971675461,15.172388298,0.0 73.971698444,15.172210843,0.0 73.968976599,15.171989024,0.0 73.968792735,15.171970011,0.0 73.968710653,15.171890789,0.0 73.968539922,15.171855932,0.0 73.968050712,15.171935153,0.0 73.967784766,15.17191614,0.0 73.9676797,15.171849594,0.0 73.967663284,15.171805231,0.0 73.967525386,15.171757698,0.0 73.967170791,15.171741854,0.0 73.967114975,15.171884452,0.0 73.966803063,15.171909803,0.0 73.966819479,15.17199853,0.0 73.966606066,15.172004868,0.0 73.966057757,15.171814737,0.0 73.96559153,15.171852763,0.0 73.96554228,15.171906634,0.0 73.964993971,15.171960504,0.0 73.964711609,15.172036556,0.0 73.963720056,15.172131622,0.0 73.963505339,15.171910693,0.0 73.961723817,15.171775126,0.0 73.96106716,15.1715438,0.0 73.960400653,15.170903691,0.0 73.959753845,15.170409348,0.0 73.959451783,15.170358646,0.0 73.959097188,15.170288931,0.0 73.958519329,15.170168513,0.0 73.958407697,15.170130487,0.0 73.957777306,15.170067109,0.0 73.957396445,15.169921341,0.0 73.956982751,15.169978381,0.0 73.956785753,15.169946692,0.0 73.956372059,15.170111474,0.0 73.9558336,15.170288931,0.0 73.955255742,15.170434699,0.0 73.954815781,15.170498076,0.0 73.954290455,15.170789612,0.0 73.953817662,15.170967068,0.0 73.953305469,15.171283954,0.0 73.952596279,15.171873361,0.0 73.952136619,15.171974764,0.0 73.951407729,15.171905049,0.0 73.950718239,15.171670554,0.0 73.949949949,15.171169875,0.0 73.949582221,15.170973406,0.0 73.949490289,15.17087834,0.0 73.949418057,15.170485401,0.0 73.949601921,15.170003732,0.0 73.950022182,15.169452347,0.0 73.95038991,15.169034053,0.0 73.950803604,15.168102397,0.0 73.951092533,15.167468615,0.0 73.951131933,15.167196089,0.0 73.951388029,15.166473574,0.0 73.951773302,15.166175462,0.0</coordinates>
                    </LinearRing>
                </outerBoundaryIs>
            </Polygon>
        </Placemark>
    </Document>
</kml>
