<?xml version="1.0" encoding="UTF-8"?>
<kml xmlns="http://www.opengis.net/kml/2.2" xmlns:gx="http://www.google.com/kml/ext/2.2">
    <Document id="3292">
        <Placemark id="3294">
            <ExtendedData>
                <Data name="id">
                    <value>89</value>
                </Data>
                <Data name="taluka">
                    <value>Salcete</value>
                </Data>
                <Data name="village">
                    <value>Calata</value>
                </Data>
                <Data name="lg_code">
                    <value>626891</value>
                </Data>
                <Data name="dslr_code">
                    <value>00023100</value>
                </Data>
            </ExtendedData>
            <Polygon id="3293">
                <outerBoundaryIs>
                    <LinearRing id="3297">
                        <coordinates>73.92238258,15.305205909,0.0 73.923163423,15.305456082,0.0 73.924944957,15.305463663,0.0 73.925052759,15.305336145,0.0 73.925277255,15.304234547,0.0 73.926908769,15.304161455,0.0 73.927011881,15.303239976,0.0 73.927252039,15.303204736,0.0 73.927359067,15.303099013,0.0 73.927454347,15.30311076,0.0 73.927571773,15.30395694,0.0 73.927497859,15.303973997,0.0 73.927514916,15.304146465,0.0 73.927537659,15.304174894,0.0 73.927596412,15.305075137,0.0 73.927135866,15.305073242,0.0 73.927133971,15.305025861,0.0 73.926840207,15.30502207,0.0 73.926815569,15.305338577,0.0 73.92682694,15.305782065,0.0 73.927962195,15.305874933,0.0 73.92822753,15.305844609,0.0 73.928252168,15.306039819,0.0 73.928295759,15.306032238,0.0 73.928259749,15.306259668,0.0 73.928314711,15.306633032,0.0 73.929385527,15.306597023,0.0 73.929353308,15.307059464,0.0 73.92940827,15.307235722,0.0 73.929347622,15.307436618,0.0 73.929338146,15.307730382,0.0 73.929440489,15.307842202,0.0 73.930007169,15.307986241,0.0 73.93054542,15.308010879,0.0 73.930676192,15.309127181,0.0 73.932651042,15.308865637,0.0 73.933056626,15.308835313,0.0 73.933746497,15.308649578,0.0 73.933799564,15.309290172,0.0 73.934262005,15.309312915,0.0 73.93513761,15.309157505,0.0 73.935763042,15.309149924,0.0 73.935833167,15.309371668,0.0 73.935852119,15.309604784,0.0 73.935821795,15.309826528,0.0 73.935727033,15.310072911,0.0 73.935700499,15.310304131,0.0 73.93570808,15.310641485,0.0 73.935651223,15.310683181,0.0 73.935582994,15.311001583,0.0 73.935243744,15.311079288,0.0 73.935219106,15.311126669,0.0 73.935042847,15.311198689,0.0 73.934660007,15.311213851,0.0 73.934199461,15.311338937,0.0 73.934085746,15.311316194,0.0 73.934051632,15.311395795,0.0 73.933918964,15.311400533,0.0 73.933826097,15.311349361,0.0 73.933518119,15.311292504,0.0 73.933059469,15.311297242,0.0 73.932905954,15.311395795,0.0 73.932689895,15.311431805,0.0 73.932672838,15.311848759,0.0 73.932634933,15.312409753,0.0 73.932511742,15.313541217,0.0 73.932447303,15.314378918,0.0 73.93234875,15.314663205,0.0 73.932299474,15.316035366,0.0 73.932382865,15.316694913,0.0 73.932363912,15.31682379,0.0 73.932263464,15.31697541,0.0 73.932155435,15.317619795,0.0 73.932140273,15.318150465,0.0 73.932078547,15.318565093,0.0 73.930862743,15.317933697,0.0 73.930715906,15.317992432,0.0 73.930525019,15.317769241,0.0 73.930216663,15.317516683,0.0 73.930125625,15.317557797,0.0 73.929508912,15.317457948,0.0 73.929461925,15.317314049,0.0 73.928777668,15.31703506,0.0 73.928134525,15.316905844,0.0 73.928064044,15.316512323,0.0 73.928066981,15.316162852,0.0 73.9282285,15.315701787,0.0 73.92818445,15.315507963,0.0 73.927881967,15.315472722,0.0 73.927964195,15.315102695,0.0 73.927600041,15.315114442,0.0 73.927553054,15.314418438,0.0 73.927077304,15.314444868,0.0 73.927083178,15.314409628,0.0 73.926487023,15.314441932,0.0 73.92649877,15.314380261,0.0 73.92502747,15.314374387,0.0 73.924722051,15.315789888,0.0 73.924448936,15.315734091,0.0 73.92330655,15.315628369,0.0 73.92278675,15.315452165,0.0 73.922375608,15.315273025,0.0 73.921685478,15.315155556,0.0 73.921579756,15.315102695,0.0 73.921054082,15.315041024,0.0 73.920842638,15.314938238,0.0 73.920528408,15.314982289,0.0 73.919894076,15.314867757,0.0 73.919697315,15.314665123,0.0 73.91961215,15.314436058,0.0 73.919165768,15.31450654,0.0 73.918980754,15.314092461,0.0 73.918763437,15.313892764,0.0 73.917488898,15.31252425,0.0 73.916722413,15.311837057,0.0 73.91667102,15.31168141,0.0 73.916926148,15.310728076,0.0 73.917061238,15.310174504,0.0 73.916946705,15.309794198,0.0 73.918210843,15.310021853,0.0 73.91880863,15.310076671,0.0 73.919484729,15.309977475,0.0 73.91992328,15.309685108,0.0 73.918385741,15.30944756,0.0 73.917887151,15.309293545,0.0 73.917892371,15.309228284,0.0 73.917740967,15.309225674,0.0 73.917767071,15.308755798,0.0 73.918304818,15.30882889,0.0 73.918766863,15.308810617,0.0 73.918787746,15.308546964,0.0 73.919168868,15.308612225,0.0 73.919322883,15.308103192,0.0 73.919137543,15.308037932,0.0 73.919150595,15.307860423,0.0 73.919596977,15.307881307,0.0 73.920012034,15.308092751,0.0 73.920333116,15.308184115,0.0 73.920894177,15.308255998,0.0 73.920851218,15.307960339,0.0 73.920300015,15.307792886,0.0 73.919886734,15.307648979,0.0 73.918965255,15.307489743,0.0 73.918832123,15.307494964,0.0 73.918855617,15.307364443,0.0 73.919489165,15.307399345,0.0 73.919971822,15.307485263,0.0 73.920325285,15.307552393,0.0 73.920838583,15.307556019,0.0 73.920843637,15.307116321,0.0 73.920970059,15.306761435,0.0 73.921084918,15.306471679,0.0 73.921359012,15.306395976,0.0 73.921445156,15.306155818,0.0 73.921828888,15.305839957,0.0 73.921802784,15.305709435,0.0 73.922123865,15.305479718,0.0 73.92238258,15.305205909,0.0</coordinates>
                    </LinearRing>
                </outerBoundaryIs>
            </Polygon>
        </Placemark>
    </Document>
</kml>
