<?xml version="1.0" encoding="UTF-8"?>
<kml xmlns="http://www.opengis.net/kml/2.2" xmlns:gx="http://www.google.com/kml/ext/2.2">
    <Document id="3386">
        <Placemark id="3388">
            <ExtendedData>
                <Data name="id">
                    <value>367</value>
                </Data>
                <Data name="taluka">
                    <value>Salcete</value>
                </Data>
                <Data name="village">
                    <value>Cavorim</value>
                </Data>
                <Data name="lg_code">
                    <value>626910</value>
                </Data>
                <Data name="dslr_code">
                    <value>00025200</value>
                </Data>
            </ExtendedData>
            <Polygon id="3387">
                <outerBoundaryIs>
                    <LinearRing id="3391">
                        <coordinates>74.045603939,15.234448657,0.0 74.045859147,15.235248382,0.0 74.045951079,15.236004452,0.0 74.046126187,15.236456403,0.0 74.046237819,15.236796422,0.0 74.046264085,15.23735819,0.0 74.046185287,15.237480681,0.0 74.04612181,15.237721439,0.0 74.046167776,15.237890391,0.0 74.046250952,15.238164938,0.0 74.046480782,15.238718256,0.0 74.046579281,15.239410956,0.0 74.046566148,15.24043522,0.0 74.046437005,15.241165929,0.0 74.046314429,15.241436248,0.0 74.046038633,15.242542864,0.0 74.045808803,15.24312996,0.0 74.045740948,15.243911344,0.0 74.045649016,15.244380172,0.0 74.045653394,15.245060184,0.0 74.045594918,15.245474207,0.0 74.045237511,15.245757087,0.0 74.044344457,15.246344174,0.0 74.043722821,15.246981942,0.0 74.043486424,15.247324056,0.0 74.043547712,15.247830889,0.0 74.043652778,15.24831238,0.0 74.044081794,15.248557349,0.0 74.044782228,15.248599585,0.0 74.045535196,15.248717845,0.0 74.046559581,15.249157098,0.0 74.047457013,15.249870882,0.0 74.047872896,15.250381933,0.0 74.048326298,15.251036164,0.0 74.048043736,15.251300892,0.0 74.047831206,15.251580174,0.0 74.047932533,15.251723412,0.0 74.047938791,15.251746478,0.0 74.047671289,15.252256445,0.0 74.047653804,15.252356003,0.0 74.047751348,15.252362052,0.0 74.047605138,15.252825858,0.0 74.047541351,15.252787021,0.0 74.047555172,15.253074753,0.0 74.047418881,15.253160981,0.0 74.047381479,15.253674541,0.0 74.047326467,15.253731614,0.0 74.046722475,15.253859218,0.0 74.046372352,15.254009835,0.0 74.045972202,15.254145894,0.0 74.045299415,15.254220089,0.0 74.045011782,15.254200722,0.0 74.044990549,15.254324561,0.0 74.04506685,15.25440346,0.0 74.04500934,15.254479958,0.0 74.044851765,15.254461779,0.0 74.044686679,15.254403536,0.0 74.044677314,15.254470919,0.0 74.044728003,15.254667588,0.0 74.044399731,15.254671296,0.0 74.044005872,15.255004636,0.0 74.043900851,15.255132134,0.0 74.044116812,15.256272104,0.0 74.044527613,15.256213747,0.0 74.044561406,15.25634486,0.0 74.04480714,15.256322958,0.0 74.045022975,15.256847393,0.0 74.0451806,15.257089568,0.0 74.045313777,15.257044014,0.0 74.045396311,15.257025786,0.0 74.045587659,15.257069454,0.0 74.045760236,15.25705485,0.0 74.045780864,15.257025708,0.0 74.045735819,15.25691463,0.0 74.045765814,15.25682721,0.0 74.045801442,15.256763464,0.0 74.045985257,15.256672371,0.0 74.04608468,15.256683278,0.0 74.046125963,15.256745187,0.0 74.046195415,15.2569546,0.0 74.046321149,15.257184033,0.0 74.04644124,15.257344265,0.0 74.046414979,15.257349734,0.0 74.046424377,15.257437145,0.0 74.046336212,15.257440806,0.0 74.046446968,15.257803183,0.0 74.046718988,15.257883255,0.0 74.046824091,15.258127261,0.0 74.046929156,15.258201904,0.0 74.046985478,15.258404035,0.0 74.04716936,15.258609782,0.0 74.047285673,15.258646179,0.0 74.047488255,15.258587861,0.0 74.047627059,15.258536841,0.0 74.047782757,15.258538629,0.0 74.04784657,15.258682482,0.0 74.048142966,15.258713378,0.0 74.04824423,15.258564025,0.0 74.048339877,15.258462023,0.0 74.048533101,15.258500224,0.0 74.048658773,15.258449206,0.0 74.048778794,15.258294386,0.0 74.048911956,15.25818327,0.0 74.049030131,15.258161391,0.0 74.048892904,15.258525498,0.0 74.047200187,15.260124751,0.0 74.046990057,15.260226111,0.0 74.046429709,15.260372521,0.0 74.045040514,15.260901848,0.0 74.044690296,15.261307289,0.0 74.044024884,15.261622631,0.0 74.042927536,15.261904186,0.0 74.039472059,15.262264576,0.0 74.036156668,15.262883996,0.0 74.03222256,15.265170199,0.0 74.031833859,15.265647358,0.0 74.031107586,15.263184131,0.0 74.031063908,15.262887623,0.0 74.030878438,15.262718212,0.0 74.030414587,15.261060973,0.0 74.029427337,15.260812245,0.0 74.027556558,15.260944855,0.0 74.025521952,15.259441345,0.0 74.025030969,15.258541268,0.0 74.024910644,15.255713807,0.0 74.026006731,15.254220521,0.0 74.026901139,15.253780939,0.0 74.02721196,15.253320245,0.0 74.02710814,15.251805917,0.0 74.027549835,15.251212834,0.0 74.027571566,15.250561559,0.0 74.027271462,15.249502615,0.0 74.02726595,15.24905255,0.0 74.028798403,15.248337547,0.0 74.029125508,15.247405602,0.0 74.029550879,15.24718316,0.0 74.030843276,15.246023403,0.0 74.03109946,15.245022631,0.0 74.031475735,15.244768423,0.0 74.031022986,15.244201932,0.0 74.031805583,15.244576397,0.0 74.032086304,15.244414842,0.0 74.0323818,15.244419593,0.0 74.032480299,15.24449562,0.0 74.032485223,15.244804476,0.0 74.032726545,15.244947025,0.0 74.032982641,15.244909012,0.0 74.032903843,15.244609659,0.0 74.033056515,15.244310306,0.0 74.033347086,15.244020456,0.0 74.033578558,15.243839893,0.0 74.033736156,15.243787625,0.0 74.033672132,15.243483519,0.0 74.03377063,15.243269694,0.0 74.033795255,15.242970339,0.0 74.033967628,15.242628219,0.0 74.034602944,15.242385883,0.0 74.034602944,15.241820432,0.0 74.034795016,15.241359517,0.0 74.034996938,15.240542222,0.0 74.034795016,15.239848469,0.0 74.035356458,15.23887436,0.0 74.035991774,15.238940885,0.0 74.036311895,15.239187976,0.0 74.036715739,15.239644144,0.0 74.036809313,15.239515847,0.0 74.037730275,15.239192728,0.0 74.039793821,15.239734427,0.0 74.041212201,15.237890743,0.0 74.043492444,15.234151055,0.0 74.044546379,15.23441716,0.0 74.045211245,15.234398152,0.0 74.045447641,15.234488438,0.0 74.045603939,15.234448657,0.0</coordinates>
                    </LinearRing>
                </outerBoundaryIs>
            </Polygon>
        </Placemark>
    </Document>
</kml>
