<?xml version="1.0" encoding="UTF-8"?>
<kml xmlns="http://www.opengis.net/kml/2.2" xmlns:gx="http://www.google.com/kml/ext/2.2">
    <Document id="3414">
        <Placemark id="3416">
            <ExtendedData>
                <Data name="id">
                    <value>96</value>
                </Data>
                <Data name="taluka">
                    <value>Salcete</value>
                </Data>
                <Data name="village">
                    <value>Chinchinim</value>
                </Data>
                <Data name="lg_code">
                    <value>626933</value>
                </Data>
                <Data name="dslr_code">
                    <value>40215000</value>
                </Data>
            </ExtendedData>
            <Polygon id="3415">
                <outerBoundaryIs>
                    <LinearRing id="3419">
                        <coordinates>73.965618536,15.183232912,0.0 73.965816445,15.1832295,0.0 73.966195201,15.183133958,0.0 73.966570545,15.183116897,0.0 73.966945889,15.18316808,0.0 73.968092394,15.183754981,0.0 73.968419966,15.183874409,0.0 73.968539394,15.183980188,0.0 73.96879531,15.184103028,0.0 73.969064875,15.18413715,0.0 73.969566471,15.18439989,0.0 73.969730258,15.184642158,0.0 73.969757555,15.184761585,0.0 73.969590357,15.185389433,0.0 73.970702739,15.185539571,0.0 73.971606977,15.186399449,0.0 73.971740053,15.186825977,0.0 73.971675221,15.187235443,0.0 73.971716168,15.187269565,0.0 73.971883366,15.187238855,0.0 73.971917489,15.187211557,0.0 73.972033504,15.187259328,0.0 73.972064214,15.187573252,0.0 73.972023267,15.187757512,0.0 73.972152932,15.187849642,0.0 73.972262123,15.187675618,0.0 73.972852436,15.187532305,0.0 73.973807857,15.188706108,0.0 73.973657719,15.188818711,0.0 73.974016002,15.189149696,0.0 73.974070597,15.189480681,0.0 73.975203453,15.190429277,0.0 73.975558324,15.191582607,0.0 73.975408186,15.191736156,0.0 73.97527511,15.191770279,0.0 73.975261461,15.192183157,0.0 73.975350179,15.192476608,0.0 73.976841317,15.193094219,0.0 73.978079952,15.192906547,0.0 73.979359533,15.192046668,0.0 73.979804828,15.192766646,0.0 73.980610111,15.192991852,0.0 73.981016165,15.193025974,0.0 73.981152653,15.192783707,0.0 73.98050092,15.192606272,0.0 73.980207469,15.192432249,0.0 73.980081217,15.192278699,0.0 73.979671751,15.191978424,0.0 73.979443133,15.191562133,0.0 73.979241812,15.190872866,0.0 73.978859644,15.190316674,0.0 73.978709506,15.190190422,0.0 73.978426292,15.190152888,0.0 73.977941757,15.189903796,0.0 73.977798444,15.189600109,0.0 73.977733612,15.189118986,0.0 73.978095307,15.188671986,0.0 73.97917698,15.187962245,0.0 73.981800975,15.187791634,0.0 73.982149021,15.187846229,0.0 73.982449296,15.188112382,0.0 73.982449296,15.188869894,0.0 73.982340105,15.18910875,0.0 73.982619907,15.1897093,0.0 73.98330235,15.19006417,0.0 73.984053038,15.190166537,0.0 73.984469328,15.190159712,0.0 73.984947038,15.19000275,0.0 73.985274611,15.189722949,0.0 73.985725024,15.189374902,0.0 73.985922932,15.189006383,0.0 73.985670428,15.188173802,0.0 73.985363329,15.187491359,0.0 73.985220016,15.186986351,0.0 73.985458871,15.186542763,0.0 73.985841039,15.186515465,0.0 73.986284627,15.186699725,0.0 73.986953422,15.187088717,0.0 73.987321941,15.187382168,0.0 73.987731407,15.187573252,0.0 73.988461622,15.187457237,0.0 73.989649073,15.186808915,0.0 73.989843569,15.186825977,0.0 73.990089249,15.187064832,0.0 73.990283745,15.187450412,0.0 73.990710273,15.187679031,0.0 73.990938891,15.188190863,0.0 73.991413189,15.188412657,0.0 73.991761235,15.188480902,0.0 73.991740762,15.188982498,0.0 73.991658869,15.189101925,0.0 73.991652044,15.190183598,0.0 73.991652044,15.19043269,0.0 73.991986442,15.191200438,0.0 73.991959144,15.192108088,0.0 73.992535809,15.192991852,0.0 73.993515115,15.193981395,0.0 73.992604053,15.195841053,0.0 73.990843349,15.197710948,0.0 73.989962997,15.199447766,0.0 73.989966409,15.201529219,0.0 73.990328104,15.202447105,0.0 73.990445826,15.202573357,0.0 73.990621555,15.203233621,0.0 73.990915006,15.2040935,0.0 73.991051494,15.204124209,0.0 73.991290349,15.205250241,0.0 73.991239166,15.205663119,0.0 73.991239166,15.206185188,0.0 73.991269876,15.206410395,0.0 73.991150448,15.207242976,0.0 73.991239166,15.207413586,0.0 73.991280113,15.207795755,0.0 73.991034433,15.208075557,0.0 73.99092183,15.208130152,0.0 73.990897944,15.208539618,0.0 73.990955952,15.208648809,0.0 73.990686387,15.209239122,0.0 73.991252815,15.209505275,0.0 73.991194807,15.209727069,0.0 73.991228929,15.209965925,0.0 73.992269656,15.211641323,0.0 73.992358373,15.212583095,0.0 73.992474389,15.212781003,0.0 73.992549457,15.214412043,0.0 73.992774664,15.215681388,0.0 73.992911152,15.215695037,0.0 73.992842908,15.216684579,0.0 73.99252216,15.21722371,0.0 73.991839716,15.217551282,0.0 73.991887487,15.21770142,0.0 73.991785121,15.218213253,0.0 73.991648632,15.218288321,0.0 73.99173735,15.218772856,0.0 73.991532617,15.219079956,0.0 73.991327884,15.219243742,0.0 73.991126563,15.219711216,0.0 73.990812639,15.220130918,0.0 73.990508952,15.220083147,0.0 73.990386112,15.220946438,0.0 73.99025986,15.221533339,0.0 73.990143845,15.221567462,0.0 73.990079012,15.221775607,0.0 73.990055127,15.222198722,0.0 73.989802623,15.222686669,0.0 73.98972073,15.223106371,0.0 73.989369271,15.223062013,0.0 73.989307851,15.223423708,0.0 73.989396569,15.223495364,0.0 73.98929079,15.223809288,0.0 73.98912018,15.223822937,0.0 73.989024637,15.224194869,0.0 73.988642469,15.224304059,0.0 73.988113576,15.225958985,0.0 73.988035095,15.226508352,0.0 73.988635645,15.226511764,0.0 73.989481874,15.226945115,0.0 73.989580829,15.227658269,0.0 73.989430691,15.228419193,0.0 73.988980279,15.228385071,0.0 73.988772133,15.228238345,0.0 73.988669767,15.228095032,0.0 73.987994148,15.227760635,0.0 73.987960026,15.227685566,0.0 73.987618804,15.227545665,0.0 73.987349239,15.227330696,0.0 73.986926124,15.22721468,0.0 73.986141314,15.227166909,0.0 73.985370153,15.227235154,0.0 73.983735701,15.227173734,0.0 73.983722053,15.227381879,0.0 73.983602625,15.227665093,0.0 73.983421777,15.227880063,0.0 73.983298938,15.227890299,0.0 73.98254825,15.227886887,0.0 73.982466357,15.227822055,0.0 73.982087601,15.227774284,0.0 73.982019356,15.227293161,0.0 73.982097837,15.227238566,0.0 73.982026181,15.226771092,0.0 73.982036417,15.226279733,0.0 73.981981822,15.225174175,0.0 73.981780501,15.225150289,0.0 73.981401745,15.225242419,0.0 73.980988867,15.225286778,0.0 73.979856011,15.225447152,0.0 73.979449957,15.225447152,0.0 73.978924476,15.225242419,0.0 73.97851501,15.225187824,0.0 73.978347811,15.225208297,0.0 73.978327338,15.225355022,0.0 73.977849628,15.22525948,0.0 73.977812093,15.224703289,0.0 73.977634658,15.224570212,0.0 73.977525467,15.224300647,0.0 73.977563001,15.22405838,0.0 73.977535704,15.224014021,0.0 73.977771147,15.223099547,0.0 73.97814649,15.223191677,0.0 73.978375109,15.22270373,0.0 73.978750453,15.222717379,0.0 73.978596903,15.220994209,0.0 73.977873513,15.221038568,0.0 73.977624421,15.221140935,0.0 73.976788428,15.221362729,0.0 73.976481329,15.221362729,0.0 73.976181053,15.221407087,0.0 73.974300922,15.221260362,0.0 73.973625303,15.221168232,0.0 73.973110058,15.22119553,0.0 73.972710829,15.22113411,0.0 73.971038843,15.221007858,0.0 73.970892117,15.221024919,0.0 73.971062728,15.220147979,0.0 73.971659866,15.218346329,0.0 73.972216058,15.218028993,0.0 73.972618699,15.217974397,0.0 73.972714241,15.21800852,0.0 73.973591181,15.21791639,0.0 73.973642364,15.217814023,0.0 73.974031357,15.217715069,0.0 73.974150785,15.217776489,0.0 73.974355518,15.217807199,0.0 73.974396464,15.217759428,0.0 73.974215617,15.217585405,0.0 73.974461296,15.21577693,0.0 73.973560471,15.215626792,0.0 73.973642364,15.215104723,0.0 73.973778853,15.215043303,0.0 73.973949464,15.214739616,0.0 73.973795914,15.214555356,0.0 73.973830036,15.21420731,0.0 73.973942639,15.214142478,0.0 73.974065479,15.213746661,0.0 73.974396464,15.213309897,0.0 73.97405183,15.212985736,0.0 73.97402112,15.212879958,0.0 73.974065479,15.212845836,0.0 73.973952876,15.212624041,0.0 73.973570708,15.212596744,0.0 73.973260196,15.212733232,0.0 73.973110058,15.212750293,0.0 73.972860967,15.212255522,0.0 73.972547043,15.212388599,0.0 73.972007912,15.212303293,0.0 73.971653042,15.212395423,0.0 73.971356179,15.212746881,0.0 73.971178744,15.212757118,0.0 73.970735156,15.21209856,0.0 73.969568177,15.212501202,0.0 73.969489696,15.212886782,0.0 73.969131414,15.212859484,0.0 73.969186009,15.212299881,0.0 73.969090467,15.212173629,0.0 73.968998337,15.211910888,0.0 73.968868673,15.211873354,0.0 73.968793604,15.21168227,0.0 73.968750951,15.211011769,0.0 73.968360253,15.210977647,0.0 73.968368783,15.210829215,0.0 73.968123104,15.210295204,0.0 73.968193054,15.210273024,0.0 73.968196466,15.210206486,0.0 73.968564986,15.210155303,0.0 73.968681001,15.210069997,0.0 73.969228662,15.210107532,0.0 73.969453868,15.210093883,0.0 73.969482872,15.21014336,0.0 73.970178964,15.210165539,0.0 73.97039564,15.209957394,0.0 73.970562839,15.209844791,0.0 73.97058843,15.209271538,0.0 73.970796575,15.209193057,0.0 73.970777808,15.208309293,0.0 73.970844346,15.208111385,0.0 73.970861408,15.207893003,0.0 73.971240164,15.207306102,0.0 73.971695695,15.207347048,0.0 73.971770763,15.206940994,0.0 73.97295139,15.206959762,0.0 73.97297357,15.207597846,0.0 73.973007692,15.207630262,0.0 73.972913856,15.207674621,0.0 73.972918974,15.208056789,0.0 73.972953096,15.20819669,0.0 73.972879734,15.208641984,0.0 73.972654527,15.208718759,0.0 73.97265794,15.209111164,0.0 73.972878028,15.209157229,0.0 73.972913856,15.209336371,0.0 73.973048638,15.209321016,0.0 73.973048638,15.209377317,0.0 73.973183421,15.209372199,0.0 73.973200482,15.209503569,0.0 73.973393272,15.209508688,0.0 73.973444456,15.209561577,0.0 73.973557059,15.209503569,0.0 73.973374505,15.20935855,0.0 73.973287494,15.209223767,0.0 73.973261902,15.209087279,0.0 73.973278963,15.208641984,0.0 73.973318204,15.208599332,0.0 73.973623597,15.208594213,0.0 73.973777147,15.208633454,0.0 73.973976761,15.208758,0.0 73.974184907,15.208943966,0.0 73.974237796,15.209124813,0.0 73.974227559,15.209273245,0.0 73.974183201,15.209271538,0.0 73.974176376,15.209379023,0.0 73.974486888,15.209373905,0.0 73.97452101,15.209293718,0.0 73.974561957,15.209245947,0.0 73.974567075,15.208856954,0.0 73.974553426,15.208621511,0.0 73.975179568,15.208508908,0.0 73.975153976,15.20815745,0.0 73.975200041,15.207502304,0.0 73.975638511,15.207507422,0.0 73.975933668,15.206285849,0.0 73.97586713,15.206263669,0.0 73.975853481,15.205963394,0.0 73.976150344,15.205879795,0.0 73.976123046,15.205693829,0.0 73.976131576,15.205543692,0.0 73.976070156,15.205533455,0.0 73.976036034,15.205359432,0.0 73.975921725,15.205362844,0.0 73.975623156,15.204463725,0.0 73.975531026,15.204484198,0.0 73.975205159,15.204753763,0.0 73.975070377,15.204752057,0.0 73.975039667,15.20469405,0.0 73.974848583,15.204709405,0.0 73.9747974,15.204620687,0.0 73.974648968,15.204745233,0.0 73.974493712,15.204525145,0.0 73.974290685,15.204595095,0.0 73.974080834,15.204753763,0.0 73.973671368,15.204968733,0.0 73.97335062,15.205014798,0.0 73.97325849,15.205055745,0.0 73.973222662,15.205164936,0.0 73.9729821,15.205161523,0.0 73.972801253,15.204207809,0.0 73.972959921,15.203912652,0.0 73.973811269,15.20318585,0.0 73.974114956,15.202960644,0.0 73.974804224,15.202694491,0.0 73.975056728,15.202639895,0.0 73.97499872,15.202073467,0.0 73.974364048,15.202114414,0.0 73.973865864,15.202267964,0.0 73.973841979,15.202421513,0.0 73.973930697,15.202578475,0.0 73.973292612,15.202895811,0.0 73.973128826,15.20278662,0.0 73.973038402,15.202897518,0.0 73.972779073,15.202771266,0.0 73.972569222,15.202721788,0.0 73.972407142,15.202749086,0.0 73.972425909,15.203132961,0.0 73.971926019,15.203373522,0.0 73.971228221,15.203040831,0.0 73.971190686,15.203015239,0.0 73.972246768,15.202464166,0.0 73.972458325,15.202198013,0.0 73.972550455,15.202157067,0.0 73.972884852,15.20154628,0.0 73.972884852,15.201211882,0.0 73.972953096,15.201140226,0.0 73.97330882,15.201065157,0.0 73.973309673,15.201034447,0.0 73.972972717,15.201108663,0.0 73.97293177,15.20047655,0.0 73.972575193,15.199306159,0.0 73.972324395,15.199275449,0.0 73.972133311,15.199198675,0.0 73.971618067,15.198765323,0.0 73.971304143,15.198439456,0.0 73.971087467,15.198357563,0.0 73.970998749,15.198209132,0.0 73.970790604,15.197333898,0.0 73.970932211,15.197192291,0.0 73.971058463,15.197088218,0.0 73.971171066,15.197076276,0.0 73.971109646,15.196670222,0.0 73.97113012,15.19648255,0.0 73.971080642,15.196465489,0.0 73.970754776,15.195629496,0.0 73.970725772,15.195510068,0.0 73.970623405,15.195511774,0.0 73.970495447,15.195643145,0.0 73.969497374,15.195801813,0.0 73.969205629,15.195752336,0.0 73.96861361,15.195615847,0.0 73.968550484,15.195583431,0.0 73.9684993,15.195489595,0.0 73.968485652,15.194813976,0.0 73.967584826,15.194887339,0.0 73.96758312,15.195022121,0.0 73.96754388,15.195068186,0.0 73.967431277,15.195110839,0.0 73.967055933,15.19502724,0.0 73.966878498,15.195020415,0.0 73.96679831,15.194940228,0.0 73.966654997,15.194938522,0.0 73.966646467,15.195069892,0.0 73.966586753,15.195109133,0.0 73.966344486,15.19516714,0.0 73.966168756,15.195182495,0.0 73.966180699,15.195779633,0.0 73.966122691,15.195984366,0.0 73.965754172,15.196037256,0.0 73.964931828,15.195970717,0.0 73.963466281,15.195624377,0.0 73.963094349,15.195477652,0.0 73.962207173,15.194747438,0.0 73.962060447,15.194348208,0.0 73.962231058,15.194129827,0.0 73.962439203,15.194041109,0.0 73.963002219,15.193928506,0.0 73.963855273,15.193836376,0.0 73.963897926,15.193744246,0.0 73.962631994,15.193793723,0.0 73.962428967,15.193851731,0.0 73.962014382,15.19343544,0.0 73.961920547,15.193106162,0.0 73.961616859,15.193237532,0.0 73.9615725,15.193223883,0.0 73.961418951,15.19258068,0.0 73.961319996,15.192015958,0.0 73.961703871,15.191947714,0.0 73.961966611,15.191792458,0.0 73.962568868,15.191710565,0.0 73.962529627,15.191492183,0.0 73.962710475,15.19148024,0.0 73.962696826,15.191331809,0.0 73.962594459,15.191328397,0.0 73.962420436,15.190946228,0.0 73.961917134,15.191040064,0.0 73.961796001,15.190618655,0.0 73.960784278,15.190796091,0.0 73.960652908,15.190241606,0.0 73.960658026,15.189907208,0.0 73.960693855,15.189724655,0.0 73.960823519,15.189419261,0.0 73.96122616,15.188839184,0.0 73.961321702,15.188743642,0.0 73.961816474,15.188552558,0.0 73.96288791,15.188300054,0.0 73.963430452,15.188245459,0.0 73.963546468,15.188081672,0.0 73.963433865,15.187238855,0.0 73.964024178,15.187300275,0.0 73.964095835,15.186078701,0.0 73.964594018,15.185024326,0.0 73.964853347,15.185075509,0.0 73.964914767,15.184863952,0.0 73.965491431,15.183673088,0.0 73.965618536,15.183232912,0.0</coordinates>
                    </LinearRing>
                </outerBoundaryIs>
            </Polygon>
        </Placemark>
    </Document>
</kml>
