<?xml version="1.0" encoding="UTF-8"?>
<kml xmlns="http://www.opengis.net/kml/2.2" xmlns:gx="http://www.google.com/kml/ext/2.2">
    <Document id="3428">
        <Placemark id="3430">
            <ExtendedData>
                <Data name="id">
                    <value>71</value>
                </Data>
                <Data name="taluka">
                    <value>Salcete</value>
                </Data>
                <Data name="village">
                    <value>Colva</value>
                </Data>
                <Data name="lg_code">
                    <value>626897</value>
                </Data>
                <Data name="dslr_code">
                    <value>00023700</value>
                </Data>
            </ExtendedData>
            <Polygon id="3429">
                <outerBoundaryIs>
                    <LinearRing id="3433">
                        <coordinates>73.914580254,15.272261537,0.0 73.91529957,15.272270818,0.0 73.916065294,15.272456448,0.0 73.91598176,15.272720971,0.0 73.916241642,15.272656,0.0 73.916575776,15.272423963,0.0 73.916608261,15.272326507,0.0 73.91684494,15.27228474,0.0 73.917434315,15.272475011,0.0 73.918032972,15.272414681,0.0 73.918162913,15.272294022,0.0 73.918849744,15.272428604,0.0 73.919304537,15.272632797,0.0 73.919564419,15.272874116,0.0 73.919801097,15.272864834,0.0 73.920037776,15.272720971,0.0 73.920376551,15.272832349,0.0 73.92043688,15.273161842,0.0 73.920849907,15.27327322,0.0 73.921309341,15.27308759,0.0 73.921355749,15.272827708,0.0 73.922265336,15.272925164,0.0 73.922191084,15.273041183,0.0 73.922409199,15.273101512,0.0 73.922683003,15.272586389,0.0 73.923119234,15.272642078,0.0 73.92309603,15.272813786,0.0 73.923253816,15.27283699,0.0 73.923212049,15.273017979,0.0 73.922966089,15.273816188,0.0 73.922641237,15.274317389,0.0 73.922590188,15.274739697,0.0 73.9226598,15.27512952,0.0 73.922710848,15.275407965,0.0 73.922488092,15.275844196,0.0 73.922952167,15.276359319,0.0 73.923690046,15.276888365,0.0 73.924061306,15.276962617,0.0 73.92427014,15.277236421,0.0 73.924534663,15.278169212,0.0 73.925059067,15.278378045,0.0 73.926469856,15.278494064,0.0 73.926701893,15.279171614,0.0 73.926910727,15.280219263,0.0 73.926778465,15.281162495,0.0 73.926722776,15.281802919,0.0 73.926855038,15.283282158,0.0 73.926969896,15.283985232,0.0 73.92699078,15.284914542,0.0 73.926458254,15.285032881,0.0 73.926510462,15.28533221,0.0 73.926378201,15.286630459,0.0 73.926145003,15.286592173,0.0 73.926047547,15.287034205,0.0 73.926541787,15.287107296,0.0 73.926524384,15.287302208,0.0 73.927077794,15.287364858,0.0 73.927164808,15.287124699,0.0 73.927394525,15.287156024,0.0 73.92724138,15.288266324,0.0 73.928348199,15.288670069,0.0 73.928710178,15.288718797,0.0 73.928744983,15.288346377,0.0 73.928807633,15.288360299,0.0 73.928877245,15.288012243,0.0 73.928800672,15.287893904,0.0 73.929938816,15.288043568,0.0 73.929681255,15.289578496,0.0 73.927244861,15.289303531,0.0 73.927189172,15.290828018,0.0 73.926406045,15.290848901,0.0 73.926245939,15.29176777,0.0 73.925849155,15.2917086,0.0 73.925546346,15.291743406,0.0 73.925490657,15.292498688,0.0 73.924961612,15.292484766,0.0 73.924958131,15.29288503,0.0 73.923350111,15.292940719,0.0 73.922037939,15.29257178,0.0 73.921724688,15.292543935,0.0 73.921992692,15.290479962,0.0 73.922232851,15.288255882,0.0 73.922337267,15.288255882,0.0 73.922438204,15.287305689,0.0 73.922239812,15.287044646,0.0 73.921481049,15.286988957,0.0 73.921519335,15.286553887,0.0 73.920523894,15.286477315,0.0 73.920475166,15.286748799,0.0 73.919424037,15.286693109,0.0 73.919232606,15.287225636,0.0 73.918856705,15.287298727,0.0 73.918929797,15.286929788,0.0 73.918400751,15.286919346,0.0 73.918348543,15.28706553,0.0 73.917474921,15.287089894,0.0 73.917029409,15.287326572,0.0 73.917018968,15.287733798,0.0 73.916556053,15.287726837,0.0 73.916469039,15.287970476,0.0 73.916138385,15.288022684,0.0 73.916110541,15.288381182,0.0 73.916427272,15.288635263,0.0 73.91641683,15.288864981,0.0 73.916114021,15.288951995,0.0 73.91597828,15.289209556,0.0 73.915581495,15.289390546,0.0 73.91529957,15.289655068,0.0 73.915243881,15.289954397,0.0 73.913315649,15.289439273,0.0 73.91350708,15.288771005,0.0 73.913239077,15.28842643,0.0 73.912730915,15.287719875,0.0 73.91183641,15.287448392,0.0 73.910155298,15.286988957,0.0 73.910980192,15.285788163,0.0 73.911725032,15.284625655,0.0 73.91140134,15.284493394,0.0 73.911328248,15.283497953,0.0 73.913117257,15.277319954,0.0 73.913653264,15.276763064,0.0 73.913896903,15.274681688,0.0 73.914412026,15.272795223,0.0 73.914338935,15.272248775,0.0 73.914580254,15.272261537,0.0</coordinates>
                    </LinearRing>
                </outerBoundaryIs>
            </Polygon>
        </Placemark>
    </Document>
</kml>
