<?xml version="1.0" encoding="UTF-8"?>
<kml xmlns="http://www.opengis.net/kml/2.2" xmlns:gx="http://www.google.com/kml/ext/2.2">
    <Document id="3552">
        <Placemark id="3554">
            <ExtendedData>
                <Data name="id">
                    <value>76</value>
                </Data>
                <Data name="taluka">
                    <value>Salcete</value>
                </Data>
                <Data name="village">
                    <value>Gandaulim</value>
                </Data>
                <Data name="lg_code">
                    <value>626896</value>
                </Data>
                <Data name="dslr_code">
                    <value>00023600</value>
                </Data>
            </ExtendedData>
            <Polygon id="3553">
                <outerBoundaryIs>
                    <LinearRing id="3557">
                        <coordinates>73.916138385,15.288022684,0.0 73.916469039,15.287970476,0.0 73.916556053,15.287726837,0.0 73.917018968,15.287733798,0.0 73.917029409,15.287326572,0.0 73.917474921,15.287089894,0.0 73.918348543,15.28706553,0.0 73.918400751,15.286919346,0.0 73.918929797,15.286929788,0.0 73.918856705,15.287298727,0.0 73.919232606,15.287225636,0.0 73.919424037,15.286693109,0.0 73.920475166,15.286748799,0.0 73.920523894,15.286477315,0.0 73.921519335,15.286553887,0.0 73.921481049,15.286988957,0.0 73.922239812,15.287044646,0.0 73.922438204,15.287305689,0.0 73.922337267,15.288255882,0.0 73.922232851,15.288255882,0.0 73.921992692,15.290479962,0.0 73.921724688,15.292543935,0.0 73.920992248,15.292441966,0.0 73.920984416,15.292525499,0.0 73.920788635,15.29247068,0.0 73.920793855,15.292311445,0.0 73.92044928,15.292256626,0.0 73.920446669,15.292053013,0.0 73.919854104,15.292068675,0.0 73.919178004,15.291985142,0.0 73.918590659,15.2921,0.0 73.91865853,15.292449797,0.0 73.918321786,15.292436745,0.0 73.918337448,15.292321886,0.0 73.917755324,15.292154819,0.0 73.91686256,15.292089559,0.0 73.916272605,15.291700606,0.0 73.916191682,15.291452616,0.0 73.915418997,15.290739971,0.0 73.915215384,15.290379732,0.0 73.915243881,15.289954397,0.0 73.91529957,15.289655068,0.0 73.915581495,15.289390546,0.0 73.91597828,15.289209556,0.0 73.916114021,15.288951995,0.0 73.91641683,15.288864981,0.0 73.916427272,15.288635263,0.0 73.916110541,15.288381182,0.0 73.916138385,15.288022684,0.0</coordinates>
                    </LinearRing>
                </outerBoundaryIs>
            </Polygon>
        </Placemark>
    </Document>
</kml>
