<?xml version="1.0" encoding="UTF-8"?>
<kml xmlns="http://www.opengis.net/kml/2.2" xmlns:gx="http://www.google.com/kml/ext/2.2">
    <Document id="3580">
        <Placemark id="3582">
            <ExtendedData>
                <Data name="id">
                    <value>366</value>
                </Data>
                <Data name="taluka">
                    <value>Salcete</value>
                </Data>
                <Data name="village">
                    <value>Guirdolim</value>
                </Data>
                <Data name="lg_code">
                    <value>626903</value>
                </Data>
                <Data name="dslr_code">
                    <value>00024400</value>
                </Data>
            </ExtendedData>
            <Polygon id="3581">
                <outerBoundaryIs>
                    <LinearRing id="3585">
                        <coordinates>74.031833859,15.265647358,0.0 74.03222256,15.265170199,0.0 74.036156668,15.262883996,0.0 74.039472059,15.262264576,0.0 74.042927536,15.261904186,0.0 74.044024884,15.261622631,0.0 74.044690296,15.261307289,0.0 74.045040514,15.260901848,0.0 74.046429709,15.260372521,0.0 74.046990057,15.260226111,0.0 74.047200187,15.260124751,0.0 74.048892904,15.258525498,0.0 74.049030131,15.258161391,0.0 74.04927963,15.258192295,0.0 74.049362195,15.258305185,0.0 74.049489776,15.258394391,0.0 74.049639845,15.258388895,0.0 74.050138813,15.258323224,0.0 74.050302,15.258263091,0.0 74.05049711,15.258339533,0.0 74.050729821,15.258765619,0.0 74.050879899,15.258794723,0.0 74.051195025,15.258703596,0.0 74.051371296,15.258448601,0.0 74.051611295,15.257982343,0.0 74.051735018,15.257632662,0.0 74.051885077,15.257588921,0.0 74.052076438,15.257679932,0.0 74.0524592,15.258018569,0.0 74.05251176,15.258160602,0.0 74.052549354,15.258466539,0.0 74.052556974,15.258936383,0.0 74.052770834,15.258972754,0.0 74.05312725,15.258965386,0.0 74.053554976,15.259059982,0.0 74.054204149,15.25951146,0.0 74.054196664,15.259584306,0.0 74.053517721,15.26009802,0.0 74.053547786,15.260294692,0.0 74.054001798,15.260473052,0.0 74.054020578,15.260553176,0.0 74.053923077,15.26073531,0.0 74.0539607,15.261143228,0.0 74.054182193,15.261674937,0.0 74.05421983,15.262141131,0.0 74.054328725,15.262498041,0.0 74.054636471,15.262869471,0.0 74.054996722,15.263153476,0.0 74.055199413,15.263503078,0.0 74.055207112,15.264249729,0.0 74.054933305,15.264555741,0.0 74.054727038,15.264887233,0.0 74.054904968,15.265220879,0.0 74.055331065,15.265415148,0.0 74.055430294,15.265572817,0.0 74.055733815,15.266366786,0.0 74.055806777,15.266439989,0.0 74.055900169,15.266651151,0.0 74.056145321,15.266839788,0.0 74.056501375,15.26708192,0.0 74.057052967,15.267622492,0.0 74.057549108,15.267743557,0.0 74.058360445,15.26836296,0.0 74.058783624,15.269252645,0.0 74.059364401,15.269680593,0.0 74.05974964,15.269832627,0.0 74.060558059,15.270055047,0.0 74.060578488,15.270378822,0.0 74.06042089,15.270739198,0.0 74.060388787,15.271096758,0.0 74.060528874,15.271389562,0.0 74.061191368,15.271552856,0.0 74.061640814,15.271550041,0.0 74.061920988,15.271651396,0.0 74.062052319,15.271755567,0.0 74.062323738,15.272042739,0.0 74.062227428,15.272163802,0.0 74.061664162,15.272636791,0.0 74.061483216,15.273075994,0.0 74.061728368,15.273585581,0.0 74.061868455,15.27361655,0.0 74.061950173,15.273802366,0.0 74.062402537,15.274264089,0.0 74.062612667,15.274216228,0.0 74.063313102,15.27441612,0.0 74.063473618,15.274793381,0.0 74.06304752,15.275483147,0.0 74.063059194,15.275829437,0.0 74.063348123,15.276232034,0.0 74.063826754,15.276344648,0.0 74.064728563,15.275806915,0.0 74.065472775,15.275302964,0.0 74.066870726,15.274753966,0.0 74.067183003,15.27475115,0.0 74.067220943,15.274818719,0.0 74.067013731,15.27580973,0.0 74.066934932,15.275953313,0.0 74.066885318,15.276305233,0.0 74.067171329,15.276668414,0.0 74.067752106,15.277290606,0.0 74.068753144,15.277926873,0.0 74.069520703,15.279126203,0.0 74.069812916,15.279426738,0.0 74.069740683,15.279648444,0.0 74.068893595,15.279395065,0.0 74.068670332,15.279464744,0.0 74.068145006,15.279692785,0.0 74.068092473,15.279977835,0.0 74.067383283,15.280560603,0.0 74.066319498,15.280782308,0.0 74.064881418,15.281067356,0.0 74.064645022,15.280737967,0.0 74.064500557,15.280180537,0.0 74.063285741,15.280262885,0.0 74.062254789,15.280883658,0.0 74.062215389,15.281118032,0.0 74.061407701,15.28124472,0.0 74.060823275,15.281567774,0.0 74.060100952,15.282194878,0.0 74.059542793,15.2823279,0.0 74.059188198,15.282264556,0.0 74.057733702,15.282521098,0.0 74.055849095,15.282821981,0.0 74.055120205,15.282935999,0.0 74.054877242,15.28242925,0.0 74.053563927,15.282112531,0.0 74.052329411,15.281947838,0.0 74.052290012,15.281073691,0.0 74.051245927,15.281105363,0.0 74.050188708,15.280966006,0.0 74.04890166,15.280680957,0.0 74.048245002,15.28087099,0.0 74.04788384,15.280839317,0.0 74.046866021,15.281175041,0.0 74.04579567,15.281903497,0.0 74.045493607,15.281707131,0.0 74.044810684,15.281890828,0.0 74.044266689,15.282208229,0.0 74.042780888,15.282521748,0.0 74.041824079,15.282518286,0.0 74.040886051,15.282616799,0.0 74.040818492,15.282518472,0.0 74.038593434,15.282464233,0.0 74.037703862,15.280767118,0.0 74.037140832,15.279594423,0.0 74.036857491,15.279279419,0.0 74.036743055,15.279304933,0.0 74.036652975,15.279135585,0.0 74.036365898,15.278907994,0.0 74.036367762,15.278842434,0.0 74.03610318,15.278503752,0.0 74.036133156,15.278267004,0.0 74.036061821,15.278004777,0.0 74.036011128,15.277773505,0.0 74.035851648,15.277680654,0.0 74.035797199,15.277425709,0.0 74.035857229,15.277403846,0.0 74.03587786,15.277369242,0.0 74.03593601,15.277329168,0.0 74.035926568,15.276964949,0.0 74.035913407,15.276791946,0.0 74.035828975,15.276733685,0.0 74.035686402,15.276775593,0.0 74.035594437,15.276540685,0.0 74.03548938,15.276549807,0.0 74.035211667,15.276198378,0.0 74.035275431,15.276072712,0.0 74.035097043,15.275078418,0.0 74.035175818,15.274972782,0.0 74.034384054,15.274475744,0.0 74.034363382,15.274257215,0.0 74.034215144,15.274062379,0.0 74.034361389,15.273541522,0.0 74.033614322,15.270948384,0.0 74.032950084,15.270067069,0.0 74.032893732,15.269604517,0.0 74.03300623,15.269214784,0.0 74.03269091,15.268205939,0.0 74.032510744,15.267728836,0.0 74.031943944,15.266020722,0.0 74.031833859,15.265647358,0.0</coordinates>
                    </LinearRing>
                </outerBoundaryIs>
            </Polygon>
        </Placemark>
    </Document>
</kml>
