<?xml version="1.0" encoding="UTF-8"?>
<kml xmlns="http://www.opengis.net/kml/2.2" xmlns:gx="http://www.google.com/kml/ext/2.2">
    <Document id="3622">
        <Placemark id="3624">
            <ExtendedData>
                <Data name="id">
                    <value>77</value>
                </Data>
                <Data name="taluka">
                    <value>Salcete</value>
                </Data>
                <Data name="village">
                    <value>Majorda</value>
                </Data>
                <Data name="lg_code">
                    <value>626892</value>
                </Data>
                <Data name="dslr_code">
                    <value>00023200</value>
                </Data>
            </ExtendedData>
            <Polygon id="3623">
                <outerBoundaryIs>
                    <LinearRing id="3627">
                        <coordinates>73.905118271,15.301881252,0.0 73.906413041,15.302095306,0.0 73.907412832,15.302455544,0.0 73.908250778,15.302721807,0.0 73.90906784,15.302633053,0.0 73.90974655,15.302661768,0.0 73.909850967,15.302499922,0.0 73.910125061,15.30254952,0.0 73.910172048,15.303139475,0.0 73.91011723,15.303886056,0.0 73.910229478,15.304074006,0.0 73.910579274,15.304204527,0.0 73.911009994,15.304288061,0.0 73.911986292,15.304509947,0.0 73.912448336,15.304549103,0.0 73.912618014,15.304637857,0.0 73.912970421,15.304724001,0.0 73.913072227,15.304692676,0.0 73.913361984,15.304708339,0.0 73.913390699,15.304288061,0.0 73.913978044,15.304387257,0.0 73.913925835,15.304661351,0.0 73.914043304,15.305076408,0.0 73.914036778,15.305718572,0.0 73.913945413,15.306040959,0.0 73.914130753,15.306044875,0.0 73.914164689,15.306095778,0.0 73.914714183,15.306188448,0.0 73.915289781,15.306555212,0.0 73.916044193,15.306692259,0.0 73.91614861,15.306643967,0.0 73.916660252,15.306978101,0.0 73.916675915,15.307521068,0.0 73.916858644,15.308077088,0.0 73.916996997,15.308066646,0.0 73.916897801,15.308687927,0.0 73.916876917,15.309303987,0.0 73.917023101,15.309340532,0.0 73.917064868,15.30945017,0.0 73.916946705,15.309794198,0.0 73.917061238,15.310174504,0.0 73.916926148,15.310728076,0.0 73.91667102,15.31168141,0.0 73.916722413,15.311837057,0.0 73.917488898,15.31252425,0.0 73.918763437,15.313892764,0.0 73.918980754,15.314092461,0.0 73.919165768,15.31450654,0.0 73.91961215,15.314436058,0.0 73.919697315,15.314665123,0.0 73.919894076,15.314867757,0.0 73.920528408,15.314982289,0.0 73.920842638,15.314938238,0.0 73.921054082,15.315041024,0.0 73.921579756,15.315102695,0.0 73.921685478,15.315155556,0.0 73.922375608,15.315273025,0.0 73.92278675,15.315452165,0.0 73.92330655,15.315628369,0.0 73.924448936,15.315734091,0.0 73.924722051,15.315789888,0.0 73.92502747,15.314374387,0.0 73.92649877,15.314380261,0.0 73.926487023,15.314441932,0.0 73.927083178,15.314409628,0.0 73.927077304,15.314444868,0.0 73.927553054,15.314418438,0.0 73.927600041,15.315114442,0.0 73.927964195,15.315102695,0.0 73.927881967,15.315472722,0.0 73.92818445,15.315507963,0.0 73.9282285,15.315701787,0.0 73.928066981,15.316162852,0.0 73.928064044,15.316512323,0.0 73.928134525,15.316905844,0.0 73.928777668,15.31703506,0.0 73.929461925,15.317314049,0.0 73.929508912,15.317457948,0.0 73.930125625,15.317557797,0.0 73.930216663,15.317516683,0.0 73.930525019,15.317769241,0.0 73.930715906,15.317992432,0.0 73.930862743,15.317933697,0.0 73.931285631,15.318127521,0.0 73.931714393,15.318421194,0.0 73.931737886,15.318338965,0.0 73.932078547,15.318565093,0.0 73.931952267,15.319208236,0.0 73.93176138,15.319334515,0.0 73.931502949,15.320365306,0.0 73.931491202,15.320817561,0.0 73.931212213,15.321090677,0.0 73.930686539,15.322156708,0.0 73.930128561,15.323190435,0.0 73.928924504,15.324923102,0.0 73.928931846,15.325169787,0.0 73.928944571,15.325412498,0.0 73.928768858,15.325845234,0.0 73.928353311,15.326185894,0.0 73.928006683,15.326324043,0.0 73.92727847,15.326244628,0.0 73.926332845,15.326300426,0.0 73.926227123,15.326356224,0.0 73.926062666,15.326373844,0.0 73.925930513,15.326491313,0.0 73.925689702,15.326573542,0.0 73.925589853,15.326870151,0.0 73.925704386,15.326952379,0.0 73.925513498,15.327248988,0.0 73.92557517,15.327577901,0.0 73.924614861,15.327427394,0.0 73.92443205,15.327452356,0.0 73.924538506,15.328429552,0.0 73.924476835,15.328491223,0.0 73.92374559,15.32817993,0.0 73.92373678,15.328259222,0.0 73.92334849,15.328165613,0.0 73.919687037,15.327251925,0.0 73.919707594,15.327084532,0.0 73.918074775,15.326526554,0.0 73.918068901,15.326594099,0.0 73.917516797,15.326482503,0.0 73.916996997,15.326244628,0.0 73.91697644,15.326185894,0.0 73.916820793,15.326209388,0.0 73.916715071,15.326080172,0.0 73.916756185,15.325727765,0.0 73.915798813,15.325413535,0.0 73.915757699,15.325163914,0.0 73.914928074,15.324644113,0.0 73.914503717,15.324497277,0.0 73.914259969,15.324453226,0.0 73.913998601,15.324373935,0.0 73.914072019,15.323821831,0.0 73.913725485,15.323604513,0.0 73.913637384,15.323401879,0.0 73.913279103,15.3231317,0.0 73.913108773,15.32309646,0.0 73.912888519,15.32279104,0.0 73.912412769,15.322468,0.0 73.912113223,15.322183138,0.0 73.912395149,15.321586983,0.0 73.912101477,15.321225766,0.0 73.911543499,15.321052499,0.0 73.911798994,15.320103937,0.0 73.911555246,15.320018772,0.0 73.911716766,15.319531276,0.0 73.911564056,15.31941968,0.0 73.911672715,15.319017349,0.0 73.911064813,15.318817652,0.0 73.910348252,15.318368333,0.0 73.910142681,15.318356586,0.0 73.909834325,15.318541599,0.0 73.909270474,15.318262611,0.0 73.909064903,15.318256737,0.0 73.908612648,15.318089344,0.0 73.908756547,15.31758129,0.0 73.908451128,15.317252377,0.0 73.90824262,15.317225947,0.0 73.907743377,15.316967515,0.0 73.907631782,15.317029186,0.0 73.906809499,15.316805995,0.0 73.906786005,15.316635665,0.0 73.906090001,15.316573994,0.0 73.906072381,15.31673845,0.0 73.905664176,15.316676779,0.0 73.905858,15.315810445,0.0 73.905684733,15.315252468,0.0 73.905297085,15.315220164,0.0 73.905288275,15.315317076,0.0 73.905429238,15.315531457,0.0 73.905452732,15.315757584,0.0 73.905117945,15.31569885,0.0 73.904686247,15.317002756,0.0 73.904542347,15.317093794,0.0 73.904269232,15.317008629,0.0 73.904154699,15.316823615,0.0 73.904187003,15.316641539,0.0 73.904119459,15.316629792,0.0 73.904072471,15.316855919,0.0 73.904140016,15.316949895,0.0 73.90150871,15.316418347,0.0 73.900322274,15.315974902,0.0 73.900706985,15.314709174,0.0 73.901094632,15.313751801,0.0 73.901400052,15.313158583,0.0 73.901793573,15.312765062,0.0 73.902005017,15.312154223,0.0 73.902451399,15.311931032,0.0 73.902821426,15.310709355,0.0 73.902574742,15.310503784,0.0 73.902545374,15.310004541,0.0 73.903191454,15.310028034,0.0 73.905082704,15.310298213,0.0 73.9065217,15.310474417,0.0 73.907367476,15.310392188,0.0 73.907919581,15.310533151,0.0 73.907907834,15.310615379,0.0 73.908542166,15.310732848,0.0 73.90892394,15.310697608,0.0 73.909329208,15.31082095,0.0 73.909311588,15.310938419,0.0 73.909887186,15.31099128,0.0 73.909904806,15.31029234,0.0 73.908430571,15.310145503,0.0 73.908407077,15.310086769,0.0 73.90820738,15.310033908,0.0 73.908125151,15.309840084,0.0 73.907637655,15.309534665,0.0 73.907802112,15.30896494,0.0 73.908606774,15.309023675,0.0 73.908518672,15.309622766,0.0 73.909969414,15.309775476,0.0 73.910263087,15.309017801,0.0 73.910680102,15.308900332,0.0 73.911167598,15.30898256,0.0 73.911185218,15.30877699,0.0 73.911384916,15.30881223,0.0 73.911420156,15.308912079,0.0 73.911725576,15.308565546,0.0 73.9119194,15.307813744,0.0 73.911655094,15.307749136,0.0 73.911608107,15.30744959,0.0 73.911384916,15.30744959,0.0 73.911390789,15.307285134,0.0 73.910732963,15.307132424,0.0 73.910468658,15.307038449,0.0 73.909599387,15.307014955,0.0 73.909553868,15.306567104,0.0 73.909458424,15.306458446,0.0 73.90933655,15.306415863,0.0 73.909155942,15.306443762,0.0 73.909044346,15.306412926,0.0 73.909083992,15.306333635,0.0 73.909343892,15.306348318,0.0 73.909407032,15.306089887,0.0 73.909379133,15.306056114,0.0 73.909458424,15.305796214,0.0 73.909261664,15.305690492,0.0 73.909072245,15.305703707,0.0 73.908793256,15.305834392,0.0 73.908733053,15.30609576,0.0 73.908586217,15.306060519,0.0 73.908543635,15.306180925,0.0 73.908420292,15.306151558,0.0 73.908317507,15.30666108,0.0 73.907843226,15.306677232,0.0 73.9077052,15.306622902,0.0 73.907587731,15.30643642,0.0 73.907448236,15.306226444,0.0 73.907553958,15.306041431,0.0 73.906173698,15.305708112,0.0 73.905495314,15.305481985,0.0 73.904813994,15.305361579,0.0 73.904490954,15.305367452,0.0 73.904399916,15.30527054,0.0 73.903988774,15.305217679,0.0 73.904517385,15.303508506,0.0 73.905118271,15.301881252,0.0</coordinates>
                    </LinearRing>
                </outerBoundaryIs>
            </Polygon>
        </Placemark>
    </Document>
</kml>
