<?xml version="1.0" encoding="UTF-8"?>
<kml xmlns="http://www.opengis.net/kml/2.2" xmlns:gx="http://www.google.com/kml/ext/2.2">
    <Document id="3677">
        <Placemark id="3679">
            <ExtendedData>
                <Data name="id">
                    <value>329</value>
                </Data>
                <Data name="taluka">
                    <value>Salcete</value>
                </Data>
                <Data name="village">
                    <value>Navelim</value>
                </Data>
                <Data name="lg_code">
                    <value>626930</value>
                </Data>
                <Data name="dslr_code">
                    <value>40207000</value>
                </Data>
            </ExtendedData>
            <Polygon id="3678">
                <outerBoundaryIs>
                    <LinearRing id="3682">
                        <coordinates>73.94644885,15.24083148,0.0 73.946724805,15.240719924,0.0 73.947170302,15.240759097,0.0 73.947966427,15.240918344,0.0 73.948291215,15.240924,0.0 73.94834009,15.240870991,0.0 73.949231066,15.241030256,0.0 73.949265541,15.241097237,0.0 73.949498356,15.241091708,0.0 73.94991227,15.240994132,0.0 73.949929508,15.241024831,0.0 73.950170952,15.240991399,0.0 73.950285904,15.241066769,0.0 73.950331855,15.24122305,0.0 73.950349074,15.241337466,0.0 73.950294441,15.241429542,0.0 73.950199579,15.241479751,0.0 73.950202439,15.241543934,0.0 73.950096039,15.241767154,0.0 73.949955164,15.241920603,0.0 73.949932147,15.242018267,0.0 73.94982286,15.242294507,0.0 73.949909082,15.242319641,0.0 73.950190724,15.242467603,0.0 73.950340175,15.242512285,0.0 73.950685067,15.242596077,0.0 73.950685063,15.242615611,0.0 73.950825897,15.242635176,0.0 73.950799985,15.242822137,0.0 73.950768334,15.242970029,0.0 73.950981026,15.242984028,0.0 73.950877465,15.24336073,0.0 73.95071938,15.243360695,0.0 73.950653138,15.243935533,0.0 73.950693351,15.244049954,0.0 73.950615622,15.244580141,0.0 73.951360061,15.244585885,0.0 73.951348596,15.244446355,0.0 73.951452065,15.244471492,0.0 73.951501017,15.244083617,0.0 73.951923526,15.244128357,0.0 73.951900326,15.24503528,0.0 73.951926165,15.24516365,0.0 73.951905996,15.245378518,0.0 73.951937613,15.245381315,0.0 73.951960543,15.245663166,0.0 73.952009403,15.245677129,0.0 73.952109858,15.246321767,0.0 73.952207445,15.246941289,0.0 73.95220161,15.247323593,0.0 73.952874084,15.247856729,0.0 73.953135643,15.247879108,0.0 73.953170073,15.24815817,0.0 73.953497734,15.24821963,0.0 73.954000693,15.24845414,0.0 73.953980553,15.248543433,0.0 73.954144377,15.248604859,0.0 73.954279471,15.248607677,0.0 73.954397324,15.248585377,0.0 73.954428947,15.248560268,0.0 73.954635863,15.248730533,0.0 73.955021013,15.248792003,0.0 73.954796537,15.250086771,0.0 73.954681318,15.251225291,0.0 73.955215928,15.251342601,0.0 73.95564133,15.251376172,0.0 73.956417422,15.251331676,0.0 73.956578316,15.251677734,0.0 73.956727778,15.25171125,0.0 73.95675652,15.251716836,0.0 73.956767964,15.251981941,0.0 73.956811012,15.252312629,0.0 73.956989203,15.252415913,0.0 73.956969067,15.252492649,0.0 73.957430397,15.252545757,0.0 73.957538197,15.252495548,0.0 73.957707775,15.252554182,0.0 73.958286963,15.252568243,0.0 73.958926437,15.252979966,0.0 73.959061468,15.253323228,0.0 73.959377578,15.253711171,0.0 73.960099026,15.253871757,0.0 73.960492799,15.253990425,0.0 73.960589082,15.254043462,0.0 73.96081467,15.254335114,0.0 73.961092029,15.254455156,0.0 73.961191184,15.254524936,0.0 73.961419686,15.254604506,0.0 73.961467107,15.254643582,0.0 73.961845079,15.254728758,0.0 73.961932743,15.25476226,0.0 73.962207252,15.25475812,0.0 73.962359609,15.254689778,0.0 73.962464526,15.2546884,0.0 73.96260539,15.254590754,0.0 73.962628402,15.254494484,0.0 73.962954664,15.254410822,0.0 73.96342894,15.254436015,0.0 73.964071385,15.254369146,0.0 73.964229476,15.254378938,0.0 73.964297033,15.25433709,0.0 73.964350271,15.253974328,0.0 73.964396312,15.253672956,0.0 73.964473938,15.253573904,0.0 73.964565953,15.253368814,0.0 73.964545875,15.253117661,0.0 73.96474853,15.253056301,0.0 73.965329171,15.252993605,0.0 73.965530402,15.252854108,0.0 73.966033441,15.252735587,0.0 73.966040679,15.25241328,0.0 73.966103916,15.252411894,0.0 73.966366935,15.252336589,0.0 73.966288052,15.251318028,0.0 73.966416095,15.250476697,0.0 73.967031207,15.250503299,0.0 73.967015461,15.250093086,0.0 73.967070137,15.249694046,0.0 73.967442426,15.249304819,0.0 73.967535891,15.248990896,0.0 73.967512958,15.248584868,0.0 73.96748569,15.248337901,0.0 73.967523094,15.248090943,0.0 73.967724288,15.24815934,0.0 73.967794709,15.24815656,0.0 73.967972922,15.24813147,0.0 73.96795712,15.24808961,0.0 73.968034823,15.247454772,0.0 73.967809187,15.247461716,0.0 73.96782073,15.247163129,0.0 73.967763354,15.246433392,0.0 73.967750558,15.245526463,0.0 73.968086852,15.245522325,0.0 73.969197752,15.24564945,0.0 73.969525411,15.245731816,0.0 73.969804219,15.245724877,0.0 73.969942227,15.245437469,0.0 73.970103226,15.245168203,0.0 73.970426557,15.245364979,0.0 73.970426553,15.245392885,0.0 73.970939576,15.245680378,0.0 73.971551735,15.246188336,0.0 73.971658083,15.246202303,0.0 73.971673896,15.246171609,0.0 73.971808969,15.246319525,0.0 73.972245842,15.246491198,0.0 73.972590759,15.246496821,0.0 73.972908382,15.246410353,0.0 73.972952945,15.246325247,0.0 73.973049227,15.246382464,0.0 73.973562256,15.246672742,0.0 73.974004881,15.246837436,0.0 73.974254928,15.246995131,0.0 73.974756476,15.247170993,0.0 73.974865701,15.247165424,0.0 73.975210598,15.247352429,0.0 73.975357193,15.247318958,0.0 73.975495155,15.247369203,0.0 73.975558386,15.247408278,0.0 73.975779697,15.247511552,0.0 73.97594641,15.247500408,0.0 73.97607577,15.247363685,0.0 73.976101647,15.247293924,0.0 73.976173505,15.247291141,0.0 73.976256859,15.247302312,0.0 73.976368994,15.24697862,0.0 73.976791519,15.246984246,0.0 73.977237028,15.247093123,0.0 73.977630794,15.247243852,0.0 73.97783776,15.247107135,0.0 73.977923987,15.24713784,0.0 73.978010225,15.247056923,0.0 73.978191305,15.247082055,0.0 73.978426979,15.247282997,0.0 73.978524687,15.247464392,0.0 73.978771858,15.247682078,0.0 73.979145509,15.247807688,0.0 73.9793007,15.248039318,0.0 73.979329444,15.24803653,0.0 73.979366796,15.248184432,0.0 73.979438638,15.248349081,0.0 73.979559351,15.248452343,0.0 73.979924389,15.248485862,0.0 73.980157213,15.248460768,0.0 73.980631475,15.24851383,0.0 73.980627135,15.24882079,0.0 73.981145946,15.248926875,0.0 73.98189182,15.249151575,0.0 73.982261167,15.249242297,0.0 73.983967069,15.249599616,0.0 73.986536709,15.250185799,0.0 73.987324276,15.250336535,0.0 73.987335727,15.251117889,0.0 73.987301219,15.251380198,0.0 73.987439144,15.252139234,0.0 73.986628521,15.252831243,0.0 73.984495587,15.254561244,0.0 73.983434898,15.254898824,0.0 73.983035344,15.254990883,0.0 73.982032183,15.254809419,0.0 73.981135368,15.25472842,0.0 73.98014081,15.254786935,0.0 73.979416455,15.254778498,0.0 73.979425071,15.254856634,0.0 73.979422194,15.254883144,0.0 73.979127556,15.254968229,0.0 73.978562703,15.255234672,0.0 73.978256565,15.255335103,0.0 73.978076907,15.255390896,0.0 73.977566685,15.255482934,0.0 73.977148449,15.25552754,0.0 73.976928549,15.255580538,0.0 73.976922795,15.255627977,0.0 73.976661209,15.25573399,0.0 73.976336393,15.255774419,0.0 73.976297592,15.255733952,0.0 73.976255914,15.255719995,0.0 73.976130868,15.255792536,0.0 73.976163917,15.255852536,0.0 73.97611504,15.255952991,0.0 73.976074806,15.255886013,0.0 73.976017318,15.255874845,0.0 73.975823288,15.255918078,0.0 73.975732737,15.255968298,0.0 73.975731304,15.255937601,0.0 73.975567449,15.256039439,0.0 73.974821466,15.256576536,0.0 73.974778333,15.256707687,0.0 73.974631722,15.256823478,0.0 73.974350015,15.256908557,0.0 73.974102797,15.257027127,0.0 73.973925998,15.257188958,0.0 73.973871385,15.257176394,0.0 73.973803826,15.257244755,0.0 73.973632029,15.257631225,0.0 73.973634874,15.257871212,0.0 73.973811609,15.258227028,0.0 73.973676474,15.258508857,0.0 73.973370334,15.258567422,0.0 73.973374638,15.258628815,0.0 73.972953495,15.258874332,0.0 73.972664602,15.258934294,0.0 73.972545302,15.259002648,0.0 73.972329673,15.25933051,0.0 73.972344002,15.259662587,0.0 73.971928641,15.259633234,0.0 73.971751861,15.259620655,0.0 73.971668468,15.259864817,0.0 73.971576459,15.260053167,0.0 73.971531904,15.260055952,0.0 73.97103179,15.259693117,0.0 73.970557561,15.259240987,0.0 73.969922346,15.258911618,0.0 73.96873238,15.258431482,0.0 73.967795367,15.257993234,0.0 73.967223379,15.257786651,0.0 73.966757737,15.257647055,0.0 73.966113897,15.257393019,0.0 73.965892462,15.258018067,0.0 73.965455551,15.25796498,0.0 73.965041618,15.258015146,0.0 73.964535715,15.257989952,0.0 73.964360369,15.258009458,0.0 73.963618562,15.259133928,0.0 73.963388547,15.259454803,0.0 73.963319474,15.259948718,0.0 73.963356833,15.260001744,0.0 73.964164521,15.260272558,0.0 73.963632641,15.260838953,0.0 73.963336604,15.260618451,0.0 73.962707116,15.260456496,0.0 73.962316208,15.260316903,0.0 73.962025898,15.260230348,0.0 73.961885038,15.260286135,0.0 73.961839034,15.260350309,0.0 73.961793016,15.260492619,0.0 73.961953895,15.261014478,0.0 73.962054504,15.261008914,0.0 73.96205734,15.261218205,0.0 73.962111928,15.261374485,0.0 73.962399325,15.261684284,0.0 73.962514254,15.26197731,0.0 73.962839052,15.26211131,0.0 73.962448044,15.262518664,0.0 73.962123171,15.262800455,0.0 73.961795366,15.263391994,0.0 73.960949938,15.265077336,0.0 73.960791843,15.265046613,0.0 73.960857986,15.264893145,0.0 73.960895357,15.264884779,0.0 73.961007511,15.264639231,0.0 73.961019056,15.264385294,0.0 73.961024854,15.264120193,0.0 73.960846666,15.263933196,0.0 73.960513212,15.263966624,0.0 73.96046444,15.263455946,0.0 73.960323642,15.263160124,0.0 73.960077881,15.263094502,0.0 73.959869467,15.263150276,0.0 73.95971711,15.263178154,0.0 73.959283776,15.263164821,0.0 73.959228435,15.263192716,0.0 73.959182528,15.262749709,0.0 73.95920412,15.262578792,0.0 73.959325608,15.26237929,0.0 73.959396057,15.262260705,0.0 73.95941335,15.262022117,0.0 73.959416296,15.261646789,0.0 73.959367491,15.261324472,0.0 73.959182087,15.261311881,0.0 73.959059931,15.261258839,0.0 73.959064275,15.261092802,0.0 73.959174952,15.261049569,0.0 73.959172093,15.260968643,0.0 73.958758249,15.260526266,0.0 73.958436302,15.260538764,0.0 73.958413319,15.260473182,0.0 73.95817617,15.260485695,0.0 73.958114288,15.260887522,0.0 73.958094124,15.261103785,0.0 73.958650335,15.261140165,0.0 73.958640189,15.261574093,0.0 73.958007802,15.261540489,0.0 73.957848109,15.262327392,0.0 73.957290507,15.262042651,0.0 73.956842097,15.26196164,0.0 73.956672479,15.262067648,0.0 73.956637933,15.262315999,0.0 73.956635019,15.262511337,0.0 73.956824645,15.262966232,0.0 73.957166651,15.263284419,0.0 73.957488572,15.263421217,0.0 73.957658168,15.263435202,0.0 73.957747252,15.263566374,0.0 73.958187051,15.263602734,0.0 73.958054709,15.264169189,0.0 73.957594763,15.264252819,0.0 73.957712686,15.263923557,0.0 73.957715584,15.263809146,0.0 73.957362041,15.263672342,0.0 73.957232718,15.263518838,0.0 73.956896457,15.263220185,0.0 73.956879221,15.26316158,0.0 73.95665504,15.262999686,0.0 73.95651993,15.263033146,0.0 73.956459555,15.263080574,0.0 73.956327325,15.263083338,0.0 73.95629572,15.263013569,0.0 73.956292872,15.262885203,0.0 73.956336043,15.262628482,0.0 73.956218218,15.26248056,0.0 73.95606876,15.262391233,0.0 73.955881921,15.262366082,0.0 73.955827297,15.262405138,0.0 73.955585841,15.262379976,0.0 73.955450728,15.262430179,0.0 73.955364482,15.26247481,0.0 73.955327079,15.262639445,0.0 73.955424664,15.263345472,0.0 73.955447572,15.263764058,0.0 73.955536667,15.263842211,0.0 73.955712007,15.263875732,0.0 73.956255273,15.263995832,0.0 73.956789899,15.264194064,0.0 73.956557033,15.264325175,0.0 73.956404664,15.264408861,0.0 73.956352889,15.264570703,0.0 73.956344183,15.264969749,0.0 73.955829648,15.264908256,0.0 73.95527485,15.264941632,0.0 73.955116759,15.264891371,0.0 73.954242906,15.264824221,0.0 73.954064661,15.264921854,0.0 73.953923666,15.265570626,0.0 73.954323221,15.265622333,0.0 73.954275747,15.265820452,0.0 73.954222567,15.265824627,0.0 73.954166473,15.266007396,0.0 73.953817229,15.265926398,0.0 73.953456482,15.265869118,0.0 73.953373098,15.265965374,0.0 73.953305495,15.266189998,0.0 73.953255142,15.266409046,0.0 73.953408795,15.267032764,0.0 73.953296669,15.26710669,0.0 73.953086862,15.266933632,0.0 73.95239153,15.26551589,0.0 73.952210547,15.265005183,0.0 73.952052544,15.264572615,0.0 73.951679115,15.26341725,0.0 73.951308464,15.2627,0.0 73.950811297,15.262152945,0.0 73.950446277,15.261960317,0.0 73.949831245,15.261469045,0.0 73.949391508,15.261198264,0.0 73.948575233,15.260838098,0.0 73.94779344,15.260539329,0.0 73.946931146,15.260310302,0.0 73.946505781,15.260064633,0.0 73.94621843,15.259676679,0.0 73.94625598,15.258965099,0.0 73.946488862,15.258772607,0.0 73.946635473,15.258722412,0.0 73.947302362,15.258686293,0.0 73.947966394,15.258577617,0.0 73.948262505,15.258413043,0.0 73.948538528,15.258114519,0.0 73.948607559,15.257933149,0.0 73.948512822,15.257439201,0.0 73.948495621,15.257252231,0.0 73.948225511,15.256886607,0.0 73.94795246,15.256797247,0.0 73.947665064,15.256596261,0.0 73.947369064,15.256319927,0.0 73.947070248,15.255814769,0.0 73.946886447,15.255164528,0.0 73.946716943,15.25481567,0.0 73.946671018,15.254553348,0.0 73.946360801,15.253682624,0.0 73.946038975,15.253258384,0.0 73.946021744,15.253199778,0.0 73.946133842,15.253216548,0.0 73.946082205,15.252814698,0.0 73.945743079,15.252605325,0.0 73.94537521,15.252395945,0.0 73.944780266,15.252183718,0.0 73.944239967,15.2518543,0.0 73.94413078,15.251703583,0.0 73.943995692,15.251672853,0.0 73.943501358,15.251446695,0.0 73.943259934,15.251354546,0.0 73.943133456,15.251374048,0.0 73.942998371,15.251332156,0.0 73.942633401,15.251053008,0.0 73.94248688,15.250785078,0.0 73.942535844,15.250419529,0.0 73.942688267,15.25012098,0.0 73.943021806,15.249702483,0.0 73.94327196,15.249384424,0.0 73.943683084,15.249044081,0.0 73.944534049,15.248441535,0.0 73.944792782,15.248279747,0.0 73.945221169,15.247852899,0.0 73.945640975,15.247258614,0.0 73.945712904,15.246982368,0.0 73.946152844,15.246321114,0.0 73.946239188,15.245869066,0.0 73.946408952,15.245160308,0.0 73.946363115,15.244560329,0.0 73.946274047,15.244423571,0.0 73.946317201,15.244267311,0.0 73.946294282,15.243968717,0.0 73.945992624,15.243413325,0.0 73.945610518,15.242746292,0.0 73.945981627,15.241457149,0.0 73.94644885,15.24083148,0.0</coordinates>
                    </LinearRing>
                </outerBoundaryIs>
            </Polygon>
        </Placemark>
    </Document>
</kml>
