<?xml version="1.0" encoding="UTF-8"?>
<kml xmlns="http://www.opengis.net/kml/2.2" xmlns:gx="http://www.google.com/kml/ext/2.2">
    <Document id="3691">
        <Placemark id="3693">
            <ExtendedData>
                <Data name="id">
                    <value>90</value>
                </Data>
                <Data name="taluka">
                    <value>Salcete</value>
                </Data>
                <Data name="village">
                    <value>Nuvem</value>
                </Data>
                <Data name="lg_code">
                    <value>626924</value>
                </Data>
                <Data name="dslr_code">
                    <value>00023000</value>
                </Data>
            </ExtendedData>
            <Polygon id="3692">
                <outerBoundaryIs>
                    <LinearRing id="3696">
                        <coordinates>73.933449181,15.298928864,0.0 73.933958765,15.299012233,0.0 73.93453113,15.299053929,0.0 73.934519759,15.300031878,0.0 73.934864694,15.300088735,0.0 73.935751671,15.299872677,0.0 73.937066974,15.299713476,0.0 73.938314048,15.299827191,0.0 73.93878407,15.29967178,0.0 73.939420874,15.29974759,0.0 73.939523218,15.300058411,0.0 73.939644514,15.300513271,0.0 73.940304061,15.301752765,0.0 73.940341966,15.301953661,0.0 73.940474633,15.302109071,0.0 73.940467052,15.302264482,0.0 73.940811987,15.302355454,0.0 73.940861264,15.302643532,0.0 73.940974979,15.302613208,0.0 73.941141761,15.303333403,0.0 73.941111437,15.303564623,0.0 73.941232733,15.304622173,0.0 73.941384353,15.304720725,0.0 73.941933975,15.304663868,0.0 73.942316816,15.304406114,0.0 73.942441902,15.304034645,0.0 73.942453274,15.303663176,0.0 73.942309235,15.303041534,0.0 73.942476017,15.302381987,0.0 73.942874019,15.301301695,0.0 73.942733771,15.300619405,0.0 73.942601103,15.300441252,0.0 73.942081805,15.300119059,0.0 73.94197188,15.299982601,0.0 73.941926394,15.299785495,0.0 73.942032528,15.299436769,0.0 73.942593522,15.298826499,0.0 73.942999106,15.298564955,0.0 73.943635909,15.298284458,0.0 73.943954311,15.298148,0.0 73.944037702,15.297689349,0.0 73.943605585,15.297473291,0.0 73.943461547,15.297211746,0.0 73.943465337,15.297022221,0.0 73.943620747,15.29663559,0.0 73.943886082,15.296457437,0.0 73.94462523,15.29633235,0.0 73.944656199,15.296195612,0.0 73.944765478,15.29617315,0.0 73.945038394,15.296207264,0.0 73.945280986,15.296379732,0.0 73.945237395,15.29644038,0.0 73.945135052,15.296400579,0.0 73.945138842,15.296561676,0.0 73.945167271,15.296681076,0.0 73.945777542,15.296664019,0.0 73.945984124,15.296260331,0.0 73.946067515,15.295905919,0.0 73.946160382,15.295562879,0.0 73.946004972,15.294895751,0.0 73.945844823,15.294691064,0.0 73.945760484,15.294515754,0.0 73.945424078,15.294405829,0.0 73.945314153,15.294095008,0.0 73.945223181,15.294095956,0.0 73.94487256,15.293516957,0.0 73.944863084,15.293154964,0.0 73.945035551,15.292955963,0.0 73.945835347,15.292607237,0.0 73.945979386,15.292345693,0.0 73.945954747,15.29217512,0.0 73.946068462,15.291743003,0.0 73.946273149,15.291506097,0.0 73.946538484,15.291386696,0.0 73.946832248,15.291420811,0.0 73.947393242,15.291964748,0.0 73.94790875,15.291890833,0.0 73.948223361,15.29179607,0.0 73.948257476,15.291932528,0.0 73.948236628,15.292014024,0.0 73.948814679,15.293297108,0.0 73.949159615,15.293469576,0.0 73.949339663,15.293757654,0.0 73.949347244,15.29490428,0.0 73.949373778,15.294961137,0.0 73.949642903,15.295010414,0.0 73.950251278,15.295014204,0.0 73.950245593,15.29608502,0.0 73.950203897,15.296471651,0.0 73.950063649,15.296920825,0.0 73.950042801,15.297244913,0.0 73.949970781,15.297857079,0.0 73.950031429,15.298617074,0.0 73.950256964,15.299877415,0.0 73.95029866,15.300023349,0.0 73.950377313,15.30006694,0.0 73.950491975,15.30008684,0.0 73.950559257,15.300209084,0.0 73.950530828,15.300606138,0.0 73.950165992,15.301031622,0.0 73.950135668,15.301111223,0.0 73.950285393,15.301533863,0.0 73.950152725,15.302017152,0.0 73.950116716,15.302443583,0.0 73.950033325,15.302661537,0.0 73.950054172,15.303237693,0.0 73.950097763,15.303503028,0.0 73.950054172,15.304317985,0.0 73.950200107,15.304598482,0.0 73.950304345,15.304596587,0.0 73.950285393,15.304232699,0.0 73.95056968,15.303273702,0.0 73.950662548,15.302940138,0.0 73.950636014,15.302693756,0.0 73.95037447,15.302369668,0.0 73.950347936,15.301842789,0.0 73.950401003,15.301717702,0.0 73.950457861,15.301732864,0.0 73.950584842,15.301505434,0.0 73.950603795,15.301304538,0.0 73.950543147,15.301224937,0.0 73.950783844,15.300711325,0.0 73.951073817,15.30025457,0.0 73.951223542,15.30014654,0.0 73.951414962,15.30017876,0.0 73.951397904,15.300307637,0.0 73.951274713,15.300629829,0.0 73.951265237,15.300840202,0.0 73.951348628,15.300989927,0.0 73.951958898,15.301742341,0.0 73.952148423,15.301802989,0.0 73.952872409,15.301742341,0.0 73.95337465,15.301820046,0.0 73.953461831,15.301799198,0.0 73.953549013,15.301842789,0.0 73.953759386,15.301761293,0.0 73.953871205,15.301639997,0.0 73.953964073,15.301234414,0.0 73.953825719,15.30098045,0.0 73.953816243,15.300889478,0.0 73.953916691,15.300747335,0.0 73.95409674,15.300726487,0.0 73.954674791,15.300815564,0.0 73.954864316,15.300739754,0.0 73.954909802,15.30101646,0.0 73.954943917,15.301018355,0.0 73.954985612,15.300953917,0.0 73.955051946,15.30098045,0.0 73.955087956,15.301082794,0.0 73.95516187,15.301177556,0.0 73.955243366,15.301234414,0.0 73.955470796,15.301124489,0.0 73.955491644,15.301014565,0.0 73.955249052,15.300819354,0.0 73.955129651,15.30063362,0.0 73.955067108,15.300432723,0.0 73.955103118,15.300319008,0.0 73.955302119,15.300421352,0.0 73.955859322,15.300853469,0.0 73.956247848,15.300912221,0.0 73.95637104,15.300754916,0.0 73.956465802,15.300751125,0.0 73.956581412,15.300665839,0.0 73.956666699,15.300303846,0.0 73.956723556,15.300309532,0.0 73.956786099,15.300123797,0.0 73.956996472,15.300040406,0.0 73.957104501,15.30002714,0.0 73.957159463,15.299987339,0.0 73.957265597,15.299960806,0.0 73.958076764,15.300214769,0.0 73.958055917,15.300260255,0.0 73.958721149,15.300705639,0.0 73.959373115,15.301022146,0.0 73.959604336,15.301185137,0.0 73.95971426,15.301314014,0.0 73.959917052,15.301710121,0.0 73.960140691,15.301802989,0.0 73.960189968,15.301903437,0.0 73.960231663,15.302011466,0.0 73.960555751,15.302240791,0.0 73.960658094,15.30238104,0.0 73.960614504,15.302454955,0.0 73.960516898,15.302427473,0.0 73.96020892,15.302645427,0.0 73.960094258,15.302730713,0.0 73.959930318,15.303039639,0.0 73.959378801,15.303507766,0.0 73.95986588,15.303915244,0.0 73.959899047,15.303995792,0.0 73.95973416,15.304241227,0.0 73.959657403,15.304329356,0.0 73.959620445,15.304516039,0.0 73.959505783,15.304613644,0.0 73.959356058,15.304673344,0.0 73.95933142,15.304725464,0.0 73.959318153,15.305195486,0.0 73.959366482,15.305299724,0.0 73.959433763,15.305598226,0.0 73.959409125,15.305775432,0.0 73.959512416,15.306151639,0.0 73.959555059,15.306438769,0.0 73.959665931,15.306587546,0.0 73.95973416,15.306834876,0.0 73.959859247,15.307273627,0.0 73.959855456,15.307522852,0.0 73.959489673,15.307932226,0.0 73.959438501,15.30818998,0.0 73.959375958,15.308239256,0.0 73.9591997,15.308298009,0.0 73.959256557,15.308631573,0.0 73.959258452,15.308771822,0.0 73.959358901,15.308985985,0.0 73.959468825,15.308999252,0.0 73.959637502,15.309205834,0.0 73.959787227,15.309652165,0.0 73.959891466,15.309625632,0.0 73.959946428,15.309985729,0.0 73.959974857,15.310353407,0.0 73.959972962,15.311056545,0.0 73.959929371,15.311636492,0.0 73.960137848,15.312493144,0.0 73.960117001,15.312974538,0.0 73.960175753,15.313139424,0.0 73.959859247,15.313285359,0.0 73.960429717,15.314092735,0.0 73.960979339,15.314346699,0.0 73.961104426,15.314450937,0.0 73.961572552,15.314515376,0.0 73.961892849,15.314496423,0.0 73.96227569,15.314284155,0.0 73.9624311,15.314284155,0.0 73.962923865,15.314522957,0.0 73.963338925,15.314610138,0.0 73.963500021,15.314723853,0.0 73.963839271,15.31549901,0.0 73.963922662,15.31557103,0.0 73.96402311,15.315823098,0.0 73.963916976,15.315991775,0.0 73.964053434,15.316421997,0.0 73.964690238,15.317096706,0.0 73.964811534,15.317337403,0.0 73.964940411,15.317420793,0.0 73.965063602,15.317695605,0.0 73.965510881,15.318175103,0.0 73.964887344,15.31860722,0.0 73.964426798,15.319079137,0.0 73.965912674,15.320417183,0.0 73.965287242,15.320853091,0.0 73.964984002,15.320765909,0.0 73.964017424,15.322448891,0.0 73.962501225,15.323563298,0.0 73.961811354,15.324222845,0.0 73.9616332,15.326061237,0.0 73.961606667,15.327243873,0.0 73.961716591,15.327266615,0.0 73.962482272,15.328301422,0.0 73.964032586,15.331011629,0.0 73.964187997,15.331390679,0.0 73.964332036,15.332266284,0.0 73.963861421,15.33286443,0.0 73.962007225,15.332076494,0.0 73.960454874,15.331951052,0.0 73.960156949,15.332276418,0.0 73.959988385,15.332644905,0.0 73.959776701,15.332844829,0.0 73.959078928,15.333138835,0.0 73.95818515,15.333734687,0.0 73.957726501,15.33342108,0.0 73.957330573,15.333464201,0.0 73.956597519,15.333287798,0.0 73.956052629,15.332966352,0.0 73.95561358,15.333072194,0.0 73.955237253,15.33238618,0.0 73.954639057,15.331868224,0.0 73.954431292,15.331601658,0.0 73.954433637,15.331296399,0.0 73.954304274,15.331151356,0.0 73.953716263,15.331300319,0.0 73.953688822,15.331018073,0.0 73.95356338,15.330743668,0.0 73.95305377,15.330375181,0.0 73.952924407,15.330018454,0.0 73.952763684,15.329971413,0.0 73.952857766,15.329159957,0.0 73.952661762,15.328607226,0.0 73.951830706,15.328881632,0.0 73.951728784,15.329058035,0.0 73.950933009,15.32979893,0.0 73.950329317,15.329994933,0.0 73.949898108,15.330437902,0.0 73.949106253,15.330739748,0.0 73.948432,15.330669187,0.0 73.948298717,15.330873031,0.0 73.948118394,15.330880871,0.0 73.946213236,15.329018834,0.0 73.945793788,15.328885552,0.0 73.944653046,15.329187398,0.0 73.943614226,15.329112916,0.0 73.94078393,15.32931676,0.0 73.940003835,15.32980285,0.0 73.939658868,15.329410842,0.0 73.939709829,15.328760109,0.0 73.936816813,15.326800071,0.0 73.936048478,15.325925894,0.0 73.934917536,15.324645989,0.0 73.934694091,15.324540147,0.0 73.934586289,15.324412744,0.0 73.934253083,15.32418342,0.0 73.934162921,15.324420585,0.0 73.933976717,15.324549947,0.0 73.933698392,15.324549947,0.0 73.933196622,15.324610708,0.0 73.932935937,15.32469695,0.0 73.932375366,15.325075237,0.0 73.932289124,15.324994876,0.0 73.931755994,15.325355523,0.0 73.93156587,15.325418244,0.0 73.931411027,15.325533886,0.0 73.931275785,15.325816132,0.0 73.931132702,15.325976855,0.0 73.930705413,15.326357102,0.0 73.930431008,15.326462945,0.0 73.930209524,15.326457064,0.0 73.929748915,15.326367883,0.0 73.929626412,15.326135618,0.0 73.929546051,15.326020956,0.0 73.929420608,15.325609348,0.0 73.929254005,15.325595628,0.0 73.928768858,15.325845234,0.0 73.928944571,15.325412498,0.0 73.928924504,15.324923102,0.0 73.930128561,15.323190435,0.0 73.930686539,15.322156708,0.0 73.931212213,15.321090677,0.0 73.931491202,15.320817561,0.0 73.931502949,15.320365306,0.0 73.93176138,15.319334515,0.0 73.931952267,15.319208236,0.0 73.932078547,15.318565093,0.0 73.932140273,15.318150465,0.0 73.932155435,15.317619795,0.0 73.932263464,15.31697541,0.0 73.932363912,15.31682379,0.0 73.932382865,15.316694913,0.0 73.932299474,15.316035366,0.0 73.93234875,15.314663205,0.0 73.932447303,15.314378918,0.0 73.932511742,15.313541217,0.0 73.932634933,15.312409753,0.0 73.932672838,15.311848759,0.0 73.932689895,15.311431805,0.0 73.932905954,15.311395795,0.0 73.933059469,15.311297242,0.0 73.933518119,15.311292504,0.0 73.933826097,15.311349361,0.0 73.933918964,15.311400533,0.0 73.934051632,15.311395795,0.0 73.934085746,15.311316194,0.0 73.934199461,15.311338937,0.0 73.934660007,15.311213851,0.0 73.935042847,15.311198689,0.0 73.935219106,15.311126669,0.0 73.935243744,15.311079288,0.0 73.935582994,15.311001583,0.0 73.935651223,15.310683181,0.0 73.93570808,15.310641485,0.0 73.935700499,15.310304131,0.0 73.935727033,15.310072911,0.0 73.935821795,15.309826528,0.0 73.935852119,15.309604784,0.0 73.935833167,15.309371668,0.0 73.935763042,15.309149924,0.0 73.93513761,15.309157505,0.0 73.934262005,15.309312915,0.0 73.933799564,15.309290172,0.0 73.933746497,15.308649578,0.0 73.933056626,15.308835313,0.0 73.932651042,15.308865637,0.0 73.930676192,15.309127181,0.0 73.93054542,15.308010879,0.0 73.930007169,15.307986241,0.0 73.929440489,15.307842202,0.0 73.929338146,15.307730382,0.0 73.929347622,15.307436618,0.0 73.92940827,15.307235722,0.0 73.929353308,15.307059464,0.0 73.929385527,15.306597023,0.0 73.928314711,15.306633032,0.0 73.928259749,15.306259668,0.0 73.928295759,15.306032238,0.0 73.928252168,15.306039819,0.0 73.92822753,15.305844609,0.0 73.927962195,15.305874933,0.0 73.92682694,15.305782065,0.0 73.926815569,15.305338577,0.0 73.926840207,15.30502207,0.0 73.927133971,15.305025861,0.0 73.927135866,15.305073242,0.0 73.927596412,15.305075137,0.0 73.927537659,15.304174894,0.0 73.927514916,15.304146465,0.0 73.927497859,15.303973997,0.0 73.927571773,15.30395694,0.0 73.927454347,15.30311076,0.0 73.928135667,15.302969798,0.0 73.928176129,15.30301287,0.0 73.928341891,15.302944999,0.0 73.928490685,15.303190378,0.0 73.92855725,15.303189073,0.0 73.92870735,15.303357445,0.0 73.928801325,15.303516681,0.0 73.929128933,15.303129033,0.0 73.930405429,15.302382453,0.0 73.930582938,15.302515584,0.0 73.933449181,15.298928864,0.0</coordinates>
                    </LinearRing>
                </outerBoundaryIs>
            </Polygon>
        </Placemark>
    </Document>
</kml>
