<?xml version="1.0" encoding="UTF-8"?>
<kml xmlns="http://www.opengis.net/kml/2.2" xmlns:gx="http://www.google.com/kml/ext/2.2">
    <Document id="3733">
        <Placemark id="3735">
            <ExtendedData>
                <Data name="id">
                    <value>368</value>
                </Data>
                <Data name="taluka">
                    <value>Salcete</value>
                </Data>
                <Data name="village">
                    <value>Rachol</value>
                </Data>
                <Data name="lg_code">
                    <value>626901</value>
                </Data>
                <Data name="dslr_code">
                    <value>00024200</value>
                </Data>
            </ExtendedData>
            <Polygon id="3734">
                <outerBoundaryIs>
                    <LinearRing id="3738">
                        <coordinates>73.998571024,15.328797653,0.0 73.998514733,15.328092889,0.0 73.998644214,15.327770556,0.0 73.998649846,15.32742637,0.0 73.998903177,15.326508539,0.0 73.99913962,15.325306618,0.0 73.999764487,15.324519906,0.0 74.000333055,15.322902774,0.0 74.000248614,15.322602293,0.0 74.000400604,15.321602512,0.0 74.000282388,15.321127206,0.0 74.000389344,15.32070107,0.0 74.000546964,15.320362345,0.0 74.000620144,15.319990842,0.0 74.000873459,15.31934071,0.0 74.001025448,15.319045692,0.0 74.001059221,15.318685114,0.0 74.001318165,15.318417412,0.0 74.00133505,15.317942106,0.0 74.001447632,15.317619771,0.0 74.001796642,15.317368457,0.0 74.001959887,15.317100755,0.0 74.002083729,15.317051584,0.0 74.00274796,15.31590975,0.0 74.003018159,15.315773164,0.0 74.004290319,15.314150546,0.0 74.004324089,15.313899234,0.0 74.00429594,15.313740799,0.0 74.003901903,15.313844609,0.0 74.002286342,15.313484054,0.0 74.002190648,15.313615174,0.0 74.001667138,15.313276455,0.0 74.001605217,15.313178116,0.0 74.000887504,15.312768373,0.0 74.000682042,15.312719204,0.0 74.000575089,15.312631792,0.0 74.000575088,15.312295799,0.0 74.000631379,15.312170144,0.0 74.000606047,15.311752202,0.0 74.000524425,15.311642936,0.0 74.000417471,15.310763347,0.0 74.000501906,15.310629496,0.0 74.000420285,15.310378185,0.0 74.000234527,15.310282577,0.0 73.99992493,15.309853709,0.0 73.999736359,15.309635177,0.0 74.000324589,15.308897633,0.0 74.000383693,15.308515202,0.0 74.000521603,15.308501543,0.0 74.000499085,15.307900581,0.0 74.000867782,15.30770117,0.0 74.001047909,15.30785141,0.0 74.00177404,15.307217663,0.0 74.001729007,15.307132983,0.0 74.001745893,15.307010058,0.0 74.00186973,15.307061959,0.0 74.001911948,15.307152103,0.0 74.002759102,15.306977268,0.0 74.002750657,15.306859808,0.0 74.003623141,15.306796967,0.0 74.003634397,15.306687701,0.0 74.004580054,15.30656476,0.0 74.004653228,15.306469151,0.0 74.004878385,15.306466414,0.0 74.005455336,15.305941925,0.0 74.00614206,15.305835373,0.0 74.006277152,15.305767078,0.0 74.006367217,15.305868146,0.0 74.006997657,15.30592276,0.0 74.007653434,15.306182245,0.0 74.008458341,15.305477451,0.0 74.008618749,15.305100478,0.0 74.008345744,15.304999417,0.0 74.008328852,15.304851909,0.0 74.008725683,15.304723506,0.0 74.009212571,15.30449676,0.0 74.00949964,15.304439384,0.0 74.009398748,15.306604231,0.0 74.009903581,15.307096039,0.0 74.010785874,15.307413574,0.0 74.011299447,15.30813755,0.0 74.011286278,15.309280666,0.0 74.011154593,15.309991935,0.0 74.008968615,15.313319626,0.0 74.008059985,15.315161264,0.0 74.007243535,15.317142595,0.0 74.006782636,15.319543028,0.0 74.006216389,15.321346509,0.0 74.006150546,15.322629258,0.0 74.005702816,15.324102504,0.0 74.00449131,15.327620473,0.0 74.003450995,15.33144318,0.0 74.003325893,15.33151303,0.0 74.002522612,15.331516204,0.0 74.00222632,15.331341581,0.0 74.001801634,15.330963758,0.0 74.001396702,15.33034781,0.0 74.00086996,15.32979536,0.0 74.000550623,15.329474685,0.0 74.000214825,15.329455635,0.0 73.999556398,15.329160359,0.0 73.998934184,15.328960333,0.0 73.998766285,15.328798407,0.0 73.998571024,15.328797653,0.0</coordinates>
                    </LinearRing>
                </outerBoundaryIs>
            </Polygon>
        </Placemark>
    </Document>
</kml>
