<?xml version="1.0" encoding="UTF-8"?>
<kml xmlns="http://www.opengis.net/kml/2.2" xmlns:gx="http://www.google.com/kml/ext/2.2">
    <Document id="3761">
        <Placemark id="3763">
            <ExtendedData>
                <Data name="id">
                    <value>340</value>
                </Data>
                <Data name="taluka">
                    <value>Salcete</value>
                </Data>
                <Data name="village">
                    <value>Sao-Jose-de-Areal</value>
                </Data>
                <Data name="lg_code">
                    <value>626927</value>
                </Data>
                <Data name="dslr_code">
                    <value>40210000</value>
                </Data>
            </ExtendedData>
            <Polygon id="3762">
                <outerBoundaryIs>
                    <LinearRing id="3766">
                        <coordinates>74.00924549,15.232449193,0.0 74.00937092,15.232459778,0.0 74.009981744,15.233158679,0.0 74.010636195,15.233762269,0.0 74.011541517,15.234445267,0.0 74.012305057,15.235212988,0.0 74.013161284,15.23551475,0.0 74.013433977,15.235753004,0.0 74.013739381,15.235805935,0.0 74.013913918,15.236155388,0.0 74.013903026,15.236377775,0.0 74.014104829,15.236690162,0.0 74.014028494,15.236923142,0.0 74.014044867,15.237103168,0.0 74.014224841,15.237171991,0.0 74.014432078,15.237166683,0.0 74.014606606,15.237357288,0.0 74.014661166,15.237696158,0.0 74.014606644,15.237897368,0.0 74.015201102,15.238082651,0.0 74.015501066,15.238267952,0.0 74.015675576,15.238183221,0.0 74.016139139,15.238241432,0.0 74.016313646,15.238114342,0.0 74.016515432,15.238140802,0.0 74.016624529,15.238442603,0.0 74.016935398,15.238585543,0.0 74.017573464,15.238463711,0.0 74.017851609,15.238569587,0.0 74.017927971,15.238701954,0.0 74.018336994,15.238701921,0.0 74.018702371,15.238495389,0.0 74.019220477,15.238606538,0.0 74.019754931,15.238569428,0.0 74.019869408,15.238045222,0.0 74.020136619,15.237870466,0.0 74.020387483,15.237843969,0.0 74.020949223,15.238002764,0.0 74.021429192,15.238495145,0.0 74.021560106,15.238759878,0.0 74.021696457,15.238855173,0.0 74.021789184,15.238998127,0.0 74.021827374,15.239135791,0.0 74.021947362,15.239209908,0.0 74.022290952,15.239294592,0.0 74.022912724,15.239797546,0.0 74.023392691,15.240194614,0.0 74.023894497,15.240782296,0.0 74.024407156,15.240877549,0.0 74.024756182,15.240782202,0.0 74.025225207,15.240845689,0.0 74.025514259,15.240888015,0.0 74.025956005,15.240856195,0.0 74.026435953,15.241030871,0.0 74.026806837,15.241284983,0.0 74.027139533,15.2414332,0.0 74.027515885,15.241787913,0.0 74.027772277,15.242290897,0.0 74.027805087,15.242963346,0.0 74.028017804,15.243116872,0.0 74.028524969,15.242857357,0.0 74.029152239,15.24349796,0.0 74.029010493,15.243873917,0.0 74.029784939,15.243942649,0.0 74.031022986,15.244201932,0.0 74.031475735,15.244768423,0.0 74.03109946,15.245022631,0.0 74.030843276,15.246023403,0.0 74.029550879,15.24718316,0.0 74.029125508,15.247405602,0.0 74.028798403,15.248337547,0.0 74.02726595,15.24905255,0.0 74.027271462,15.249502615,0.0 74.027571566,15.250561559,0.0 74.027549835,15.251212834,0.0 74.02710814,15.251805917,0.0 74.02721196,15.253320245,0.0 74.026901139,15.253780939,0.0 74.026006731,15.254220521,0.0 74.024910644,15.255713807,0.0 74.025030969,15.258541268,0.0 74.025521952,15.259441345,0.0 74.027556558,15.260944855,0.0 74.029427337,15.260812245,0.0 74.030414587,15.261060973,0.0 74.030878438,15.262718212,0.0 74.031063908,15.262887623,0.0 74.031107586,15.263184131,0.0 74.031943944,15.266020722,0.0 74.030968463,15.266100987,0.0 74.029036245,15.266166805,0.0 74.028649798,15.266159571,0.0 74.026826367,15.266090594,0.0 74.02390734,15.265650217,0.0 74.023768557,15.265978031,0.0 74.022763051,15.265996346,0.0 74.020860813,15.265719724,0.0 74.020436899,15.266236956,0.0 74.019112494,15.266408257,0.0 74.018260821,15.266517594,0.0 74.018043217,15.26659774,0.0 74.017078992,15.266783569,0.0 74.016891396,15.266779941,0.0 74.016598741,15.266699834,0.0 74.015810838,15.266663469,0.0 74.015878353,15.266408509,0.0 74.015172988,15.266306576,0.0 74.014017409,15.266415918,0.0 74.013679748,15.266579838,0.0 74.013300816,15.26674376,0.0 74.012681775,15.267140797,0.0 74.011687542,15.267596127,0.0 74.012783205,15.269264198,0.0 74.012573103,15.269384403,0.0 74.012666947,15.270138335,0.0 74.007050295,15.271548116,0.0 74.006975326,15.273682452,0.0 74.006967834,15.274057599,0.0 74.007045424,15.275478057,0.0 74.005094361,15.2759346,0.0 74.00570473,15.2771268,0.0 74.005799796,15.277602713,0.0 74.005729758,15.277619711,0.0 74.004081336,15.277748439,0.0 74.002245312,15.278282655,0.0 74.002275329,15.278331217,0.0 74.002082722,15.278442913,0.0 74.001745032,15.278520617,0.0 74.001695003,15.278433204,0.0 74.000449301,15.278828996,0.0 74.000114111,15.27903296,0.0 73.999999046,15.278848422,0.0 73.999924003,15.278894556,0.0 73.999823947,15.278688165,0.0 73.999608827,15.277913589,0.0 73.997662727,15.278476905,0.0 73.997047378,15.278612873,0.0 73.996512075,15.278612865,0.0 73.99618189,15.278515735,0.0 73.99484614,15.278336026,0.0 73.994761086,15.278598262,0.0 73.99384556,15.278884759,0.0 73.993425313,15.279190693,0.0 73.992124549,15.279870529,0.0 73.992017597,15.27963606,0.0 73.992512031,15.278968865,0.0 73.99339837,15.278275344,0.0 73.993564195,15.27767837,0.0 73.994338991,15.276695131,0.0 73.99496907,15.275995744,0.0 73.995140918,15.275439738,0.0 73.995189153,15.275381212,0.0 73.995288638,15.275302202,0.0 73.995400183,15.275150033,0.0 73.995454448,15.275047611,0.0 73.996054372,15.274409674,0.0 73.996244306,15.273683938,0.0 73.996563857,15.273493729,0.0 73.997139655,15.272949433,0.0 73.996874381,15.272203205,0.0 73.997597883,15.272138834,0.0 73.997658176,15.272013001,0.0 73.997594875,15.271527223,0.0 73.997640098,15.271193617,0.0 73.997615985,15.270862937,0.0 73.997477321,15.270301072,0.0 73.997567762,15.270014289,0.0 73.997534603,15.269908939,0.0 73.997426082,15.269601669,0.0 73.997495419,15.269443646,0.0 73.997495421,15.269256359,0.0 73.997573801,15.269080777,0.0 73.997697399,15.268946165,0.0 73.997950625,15.268530623,0.0 73.997887326,15.267916085,0.0 73.997706458,15.267521023,0.0 73.997504488,15.267295691,0.0 73.997163847,15.26729276,0.0 73.996992021,15.26723423,0.0 73.996992025,15.266909403,0.0 73.99693174,15.266590428,0.0 73.996838294,15.266309495,0.0 73.99676595,15.266019783,0.0 73.99685036,15.26577397,0.0 73.996937785,15.265463775,0.0 73.997001093,15.265220887,0.0 73.996979996,15.264931176,0.0 73.996916704,15.26409716,0.0 73.996753929,15.263646496,0.0 73.996681587,15.2633363,0.0 73.996609245,15.263014398,0.0 73.996832314,15.263072929,0.0 73.996838347,15.262751028,0.0 73.996633371,15.262317922,0.0 73.996699693,15.262054549,0.0 73.996319875,15.261990163,0.0 73.996078721,15.261890662,0.0 73.99584963,15.261557052,0.0 73.996001409,15.261778079,0.0 73.996335215,15.261710307,0.0 73.996907914,15.261474693,0.0 73.99700882,15.261297315,0.0 73.997289713,15.261225838,0.0 73.997480611,15.261249667,0.0 73.997668781,15.261334387,0.0 73.998075121,15.261337039,0.0 73.998402377,15.261157015,0.0 73.998647819,15.260789021,0.0 73.998730997,15.260704303,0.0 73.999105974,15.260611644,0.0 73.999114156,15.260599731,0.0 73.999367776,15.260656652,0.0 73.999437317,15.260818146,0.0 73.999284598,15.261040532,0.0 73.999210966,15.26119276,0.0 73.999321414,15.261225853,0.0 73.999354139,15.261299982,0.0 73.999996375,15.260814176,0.0 74.000200908,15.260785054,0.0 74.000634518,15.260782406,0.0 74.000950862,15.260581198,0.0 74.001062672,15.260327043,0.0 74.001038127,15.260109952,0.0 74.001280837,15.259739308,0.0 74.001354464,15.259045676,0.0 74.001719888,15.258436761,0.0 74.001897147,15.25826997,0.0 74.002458924,15.258214368,0.0 74.002922522,15.25785431,0.0 74.002974332,15.257507493,0.0 74.003162493,15.257123611,0.0 74.003176126,15.256940936,0.0 74.003470642,15.256530578,0.0 74.003664257,15.25622347,0.0 74.003841514,15.256165224,0.0 74.003931504,15.255995785,0.0 74.003904232,15.255921657,0.0 74.003841509,15.255852825,0.0 74.003786952,15.254997699,0.0 74.003806038,15.254770018,0.0 74.003773309,15.254534396,0.0 74.00360696,15.254531751,0.0 74.002603417,15.254815042,0.0 74.002292537,15.254918296,0.0 74.002101645,15.254976542,0.0 74.002047105,15.255079793,0.0 74.001722588,15.255093033,0.0 74.001272627,15.255024202,0.0 74.001106277,15.25490242,0.0 74.001149909,15.254807112,0.0 74.001256262,15.254637675,0.0 74.001422612,15.254674738,0.0 74.001468971,15.254642968,0.0 74.001482606,15.254603256,0.0 74.00134898,15.254386166,0.0 74.000969923,15.254391463,0.0 74.000811755,15.254134661,0.0 74.000639952,15.254004937,0.0 74.000459968,15.253703128,0.0 74.000394519,15.253666064,0.0 74.000271803,15.253417204,0.0 74.000230898,15.253104805,0.0 74.000034553,15.25244559,0.0 73.999974559,15.252199377,0.0 73.999862752,15.2519161,0.0 73.999521879,15.251415731,0.0 73.999112833,15.250965664,0.0 73.999290087,15.250806817,0.0 73.999039206,15.250621495,0.0 73.99878287,15.250555307,0.0 73.998616526,15.250346158,0.0 73.998237478,15.250118474,0.0 73.997934785,15.250031106,0.0 73.997798438,15.249904027,0.0 73.997716629,15.249901379,0.0 73.997334856,15.249673694,0.0 73.9972885,15.249480429,0.0 73.99712761,15.249435421,0.0 73.997124884,15.249416888,0.0 73.997103069,15.249313638,0.0 73.996775836,15.249186556,0.0 73.99642133,15.249271269,0.0 73.996023192,15.24936657,0.0 73.996061381,15.248710003,0.0 73.99633136,15.248138158,0.0 73.994655506,15.244787209,0.0 73.993163281,15.243695816,0.0 73.993173103,15.243543312,0.0 73.993241828,15.243471828,0.0 73.993403829,15.243038152,0.0 73.993835827,15.241965874,0.0 73.996687816,15.239320952,0.0 73.99815552,15.236418637,0.0 74.001260229,15.233896214,0.0 74.00149473,15.233684416,0.0 74.002530898,15.233679112,0.0 74.003921538,15.233255499,0.0 74.003986976,15.233059586,0.0 74.004205111,15.232800132,0.0 74.004150573,15.23266776,0.0 74.004254189,15.232625399,0.0 74.004325079,15.232376537,0.0 74.005339432,15.232572427,0.0 74.005862962,15.232381797,0.0 74.006239255,15.232440031,0.0 74.006441022,15.232058791,0.0 74.006430109,15.231868175,0.0 74.007079068,15.231725193,0.0 74.007411733,15.231820491,0.0 74.00794076,15.232905929,0.0 74.008546108,15.233138883,0.0 74.008764226,15.232614678,0.0 74.008873276,15.232132837,0.0 74.00894242,15.232044497,0.0 74.00924549,15.232449193,0.0</coordinates>
                    </LinearRing>
                </outerBoundaryIs>
            </Polygon>
        </Placemark>
    </Document>
</kml>
