<?xml version="1.0" encoding="UTF-8"?>
<kml xmlns="http://www.opengis.net/kml/2.2" xmlns:gx="http://www.google.com/kml/ext/2.2">
    <Document id="3775">
        <Placemark id="3777">
            <ExtendedData>
                <Data name="id">
                    <value>339</value>
                </Data>
                <Data name="taluka">
                    <value>Salcete</value>
                </Data>
                <Data name="village">
                    <value>Sarzora</value>
                </Data>
                <Data name="lg_code">
                    <value>626914</value>
                </Data>
                <Data name="dslr_code">
                    <value>00025600</value>
                </Data>
            </ExtendedData>
            <Polygon id="3776">
                <outerBoundaryIs>
                    <LinearRing id="3780">
                        <coordinates>74.013693183,15.217158582,0.0 74.011817422,15.219001319,0.0 74.011032265,15.2208334,0.0 74.009352779,15.22301498,0.0 74.009843663,15.224984667,0.0 74.010759894,15.22652015,0.0 74.011261621,15.226890769,0.0 74.011076249,15.227695605,0.0 74.01011648,15.228172192,0.0 74.009789328,15.229273548,0.0 74.009075017,15.231259169,0.0 74.009080497,15.231868084,0.0 74.00894242,15.232044497,0.0 74.008873276,15.232132837,0.0 74.008764226,15.232614678,0.0 74.008546108,15.233138883,0.0 74.00794076,15.232905929,0.0 74.007411733,15.231820491,0.0 74.007079068,15.231725193,0.0 74.006430109,15.231868175,0.0 74.006441022,15.232058791,0.0 74.006239255,15.232440031,0.0 74.005862962,15.232381797,0.0 74.005339432,15.232572427,0.0 74.004325079,15.232376537,0.0 74.004254189,15.232625399,0.0 74.004150573,15.23266776,0.0 74.004205111,15.232800132,0.0 74.003986976,15.233059586,0.0 74.003921538,15.233255499,0.0 74.002530898,15.233679112,0.0 74.00149473,15.233684416,0.0 74.001260229,15.233896214,0.0 73.99815552,15.236418637,0.0 73.997041319,15.233435274,0.0 73.99663149,15.231557568,0.0 73.99668303,15.231455105,0.0 73.99650633,15.231266856,0.0 73.996400799,15.231192985,0.0 73.996260912,15.231040479,0.0 73.995941867,15.23083793,0.0 73.995563921,15.230721162,0.0 73.995632646,15.230375648,0.0 73.994373649,15.229884749,0.0 73.993760109,15.229508239,0.0 73.993468067,15.229272327,0.0 73.993269278,15.229248492,0.0 73.993016495,15.22925325,0.0 73.992697452,15.22918652,0.0 73.992643461,15.229160306,0.0 73.99237841,15.229093577,0.0 73.991885119,15.229041137,0.0 73.991296116,15.228948183,0.0 73.990959896,15.228855238,0.0 73.990844549,15.228843319,0.0 73.990442068,15.228719393,0.0 73.990081305,15.22865504,0.0 73.989889882,15.228559716,0.0 73.989703367,15.228507285,0.0 73.989558574,15.228421495,0.0 73.989430691,15.228419193,0.0 73.989580829,15.227658269,0.0 73.989481874,15.226945115,0.0 73.988635645,15.226511764,0.0 73.988035095,15.226508352,0.0 73.988113576,15.225958985,0.0 73.988642469,15.224304059,0.0 73.989024637,15.224194869,0.0 73.98912018,15.223822937,0.0 73.98929079,15.223809288,0.0 73.989396569,15.223495364,0.0 73.989307851,15.223423708,0.0 73.989369271,15.223062013,0.0 73.98972073,15.223106371,0.0 73.989802623,15.222686669,0.0 73.990055127,15.222198722,0.0 73.990079012,15.221775607,0.0 73.990143845,15.221567462,0.0 73.99025986,15.221533339,0.0 73.990386112,15.220946438,0.0 73.990508952,15.220083147,0.0 73.990812639,15.220130918,0.0 73.991126563,15.219711216,0.0 73.991327884,15.219243742,0.0 73.991532617,15.219079956,0.0 73.99173735,15.218772856,0.0 73.991648632,15.218288321,0.0 73.991785121,15.218213253,0.0 73.991887487,15.21770142,0.0 73.991839716,15.217551282,0.0 73.99252216,15.21722371,0.0 73.992842908,15.216684579,0.0 73.992911152,15.215695037,0.0 73.992774664,15.215681388,0.0 73.992549457,15.214412043,0.0 73.992474389,15.212781003,0.0 73.992358373,15.212583095,0.0 73.992269656,15.211641323,0.0 73.99167916,15.210690726,0.0 73.992509999,15.210429957,0.0 73.99242431,15.210000706,0.0 73.992541591,15.209961289,0.0 73.992510023,15.209755425,0.0 73.99260024,15.209698486,0.0 73.992609276,15.209286759,0.0 73.992762642,15.209282384,0.0 73.992870918,15.208739258,0.0 73.994440656,15.208787483,0.0 73.994657169,15.208901371,0.0 73.99465265,15.209238636,0.0 73.99477443,15.209632846,0.0 73.994756377,15.210048953,0.0 73.995230007,15.210092765,0.0 73.995297662,15.210394991,0.0 73.996474981,15.210057747,0.0 73.996479497,15.209733621,0.0 73.996497544,15.209470817,0.0 73.996456952,15.209190491,0.0 73.996479509,15.209015288,0.0 73.99659679,15.208945209,0.0 73.996768197,15.209010913,0.0 73.996808795,15.208932072,0.0 73.997079438,15.209032817,0.0 73.997111017,15.208809434,0.0 73.997259874,15.208634233,0.0 73.997498945,15.208432752,0.0 73.997774101,15.208402094,0.0 73.997810189,15.20816119,0.0 73.998076322,15.208196233,0.0 73.998333434,15.208191855,0.0 73.998676249,15.208161197,0.0 73.999010043,15.20824004,0.0 73.999073192,15.208568546,0.0 73.999050638,15.208616727,0.0 73.998910805,15.208616726,0.0 73.998825099,15.208993413,0.0 73.998662711,15.209151094,0.0 73.998518365,15.209400758,0.0 73.998577004,15.209593482,0.0 73.998847649,15.209654804,0.0 73.998987483,15.209545303,0.0 73.999267151,15.209431422,0.0 73.999411496,15.209076636,0.0 73.999483671,15.207780133,0.0 73.999447587,15.207237003,0.0 73.999673123,15.207245764,0.0 73.999754316,15.206737675,0.0 74.000151258,15.206886598,0.0 74.000255004,15.207066181,0.0 74.000214408,15.207648731,0.0 74.000331689,15.209081017,0.0 74.000489566,15.209159858,0.0 74.000412884,15.209444563,0.0 74.001355633,15.209532161,0.0 74.001978116,15.209356953,0.0 74.001779637,15.208713084,0.0 74.001766102,15.208380198,0.0 74.002406627,15.208353911,0.0 74.002663739,15.208358288,0.0 74.002889278,15.208533489,0.0 74.003299748,15.208047294,0.0 74.003394467,15.207644326,0.0 74.003241088,15.206724511,0.0 74.003002019,15.206632533,0.0 74.002442692,15.206601879,0.0 74.002844124,15.205060087,0.0 74.003011017,15.204933062,0.0 74.002925313,15.204819181,0.0 74.002041222,15.20474473,0.0 74.001441305,15.204810435,0.0 74.001486411,15.204630852,0.0 74.0015676,15.204245404,0.0 74.001333045,15.204087723,0.0 74.001220275,15.20337815,0.0 74.001008275,15.203417572,0.0 74.000881977,15.203229229,0.0 74.002108864,15.202896335,0.0 74.002162997,15.203426324,0.0 74.002519337,15.203452601,0.0 74.002853122,15.203308054,0.0 74.002848604,15.202795585,0.0 74.002950388,15.202711791,0.0 74.00325574,15.202690607,0.0 74.003482027,15.202645597,0.0 74.004215417,15.202571456,0.0 74.005041506,15.202666747,0.0 74.005106943,15.202852068,0.0 74.005933028,15.202756739,0.0 74.006671868,15.20262964,0.0 74.006805456,15.202505206,0.0 74.006887241,15.202343708,0.0 74.006799993,15.202195453,0.0 74.006690938,15.202155744,0.0 74.006311973,15.202113396,0.0 74.006295606,15.201803643,0.0 74.006475541,15.20167656,0.0 74.006508252,15.201507121,0.0 74.006974452,15.201350907,0.0 74.008032272,15.201319102,0.0 74.009319091,15.200964293,0.0 74.00978262,15.202076207,0.0 74.011072909,15.201740461,0.0 74.011325585,15.203299757,0.0 74.012336102,15.205638667,0.0 74.01228199,15.205927755,0.0 74.013671427,15.208196556,0.0 74.014276115,15.211897684,0.0 74.014646119,15.21360151,0.0 74.013693183,15.217158582,0.0</coordinates>
                    </LinearRing>
                </outerBoundaryIs>
            </Polygon>
        </Placemark>
    </Document>
</kml>
