<?xml version="1.0" encoding="UTF-8"?>
<kml xmlns="http://www.opengis.net/kml/2.2" xmlns:gx="http://www.google.com/kml/ext/2.2">
    <Document id="3915">
        <Placemark id="3917">
            <ExtendedData>
                <Data name="id">
                    <value>81</value>
                </Data>
                <Data name="taluka">
                    <value>Salcete</value>
                </Data>
                <Data name="village">
                    <value>Verna</value>
                </Data>
                <Data name="lg_code">
                    <value>626923</value>
                </Data>
                <Data name="dslr_code">
                    <value>00022700</value>
                </Data>
            </ExtendedData>
            <Polygon id="3916">
                <outerBoundaryIs>
                    <LinearRing id="3920">
                        <coordinates>73.929254005,15.325595628,0.0 73.929420608,15.325609348,0.0 73.929546051,15.326020956,0.0 73.929626412,15.326135618,0.0 73.929748915,15.326367883,0.0 73.930209524,15.326457064,0.0 73.930431008,15.326462945,0.0 73.930705413,15.326357102,0.0 73.931132702,15.325976855,0.0 73.931275785,15.325816132,0.0 73.931411027,15.325533886,0.0 73.93156587,15.325418244,0.0 73.931755994,15.325355523,0.0 73.932289124,15.324994876,0.0 73.932375366,15.325075237,0.0 73.932935937,15.32469695,0.0 73.933196622,15.324610708,0.0 73.933698392,15.324549947,0.0 73.933976717,15.324549947,0.0 73.934162921,15.324420585,0.0 73.934253083,15.32418342,0.0 73.934586289,15.324412744,0.0 73.934694091,15.324540147,0.0 73.934917536,15.324645989,0.0 73.936048478,15.325925894,0.0 73.936816813,15.326800071,0.0 73.939709829,15.328760109,0.0 73.939658868,15.329410842,0.0 73.940003835,15.32980285,0.0 73.94078393,15.32931676,0.0 73.943614226,15.329112916,0.0 73.944653046,15.329187398,0.0 73.945793788,15.328885552,0.0 73.946213236,15.329018834,0.0 73.948118394,15.330880871,0.0 73.948298717,15.330873031,0.0 73.948432,15.330669187,0.0 73.949106253,15.330739748,0.0 73.949898108,15.330437902,0.0 73.950329317,15.329994933,0.0 73.950933009,15.32979893,0.0 73.951728784,15.329058035,0.0 73.951830706,15.328881632,0.0 73.952661762,15.328607226,0.0 73.952857766,15.329159957,0.0 73.952763684,15.329971413,0.0 73.952924407,15.330018454,0.0 73.95305377,15.330375181,0.0 73.95356338,15.330743668,0.0 73.953688822,15.331018073,0.0 73.953716263,15.331300319,0.0 73.954304274,15.331151356,0.0 73.954433637,15.331296399,0.0 73.954431292,15.331601658,0.0 73.954639057,15.331868224,0.0 73.955237253,15.33238618,0.0 73.95561358,15.333072194,0.0 73.956052629,15.332966352,0.0 73.956597519,15.333287798,0.0 73.957330573,15.333464201,0.0 73.957726501,15.33342108,0.0 73.95818515,15.333734687,0.0 73.959078928,15.333138835,0.0 73.959776701,15.332844829,0.0 73.959988385,15.332644905,0.0 73.960156949,15.332276418,0.0 73.960454874,15.331951052,0.0 73.962007225,15.332076494,0.0 73.963861421,15.33286443,0.0 73.962920603,15.335341918,0.0 73.959800222,15.336533621,0.0 73.959627738,15.337874287,0.0 73.959588538,15.339857846,0.0 73.959423894,15.340759464,0.0 73.958569318,15.342413736,0.0 73.956758242,15.345549797,0.0 73.960254951,15.346827742,0.0 73.959847263,15.34876426,0.0 73.959353333,15.349516915,0.0 73.95920437,15.352002243,0.0 73.958820203,15.353217467,0.0 73.957832343,15.354432691,0.0 73.952885207,15.355663595,0.0 73.952783285,15.356792577,0.0 73.952109031,15.358243005,0.0 73.951662143,15.359724794,0.0 73.949647223,15.362312045,0.0 73.948306557,15.36309606,0.0 73.94793023,15.365009057,0.0 73.947279497,15.366090999,0.0 73.947177575,15.366922055,0.0 73.946048593,15.368795851,0.0 73.943563265,15.370457964,0.0 73.942410762,15.368427364,0.0 73.941673788,15.366718211,0.0 73.940129277,15.366561408,0.0 73.939690229,15.366820133,0.0 73.939125738,15.366929895,0.0 73.938569087,15.366890694,0.0 73.938569087,15.36515018,0.0 73.937471466,15.364264243,0.0 73.937055937,15.363762473,0.0 73.936530647,15.362664852,0.0 73.93617784,15.362312045,0.0 73.934688211,15.361457468,0.0 73.934484367,15.36104194,0.0 73.933888516,15.360626412,0.0 73.933457307,15.360477449,0.0 73.93308098,15.360602891,0.0 73.932504729,15.360377487,0.0 73.932404767,15.360318686,0.0 73.932228363,15.360352006,0.0 73.932004919,15.360430408,0.0 73.931220903,15.360416688,0.0 73.931009219,15.360240284,0.0 73.930770095,15.360218724,0.0 73.930721094,15.360079561,0.0 73.930783815,15.359912958,0.0 73.930752454,15.359842396,0.0 73.930235004,15.359638552,0.0 73.929866517,15.359685593,0.0 73.929793996,15.359607192,0.0 73.929856717,15.359481749,0.0 73.929809676,15.359389628,0.0 73.929474509,15.35949743,0.0 73.929390228,15.359446469,0.0 73.929272625,15.359048581,0.0 73.929023701,15.35849781,0.0 73.92899626,15.358329247,0.0 73.929080542,15.358293966,0.0 73.928884538,15.35795096,0.0 73.928761055,15.357592273,0.0 73.928561132,15.357421749,0.0 73.928604252,15.356880779,0.0 73.928416089,15.356496611,0.0 73.928870818,15.35642605,0.0 73.928710094,15.356077163,0.0 73.928616013,15.355734156,0.0 73.928247525,15.355457791,0.0 73.928208325,15.355308828,0.0 73.928227925,15.355163785,0.0 73.9279496,15.354791378,0.0 73.927506631,15.354858019,0.0 73.927330228,15.354175926,0.0 73.927165584,15.354046563,0.0 73.927185185,15.353215507,0.0 73.927036222,15.35233741,0.0 73.926557972,15.351541634,0.0 73.926589333,15.351263309,0.0 73.925495632,15.350157847,0.0 73.925060503,15.349542395,0.0 73.924578334,15.34927583,0.0 73.924084404,15.348060606,0.0 73.921261949,15.346614098,0.0 73.920391692,15.345943765,0.0 73.917247791,15.344391415,0.0 73.916940065,15.344303213,0.0 73.916759741,15.34415817,0.0 73.916561777,15.34415621,0.0 73.916022767,15.343911205,0.0 73.915668,15.343958246,0.0 73.91517015,15.343570159,0.0 73.914954631,15.343606979,0.0 73.914865032,15.34363497,0.0 73.9142814,15.343163442,0.0 73.914369246,15.342997826,0.0 73.91445233,15.342846235,0.0 73.914327931,15.342787037,0.0 73.91420307,15.342859073,0.0 73.914052568,15.342961959,0.0 73.91400429,15.342743209,0.0 73.91386293,15.342405383,0.0 73.913867721,15.342101099,0.0 73.913788656,15.341825566,0.0 73.913359783,15.341552429,0.0 73.913242006,15.341378434,0.0 73.913419555,15.341022394,0.0 73.913575417,15.340778542,0.0 73.913644899,15.340510197,0.0 73.913568731,15.340007229,0.0 73.913280717,15.339851315,0.0 73.912775175,15.339664432,0.0 73.912885658,15.33910989,0.0 73.912941206,15.338793392,0.0 73.912996722,15.338553718,0.0 73.913037973,15.338350915,0.0 73.913082402,15.33811892,0.0 73.913127836,15.337889328,0.0 73.913328299,15.337867282,0.0 73.913508625,15.338043688,0.0 73.913712757,15.337907708,0.0 73.913821244,15.337783399,0.0 73.914143151,15.337531897,0.0 73.914418094,15.337392947,0.0 73.914340469,15.337141042,0.0 73.914124947,15.337012255,0.0 73.913902858,15.336809083,0.0 73.913801675,15.336234123,0.0 73.914037833,15.335404458,0.0 73.913654053,15.335326788,0.0 73.91365583,15.334977347,0.0 73.913923072,15.334754155,0.0 73.913972996,15.334604382,0.0 73.914316593,15.334249039,0.0 73.914701304,15.33397005,0.0 73.915024344,15.333876075,0.0 73.915526524,15.334216735,0.0 73.916037514,15.333435566,0.0 73.916498579,15.333232932,0.0 73.916965519,15.333174198,0.0 73.917467699,15.333429693,0.0 73.917567547,15.333373895,0.0 73.917778991,15.333053792,0.0 73.917855346,15.332851158,0.0 73.918291511,15.332539431,0.0 73.919262037,15.332930449,0.0 73.919423557,15.332918702,0.0 73.91971723,15.333030298,0.0 73.919825889,15.333212375,0.0 73.919852319,15.333403262,0.0 73.920013839,15.333447313,0.0 73.920234093,15.333373895,0.0 73.92090073,15.332877588,0.0 73.921276631,15.332918702,0.0 73.921546809,15.333012678,0.0 73.921863976,15.333130147,0.0 73.922389649,15.33312721,0.0 73.922700942,15.332780676,0.0 73.922865399,15.332319611,0.0 73.923170818,15.332049432,0.0 73.923458617,15.332025938,0.0 73.924022468,15.331614797,0.0 73.924151684,15.331368112,0.0 73.923746416,15.33126239,0.0 73.922016685,15.330260967,0.0 73.922207572,15.329169973,0.0 73.922372029,15.32906572,0.0 73.922874209,15.328911542,0.0 73.92299902,15.32893063,0.0 73.923053349,15.329009922,0.0 73.923407224,15.328907136,0.0 73.923480642,15.328697161,0.0 73.923349958,15.328297766,0.0 73.92334849,15.328165613,0.0 73.923291464,15.328151161,0.0 73.92373678,15.328259222,0.0 73.92374559,15.32817993,0.0 73.924476835,15.328491223,0.0 73.924538506,15.328429552,0.0 73.92443205,15.327452356,0.0 73.924614861,15.327427394,0.0 73.92557517,15.327577901,0.0 73.925513498,15.327248988,0.0 73.925704386,15.326952379,0.0 73.925589853,15.326870151,0.0 73.925689702,15.326573542,0.0 73.925930513,15.326491313,0.0 73.926062666,15.326373844,0.0 73.926227123,15.326356224,0.0 73.926332845,15.326300426,0.0 73.92727847,15.326244628,0.0 73.928006683,15.326324043,0.0 73.928353311,15.326185894,0.0 73.928768858,15.325845234,0.0 73.929254005,15.325595628,0.0</coordinates>
                    </LinearRing>
                </outerBoundaryIs>
            </Polygon>
        </Placemark>
    </Document>
</kml>
