<?xml version="1.0" encoding="UTF-8"?>
<kml xmlns="http://www.opengis.net/kml/2.2" xmlns:gx="http://www.google.com/kml/ext/2.2">
    <Document id="25581">
        <Placemark id="25583">
            <ExtendedData>
                <Data name="direction">
                    <value>https://maps.google.com?q=15.466614,73.837236&amp;t=h</value>
                </Data>
                <Data name="id">
                    <value>702</value>
                </Data>
                <Data name="Sr.No">
                    <value>702</value>
                </Data>
                <Data name="Reg No">
                    <value>3093/Tiswadi</value>
                </Data>
                <Data name="Category">
                    <value>agricultural</value>
                </Data>
                <Data name="Type Of Well">
                    <value>Open Well</value>
                </Data>
                <Data name="Applicant Name">
                    <value>Fernandes Maria Antonia</value>
                </Data>
                <Data name="Applicant Address">
                    <value>Bandh,St. Cruz, Tiswadi Goa.</value>
                </Data>
                <Data name="latitude">
                    <value>15.466614</value>
                </Data>
                <Data name="longitude">
                    <value>73.837236</value>
                </Data>
                <Data name="taluka">
                    <value>Tiswadi</value>
                </Data>
                <Data name="village">
                    <value>Calapor</value>
                </Data>
            </ExtendedData>
            <Point id="25582">
                <coordinates>73.837236,15.466614,0.0</coordinates>
            </Point>
        </Placemark>
        <Placemark id="25598">
            <ExtendedData>
                <Data name="direction">
                    <value>https://maps.google.com?q=15.465209,73.834345&amp;t=h</value>
                </Data>
                <Data name="id">
                    <value>704</value>
                </Data>
                <Data name="Sr.No">
                    <value>704</value>
                </Data>
                <Data name="Reg No">
                    <value>3317/Tiswadi</value>
                </Data>
                <Data name="Category">
                    <value>agricultural</value>
                </Data>
                <Data name="Type Of Well">
                    <value>Open Well</value>
                </Data>
                <Data name="Applicant Name">
                    <value>Shri Dias Francisco Bismark</value>
                </Data>
                <Data name="Applicant Address">
                    <value>H.No.112, Bandh st. Cruz IIhas Goa.</value>
                </Data>
                <Data name="latitude">
                    <value>15.465209</value>
                </Data>
                <Data name="longitude">
                    <value>73.834345</value>
                </Data>
                <Data name="taluka">
                    <value>Tiswadi</value>
                </Data>
                <Data name="village">
                    <value>Calapor</value>
                </Data>
            </ExtendedData>
            <Point id="25597">
                <coordinates>73.834345,15.465209,0.0</coordinates>
            </Point>
        </Placemark>
    </Document>
</kml>
