<?xml version="1.0" encoding="UTF-8"?>
<kml xmlns="http://www.opengis.net/kml/2.2" xmlns:gx="http://www.google.com/kml/ext/2.2">
    <Document id="25675">
        <Placemark id="25677">
            <ExtendedData>
                <Data name="direction">
                    <value>https://maps.google.com?q=15.49717,73.93147&amp;t=h</value>
                </Data>
                <Data name="id">
                    <value>143</value>
                </Data>
                <Data name="Sr.No">
                    <value>143</value>
                </Data>
                <Data name="Reg No">
                    <value>1163/Tiswadi</value>
                </Data>
                <Data name="Category">
                    <value>agricultural</value>
                </Data>
                <Data name="Type Of Well">
                    <value>Open Well</value>
                </Data>
                <Data name="Applicant Name">
                    <value>Shri Joshi Vinata Vinayak</value>
                </Data>
                <Data name="Applicant Address">
                    <value>Swapna Punti Mollar, Corlim, Tiswadi Goa.</value>
                </Data>
                <Data name="latitude">
                    <value>15.49717</value>
                </Data>
                <Data name="longitude">
                    <value>73.93147</value>
                </Data>
                <Data name="taluka">
                    <value>Tiswadi</value>
                </Data>
                <Data name="village">
                    <value>Corlim</value>
                </Data>
            </ExtendedData>
            <Point id="25676">
                <coordinates>73.93147,15.49717,0.0</coordinates>
            </Point>
        </Placemark>
    </Document>
</kml>
