<?xml version="1.0" encoding="UTF-8"?>
<kml xmlns="http://www.opengis.net/kml/2.2" xmlns:gx="http://www.google.com/kml/ext/2.2">
    <Document id="25709">
        <Placemark id="25711">
            <ExtendedData>
                <Data name="direction">
                    <value>https://maps.google.com?q=15.46404,73.8746&amp;t=h</value>
                </Data>
                <Data name="id">
                    <value>273</value>
                </Data>
                <Data name="Sr.No">
                    <value>273</value>
                </Data>
                <Data name="Reg No">
                    <value>2115/Tiswadi</value>
                </Data>
                <Data name="Category">
                    <value>agricultural</value>
                </Data>
                <Data name="Type Of Well">
                    <value>Open Well</value>
                </Data>
                <Data name="Applicant Name">
                    <value>Kuttikar Rasik</value>
                </Data>
                <Data name="Applicant Address">
                    <value>Curca, Tiswadi</value>
                </Data>
                <Data name="latitude">
                    <value>15.46404</value>
                </Data>
                <Data name="longitude">
                    <value>73.8746</value>
                </Data>
                <Data name="taluka">
                    <value>Tiswadi</value>
                </Data>
                <Data name="village">
                    <value>Curca</value>
                </Data>
            </ExtendedData>
            <Point id="25710">
                <coordinates>73.8746,15.46404,0.0</coordinates>
            </Point>
        </Placemark>
    </Document>
</kml>
