<?xml version="1.0" encoding="UTF-8"?>
<kml xmlns="http://www.opengis.net/kml/2.2" xmlns:gx="http://www.google.com/kml/ext/2.2">
    <Document id="25726">
        <Placemark id="25728">
            <ExtendedData>
                <Data name="direction">
                    <value>https://maps.google.com?q=15.49883,73.91478&amp;t=h</value>
                </Data>
                <Data name="id">
                    <value>135</value>
                </Data>
                <Data name="Sr.No">
                    <value>135</value>
                </Data>
                <Data name="Reg No">
                    <value>2131/Tiswadi</value>
                </Data>
                <Data name="Category">
                    <value>agricultural</value>
                </Data>
                <Data name="Type Of Well">
                    <value>Open Well</value>
                </Data>
                <Data name="Applicant Name">
                    <value>Shri Padmavilas Shashikumar Raghvan</value>
                </Data>
                <Data name="Applicant Address">
                    <value>Old Goa, Tiswadi Goa</value>
                </Data>
                <Data name="latitude">
                    <value>15.49883</value>
                </Data>
                <Data name="longitude">
                    <value>73.91478</value>
                </Data>
                <Data name="taluka">
                    <value>Tiswadi</value>
                </Data>
                <Data name="village">
                    <value>Ella</value>
                </Data>
            </ExtendedData>
            <Point id="25727">
                <coordinates>73.91478,15.49883,0.0</coordinates>
            </Point>
        </Placemark>
        <Placemark id="25743">
            <ExtendedData>
                <Data name="direction">
                    <value>https://maps.google.com?q=15.50958,73.92278&amp;t=h</value>
                </Data>
                <Data name="id">
                    <value>138</value>
                </Data>
                <Data name="Sr.No">
                    <value>138</value>
                </Data>
                <Data name="Reg No">
                    <value>2146/Tiswadi</value>
                </Data>
                <Data name="Category">
                    <value>agricultural</value>
                </Data>
                <Data name="Type Of Well">
                    <value>Bore Well</value>
                </Data>
                <Data name="Applicant Name">
                    <value>Naik sanjeev Nilkant</value>
                </Data>
                <Data name="Applicant Address">
                    <value>Dhauji, Old Goa, Tiswadi</value>
                </Data>
                <Data name="latitude">
                    <value>15.50958</value>
                </Data>
                <Data name="longitude">
                    <value>73.92278</value>
                </Data>
                <Data name="taluka">
                    <value>Tiswadi</value>
                </Data>
                <Data name="village">
                    <value>Ella</value>
                </Data>
            </ExtendedData>
            <Point id="25742">
                <coordinates>73.92278,15.50958,0.0</coordinates>
            </Point>
        </Placemark>
        <Placemark id="25758">
            <ExtendedData>
                <Data name="direction">
                    <value>https://maps.google.com?q=15.51174,73.92514&amp;t=h</value>
                </Data>
                <Data name="id">
                    <value>158</value>
                </Data>
                <Data name="Sr.No">
                    <value>158</value>
                </Data>
                <Data name="Reg No">
                    <value>2147/Tiswadi</value>
                </Data>
                <Data name="Category">
                    <value>agricultural</value>
                </Data>
                <Data name="Type Of Well">
                    <value>Open Well</value>
                </Data>
                <Data name="Applicant Name">
                    <value>Shri NAIK Premanand Gangaram</value>
                </Data>
                <Data name="Applicant Address">
                    <value>Gaundalim, Cumbharjua Tiswadi Goa</value>
                </Data>
                <Data name="latitude">
                    <value>15.51174</value>
                </Data>
                <Data name="longitude">
                    <value>73.92514</value>
                </Data>
                <Data name="taluka">
                    <value>Tiswadi</value>
                </Data>
                <Data name="village">
                    <value>Ella</value>
                </Data>
            </ExtendedData>
            <Point id="25757">
                <coordinates>73.92514,15.51174,0.0</coordinates>
            </Point>
        </Placemark>
        <Placemark id="25773">
            <ExtendedData>
                <Data name="direction">
                    <value>https://maps.google.com?q=15.500608,73.917472&amp;t=h</value>
                </Data>
                <Data name="id">
                    <value>392</value>
                </Data>
                <Data name="Sr.No">
                    <value>392</value>
                </Data>
                <Data name="Reg No">
                    <value>1613/Tiswadi</value>
                </Data>
                <Data name="Category">
                    <value>agricultural</value>
                </Data>
                <Data name="Type Of Well">
                    <value>Bore well</value>
                </Data>
                <Data name="Applicant Name">
                    <value>Executive Engineer, W.D.III, W.R.D ( B.win in the field of Shri Nilkant Bhomkar )</value>
                </Data>
                <Data name="Applicant Address">
                    <value>Ponda-Goa</value>
                </Data>
                <Data name="latitude">
                    <value>15.500608</value>
                </Data>
                <Data name="longitude">
                    <value>73.917472</value>
                </Data>
                <Data name="taluka">
                    <value>Tiswadi</value>
                </Data>
                <Data name="village">
                    <value>Ella</value>
                </Data>
            </ExtendedData>
            <Point id="25772">
                <coordinates>73.917472,15.500608,0.0</coordinates>
            </Point>
        </Placemark>
        <Placemark id="25788">
            <ExtendedData>
                <Data name="direction">
                    <value>https://maps.google.com?q=15.505458,73.917138&amp;t=h</value>
                </Data>
                <Data name="id">
                    <value>393</value>
                </Data>
                <Data name="Sr.No">
                    <value>393</value>
                </Data>
                <Data name="Reg No">
                    <value>2860/Tiswadi</value>
                </Data>
                <Data name="Category">
                    <value>agricultural</value>
                </Data>
                <Data name="Type Of Well">
                    <value>Open Well</value>
                </Data>
                <Data name="Applicant Name">
                    <value>Shri Ramesh Pandurang Naik &amp; Dr. Santosh Pandurang Naik</value>
                </Data>
                <Data name="Applicant Address">
                    <value>H.No.55 &amp; 56, Gaunalim Road, Ella Old Goa, Tiswadi-Goa.</value>
                </Data>
                <Data name="latitude">
                    <value>15.505458</value>
                </Data>
                <Data name="longitude">
                    <value>73.917138</value>
                </Data>
                <Data name="taluka">
                    <value>Tiswadi</value>
                </Data>
                <Data name="village">
                    <value>Ella</value>
                </Data>
            </ExtendedData>
            <Point id="25787">
                <coordinates>73.917138,15.505458,0.0</coordinates>
            </Point>
        </Placemark>
        <Placemark id="25803">
            <ExtendedData>
                <Data name="direction">
                    <value>https://maps.google.com?q=15.497263,73.909843&amp;t=h</value>
                </Data>
                <Data name="id">
                    <value>502</value>
                </Data>
                <Data name="Sr.No">
                    <value>502</value>
                </Data>
                <Data name="Reg No">
                    <value>3419/Tiswadi</value>
                </Data>
                <Data name="Category">
                    <value>agricultural</value>
                </Data>
                <Data name="Type Of Well">
                    <value>Open Well</value>
                </Data>
                <Data name="Applicant Name">
                    <value>Santa Monica Church Property</value>
                </Data>
                <Data name="Applicant Address">
                    <value>Old Goa</value>
                </Data>
                <Data name="latitude">
                    <value>15.497263</value>
                </Data>
                <Data name="longitude">
                    <value>73.909843</value>
                </Data>
                <Data name="taluka">
                    <value>Tiswadi</value>
                </Data>
                <Data name="village">
                    <value>Ella</value>
                </Data>
            </ExtendedData>
            <Point id="25802">
                <coordinates>73.909843,15.497263,0.0</coordinates>
            </Point>
        </Placemark>
    </Document>
</kml>
