<?xml version="1.0" encoding="UTF-8"?>
<kml xmlns="http://www.opengis.net/kml/2.2" xmlns:gx="http://www.google.com/kml/ext/2.2">
    <Document id="26004">
        <Placemark id="26006">
            <ExtendedData>
                <Data name="direction">
                    <value>https://maps.google.com?q=15.530119,73.920092&amp;t=h</value>
                </Data>
                <Data name="id">
                    <value>441</value>
                </Data>
                <Data name="Sr.No">
                    <value>441</value>
                </Data>
                <Data name="Reg No">
                    <value>3299/Tiswadi</value>
                </Data>
                <Data name="Category">
                    <value>horticulture</value>
                </Data>
                <Data name="Type Of Well">
                    <value>Open Well</value>
                </Data>
                <Data name="Applicant Name">
                    <value>Shri Kesarkar Vallabh Bhanudas</value>
                </Data>
                <Data name="Applicant Address">
                    <value>H. no 372, Fetorim, Piedade, Divar Tiswadi Goa.</value>
                </Data>
                <Data name="latitude">
                    <value>15.530119</value>
                </Data>
                <Data name="longitude">
                    <value>73.920092</value>
                </Data>
                <Data name="taluka">
                    <value>Tiswadi</value>
                </Data>
                <Data name="village">
                    <value>Malar</value>
                </Data>
            </ExtendedData>
            <Point id="26005">
                <coordinates>73.920092,15.530119,0.0</coordinates>
            </Point>
        </Placemark>
    </Document>
</kml>
