<?xml version="1.0" encoding="UTF-8"?>
<kml xmlns="http://www.opengis.net/kml/2.2" xmlns:gx="http://www.google.com/kml/ext/2.2">
    <Document id="2135">
        <Placemark id="2137">
            <ExtendedData>
                <Data name="direction">
                    <value>https://maps.google.com?q=15.53782,73.9748&amp;t=h</value>
                </Data>
                <Data name="id">
                    <value>2009</value>
                </Data>
                <Data name="Sr.No">
                    <value>2009</value>
                </Data>
                <Data name="Reg No">
                    <value>2094/Bicholim</value>
                </Data>
                <Data name="Category">
                    <value>agricultural</value>
                </Data>
                <Data name="Type Of Well">
                    <value>Open Well</value>
                </Data>
                <Data name="Applicant Name">
                    <value>Shri Parab Umesh Vaman</value>
                </Data>
                <Data name="Applicant Address">
                    <value>H. No. 171, Kalmwada Amona, Bicholim Goa.</value>
                </Data>
                <Data name="latitude">
                    <value>15.53782</value>
                </Data>
                <Data name="longitude">
                    <value>73.9748</value>
                </Data>
                <Data name="taluka">
                    <value>Bicholim</value>
                </Data>
                <Data name="village">
                    <value>Amone</value>
                </Data>
            </ExtendedData>
            <Point id="2136">
                <coordinates>73.9748,15.53782,0.0</coordinates>
            </Point>
        </Placemark>
        <Placemark id="2152">
            <ExtendedData>
                <Data name="direction">
                    <value>https://maps.google.com?q=15.52651,73.9827&amp;t=h</value>
                </Data>
                <Data name="id">
                    <value>2010</value>
                </Data>
                <Data name="Sr.No">
                    <value>2010</value>
                </Data>
                <Data name="Reg No">
                    <value>16/19/Bicholim</value>
                </Data>
                <Data name="Category">
                    <value>agricultural</value>
                </Data>
                <Data name="Type Of Well">
                    <value>Open Well</value>
                </Data>
                <Data name="Applicant Name">
                    <value>Shri Naik Sandesh Gurudas</value>
                </Data>
                <Data name="Applicant Address">
                    <value>H.no,301/1, Bhandarwada, Amona-Goa</value>
                </Data>
                <Data name="latitude">
                    <value>15.52651</value>
                </Data>
                <Data name="longitude">
                    <value>73.9827</value>
                </Data>
                <Data name="taluka">
                    <value>Bicholim</value>
                </Data>
                <Data name="village">
                    <value>Amone</value>
                </Data>
            </ExtendedData>
            <Point id="2151">
                <coordinates>73.9827,15.52651,0.0</coordinates>
            </Point>
        </Placemark>
        <Placemark id="2167">
            <ExtendedData>
                <Data name="direction">
                    <value>https://maps.google.com?q=15.52832,73.97937&amp;t=h</value>
                </Data>
                <Data name="id">
                    <value>2011</value>
                </Data>
                <Data name="Sr.No">
                    <value>2011</value>
                </Data>
                <Data name="Reg No">
                    <value>07/19/Bicholim</value>
                </Data>
                <Data name="Category">
                    <value>agricultural</value>
                </Data>
                <Data name="Type Of Well">
                    <value>Open Well</value>
                </Data>
                <Data name="Applicant Name">
                    <value>Shri Vassu Babuso Naik</value>
                </Data>
                <Data name="Applicant Address">
                    <value>H.no. 287/A, Bhandarwada, Amona in Bicholim Taluka</value>
                </Data>
                <Data name="latitude">
                    <value>15.52832</value>
                </Data>
                <Data name="longitude">
                    <value>73.97937</value>
                </Data>
                <Data name="taluka">
                    <value>Bicholim</value>
                </Data>
                <Data name="village">
                    <value>Amone</value>
                </Data>
            </ExtendedData>
            <Point id="2166">
                <coordinates>73.97937,15.52832,0.0</coordinates>
            </Point>
        </Placemark>
        <Placemark id="2182">
            <ExtendedData>
                <Data name="direction">
                    <value>https://maps.google.com?q=15.53758,73.97551&amp;t=h</value>
                </Data>
                <Data name="id">
                    <value>2012</value>
                </Data>
                <Data name="Sr.No">
                    <value>2012</value>
                </Data>
                <Data name="Reg No">
                    <value>45/19/Bicholim</value>
                </Data>
                <Data name="Category">
                    <value>agricultural</value>
                </Data>
                <Data name="Type Of Well">
                    <value>Open Well</value>
                </Data>
                <Data name="Applicant Name">
                    <value>Shri Shambhu Vasant Gawas</value>
                </Data>
                <Data name="Applicant Address">
                    <value>H.no.469, Ambeshiwada, Amona-Goa</value>
                </Data>
                <Data name="latitude">
                    <value>15.53758</value>
                </Data>
                <Data name="longitude">
                    <value>73.97551</value>
                </Data>
                <Data name="taluka">
                    <value>Bicholim</value>
                </Data>
                <Data name="village">
                    <value>Amone</value>
                </Data>
            </ExtendedData>
            <Point id="2181">
                <coordinates>73.97551,15.53758,0.0</coordinates>
            </Point>
        </Placemark>
        <Placemark id="2197">
            <ExtendedData>
                <Data name="direction">
                    <value>https://maps.google.com?q=15.537369,73.974709&amp;t=h</value>
                </Data>
                <Data name="id">
                    <value>2373</value>
                </Data>
                <Data name="Sr.No">
                    <value>2373</value>
                </Data>
                <Data name="Reg No">
                    <value>32/2019</value>
                </Data>
                <Data name="Category">
                    <value>agricultural</value>
                </Data>
                <Data name="Type Of Well">
                    <value>Open Well</value>
                </Data>
                <Data name="Applicant Name">
                    <value>Raghunath Narayan Gauns</value>
                </Data>
                <Data name="Applicant Address">
                    <value>101, Ambeshiwada, Amona-Goa</value>
                </Data>
                <Data name="latitude">
                    <value>15.537369</value>
                </Data>
                <Data name="longitude">
                    <value>73.974709</value>
                </Data>
                <Data name="taluka">
                    <value>Bicholim</value>
                </Data>
                <Data name="village">
                    <value>Amone</value>
                </Data>
            </ExtendedData>
            <Point id="2196">
                <coordinates>73.974709,15.537369,0.0</coordinates>
            </Point>
        </Placemark>
        <Placemark id="2212">
            <ExtendedData>
                <Data name="direction">
                    <value>https://maps.google.com?q=15.53845,73.990391&amp;t=h</value>
                </Data>
                <Data name="id">
                    <value>2374</value>
                </Data>
                <Data name="Sr.No">
                    <value>2374</value>
                </Data>
                <Data name="Reg No">
                    <value>65/2020/BIC</value>
                </Data>
                <Data name="Category">
                    <value>agricultural</value>
                </Data>
                <Data name="Type Of Well">
                    <value>Open Well</value>
                </Data>
                <Data name="Applicant Name">
                    <value>Sadananad Ravalu Gawas</value>
                </Data>
                <Data name="Applicant Address">
                    <value>Kalam wada, Amona-Goa</value>
                </Data>
                <Data name="latitude">
                    <value>15.53845</value>
                </Data>
                <Data name="longitude">
                    <value>73.990391</value>
                </Data>
                <Data name="taluka">
                    <value>Bicholim</value>
                </Data>
                <Data name="village">
                    <value>Amone</value>
                </Data>
            </ExtendedData>
            <Point id="2211">
                <coordinates>73.990391,15.53845,0.0</coordinates>
            </Point>
        </Placemark>
    </Document>
</kml>
