<?xml version="1.0" encoding="UTF-8"?>
<kml xmlns="http://www.opengis.net/kml/2.2" xmlns:gx="http://www.google.com/kml/ext/2.2">
    <Document id="2259">
        <Placemark id="2261">
            <ExtendedData>
                <Data name="direction">
                    <value>https://maps.google.com?q=15.559305,73.923055&amp;t=h</value>
                </Data>
                <Data name="id">
                    <value>636</value>
                </Data>
                <Data name="Sr.No">
                    <value>636</value>
                </Data>
                <Data name="Reg No">
                    <value>1046/Tiswadi</value>
                </Data>
                <Data name="Category">
                    <value>agricultural</value>
                </Data>
                <Data name="Type Of Well">
                    <value>Open Well</value>
                </Data>
                <Data name="Applicant Name">
                    <value>Smt Sardessai Survana Shailesh</value>
                </Data>
                <Data name="Applicant Address">
                    <value>9/F4, Kamat Classic IV, Caranzalem Goa</value>
                </Data>
                <Data name="latitude">
                    <value>15.559305</value>
                </Data>
                <Data name="longitude">
                    <value>73.923055</value>
                </Data>
                <Data name="taluka">
                    <value>Bicholim</value>
                </Data>
                <Data name="village">
                    <value>Aturli</value>
                </Data>
            </ExtendedData>
            <Point id="2260">
                <coordinates>73.923055,15.559305,0.0</coordinates>
            </Point>
        </Placemark>
        <Placemark id="2276">
            <ExtendedData>
                <Data name="direction">
                    <value>https://maps.google.com?q=15.559,73.91728&amp;t=h</value>
                </Data>
                <Data name="id">
                    <value>2067</value>
                </Data>
                <Data name="Sr.No">
                    <value>2067</value>
                </Data>
                <Data name="Reg No">
                    <value>2116/Bicholim</value>
                </Data>
                <Data name="Category">
                    <value>agricultural</value>
                </Data>
                <Data name="Type Of Well">
                    <value>Open Well</value>
                </Data>
                <Data name="Applicant Name">
                    <value>Kolhapurkar Ashwita Ashok,</value>
                </Data>
                <Data name="Applicant Address">
                    <value>H.No.203,, Muddi Wada,Chorao,, Tiswadi Goa 403108,</value>
                </Data>
                <Data name="latitude">
                    <value>15.559</value>
                </Data>
                <Data name="longitude">
                    <value>73.91728</value>
                </Data>
                <Data name="taluka">
                    <value>Bicholim</value>
                </Data>
                <Data name="village">
                    <value>Aturli</value>
                </Data>
            </ExtendedData>
            <Point id="2275">
                <coordinates>73.91728,15.559,0.0</coordinates>
            </Point>
        </Placemark>
        <Placemark id="2291">
            <ExtendedData>
                <Data name="direction">
                    <value>https://maps.google.com?q=15.55882,73.91778&amp;t=h</value>
                </Data>
                <Data name="id">
                    <value>2068</value>
                </Data>
                <Data name="Sr.No">
                    <value>2068</value>
                </Data>
                <Data name="Reg No">
                    <value>2115/Bicholim</value>
                </Data>
                <Data name="Category">
                    <value>agricultural</value>
                </Data>
                <Data name="Type Of Well">
                    <value>Open Well</value>
                </Data>
                <Data name="Applicant Name">
                    <value>Kolhapurkar Ashwita Ashok,</value>
                </Data>
                <Data name="Applicant Address">
                    <value>H.No.203,, Muddi Wada,Chorao,, Tiswadi Goa 403108,</value>
                </Data>
                <Data name="latitude">
                    <value>15.55882</value>
                </Data>
                <Data name="longitude">
                    <value>73.91778</value>
                </Data>
                <Data name="taluka">
                    <value>Bicholim</value>
                </Data>
                <Data name="village">
                    <value>Aturli</value>
                </Data>
            </ExtendedData>
            <Point id="2290">
                <coordinates>73.91778,15.55882,0.0</coordinates>
            </Point>
        </Placemark>
        <Placemark id="2306">
            <ExtendedData>
                <Data name="direction">
                    <value>https://maps.google.com?q=15.559684,73.923008&amp;t=h</value>
                </Data>
                <Data name="id">
                    <value>2433</value>
                </Data>
                <Data name="Sr.No">
                    <value>2433</value>
                </Data>
                <Data name="Reg No">
                    <value>BIC/84/2020</value>
                </Data>
                <Data name="Category">
                    <value>agricultural</value>
                </Data>
                <Data name="Type Of Well">
                    <value>Open Well</value>
                </Data>
                <Data name="Applicant Name">
                    <value>Vivek Ramesh Naik</value>
                </Data>
                <Data name="Applicant Address">
                    <value>HNo.646, Dhorlim Aturlim, Mayem, Bicholim Goa 403504,</value>
                </Data>
                <Data name="latitude">
                    <value>15.559684</value>
                </Data>
                <Data name="longitude">
                    <value>73.923008</value>
                </Data>
                <Data name="taluka">
                    <value>Bicholim</value>
                </Data>
                <Data name="village">
                    <value>Aturli</value>
                </Data>
            </ExtendedData>
            <Point id="2305">
                <coordinates>73.923008,15.559684,0.0</coordinates>
            </Point>
        </Placemark>
    </Document>
</kml>
