<?xml version="1.0" encoding="UTF-8"?>
<kml xmlns="http://www.opengis.net/kml/2.2" xmlns:gx="http://www.google.com/kml/ext/2.2">
    <Document id="3233">
        <Placemark id="3235">
            <ExtendedData>
                <Data name="direction">
                    <value>https://maps.google.com?q=15.65459,73.9621&amp;t=h</value>
                </Data>
                <Data name="id">
                    <value>2075</value>
                </Data>
                <Data name="Sr.No">
                    <value>2075</value>
                </Data>
                <Data name="Reg No">
                    <value>3212/Bicholim</value>
                </Data>
                <Data name="Category">
                    <value>agricultural</value>
                </Data>
                <Data name="Type Of Well">
                    <value>Open Well</value>
                </Data>
                <Data name="Applicant Name">
                    <value>Smt Gawas Suhasini Dashrath</value>
                </Data>
                <Data name="Applicant Address">
                    <value>H. No. 162, Madhalawada Kharpal, Latambarcem, Bicholim Goa.</value>
                </Data>
                <Data name="latitude">
                    <value>15.65459</value>
                </Data>
                <Data name="longitude">
                    <value>73.9621</value>
                </Data>
                <Data name="taluka">
                    <value>Bicholim</value>
                </Data>
                <Data name="village">
                    <value>Latambarcem</value>
                </Data>
            </ExtendedData>
            <Point id="3234">
                <coordinates>73.9621,15.65459,0.0</coordinates>
            </Point>
        </Placemark>
        <Placemark id="3250">
            <ExtendedData>
                <Data name="direction">
                    <value>https://maps.google.com?q=15.67122,73.96017&amp;t=h</value>
                </Data>
                <Data name="id">
                    <value>2076</value>
                </Data>
                <Data name="Sr.No">
                    <value>2076</value>
                </Data>
                <Data name="Reg No">
                    <value>2507/Bicholim</value>
                </Data>
                <Data name="Category">
                    <value>agricultural</value>
                </Data>
                <Data name="Type Of Well">
                    <value>Open Well</value>
                </Data>
                <Data name="Applicant Name">
                    <value>Shri Gawas Ramesh Pandurang</value>
                </Data>
                <Data name="Applicant Address">
                    <value>H. No. 180, Dodamarg, Kharpal, Latambarcem, Bicholim Goa.</value>
                </Data>
                <Data name="latitude">
                    <value>15.67122</value>
                </Data>
                <Data name="longitude">
                    <value>73.96017</value>
                </Data>
                <Data name="taluka">
                    <value>Bicholim</value>
                </Data>
                <Data name="village">
                    <value>Latambarcem</value>
                </Data>
            </ExtendedData>
            <Point id="3249">
                <coordinates>73.96017,15.67122,0.0</coordinates>
            </Point>
        </Placemark>
        <Placemark id="3265">
            <ExtendedData>
                <Data name="direction">
                    <value>https://maps.google.com?q=15.6379,73.92989&amp;t=h</value>
                </Data>
                <Data name="id">
                    <value>2078</value>
                </Data>
                <Data name="Sr.No">
                    <value>2078</value>
                </Data>
                <Data name="Reg No">
                    <value>1241/Bicholim</value>
                </Data>
                <Data name="Category">
                    <value>agricultural</value>
                </Data>
                <Data name="Type Of Well">
                    <value>Open Well</value>
                </Data>
                <Data name="Applicant Name">
                    <value>Shri Phadke Narayan Ramchandra</value>
                </Data>
                <Data name="Applicant Address">
                    <value>H. No. 78, Tistawada Nanoda, Latambarcem , Bicholim Goa.</value>
                </Data>
                <Data name="latitude">
                    <value>15.6379</value>
                </Data>
                <Data name="longitude">
                    <value>73.92989</value>
                </Data>
                <Data name="taluka">
                    <value>Bicholim</value>
                </Data>
                <Data name="village">
                    <value>Latambarcem</value>
                </Data>
            </ExtendedData>
            <Point id="3264">
                <coordinates>73.92989,15.6379,0.0</coordinates>
            </Point>
        </Placemark>
        <Placemark id="3280">
            <ExtendedData>
                <Data name="direction">
                    <value>https://maps.google.com?q=15.6367,73.92188&amp;t=h</value>
                </Data>
                <Data name="id">
                    <value>2080</value>
                </Data>
                <Data name="Sr.No">
                    <value>2080</value>
                </Data>
                <Data name="Reg No">
                    <value>3019/Bicholim</value>
                </Data>
                <Data name="Category">
                    <value>agricultural</value>
                </Data>
                <Data name="Type Of Well">
                    <value>Open Well</value>
                </Data>
                <Data name="Applicant Name">
                    <value>Shri Vaze Vishnu Vasudev</value>
                </Data>
                <Data name="Applicant Address">
                    <value>H.No.67,Kanolkarwada, Nanoda Bicholim Goa.</value>
                </Data>
                <Data name="latitude">
                    <value>15.6367</value>
                </Data>
                <Data name="longitude">
                    <value>73.92188</value>
                </Data>
                <Data name="taluka">
                    <value>Bicholim</value>
                </Data>
                <Data name="village">
                    <value>Latambarcem</value>
                </Data>
            </ExtendedData>
            <Point id="3279">
                <coordinates>73.92188,15.6367,0.0</coordinates>
            </Point>
        </Placemark>
        <Placemark id="3295">
            <ExtendedData>
                <Data name="direction">
                    <value>https://maps.google.com?q=15.63336,73.93165&amp;t=h</value>
                </Data>
                <Data name="id">
                    <value>2081</value>
                </Data>
                <Data name="Sr.No">
                    <value>2081</value>
                </Data>
                <Data name="Reg No">
                    <value>1511/Bicholim</value>
                </Data>
                <Data name="Category">
                    <value>agricultural</value>
                </Data>
                <Data name="Type Of Well">
                    <value>Open Well</value>
                </Data>
                <Data name="Applicant Name">
                    <value>Mahambre Suhasya Vaikuntha</value>
                </Data>
                <Data name="Applicant Address">
                    <value>H. No. 46, Gaonkarwada, Assnora, Bicholim- Goa.</value>
                </Data>
                <Data name="latitude">
                    <value>15.63336</value>
                </Data>
                <Data name="longitude">
                    <value>73.93165</value>
                </Data>
                <Data name="taluka">
                    <value>Bicholim</value>
                </Data>
                <Data name="village">
                    <value>Latambarcem</value>
                </Data>
            </ExtendedData>
            <Point id="3294">
                <coordinates>73.93165,15.63336,0.0</coordinates>
            </Point>
        </Placemark>
        <Placemark id="3310">
            <ExtendedData>
                <Data name="direction">
                    <value>https://maps.google.com?q=15.63395,73.93148&amp;t=h</value>
                </Data>
                <Data name="id">
                    <value>2082</value>
                </Data>
                <Data name="Sr.No">
                    <value>2082</value>
                </Data>
                <Data name="Reg No">
                    <value>1234/Bicholim</value>
                </Data>
                <Data name="Category">
                    <value>agricultural</value>
                </Data>
                <Data name="Type Of Well">
                    <value>Open Well</value>
                </Data>
                <Data name="Applicant Name">
                    <value>Shri Mahambre Mohan Vaikunth</value>
                </Data>
                <Data name="Applicant Address">
                    <value>H. No. 46, Nanora, Assonora, Bicholim Goa.</value>
                </Data>
                <Data name="latitude">
                    <value>15.63395</value>
                </Data>
                <Data name="longitude">
                    <value>73.93148</value>
                </Data>
                <Data name="taluka">
                    <value>Bicholim</value>
                </Data>
                <Data name="village">
                    <value>Latambarcem</value>
                </Data>
            </ExtendedData>
            <Point id="3309">
                <coordinates>73.93148,15.63395,0.0</coordinates>
            </Point>
        </Placemark>
        <Placemark id="3325">
            <ExtendedData>
                <Data name="direction">
                    <value>https://maps.google.com?q=15.63694,73.94432&amp;t=h</value>
                </Data>
                <Data name="id">
                    <value>2084</value>
                </Data>
                <Data name="Sr.No">
                    <value>2084</value>
                </Data>
                <Data name="Reg No">
                    <value>13/19/Bicholim</value>
                </Data>
                <Data name="Category">
                    <value>agricultural</value>
                </Data>
                <Data name="Type Of Well">
                    <value>Open Well</value>
                </Data>
                <Data name="Applicant Name">
                    <value>Shri Narayan Madhusudhan Salgaonkar</value>
                </Data>
                <Data name="Applicant Address">
                    <value>H.no. 104, Sonarbhat, Latrambarcem, Bicholim-Goa</value>
                </Data>
                <Data name="latitude">
                    <value>15.63694</value>
                </Data>
                <Data name="longitude">
                    <value>73.94432</value>
                </Data>
                <Data name="taluka">
                    <value>Bicholim</value>
                </Data>
                <Data name="village">
                    <value>Latambarcem</value>
                </Data>
            </ExtendedData>
            <Point id="3324">
                <coordinates>73.94432,15.63694,0.0</coordinates>
            </Point>
        </Placemark>
        <Placemark id="3340">
            <ExtendedData>
                <Data name="direction">
                    <value>https://maps.google.com?q=15.64048,73.94035&amp;t=h</value>
                </Data>
                <Data name="id">
                    <value>2085</value>
                </Data>
                <Data name="Sr.No">
                    <value>2085</value>
                </Data>
                <Data name="Reg No">
                    <value>13/19/B//Bicholim</value>
                </Data>
                <Data name="Category">
                    <value>agricultural</value>
                </Data>
                <Data name="Type Of Well">
                    <value>Dug well</value>
                </Data>
                <Data name="Applicant Name">
                    <value>Shri Narayan Madhusudhan Salgaonkar</value>
                </Data>
                <Data name="Applicant Address">
                    <value>H.no.104, Sonarbhat,Latrambarcem, Bicholim Goa</value>
                </Data>
                <Data name="latitude">
                    <value>15.64048</value>
                </Data>
                <Data name="longitude">
                    <value>73.94035</value>
                </Data>
                <Data name="taluka">
                    <value>Bicholim</value>
                </Data>
                <Data name="village">
                    <value>Latambarcem</value>
                </Data>
            </ExtendedData>
            <Point id="3339">
                <coordinates>73.94035,15.64048,0.0</coordinates>
            </Point>
        </Placemark>
        <Placemark id="3355">
            <ExtendedData>
                <Data name="direction">
                    <value>https://maps.google.com?q=15.66368,73.95145&amp;t=h</value>
                </Data>
                <Data name="id">
                    <value>2087</value>
                </Data>
                <Data name="Sr.No">
                    <value>2087</value>
                </Data>
                <Data name="Reg No">
                    <value>05/2019/Bicholim</value>
                </Data>
                <Data name="Category">
                    <value>agricultural</value>
                </Data>
                <Data name="Type Of Well">
                    <value>Open Well</value>
                </Data>
                <Data name="Applicant Name">
                    <value>Shri Karpe Vithal Ravindra</value>
                </Data>
                <Data name="Applicant Address">
                    <value>H.no. 14, Dodamarg, Latambarcem in Bicholim Taluka</value>
                </Data>
                <Data name="latitude">
                    <value>15.66368</value>
                </Data>
                <Data name="longitude">
                    <value>73.95145</value>
                </Data>
                <Data name="taluka">
                    <value>Bicholim</value>
                </Data>
                <Data name="village">
                    <value>Latambarcem</value>
                </Data>
            </ExtendedData>
            <Point id="3354">
                <coordinates>73.95145,15.66368,0.0</coordinates>
            </Point>
        </Placemark>
        <Placemark id="3370">
            <ExtendedData>
                <Data name="direction">
                    <value>https://maps.google.com?q=15.63281,73.9496&amp;t=h</value>
                </Data>
                <Data name="id">
                    <value>2297</value>
                </Data>
                <Data name="Sr.No">
                    <value>2297</value>
                </Data>
                <Data name="Reg No">
                    <value>1993/Bicholim</value>
                </Data>
                <Data name="Category">
                    <value>agricultural</value>
                </Data>
                <Data name="Type Of Well">
                    <value>Open Well</value>
                </Data>
                <Data name="Applicant Name">
                    <value>Shri Shaikh Afzal Ali Muzawar</value>
                </Data>
                <Data name="Applicant Address">
                    <value>H. No. 2768, opp. Police Quarters, Muslimwada, Bicholim- Goa.</value>
                </Data>
                <Data name="latitude">
                    <value>15.63281</value>
                </Data>
                <Data name="longitude">
                    <value>73.9496</value>
                </Data>
                <Data name="taluka">
                    <value>Bicholim</value>
                </Data>
                <Data name="village">
                    <value>Latambarcem</value>
                </Data>
            </ExtendedData>
            <Point id="3369">
                <coordinates>73.9496,15.63281,0.0</coordinates>
            </Point>
        </Placemark>
        <Placemark id="3385">
            <ExtendedData>
                <Data name="direction">
                    <value>https://maps.google.com?q=15.656134,73.94792&amp;t=h</value>
                </Data>
                <Data name="id">
                    <value>2298</value>
                </Data>
                <Data name="Sr.No">
                    <value>2298</value>
                </Data>
                <Data name="Reg No">
                    <value>27/19/Bicholim</value>
                </Data>
                <Data name="Category">
                    <value>agricultural</value>
                </Data>
                <Data name="Type Of Well">
                    <value>Open Well</value>
                </Data>
                <Data name="Applicant Name">
                    <value>Smt. Desai Shubhangi Sharad</value>
                </Data>
                <Data name="Applicant Address">
                    <value>H.no.19, at Goa Dodamarg, Latrambarcem, Bicholim-Goa</value>
                </Data>
                <Data name="latitude">
                    <value>15.656134</value>
                </Data>
                <Data name="longitude">
                    <value>73.94792</value>
                </Data>
                <Data name="taluka">
                    <value>Bicholim</value>
                </Data>
                <Data name="village">
                    <value>Latambarcem</value>
                </Data>
            </ExtendedData>
            <Point id="3384">
                <coordinates>73.94792,15.656134,0.0</coordinates>
            </Point>
        </Placemark>
        <Placemark id="3400">
            <ExtendedData>
                <Data name="direction">
                    <value>https://maps.google.com?q=15.67346,73.93921&amp;t=h</value>
                </Data>
                <Data name="id">
                    <value>2299</value>
                </Data>
                <Data name="Sr.No">
                    <value>2299</value>
                </Data>
                <Data name="Reg No">
                    <value>2745/Bicholim</value>
                </Data>
                <Data name="Category">
                    <value>agricultural</value>
                </Data>
                <Data name="Type Of Well">
                    <value>Open Well</value>
                </Data>
                <Data name="Applicant Name">
                    <value>Shri Rane Sanjay Sambhajirao</value>
                </Data>
                <Data name="Applicant Address">
                    <value>H. No. 1, Naikwada, Wadawal, Bicholim-Goa.</value>
                </Data>
                <Data name="latitude">
                    <value>15.67346</value>
                </Data>
                <Data name="longitude">
                    <value>73.93921</value>
                </Data>
                <Data name="taluka">
                    <value>Bicholim</value>
                </Data>
                <Data name="village">
                    <value>Latambarcem</value>
                </Data>
            </ExtendedData>
            <Point id="3399">
                <coordinates>73.93921,15.67346,0.0</coordinates>
            </Point>
        </Placemark>
        <Placemark id="3415">
            <ExtendedData>
                <Data name="direction">
                    <value>https://maps.google.com?q=15.64009,73.92881&amp;t=h</value>
                </Data>
                <Data name="id">
                    <value>2300</value>
                </Data>
                <Data name="Sr.No">
                    <value>2300</value>
                </Data>
                <Data name="Reg No">
                    <value>3174/Bicholim</value>
                </Data>
                <Data name="Category">
                    <value>agricultural</value>
                </Data>
                <Data name="Type Of Well">
                    <value>Open Well</value>
                </Data>
                <Data name="Applicant Name">
                    <value>Shri Salgaonkar Subhash Keshav</value>
                </Data>
                <Data name="Applicant Address">
                    <value>H.No.162/1,Pistewada, Nanoda, Latambarcem</value>
                </Data>
                <Data name="latitude">
                    <value>15.64009</value>
                </Data>
                <Data name="longitude">
                    <value>73.92881</value>
                </Data>
                <Data name="taluka">
                    <value>Bicholim</value>
                </Data>
                <Data name="village">
                    <value>Latambarcem</value>
                </Data>
            </ExtendedData>
            <Point id="3414">
                <coordinates>73.92881,15.64009,0.0</coordinates>
            </Point>
        </Placemark>
        <Placemark id="3430">
            <ExtendedData>
                <Data name="direction">
                    <value>https://maps.google.com?q=15.63548,73.92699&amp;t=h</value>
                </Data>
                <Data name="id">
                    <value>2301</value>
                </Data>
                <Data name="Sr.No">
                    <value>2301</value>
                </Data>
                <Data name="Reg No">
                    <value>31/Bicholim</value>
                </Data>
                <Data name="Category">
                    <value>agricultural</value>
                </Data>
                <Data name="Type Of Well">
                    <value>Open Well</value>
                </Data>
                <Data name="Applicant Name">
                    <value>Shri Samir Suresh Vazarkar</value>
                </Data>
                <Data name="Applicant Address">
                    <value>H.No.38, Varchawada, Nanora, Latambarcem-Goa</value>
                </Data>
                <Data name="latitude">
                    <value>15.63548</value>
                </Data>
                <Data name="longitude">
                    <value>73.92699</value>
                </Data>
                <Data name="taluka">
                    <value>Bicholim</value>
                </Data>
                <Data name="village">
                    <value>Latambarcem</value>
                </Data>
            </ExtendedData>
            <Point id="3429">
                <coordinates>73.92699,15.63548,0.0</coordinates>
            </Point>
        </Placemark>
        <Placemark id="3445">
            <ExtendedData>
                <Data name="direction">
                    <value>https://maps.google.com?q=15.6315,73.90956&amp;t=h</value>
                </Data>
                <Data name="id">
                    <value>2331</value>
                </Data>
                <Data name="Sr.No">
                    <value>2331</value>
                </Data>
                <Data name="Reg No">
                    <value>3079/Bicholim</value>
                </Data>
                <Data name="Category">
                    <value>horticulture</value>
                </Data>
                <Data name="Type Of Well">
                    <value>Open Well</value>
                </Data>
                <Data name="Applicant Name">
                    <value>Bhakta Gurudatta D.(CAZCAR)</value>
                </Data>
                <Data name="Applicant Address">
                    <value>D3/26,Tivim, Industrial Estate, Karaswado, Mapusa Goa 403507</value>
                </Data>
                <Data name="latitude">
                    <value>15.6315</value>
                </Data>
                <Data name="longitude">
                    <value>73.90956</value>
                </Data>
                <Data name="taluka">
                    <value>Bicholim</value>
                </Data>
                <Data name="village">
                    <value>Latambarcem</value>
                </Data>
            </ExtendedData>
            <Point id="3444">
                <coordinates>73.90956,15.6315,0.0</coordinates>
            </Point>
        </Placemark>
        <Placemark id="3460">
            <ExtendedData>
                <Data name="direction">
                    <value>https://maps.google.com?q=15.627609,73.958082&amp;t=h</value>
                </Data>
                <Data name="id">
                    <value>2405</value>
                </Data>
                <Data name="Sr.No">
                    <value>2405</value>
                </Data>
                <Data name="Reg No">
                    <value>BIC/112/2021</value>
                </Data>
                <Data name="Category">
                    <value>agricultural</value>
                </Data>
                <Data name="Type Of Well">
                    <value>Open Well</value>
                </Data>
                <Data name="Applicant Name">
                    <value>Sagun Raghu Malik</value>
                </Data>
                <Data name="Applicant Address">
                    <value>Hno. 44, Madhalawada, Ladfe Latambarcem, Bicholim Goa 403504</value>
                </Data>
                <Data name="latitude">
                    <value>15.627609</value>
                </Data>
                <Data name="longitude">
                    <value>73.958082</value>
                </Data>
                <Data name="taluka">
                    <value>Bicholim</value>
                </Data>
                <Data name="village">
                    <value>Latambarcem</value>
                </Data>
            </ExtendedData>
            <Point id="3459">
                <coordinates>73.958082,15.627609,0.0</coordinates>
            </Point>
        </Placemark>
        <Placemark id="3475">
            <ExtendedData>
                <Data name="direction">
                    <value>https://maps.google.com?q=15.628082,73.956923&amp;t=h</value>
                </Data>
                <Data name="id">
                    <value>2406</value>
                </Data>
                <Data name="Sr.No">
                    <value>2406</value>
                </Data>
                <Data name="Reg No">
                    <value>BIC/152/2022</value>
                </Data>
                <Data name="Category">
                    <value>agricultural</value>
                </Data>
                <Data name="Type Of Well">
                    <value>Open Well</value>
                </Data>
                <Data name="Applicant Name">
                    <value>Raghunath Sajiro Malik</value>
                </Data>
                <Data name="Applicant Address">
                    <value>Hno. 44, Ladfe, Latambarcem, Bicholim Goa 403504,</value>
                </Data>
                <Data name="latitude">
                    <value>15.628082</value>
                </Data>
                <Data name="longitude">
                    <value>73.956923</value>
                </Data>
                <Data name="taluka">
                    <value>Bicholim</value>
                </Data>
                <Data name="village">
                    <value>Latambarcem</value>
                </Data>
            </ExtendedData>
            <Point id="3474">
                <coordinates>73.956923,15.628082,0.0</coordinates>
            </Point>
        </Placemark>
        <Placemark id="3490">
            <ExtendedData>
                <Data name="direction">
                    <value>https://maps.google.com?q=15.62882,73.956674&amp;t=h</value>
                </Data>
                <Data name="id">
                    <value>2407</value>
                </Data>
                <Data name="Sr.No">
                    <value>2407</value>
                </Data>
                <Data name="Reg No">
                    <value>BIC/96/2021</value>
                </Data>
                <Data name="Category">
                    <value>agricultural</value>
                </Data>
                <Data name="Type Of Well">
                    <value>Open Well</value>
                </Data>
                <Data name="Applicant Name">
                    <value>Sagun Raghu Malik</value>
                </Data>
                <Data name="Applicant Address">
                    <value>Hno. 44, Madhalawada, Ladfe Latambarcem, Bicholim Goa 403504</value>
                </Data>
                <Data name="latitude">
                    <value>15.62882</value>
                </Data>
                <Data name="longitude">
                    <value>73.956674</value>
                </Data>
                <Data name="taluka">
                    <value>Bicholim</value>
                </Data>
                <Data name="village">
                    <value>Latambarcem</value>
                </Data>
            </ExtendedData>
            <Point id="3489">
                <coordinates>73.956674,15.62882,0.0</coordinates>
            </Point>
        </Placemark>
        <Placemark id="3505">
            <ExtendedData>
                <Data name="direction">
                    <value>https://maps.google.com?q=15.628491,73.955728&amp;t=h</value>
                </Data>
                <Data name="id">
                    <value>2408</value>
                </Data>
                <Data name="Sr.No">
                    <value>2408</value>
                </Data>
                <Data name="Reg No">
                    <value>BIC/42/2020</value>
                </Data>
                <Data name="Category">
                    <value>horticulture</value>
                </Data>
                <Data name="Type Of Well">
                    <value>Open Well</value>
                </Data>
                <Data name="Applicant Name">
                    <value>Uttam Raghu Mopkar</value>
                </Data>
                <Data name="Applicant Address">
                    <value>HNo. 1, Ladfem,Latambarcem,, Bicholim Goa 403504,</value>
                </Data>
                <Data name="latitude">
                    <value>15.628491</value>
                </Data>
                <Data name="longitude">
                    <value>73.955728</value>
                </Data>
                <Data name="taluka">
                    <value>Bicholim</value>
                </Data>
                <Data name="village">
                    <value>Latambarcem</value>
                </Data>
            </ExtendedData>
            <Point id="3504">
                <coordinates>73.955728,15.628491,0.0</coordinates>
            </Point>
        </Placemark>
        <Placemark id="3520">
            <ExtendedData>
                <Data name="direction">
                    <value>https://maps.google.com?q=15.637428,73.945979&amp;t=h</value>
                </Data>
                <Data name="id">
                    <value>2409</value>
                </Data>
                <Data name="Sr.No">
                    <value>2409</value>
                </Data>
                <Data name="Reg No">
                    <value>BIC/82/2020</value>
                </Data>
                <Data name="Category">
                    <value>irrigation</value>
                </Data>
                <Data name="Type Of Well">
                    <value>Open Well</value>
                </Data>
                <Data name="Applicant Name">
                    <value>Shubam Mahadev Vaze</value>
                </Data>
                <Data name="Applicant Address">
                    <value>Hno.98., Sonar bhat, Latambarcem, Bicholim Goa 403504</value>
                </Data>
                <Data name="latitude">
                    <value>15.637428</value>
                </Data>
                <Data name="longitude">
                    <value>73.945979</value>
                </Data>
                <Data name="taluka">
                    <value>Bicholim</value>
                </Data>
                <Data name="village">
                    <value>Latambarcem</value>
                </Data>
            </ExtendedData>
            <Point id="3519">
                <coordinates>73.945979,15.637428,0.0</coordinates>
            </Point>
        </Placemark>
        <Placemark id="3535">
            <ExtendedData>
                <Data name="direction">
                    <value>https://maps.google.com?q=15.63506,73.945294&amp;t=h</value>
                </Data>
                <Data name="id">
                    <value>2411</value>
                </Data>
                <Data name="Sr.No">
                    <value>2411</value>
                </Data>
                <Data name="Reg No">
                    <value>BIC/76/2020</value>
                </Data>
                <Data name="Category">
                    <value>agricultural</value>
                </Data>
                <Data name="Type Of Well">
                    <value>Open Well</value>
                </Data>
                <Data name="Applicant Name">
                    <value>Suresh Rajaram Naik</value>
                </Data>
                <Data name="Applicant Address">
                    <value>Hno. 2570,Housing Board Colony, Bicholim Goa 403504</value>
                </Data>
                <Data name="latitude">
                    <value>15.63506</value>
                </Data>
                <Data name="longitude">
                    <value>73.945294</value>
                </Data>
                <Data name="taluka">
                    <value>Bicholim</value>
                </Data>
                <Data name="village">
                    <value>Latambarcem</value>
                </Data>
            </ExtendedData>
            <Point id="3534">
                <coordinates>73.945294,15.63506,0.0</coordinates>
            </Point>
        </Placemark>
        <Placemark id="3550">
            <ExtendedData>
                <Data name="direction">
                    <value>https://maps.google.com?q=15.644557,73.942831&amp;t=h</value>
                </Data>
                <Data name="id">
                    <value>2412</value>
                </Data>
                <Data name="Sr.No">
                    <value>2412</value>
                </Data>
                <Data name="Reg No">
                    <value>BIC/50/2020</value>
                </Data>
                <Data name="Category">
                    <value>horticulture</value>
                </Data>
                <Data name="Type Of Well">
                    <value>Open Well</value>
                </Data>
                <Data name="Applicant Name">
                    <value>Vishnu Manohar Kasarpalkar</value>
                </Data>
                <Data name="Applicant Address">
                    <value>HNo. 117, Khaitwada, Kasarpal Latambrcem,, Bicholim Goa 403504</value>
                </Data>
                <Data name="latitude">
                    <value>15.644557</value>
                </Data>
                <Data name="longitude">
                    <value>73.942831</value>
                </Data>
                <Data name="taluka">
                    <value>Bicholim</value>
                </Data>
                <Data name="village">
                    <value>Latambarcem</value>
                </Data>
            </ExtendedData>
            <Point id="3549">
                <coordinates>73.942831,15.644557,0.0</coordinates>
            </Point>
        </Placemark>
        <Placemark id="3565">
            <ExtendedData>
                <Data name="direction">
                    <value>https://maps.google.com?q=15.649131,73.946774&amp;t=h</value>
                </Data>
                <Data name="id">
                    <value>2413</value>
                </Data>
                <Data name="Sr.No">
                    <value>2413</value>
                </Data>
                <Data name="Reg No">
                    <value>BIC/144/2022</value>
                </Data>
                <Data name="Category">
                    <value>agricultural</value>
                </Data>
                <Data name="Type Of Well">
                    <value>Open Well</value>
                </Data>
                <Data name="Applicant Name">
                    <value>Ravindra Yeshwant Gawas</value>
                </Data>
                <Data name="Applicant Address">
                    <value>Hno. 193,Fanaswada, Latambarcem,, Bicholim Goa 403504</value>
                </Data>
                <Data name="latitude">
                    <value>15.649131</value>
                </Data>
                <Data name="longitude">
                    <value>73.946774</value>
                </Data>
                <Data name="taluka">
                    <value>Bicholim</value>
                </Data>
                <Data name="village">
                    <value>Latambarcem</value>
                </Data>
            </ExtendedData>
            <Point id="3564">
                <coordinates>73.946774,15.649131,0.0</coordinates>
            </Point>
        </Placemark>
        <Placemark id="3580">
            <ExtendedData>
                <Data name="direction">
                    <value>https://maps.google.com?q=15.638495,73.917088&amp;t=h</value>
                </Data>
                <Data name="id">
                    <value>2414</value>
                </Data>
                <Data name="Sr.No">
                    <value>2414</value>
                </Data>
                <Data name="Reg No">
                    <value>BIC/89/2021</value>
                </Data>
                <Data name="Category">
                    <value>agricultural</value>
                </Data>
                <Data name="Type Of Well">
                    <value>Open Well</value>
                </Data>
                <Data name="Applicant Name">
                    <value>Anand Mahadev Pednekar</value>
                </Data>
                <Data name="Applicant Address">
                    <value>Hno, 89/1, Bhatwadi, Nanora, Latambrcem, Bicholim Goa 403504</value>
                </Data>
                <Data name="latitude">
                    <value>15.638495</value>
                </Data>
                <Data name="longitude">
                    <value>73.917088</value>
                </Data>
                <Data name="taluka">
                    <value>Bicholim</value>
                </Data>
                <Data name="village">
                    <value>Latambarcem</value>
                </Data>
            </ExtendedData>
            <Point id="3579">
                <coordinates>73.917088,15.638495,0.0</coordinates>
            </Point>
        </Placemark>
    </Document>
</kml>
