<?xml version="1.0" encoding="UTF-8"?>
<kml xmlns="http://www.opengis.net/kml/2.2" xmlns:gx="http://www.google.com/kml/ext/2.2">
    <Document id="4582">
        <Placemark id="4584">
            <ExtendedData>
                <Data name="direction">
                    <value>https://maps.google.com?q=15.53229,74.00556&amp;t=h</value>
                </Data>
                <Data name="id">
                    <value>2034</value>
                </Data>
                <Data name="Sr.No">
                    <value>2034</value>
                </Data>
                <Data name="Reg No">
                    <value>2313/Bicholim</value>
                </Data>
                <Data name="Category">
                    <value>agricultural</value>
                </Data>
                <Data name="Type Of Well">
                    <value>Open Well</value>
                </Data>
                <Data name="Applicant Name">
                    <value>Shri Gawas Saju Gopal</value>
                </Data>
                <Data name="Applicant Address">
                    <value>H. No. 83, Bharoniwada, NAVELIM, Sankhali, Bicholim</value>
                </Data>
                <Data name="latitude">
                    <value>15.53229</value>
                </Data>
                <Data name="longitude">
                    <value>74.00556</value>
                </Data>
                <Data name="taluka">
                    <value>Bicholim</value>
                </Data>
                <Data name="village">
                    <value>Navelim</value>
                </Data>
            </ExtendedData>
            <Point id="4583">
                <coordinates>74.00556,15.53229,0.0</coordinates>
            </Point>
        </Placemark>
        <Placemark id="4599">
            <ExtendedData>
                <Data name="direction">
                    <value>https://maps.google.com?q=15.52796,74.00168&amp;t=h</value>
                </Data>
                <Data name="id">
                    <value>2035</value>
                </Data>
                <Data name="Sr.No">
                    <value>2035</value>
                </Data>
                <Data name="Reg No">
                    <value>2314/Bicholim</value>
                </Data>
                <Data name="Category">
                    <value>agricultural</value>
                </Data>
                <Data name="Type Of Well">
                    <value>Open Well</value>
                </Data>
                <Data name="Applicant Name">
                    <value>Shri Gawas Saju Gopal</value>
                </Data>
                <Data name="Applicant Address">
                    <value>H. No. 83, Bharoniwada, NAVELIM, Sankhali, Bicholim</value>
                </Data>
                <Data name="latitude">
                    <value>15.52796</value>
                </Data>
                <Data name="longitude">
                    <value>74.00168</value>
                </Data>
                <Data name="taluka">
                    <value>Bicholim</value>
                </Data>
                <Data name="village">
                    <value>Navelim</value>
                </Data>
            </ExtendedData>
            <Point id="4598">
                <coordinates>74.00168,15.52796,0.0</coordinates>
            </Point>
        </Placemark>
        <Placemark id="4614">
            <ExtendedData>
                <Data name="direction">
                    <value>https://maps.google.com?q=15.52823,74.00086&amp;t=h</value>
                </Data>
                <Data name="id">
                    <value>2036</value>
                </Data>
                <Data name="Sr.No">
                    <value>2036</value>
                </Data>
                <Data name="Reg No">
                    <value>2315/Bicholim</value>
                </Data>
                <Data name="Category">
                    <value>agricultural</value>
                </Data>
                <Data name="Type Of Well">
                    <value>Open Well</value>
                </Data>
                <Data name="Applicant Name">
                    <value>Shri Gawas Saju Gopal</value>
                </Data>
                <Data name="Applicant Address">
                    <value>H. No. 83, Bharoniwada, NAVELIM, Sankhali, Bicholim</value>
                </Data>
                <Data name="latitude">
                    <value>15.52823</value>
                </Data>
                <Data name="longitude">
                    <value>74.00086</value>
                </Data>
                <Data name="taluka">
                    <value>Bicholim</value>
                </Data>
                <Data name="village">
                    <value>Navelim</value>
                </Data>
            </ExtendedData>
            <Point id="4613">
                <coordinates>74.00086,15.52823,0.0</coordinates>
            </Point>
        </Placemark>
        <Placemark id="4629">
            <ExtendedData>
                <Data name="direction">
                    <value>https://maps.google.com?q=15.52114,74.01444&amp;t=h</value>
                </Data>
                <Data name="id">
                    <value>2038</value>
                </Data>
                <Data name="Sr.No">
                    <value>2038</value>
                </Data>
                <Data name="Reg No">
                    <value>3020/Bicholim</value>
                </Data>
                <Data name="Category">
                    <value>agricultural</value>
                </Data>
                <Data name="Type Of Well">
                    <value>Open Well</value>
                </Data>
                <Data name="Applicant Name">
                    <value>Shri Gawas Nilkanth Jairam</value>
                </Data>
                <Data name="Applicant Address">
                    <value>H. No.140, Gaonkarwada, Navelim, Sankhali, Bicholim Goa.</value>
                </Data>
                <Data name="latitude">
                    <value>15.52114</value>
                </Data>
                <Data name="longitude">
                    <value>74.01444</value>
                </Data>
                <Data name="taluka">
                    <value>Bicholim</value>
                </Data>
                <Data name="village">
                    <value>Navelim</value>
                </Data>
            </ExtendedData>
            <Point id="4628">
                <coordinates>74.01444,15.52114,0.0</coordinates>
            </Point>
        </Placemark>
        <Placemark id="4644">
            <ExtendedData>
                <Data name="direction">
                    <value>https://maps.google.com?q=15.528618,74.002131&amp;t=h</value>
                </Data>
                <Data name="id">
                    <value>2375</value>
                </Data>
                <Data name="Sr.No">
                    <value>2375</value>
                </Data>
                <Data name="Reg No">
                    <value>39/2019/BIC</value>
                </Data>
                <Data name="Category">
                    <value>irrigation</value>
                </Data>
                <Data name="Type Of Well">
                    <value>Open Well</value>
                </Data>
                <Data name="Applicant Name">
                    <value>Damodar Shantaram Gauns</value>
                </Data>
                <Data name="Applicant Address">
                    <value>Perwada, Navelim, Sankhali -Goa</value>
                </Data>
                <Data name="latitude">
                    <value>15.528618</value>
                </Data>
                <Data name="longitude">
                    <value>74.002131</value>
                </Data>
                <Data name="taluka">
                    <value>Bicholim</value>
                </Data>
                <Data name="village">
                    <value>Navelim</value>
                </Data>
            </ExtendedData>
            <Point id="4643">
                <coordinates>74.002131,15.528618,0.0</coordinates>
            </Point>
        </Placemark>
        <Placemark id="4659">
            <ExtendedData>
                <Data name="direction">
                    <value>https://maps.google.com?q=15.507213,74.00445&amp;t=h</value>
                </Data>
                <Data name="id">
                    <value>2376</value>
                </Data>
                <Data name="Sr.No">
                    <value>2376</value>
                </Data>
                <Data name="Reg No">
                    <value>162/2022/BIC</value>
                </Data>
                <Data name="Category">
                    <value>agricultural</value>
                </Data>
                <Data name="Type Of Well">
                    <value>Open Well</value>
                </Data>
                <Data name="Applicant Name">
                    <value>Digamber Ankush Naik</value>
                </Data>
                <Data name="Applicant Address">
                    <value>Maina, Navelim-Sankhali Goa</value>
                </Data>
                <Data name="latitude">
                    <value>15.507213</value>
                </Data>
                <Data name="longitude">
                    <value>74.00445</value>
                </Data>
                <Data name="taluka">
                    <value>Bicholim</value>
                </Data>
                <Data name="village">
                    <value>Navelim</value>
                </Data>
            </ExtendedData>
            <Point id="4658">
                <coordinates>74.00445,15.507213,0.0</coordinates>
            </Point>
        </Placemark>
        <Placemark id="4674">
            <ExtendedData>
                <Data name="direction">
                    <value>https://maps.google.com?q=15.50255,74.006367&amp;t=h</value>
                </Data>
                <Data name="id">
                    <value>2378</value>
                </Data>
                <Data name="Sr.No">
                    <value>2378</value>
                </Data>
                <Data name="Reg No">
                    <value>34/34/BIC</value>
                </Data>
                <Data name="Category">
                    <value>agricultural</value>
                </Data>
                <Data name="Type Of Well">
                    <value>Dug well</value>
                </Data>
                <Data name="Applicant Name">
                    <value>Mangaldas Krishna Gauns</value>
                </Data>
                <Data name="Applicant Address">
                    <value>Bharoniwada, Navelim-Sankhali Goa</value>
                </Data>
                <Data name="latitude">
                    <value>15.50255</value>
                </Data>
                <Data name="longitude">
                    <value>74.006367</value>
                </Data>
                <Data name="taluka">
                    <value>Bicholim</value>
                </Data>
                <Data name="village">
                    <value>Navelim</value>
                </Data>
            </ExtendedData>
            <Point id="4673">
                <coordinates>74.006367,15.50255,0.0</coordinates>
            </Point>
        </Placemark>
        <Placemark id="4689">
            <ExtendedData>
                <Data name="direction">
                    <value>https://maps.google.com?q=15.514762,74.021235&amp;t=h</value>
                </Data>
                <Data name="id">
                    <value>2388</value>
                </Data>
                <Data name="Sr.No">
                    <value>2388</value>
                </Data>
                <Data name="Reg No">
                    <value>1488/2014/BIC</value>
                </Data>
                <Data name="Category">
                    <value>agricultural</value>
                </Data>
                <Data name="Type Of Well">
                    <value>Open Well</value>
                </Data>
                <Data name="Applicant Name">
                    <value>Betkekar Shanu Pundalik</value>
                </Data>
                <Data name="Applicant Address">
                    <value>HNo. 301, Khodginem, Surla,, Bicholim Goa 403504</value>
                </Data>
                <Data name="latitude">
                    <value>15.514762</value>
                </Data>
                <Data name="longitude">
                    <value>74.021235</value>
                </Data>
                <Data name="taluka">
                    <value>Bicholim</value>
                </Data>
                <Data name="village">
                    <value>Navelim</value>
                </Data>
            </ExtendedData>
            <Point id="4688">
                <coordinates>74.021235,15.514762,0.0</coordinates>
            </Point>
        </Placemark>
    </Document>
</kml>
