<?xml version="1.0" encoding="UTF-8"?>
<kml xmlns="http://www.opengis.net/kml/2.2" xmlns:gx="http://www.google.com/kml/ext/2.2">
    <Document id="4828">
        <Placemark id="4830">
            <ExtendedData>
                <Data name="direction">
                    <value>https://maps.google.com?q=15.68149,73.94379&amp;t=h</value>
                </Data>
                <Data name="id">
                    <value>2136</value>
                </Data>
                <Data name="Sr.No">
                    <value>2136</value>
                </Data>
                <Data name="Reg No">
                    <value>3077/Bicholim</value>
                </Data>
                <Data name="Category">
                    <value>agricultural</value>
                </Data>
                <Data name="Type Of Well">
                    <value>Open Well</value>
                </Data>
                <Data name="Applicant Name">
                    <value>Shri Sawant Sumeet Suryakant</value>
                </Data>
                <Data name="Applicant Address">
                    <value>H. No. 592/2, Shiolkarwad, Mulgao, Bicholim Goa.</value>
                </Data>
                <Data name="latitude">
                    <value>15.68149</value>
                </Data>
                <Data name="longitude">
                    <value>73.94379</value>
                </Data>
                <Data name="taluka">
                    <value>Bicholim</value>
                </Data>
                <Data name="village">
                    <value>Salem</value>
                </Data>
            </ExtendedData>
            <Point id="4829">
                <coordinates>73.94379,15.68149,0.0</coordinates>
            </Point>
        </Placemark>
        <Placemark id="4845">
            <ExtendedData>
                <Data name="direction">
                    <value>https://maps.google.com?q=15.69078,73.93232&amp;t=h</value>
                </Data>
                <Data name="id">
                    <value>2348</value>
                </Data>
                <Data name="Sr.No">
                    <value>2348</value>
                </Data>
                <Data name="Reg No">
                    <value>252/Bicholim</value>
                </Data>
                <Data name="Category">
                    <value>agricultural</value>
                </Data>
                <Data name="Type Of Well">
                    <value>Open Well</value>
                </Data>
                <Data name="Applicant Name">
                    <value>Bhaip Ranjita Ramnath</value>
                </Data>
                <Data name="Applicant Address">
                    <value>H. No27 (3) B,, Kalchawada,Salem, Bicholim Goa 403504</value>
                </Data>
                <Data name="latitude">
                    <value>15.69078</value>
                </Data>
                <Data name="longitude">
                    <value>73.93232</value>
                </Data>
                <Data name="taluka">
                    <value>Bicholim</value>
                </Data>
                <Data name="village">
                    <value>Salem</value>
                </Data>
            </ExtendedData>
            <Point id="4844">
                <coordinates>73.93232,15.69078,0.0</coordinates>
            </Point>
        </Placemark>
        <Placemark id="4860">
            <ExtendedData>
                <Data name="direction">
                    <value>https://maps.google.com?q=15.683333,73.939131&amp;t=h</value>
                </Data>
                <Data name="id">
                    <value>2350</value>
                </Data>
                <Data name="Sr.No">
                    <value>2350</value>
                </Data>
                <Data name="Reg No">
                    <value>2984/Bicholim</value>
                </Data>
                <Data name="Category">
                    <value>agricultural</value>
                </Data>
                <Data name="Type Of Well">
                    <value>Open Well</value>
                </Data>
                <Data name="Applicant Name">
                    <value>Shri Naik Babal Ganpat</value>
                </Data>
                <Data name="Applicant Address">
                    <value>Zarebamber Vasahat, DodaMarg, Maharashtra, 416512.</value>
                </Data>
                <Data name="latitude">
                    <value>15.683333</value>
                </Data>
                <Data name="longitude">
                    <value>73.939131</value>
                </Data>
                <Data name="taluka">
                    <value>Bicholim</value>
                </Data>
                <Data name="village">
                    <value>Salem</value>
                </Data>
            </ExtendedData>
            <Point id="4859">
                <coordinates>73.939131,15.683333,0.0</coordinates>
            </Point>
        </Placemark>
        <Placemark id="4875">
            <ExtendedData>
                <Data name="direction">
                    <value>https://maps.google.com?q=15.68692,73.96185&amp;t=h</value>
                </Data>
                <Data name="id">
                    <value>2351</value>
                </Data>
                <Data name="Sr.No">
                    <value>2351</value>
                </Data>
                <Data name="Reg No">
                    <value>03/19/Bicholim</value>
                </Data>
                <Data name="Category">
                    <value>agricultural</value>
                </Data>
                <Data name="Type Of Well">
                    <value>Open Well</value>
                </Data>
                <Data name="Applicant Name">
                    <value>Shri Dessai Ramchandra Gapatrao</value>
                </Data>
                <Data name="Applicant Address">
                    <value>H.No. T/3, Sal Punarvasan in Bicholim Taluka</value>
                </Data>
                <Data name="latitude">
                    <value>15.68692</value>
                </Data>
                <Data name="longitude">
                    <value>73.96185</value>
                </Data>
                <Data name="taluka">
                    <value>Bicholim</value>
                </Data>
                <Data name="village">
                    <value>Salem</value>
                </Data>
            </ExtendedData>
            <Point id="4874">
                <coordinates>73.96185,15.68692,0.0</coordinates>
            </Point>
        </Placemark>
        <Placemark id="4890">
            <ExtendedData>
                <Data name="direction">
                    <value>https://maps.google.com?q=15.68133,73.95314&amp;t=h</value>
                </Data>
                <Data name="id">
                    <value>2352</value>
                </Data>
                <Data name="Sr.No">
                    <value>2352</value>
                </Data>
                <Data name="Reg No">
                    <value>3217/Bicholim</value>
                </Data>
                <Data name="Category">
                    <value>agricultural</value>
                </Data>
                <Data name="Type Of Well">
                    <value>Open Well</value>
                </Data>
                <Data name="Applicant Name">
                    <value>Shri Shinde Dattaram Dhaku</value>
                </Data>
                <Data name="Applicant Address">
                    <value>H. No. 337, Kholpewadi, Sal, Bicholim Goa.</value>
                </Data>
                <Data name="latitude">
                    <value>15.68133</value>
                </Data>
                <Data name="longitude">
                    <value>73.95314</value>
                </Data>
                <Data name="taluka">
                    <value>Bicholim</value>
                </Data>
                <Data name="village">
                    <value>Salem</value>
                </Data>
            </ExtendedData>
            <Point id="4889">
                <coordinates>73.95314,15.68133,0.0</coordinates>
            </Point>
        </Placemark>
        <Placemark id="4905">
            <ExtendedData>
                <Data name="direction">
                    <value>https://maps.google.com?q=15.686394,73.93889&amp;t=h</value>
                </Data>
                <Data name="id">
                    <value>2416</value>
                </Data>
                <Data name="Sr.No">
                    <value>2416</value>
                </Data>
                <Data name="Reg No">
                    <value>BIC/87/2021</value>
                </Data>
                <Data name="Category">
                    <value>agricultural</value>
                </Data>
                <Data name="Type Of Well">
                    <value>Open Well</value>
                </Data>
                <Data name="Applicant Name">
                    <value>Fati Fondu Raut</value>
                </Data>
                <Data name="Applicant Address">
                    <value>Hno. 81/A-1, Khalchawada, Sal,, Bicholim Goa 403504</value>
                </Data>
                <Data name="latitude">
                    <value>15.686394</value>
                </Data>
                <Data name="longitude">
                    <value>73.93889</value>
                </Data>
                <Data name="taluka">
                    <value>Bicholim</value>
                </Data>
                <Data name="village">
                    <value>Salem</value>
                </Data>
            </ExtendedData>
            <Point id="4904">
                <coordinates>73.93889,15.686394,0.0</coordinates>
            </Point>
        </Placemark>
        <Placemark id="4920">
            <ExtendedData>
                <Data name="direction">
                    <value>https://maps.google.com?q=15.695708,73.934782&amp;t=h</value>
                </Data>
                <Data name="id">
                    <value>2417</value>
                </Data>
                <Data name="Sr.No">
                    <value>2417</value>
                </Data>
                <Data name="Reg No">
                    <value>BIC/127/2021</value>
                </Data>
                <Data name="Category">
                    <value>agricultural</value>
                </Data>
                <Data name="Type Of Well">
                    <value>Open Well</value>
                </Data>
                <Data name="Applicant Name">
                    <value>Shekhar Soma Raut</value>
                </Data>
                <Data name="Applicant Address">
                    <value>Hno.216, Varcha Wada,Salem,, Bicholim Goa 403504,</value>
                </Data>
                <Data name="latitude">
                    <value>15.695708</value>
                </Data>
                <Data name="longitude">
                    <value>73.934782</value>
                </Data>
                <Data name="taluka">
                    <value>Bicholim</value>
                </Data>
                <Data name="village">
                    <value>Salem</value>
                </Data>
            </ExtendedData>
            <Point id="4919">
                <coordinates>73.934782,15.695708,0.0</coordinates>
            </Point>
        </Placemark>
        <Placemark id="4935">
            <ExtendedData>
                <Data name="direction">
                    <value>https://maps.google.com?q=15.68078,73.943533&amp;t=h</value>
                </Data>
                <Data name="id">
                    <value>2418</value>
                </Data>
                <Data name="Sr.No">
                    <value>2418</value>
                </Data>
                <Data name="Reg No">
                    <value>BIC/35/2019</value>
                </Data>
                <Data name="Category">
                    <value>agricultural</value>
                </Data>
                <Data name="Type Of Well">
                    <value>Open Well</value>
                </Data>
                <Data name="Applicant Name">
                    <value>Shailesh Pundalik Chodankar</value>
                </Data>
                <Data name="Applicant Address">
                    <value>HNo. 36. Madhlawada,Salem, Bicholim Goa 403504</value>
                </Data>
                <Data name="latitude">
                    <value>15.68078</value>
                </Data>
                <Data name="longitude">
                    <value>73.943533</value>
                </Data>
                <Data name="taluka">
                    <value>Bicholim</value>
                </Data>
                <Data name="village">
                    <value>Salem</value>
                </Data>
            </ExtendedData>
            <Point id="4934">
                <coordinates>73.943533,15.68078,0.0</coordinates>
            </Point>
        </Placemark>
    </Document>
</kml>
