<?xml version="1.0" encoding="UTF-8"?>
<kml xmlns="http://www.opengis.net/kml/2.2" xmlns:gx="http://www.google.com/kml/ext/2.2">
    <Document id="1834">
        <Placemark id="1836">
            <ExtendedData>
                <Data name="id">
                    <value>153</value>
                </Data>
                <Data name="taluka">
                    <value>Pernem</value>
                </Data>
                <Data name="village">
                    <value>Chopdem</value>
                </Data>
                <Data name="lg_code">
                    <value>626656</value>
                </Data>
                <Data name="dslr_code">
                    <value>00002500</value>
                </Data>
            </ExtendedData>
            <Polygon id="1835">
                <outerBoundaryIs>
                    <LinearRing id="1839">
                        <coordinates>73.751453194,15.632850497,0.0 73.752896401,15.633745667,0.0 73.752919212,15.634221513,0.0 73.753323821,15.634795973,0.0 73.754391091,15.63524278,0.0 73.755076558,15.635598523,0.0 73.755263457,15.635734681,0.0 73.75531825,15.635538372,0.0 73.75571562,15.635652105,0.0 73.75607418,15.635629846,0.0 73.756549484,15.635751217,0.0 73.7566199,15.635524714,0.0 73.759519511,15.63538441,0.0 73.760150709,15.635498392,0.0 73.76096092,15.635831595,0.0 73.76121777,15.636141536,0.0 73.761318535,15.636625018,0.0 73.761255892,15.63687419,0.0 73.762294913,15.638185712,0.0 73.762426772,15.638744755,0.0 73.762087496,15.638936981,0.0 73.762110744,15.639054073,0.0 73.761190649,15.639366511,0.0 73.760824481,15.63922261,0.0 73.760559513,15.639188334,0.0 73.7601615,15.639618403,0.0 73.760024694,15.639965678,0.0 73.759642073,15.640561922,0.0 73.759462131,15.64113573,0.0 73.75926698,15.641384755,0.0 73.75891213,15.641558078,0.0 73.75863909,15.641757924,0.0 73.757909467,15.642474626,0.0 73.757597457,15.642670651,0.0 73.756443281,15.643171627,0.0 73.756216659,15.643662301,0.0 73.755180416,15.644981131,0.0 73.755093475,15.644954347,0.0 73.75198392,15.647807664,0.0 73.748819184,15.647310549,0.0 73.74885295,15.643153961,0.0 73.748334524,15.638871623,0.0 73.747964041,15.636806785,0.0 73.748207146,15.634513272,0.0 73.748878943,15.633601738,0.0 73.749883916,15.632991207,0.0 73.750524191,15.632925903,0.0 73.750590439,15.633011127,0.0 73.750780915,15.632975664,0.0 73.751453194,15.632850497,0.0</coordinates>
                    </LinearRing>
                </outerBoundaryIs>
            </Polygon>
        </Placemark>
    </Document>
</kml>
