<?xml version="1.0" encoding="UTF-8"?>
<kml xmlns="http://www.opengis.net/kml/2.2" xmlns:gx="http://www.google.com/kml/ext/2.2">
    <Document id="1890">
        <Placemark id="1892">
            <ExtendedData>
                <Data name="id">
                    <value>134</value>
                </Data>
                <Data name="taluka">
                    <value>Pernem</value>
                </Data>
                <Data name="village">
                    <value>Mandrem</value>
                </Data>
                <Data name="lg_code">
                    <value>626659</value>
                </Data>
                <Data name="dslr_code">
                    <value>00002300</value>
                </Data>
            </ExtendedData>
            <Polygon id="1891">
                <outerBoundaryIs>
                    <LinearRing id="1895">
                        <coordinates>73.748819184,15.647310549,0.0 73.75198392,15.647807664,0.0 73.755093475,15.644954347,0.0 73.755523727,15.645086894,0.0 73.757041584,15.647563096,0.0 73.758459927,15.649288482,0.0 73.75844527,15.649552599,0.0 73.760940201,15.650841248,0.0 73.760724401,15.651348427,0.0 73.760141678,15.652765769,0.0 73.759853065,15.654190384,0.0 73.759507642,15.655114472,0.0 73.758566027,15.656684335,0.0 73.758169126,15.658671848,0.0 73.756069995,15.66232568,0.0 73.756169278,15.663298913,0.0 73.757050389,15.664405081,0.0 73.757651592,15.665615199,0.0 73.760598608,15.66697386,0.0 73.761042902,15.66741225,0.0 73.761616625,15.667600549,0.0 73.764376853,15.66923004,0.0 73.76627044,15.669614368,0.0 73.768641759,15.672626614,0.0 73.768935012,15.673426274,0.0 73.768883915,15.674204718,0.0 73.768222771,15.67517019,0.0 73.766190661,15.676676367,0.0 73.765529893,15.677294287,0.0 73.763907186,15.678376878,0.0 73.759571497,15.680255842,0.0 73.757957065,15.680358325,0.0 73.756083005,15.681586546,0.0 73.754545065,15.683711789,0.0 73.753358472,15.685997287,0.0 73.752417101,15.687205672,0.0 73.751625637,15.6890398,0.0 73.750892765,15.68988002,0.0 73.749290048,15.692074658,0.0 73.748851958,15.692407796,0.0 73.745402146,15.691256916,0.0 73.745065702,15.690623997,0.0 73.744858593,15.68984526,0.0 73.74264502,15.687041474,0.0 73.742445831,15.685678873,0.0 73.741458147,15.683731469,0.0 73.740124748,15.682847131,0.0 73.736862278,15.681237585,0.0 73.735657434,15.680839934,0.0 73.732475365,15.678146088,0.0 73.731462944,15.678756523,0.0 73.728936297,15.679643116,0.0 73.726606556,15.678117982,0.0 73.725092657,15.678157791,0.0 73.722824747,15.678697096,0.0 73.719532541,15.677997817,0.0 73.716619239,15.678292951,0.0 73.715337122,15.6767482,0.0 73.713337593,15.675188601,0.0 73.711731723,15.674317636,0.0 73.710347491,15.674003021,0.0 73.70838236,15.673527755,0.0 73.707642769,15.673964671,0.0 73.706932478,15.673977623,0.0 73.708047275,15.672039828,0.0 73.70847756,15.672165516,0.0 73.707664916,15.673526798,0.0 73.708238999,15.673437203,0.0 73.709015355,15.672367806,0.0 73.708958836,15.671749106,0.0 73.709519616,15.67091575,0.0 73.709698995,15.670902086,0.0 73.710583094,15.669728563,0.0 73.711273644,15.668436618,0.0 73.711591087,15.667171982,0.0 73.711620184,15.666887035,0.0 73.712332853,15.665157211,0.0 73.712548932,15.66454582,0.0 73.712851974,15.663308966,0.0 73.713039024,15.662933865,0.0 73.713644928,15.660578319,0.0 73.713257774,15.660404042,0.0 73.713893446,15.657270037,0.0 73.714728103,15.655477805,0.0 73.715050838,15.655540782,0.0 73.715762381,15.654575537,0.0 73.716044058,15.653199632,0.0 73.715966941,15.651899722,0.0 73.71616978,15.650468107,0.0 73.716048087,15.650280276,0.0 73.715496226,15.649911165,0.0 73.71543974,15.649257711,0.0 73.715949133,15.649209715,0.0 73.715971249,15.648778791,0.0 73.716365901,15.648702842,0.0 73.716603251,15.648251343,0.0 73.717770878,15.64423525,0.0 73.71749844,15.644123685,0.0 73.717800362,15.643658366,0.0 73.718188421,15.643151452,0.0 73.718167566,15.642664864,0.0 73.718491889,15.641553142,0.0 73.718449381,15.641163839,0.0 73.719124801,15.640337551,0.0 73.720043823,15.639720099,0.0 73.720563206,15.640221224,0.0 73.720728204,15.640212746,0.0 73.720858999,15.640299798,0.0 73.721013201,15.640317371,0.0 73.7213663,15.6404551,0.0 73.721484368,15.640670727,0.0 73.721532628,15.640788953,0.0 73.721466124,15.640900082,0.0 73.721797653,15.641076013,0.0 73.721919623,15.64105879,0.0 73.721969904,15.64100846,0.0 73.722093672,15.640987764,0.0 73.722204907,15.640951413,0.0 73.722235249,15.64105919,0.0 73.722377984,15.641601539,0.0 73.722578451,15.641888516,0.0 73.722654881,15.642396026,0.0 73.722748009,15.64248998,0.0 73.723663679,15.643033304,0.0 73.724135145,15.643171177,0.0 73.724735371,15.643580295,0.0 73.725073806,15.64396128,0.0 73.72548568,15.644410127,0.0 73.725651743,15.644950765,0.0 73.725800249,15.645208133,0.0 73.725858944,15.645573127,0.0 73.726503976,15.646011837,0.0 73.727468383,15.646336253,0.0 73.72800961,15.646618436,0.0 73.728346403,15.646893413,0.0 73.730095641,15.647736628,0.0 73.734390543,15.649337099,0.0 73.736310516,15.651334317,0.0 73.738906702,15.651879593,0.0 73.748401492,15.647503092,0.0 73.748819184,15.647310549,0.0</coordinates>
                    </LinearRing>
                </outerBoundaryIs>
            </Polygon>
        </Placemark>
    </Document>
</kml>
