<?xml version="1.0" encoding="UTF-8"?>
<kml xmlns="http://www.opengis.net/kml/2.2" xmlns:gx="http://www.google.com/kml/ext/2.2">
    <Document id="1904">
        <Placemark id="1906">
            <ExtendedData>
                <Data name="id">
                    <value>147</value>
                </Data>
                <Data name="taluka">
                    <value>Pernem</value>
                </Data>
                <Data name="village">
                    <value>Mopa</value>
                </Data>
                <Data name="lg_code">
                    <value>626647</value>
                </Data>
                <Data name="dslr_code">
                    <value>00001400</value>
                </Data>
            </ExtendedData>
            <Polygon id="1905">
                <outerBoundaryIs>
                    <LinearRing id="1909">
                        <coordinates>73.868890843,15.734277191,0.0 73.873074599,15.7403581,0.0 73.873126244,15.740911993,0.0 73.874185822,15.742513774,0.0 73.874871895,15.742806205,0.0 73.877411715,15.746870985,0.0 73.877524234,15.749972678,0.0 73.876702475,15.750480761,0.0 73.874913458,15.751350815,0.0 73.873711563,15.752810304,0.0 73.872435775,15.75601189,0.0 73.872643304,15.756716927,0.0 73.872445368,15.757300884,0.0 73.872453472,15.760976516,0.0 73.874252081,15.761571705,0.0 73.875114609,15.762498661,0.0 73.875467633,15.763374971,0.0 73.876426385,15.764266731,0.0 73.876644441,15.76479554,0.0 73.876683208,15.765175713,0.0 73.876313757,15.765653838,0.0 73.875837719,15.76612435,0.0 73.87503638,15.767135947,0.0 73.875033708,15.76725427,0.0 73.875730191,15.767667548,0.0 73.876674072,15.767388636,0.0 73.877375766,15.767789323,0.0 73.8778032,15.770339843,0.0 73.876830497,15.770968683,0.0 73.875067703,15.771179153,0.0 73.87464136,15.771138627,0.0 73.875026883,15.769910283,0.0 73.87469947,15.76964827,0.0 73.874351604,15.768827348,0.0 73.873613916,15.767779619,0.0 73.873140773,15.767759204,0.0 73.872855345,15.766882929,0.0 73.870852958,15.76779814,0.0 73.868684272,15.768552108,0.0 73.866698131,15.768425023,0.0 73.864176095,15.768816202,0.0 73.861659972,15.768139915,0.0 73.860656442,15.768169485,0.0 73.858607312,15.768913359,0.0 73.858264726,15.768072275,0.0 73.857224902,15.767955788,0.0 73.856923298,15.768000906,0.0 73.856522832,15.76814666,0.0 73.85588334,15.768075747,0.0 73.85563945,15.767385776,0.0 73.855670832,15.767123972,0.0 73.855270581,15.766967618,0.0 73.855192528,15.767053163,0.0 73.854901474,15.766886811,0.0 73.8547508,15.766730622,0.0 73.854246345,15.766876303,0.0 73.854173779,15.766559043,0.0 73.853783792,15.766594027,0.0 73.853690288,15.766473122,0.0 73.853196341,15.766467755,0.0 73.852790803,15.76643727,0.0 73.852531214,15.765903374,0.0 73.852136015,15.765958492,0.0 73.852146661,15.765616113,0.0 73.851761985,15.765500044,0.0 73.851611567,15.764996431,0.0 73.851377522,15.765091939,0.0 73.850919964,15.765101696,0.0 73.850831625,15.765031144,0.0 73.850077742,15.764980275,0.0 73.849708785,15.764703091,0.0 73.849007222,15.764214201,0.0 73.848867028,15.763957313,0.0 73.848888071,15.763625011,0.0 73.848561121,15.762799028,0.0 73.848342967,15.762501805,0.0 73.848265324,15.762033486,0.0 73.84792211,15.762108773,0.0 73.847480174,15.762093359,0.0 73.84648728,15.761845942,0.0 73.844130992,15.761987559,0.0 73.844748724,15.761014547,0.0 73.844133216,15.759073915,0.0 73.843721768,15.75772757,0.0 73.8436668,15.757086394,0.0 73.844010291,15.756640195,0.0 73.844243338,15.755723543,0.0 73.843578753,15.755510344,0.0 73.844774278,15.755893867,0.0 73.845337506,15.755921121,0.0 73.845588862,15.755840738,0.0 73.845649517,15.755844137,0.0 73.84577079,15.755899609,0.0 73.845729115,15.756006995,0.0 73.845985468,15.756195154,0.0 73.847666382,15.756421237,0.0 73.850135712,15.754472686,0.0 73.85148167,15.752953005,0.0 73.85173149,15.752594005,0.0 73.851403068,15.751415566,0.0 73.851297017,15.74949544,0.0 73.851415496,15.748622768,0.0 73.852459395,15.747754082,0.0 73.852238789,15.74606885,0.0 73.852501925,15.742849914,0.0 73.852668401,15.742695617,0.0 73.854027324,15.742300435,0.0 73.85449221,15.741662965,0.0 73.855983431,15.740408534,0.0 73.85665601,15.74012701,0.0 73.856933261,15.740154046,0.0 73.859817827,15.738759515,0.0 73.861398616,15.73823016,0.0 73.862037191,15.736955002,0.0 73.868890843,15.734277191,0.0</coordinates>
                    </LinearRing>
                </outerBoundaryIs>
            </Polygon>
        </Placemark>
    </Document>
</kml>
