<?xml version="1.0" encoding="UTF-8"?>
<kml xmlns="http://www.opengis.net/kml/2.2" xmlns:gx="http://www.google.com/kml/ext/2.2">
    <Document id="1918">
        <Placemark id="1920">
            <ExtendedData>
                <Data name="id">
                    <value>133</value>
                </Data>
                <Data name="taluka">
                    <value>Pernem</value>
                </Data>
                <Data name="village">
                    <value>Morgim</value>
                </Data>
                <Data name="lg_code">
                    <value>626661</value>
                </Data>
                <Data name="dslr_code">
                    <value>00002400</value>
                </Data>
            </ExtendedData>
            <Polygon id="1919">
                <outerBoundaryIs>
                    <LinearRing id="1923">
                        <coordinates>73.736684003,15.615900908,0.0 73.737675991,15.617000336,0.0 73.737868659,15.617779066,0.0 73.737868372,15.61800497,0.0 73.738297303,15.619124575,0.0 73.738268516,15.619201001,0.0 73.737766582,15.619085712,0.0 73.737776651,15.619627894,0.0 73.738034657,15.619791548,0.0 73.73849005,15.619844222,0.0 73.7384655,15.620820793,0.0 73.738273657,15.620801449,0.0 73.737995833,15.620710757,0.0 73.737864897,15.620738404,0.0 73.737870217,15.620785329,0.0 73.737891646,15.620854863,0.0 73.73813344,15.62107758,0.0 73.738255214,15.621204579,0.0 73.738386271,15.621081357,0.0 73.739009643,15.621592989,0.0 73.738770723,15.621931561,0.0 73.739247292,15.622258819,0.0 73.739353153,15.622208551,0.0 73.739756024,15.622678214,0.0 73.740508382,15.623294259,0.0 73.740766466,15.623400565,0.0 73.742962698,15.625172149,0.0 73.742592853,15.625529686,0.0 73.742701999,15.625720963,0.0 73.743053133,15.625988984,0.0 73.743350642,15.626119661,0.0 73.743574807,15.626107759,0.0 73.74424534,15.626209329,0.0 73.746119922,15.627111646,0.0 73.747612566,15.628013508,0.0 73.747648507,15.627950991,0.0 73.748123296,15.628290392,0.0 73.747530178,15.629394902,0.0 73.747393825,15.629450353,0.0 73.747178671,15.629422301,0.0 73.746818618,15.629107358,0.0 73.746433272,15.628945305,0.0 73.746323586,15.62918846,0.0 73.746475846,15.62932244,0.0 73.746636835,15.629649318,0.0 73.746613339,15.629798735,0.0 73.747378921,15.629905619,0.0 73.747632107,15.629627874,0.0 73.747917055,15.629772433,0.0 73.748234965,15.629357482,0.0 73.748845966,15.628289483,0.0 73.750111775,15.629940027,0.0 73.750292429,15.630322531,0.0 73.749972726,15.630739221,0.0 73.750877377,15.631515274,0.0 73.751212553,15.631649459,0.0 73.751341527,15.631766032,0.0 73.751389811,15.631877301,0.0 73.751469736,15.632516873,0.0 73.751453194,15.632850497,0.0 73.750590439,15.633011127,0.0 73.750524191,15.632925903,0.0 73.749883916,15.632991207,0.0 73.748878943,15.633601738,0.0 73.748207146,15.634513272,0.0 73.747964041,15.636806785,0.0 73.748334524,15.638871623,0.0 73.74885295,15.643153961,0.0 73.748819184,15.647310549,0.0 73.738906702,15.651879593,0.0 73.736310516,15.651334317,0.0 73.734390543,15.649337099,0.0 73.730095641,15.647736628,0.0 73.728346403,15.646893413,0.0 73.72800961,15.646618436,0.0 73.727468383,15.646336253,0.0 73.726503976,15.646011837,0.0 73.725858944,15.645573127,0.0 73.725800249,15.645208133,0.0 73.725651743,15.644950765,0.0 73.72548568,15.644410127,0.0 73.725073806,15.64396128,0.0 73.724735371,15.643580295,0.0 73.724135145,15.643171177,0.0 73.723663679,15.643033304,0.0 73.722748009,15.64248998,0.0 73.722654881,15.642396026,0.0 73.722578451,15.641888516,0.0 73.722377984,15.641601539,0.0 73.722235249,15.64105919,0.0 73.722204907,15.640951413,0.0 73.722093672,15.640987764,0.0 73.721969904,15.64100846,0.0 73.721919623,15.64105879,0.0 73.721797653,15.641076013,0.0 73.721466124,15.640900082,0.0 73.721532628,15.640788953,0.0 73.721484368,15.640670727,0.0 73.7213663,15.6404551,0.0 73.721013201,15.640317371,0.0 73.720858999,15.640299798,0.0 73.720728204,15.640212746,0.0 73.720563206,15.640221224,0.0 73.719963479,15.639459339,0.0 73.720001563,15.639146598,0.0 73.720116779,15.638820054,0.0 73.720151351,15.63845344,0.0 73.720611644,15.637564315,0.0 73.721127801,15.636471948,0.0 73.721591742,15.635530694,0.0 73.721683333,15.63543176,0.0 73.721739683,15.634870548,0.0 73.721770331,15.634750685,0.0 73.721770507,15.634620356,0.0 73.721910964,15.63418958,0.0 73.722079874,15.633936087,0.0 73.722312126,15.633253458,0.0 73.72231946,15.633133564,0.0 73.722430902,15.632940819,0.0 73.723128268,15.630430696,0.0 73.72336519,15.630271124,0.0 73.724706251,15.630481337,0.0 73.724599089,15.630157987,0.0 73.72607745,15.629607242,0.0 73.726224148,15.629868083,0.0 73.726334085,15.629454643,0.0 73.726973202,15.628906319,0.0 73.727667788,15.628446687,0.0 73.72776478,15.628326904,0.0 73.728127268,15.628132729,0.0 73.728335423,15.628025248,0.0 73.72821549,15.627863491,0.0 73.728337908,15.627500459,0.0 73.728537295,15.627241786,0.0 73.72881197,15.627004058,0.0 73.72927856,15.626733549,0.0 73.729772179,15.626362285,0.0 73.729763733,15.625966075,0.0 73.729701173,15.62581134,0.0 73.729722851,15.625689727,0.0 73.72986998,15.625623874,0.0 73.729916926,15.625377176,0.0 73.729995911,15.625312977,0.0 73.729987186,15.625128768,0.0 73.730192334,15.624576425,0.0 73.731191974,15.622561895,0.0 73.731264208,15.622172733,0.0 73.732218778,15.62170819,0.0 73.732610999,15.620697314,0.0 73.733688682,15.619311922,0.0 73.733746076,15.619301565,0.0 73.733875954,15.618703946,0.0 73.734173762,15.618589617,0.0 73.734302787,15.618652331,0.0 73.734924137,15.617933665,0.0 73.734246889,15.617501891,0.0 73.734979369,15.616814638,0.0 73.735618259,15.616394879,0.0 73.736235549,15.61603765,0.0 73.736684003,15.615900908,0.0</coordinates>
                    </LinearRing>
                </outerBoundaryIs>
            </Polygon>
        </Placemark>
    </Document>
</kml>
