<?xml version="1.0" encoding="UTF-8"?>
<kml xmlns="http://www.opengis.net/kml/2.2" xmlns:gx="http://www.google.com/kml/ext/2.2">
    <Document id="1960">
        <Placemark id="1962">
            <ExtendedData>
                <Data name="id">
                    <value>155</value>
                </Data>
                <Data name="taluka">
                    <value>Pernem</value>
                </Data>
                <Data name="village">
                    <value>Parcem</value>
                </Data>
                <Data name="lg_code">
                    <value>626660</value>
                </Data>
                <Data name="dslr_code">
                    <value>40102000</value>
                </Data>
            </ExtendedData>
            <Polygon id="1961">
                <outerBoundaryIs>
                    <LinearRing id="1965">
                        <coordinates>73.782826921,15.68735772,0.0 73.782936176,15.687703361,0.0 73.780776233,15.687958389,0.0 73.779965139,15.688256462,0.0 73.779283514,15.688255775,0.0 73.777519158,15.687614508,0.0 73.777412189,15.687009673,0.0 73.777189924,15.686863479,0.0 73.775834451,15.686319927,0.0 73.774300477,15.684990734,0.0 73.773111712,15.682938999,0.0 73.771199013,15.680267874,0.0 73.769657096,15.679689334,0.0 73.76907593,15.679702623,0.0 73.768122803,15.678721543,0.0 73.767771928,15.678116446,0.0 73.766611082,15.676843202,0.0 73.765529893,15.677294287,0.0 73.766190661,15.676676367,0.0 73.768222771,15.67517019,0.0 73.768883915,15.674204718,0.0 73.768935012,15.673426274,0.0 73.768641759,15.672626614,0.0 73.76627044,15.669614368,0.0 73.764376853,15.66923004,0.0 73.761616625,15.667600549,0.0 73.761042902,15.66741225,0.0 73.760598608,15.66697386,0.0 73.757651592,15.665615199,0.0 73.757050389,15.664405081,0.0 73.756169278,15.663298913,0.0 73.756069995,15.66232568,0.0 73.758169126,15.658671848,0.0 73.758566027,15.656684335,0.0 73.759507642,15.655114472,0.0 73.759853065,15.654190384,0.0 73.760141678,15.652765769,0.0 73.760724401,15.651348427,0.0 73.760940201,15.650841248,0.0 73.760986007,15.650810542,0.0 73.760968794,15.650869029,0.0 73.761123614,15.650956998,0.0 73.76164696,15.650852774,0.0 73.762450778,15.65087064,0.0 73.762503301,15.65095,0.0 73.762807314,15.650936168,0.0 73.763058602,15.651018575,0.0 73.76313447,15.651131948,0.0 73.763365206,15.651293636,0.0 73.764124855,15.651594674,0.0 73.764580858,15.6515895,0.0 73.764946382,15.651465273,0.0 73.765373238,15.651386427,0.0 73.766168473,15.651242831,0.0 73.766609879,15.651220644,0.0 73.766522644,15.65081837,0.0 73.766454474,15.650788086,0.0 73.76636504,15.650606726,0.0 73.768123137,15.650276275,0.0 73.76827896,15.650340637,0.0 73.769081821,15.650341484,0.0 73.769358959,15.649964141,0.0 73.769773593,15.648612644,0.0 73.76991372,15.648771398,0.0 73.770303313,15.648900202,0.0 73.770471404,15.648447216,0.0 73.770514003,15.648396878,0.0 73.770536381,15.648467701,0.0 73.771003126,15.648687571,0.0 73.772439316,15.647794071,0.0 73.774076136,15.647852409,0.0 73.774303161,15.648736309,0.0 73.774543053,15.648549627,0.0 73.774817848,15.648521587,0.0 73.775197759,15.648595615,0.0 73.775518778,15.6490661,0.0 73.775465706,15.649485221,0.0 73.775295861,15.649768273,0.0 73.775079415,15.649898335,0.0 73.774716884,15.649965937,0.0 73.77454126,15.650186673,0.0 73.77471066,15.650311467,0.0 73.774786119,15.650804358,0.0 73.774627828,15.651212041,0.0 73.774633525,15.651347996,0.0 73.775089014,15.651812955,0.0 73.775421909,15.65211918,0.0 73.775393018,15.652118391,0.0 73.775649223,15.652748175,0.0 73.775701486,15.653071107,0.0 73.777220948,15.653571135,0.0 73.778471443,15.654116197,0.0 73.779447295,15.654547685,0.0 73.782387527,15.654935812,0.0 73.784252594,15.654818701,0.0 73.786140908,15.654831881,0.0 73.786544103,15.655019204,0.0 73.787496709,15.655337343,0.0 73.78768919,15.655768034,0.0 73.787519655,15.655762205,0.0 73.787385156,15.655796062,0.0 73.787273316,15.656532342,0.0 73.787243335,15.657257372,0.0 73.787722508,15.657473089,0.0 73.787976424,15.657858522,0.0 73.788057832,15.658286273,0.0 73.788165653,15.658612087,0.0 73.788275949,15.659374073,0.0 73.788150066,15.659555216,0.0 73.788076324,15.660198068,0.0 73.788172416,15.660560691,0.0 73.787991009,15.660724786,0.0 73.787748629,15.663318904,0.0 73.786337815,15.66506787,0.0 73.785645589,15.667310344,0.0 73.786778683,15.668410367,0.0 73.787841208,15.669918161,0.0 73.787991783,15.671311779,0.0 73.789077679,15.672859242,0.0 73.789106465,15.673295437,0.0 73.789731509,15.673839832,0.0 73.791230706,15.677205991,0.0 73.791234762,15.67896766,0.0 73.789326965,15.680631199,0.0 73.788952504,15.680880077,0.0 73.788542377,15.681695371,0.0 73.787489371,15.682226815,0.0 73.784235206,15.685305125,0.0 73.782826921,15.68735772,0.0</coordinates>
                    </LinearRing>
                </outerBoundaryIs>
            </Polygon>
        </Placemark>
    </Document>
</kml>
