<?xml version="1.0" encoding="UTF-8"?>
<kml xmlns="http://www.opengis.net/kml/2.2" xmlns:gx="http://www.google.com/kml/ext/2.2">
    <Document id="2030">
        <Placemark id="2032">
            <ExtendedData>
                <Data name="id">
                    <value>132</value>
                </Data>
                <Data name="taluka">
                    <value>Pernem</value>
                </Data>
                <Data name="village">
                    <value>Tiracol</value>
                </Data>
                <Data name="lg_code">
                    <value>626635</value>
                </Data>
                <Data name="dslr_code">
                    <value>00000100</value>
                </Data>
            </ExtendedData>
            <Polygon id="2031">
                <outerBoundaryIs>
                    <LinearRing id="2035">
                        <coordinates>73.68348351,15.720276056,0.0 73.683768076,15.720718713,0.0 73.68399676,15.720753798,0.0 73.684115562,15.721078051,0.0 73.684420558,15.721070672,0.0 73.684472137,15.720778813,0.0 73.685156873,15.720573884,0.0 73.686851743,15.720888239,0.0 73.687189218,15.721345738,0.0 73.687290161,15.721914111,0.0 73.687399281,15.722121053,0.0 73.687509677,15.722080375,0.0 73.687566966,15.722158654,0.0 73.68757851,15.722235998,0.0 73.6877458,15.722532515,0.0 73.687785037,15.72268462,0.0 73.687610422,15.723073615,0.0 73.687720762,15.723069429,0.0 73.687805503,15.723381467,0.0 73.687689773,15.723684965,0.0 73.687920026,15.723575819,0.0 73.688320611,15.723533817,0.0 73.688322947,15.723473001,0.0 73.688638735,15.723449124,0.0 73.68893848,15.723357453,0.0 73.68898455,15.722850545,0.0 73.689087122,15.722645643,0.0 73.690974456,15.722643109,0.0 73.691464491,15.721874001,0.0 73.691838932,15.721618219,0.0 73.692036372,15.721554203,0.0 73.692551292,15.721532339,0.0 73.692616031,15.721429906,0.0 73.69328995,15.721854852,0.0 73.693607605,15.721780577,0.0 73.695118334,15.72167843,0.0 73.69573002,15.721731415,0.0 73.696006213,15.721790881,0.0 73.696210581,15.72189369,0.0 73.69611882,15.722072546,0.0 73.696319339,15.722350857,0.0 73.696401808,15.722389201,0.0 73.696439048,15.722682925,0.0 73.696366967,15.722898299,0.0 73.696384461,15.723198946,0.0 73.696106127,15.723372329,0.0 73.696035909,15.723540788,0.0 73.696078752,15.723685077,0.0 73.696145,15.723773792,0.0 73.69568231,15.723655852,0.0 73.695043565,15.723698403,0.0 73.694395727,15.723822612,0.0 73.694206508,15.723786724,0.0 73.694186541,15.72394222,0.0 73.694199655,15.724170746,0.0 73.694177956,15.724285404,0.0 73.693914263,15.72486282,0.0 73.693847409,15.725179856,0.0 73.693815984,15.725198927,0.0 73.693699704,15.725875164,0.0 73.69366194,15.725934192,0.0 73.693683321,15.726033271,0.0 73.693549298,15.72627723,0.0 73.693542831,15.726402335,0.0 73.693274062,15.727371595,0.0 73.692943055,15.727968898,0.0 73.692652481,15.727923309,0.0 73.692185356,15.728364026,0.0 73.691424102,15.728734818,0.0 73.691097394,15.728855995,0.0 73.690565896,15.729150651,0.0 73.689923211,15.729413869,0.0 73.6885018,15.729731581,0.0 73.688103404,15.72980052,0.0 73.687640346,15.729918021,0.0 73.68681489,15.730028051,0.0 73.685645109,15.730043746,0.0 73.685358192,15.729952972,0.0 73.684785673,15.730082473,0.0 73.683947688,15.730171621,0.0 73.683655432,15.730053034,0.0 73.68272615,15.730011718,0.0 73.681768236,15.729923438,0.0 73.680897251,15.729890018,0.0 73.68089001,15.729930844,0.0 73.680611822,15.729996469,0.0 73.680234393,15.729849081,0.0 73.680272274,15.72971794,0.0 73.6799521,15.729671422,0.0 73.67947686,15.72954561,0.0 73.679101905,15.729538108,0.0 73.678873949,15.729605543,0.0 73.678622764,15.729612124,0.0 73.67769359,15.729504754,0.0 73.677650509,15.729518592,0.0 73.677272117,15.729415508,0.0 73.677189567,15.729429288,0.0 73.677114259,15.729401373,0.0 73.677265198,15.729252155,0.0 73.677346165,15.72910457,0.0 73.677312203,15.729024586,0.0 73.67733963,15.728697939,0.0 73.677479519,15.728729425,0.0 73.67739225,15.728322674,0.0 73.677216939,15.727999203,0.0 73.677299584,15.727924605,0.0 73.676912562,15.727607771,0.0 73.676871224,15.727654628,0.0 73.676763612,15.727633616,0.0 73.676566692,15.727362243,0.0 73.676093273,15.727224263,0.0 73.675707597,15.727192412,0.0 73.67575449,15.727036089,0.0 73.675822803,15.726949305,0.0 73.67608316,15.726812414,0.0 73.676462492,15.726317732,0.0 73.676780261,15.726179188,0.0 73.676950761,15.726139473,0.0 73.677606098,15.725820706,0.0 73.678067279,15.725753616,0.0 73.679064652,15.725835019,0.0 73.679531535,15.725562886,0.0 73.679748736,15.725486747,0.0 73.679936849,15.725655579,0.0 73.680234796,15.725570869,0.0 73.680346112,15.725517163,0.0 73.680398484,15.725296552,0.0 73.680849321,15.724958361,0.0 73.681095242,15.724871835,0.0 73.681213739,15.724814664,0.0 73.681292802,15.724734846,0.0 73.68137367,15.724648079,0.0 73.681348693,15.724557682,0.0 73.680865272,15.723933142,0.0 73.680427037,15.72309493,0.0 73.680423582,15.723009777,0.0 73.680285577,15.72292269,0.0 73.680283981,15.722795836,0.0 73.680215984,15.722682786,0.0 73.679946835,15.722710195,0.0 73.679672769,15.722440449,0.0 73.679675229,15.722014717,0.0 73.680240375,15.721998168,0.0 73.68032686,15.72176023,0.0 73.68028069,15.721456065,0.0 73.679990479,15.721186297,0.0 73.679822254,15.72092192,0.0 73.679896015,15.720789963,0.0 73.680766484,15.721705267,0.0 73.68108562,15.721834323,0.0 73.681257631,15.721973591,0.0 73.681523171,15.721958339,0.0 73.683277278,15.722254562,0.0 73.683525219,15.720857811,0.0 73.683150334,15.720815563,0.0 73.683016258,15.720507795,0.0 73.68348351,15.720276056,0.0</coordinates>
                    </LinearRing>
                </outerBoundaryIs>
            </Polygon>
        </Placemark>
    </Document>
</kml>
