<?xml version="1.0" encoding="UTF-8"?>
<kml xmlns="http://www.opengis.net/kml/2.2" xmlns:gx="http://www.google.com/kml/ext/2.2">
    <Document id="8459">
        <Placemark id="8461">
            <ExtendedData>
                <Data name="direction">
                    <value>https://maps.google.com?q=15.70058,73.88992&amp;t=h</value>
                </Data>
                <Data name="id">
                    <value>1886</value>
                </Data>
                <Data name="Sr.No">
                    <value>1886</value>
                </Data>
                <Data name="Reg No">
                    <value>2267/Pernem</value>
                </Data>
                <Data name="Category">
                    <value>agricultural</value>
                </Data>
                <Data name="Type Of Well">
                    <value>Open Well</value>
                </Data>
                <Data name="Applicant Name">
                    <value>Mhatme Charpu Baskar</value>
                </Data>
                <Data name="Applicant Address">
                    <value>Halarna,pernem</value>
                </Data>
                <Data name="latitude">
                    <value>15.70058</value>
                </Data>
                <Data name="longitude">
                    <value>73.88992</value>
                </Data>
                <Data name="taluka">
                    <value>Pernem</value>
                </Data>
                <Data name="village">
                    <value>Alorna</value>
                </Data>
            </ExtendedData>
            <Point id="8460">
                <coordinates>73.88992,15.70058,0.0</coordinates>
            </Point>
        </Placemark>
        <Placemark id="8476">
            <ExtendedData>
                <Data name="direction">
                    <value>https://maps.google.com?q=15.7014,73.9063&amp;t=h</value>
                </Data>
                <Data name="id">
                    <value>1890</value>
                </Data>
                <Data name="Sr.No">
                    <value>1890</value>
                </Data>
                <Data name="Reg No">
                    <value>2281/Pernem</value>
                </Data>
                <Data name="Category">
                    <value>agricultural</value>
                </Data>
                <Data name="Type Of Well">
                    <value>Open Well</value>
                </Data>
                <Data name="Applicant Name">
                    <value>Shirodkar Sagun Vasudev</value>
                </Data>
                <Data name="Applicant Address">
                    <value>H. No.117, Halarna, Pernem.</value>
                </Data>
                <Data name="latitude">
                    <value>15.7014</value>
                </Data>
                <Data name="longitude">
                    <value>73.9063</value>
                </Data>
                <Data name="taluka">
                    <value>Pernem</value>
                </Data>
                <Data name="village">
                    <value>Alorna</value>
                </Data>
            </ExtendedData>
            <Point id="8475">
                <coordinates>73.9063,15.7014,0.0</coordinates>
            </Point>
        </Placemark>
        <Placemark id="8491">
            <ExtendedData>
                <Data name="direction">
                    <value>https://maps.google.com?q=15.70521,73.8876&amp;t=h</value>
                </Data>
                <Data name="id">
                    <value>1891</value>
                </Data>
                <Data name="Sr.No">
                    <value>1891</value>
                </Data>
                <Data name="Reg No">
                    <value>2294/Pernem</value>
                </Data>
                <Data name="Category">
                    <value>agricultural</value>
                </Data>
                <Data name="Type Of Well">
                    <value>Open Well</value>
                </Data>
                <Data name="Applicant Name">
                    <value>Smt raul Hemlata Pandurang,</value>
                </Data>
                <Data name="Applicant Address">
                    <value>H. No.37, Moryawada, Halarna, Pernem.</value>
                </Data>
                <Data name="latitude">
                    <value>15.70521</value>
                </Data>
                <Data name="longitude">
                    <value>73.8876</value>
                </Data>
                <Data name="taluka">
                    <value>Pernem</value>
                </Data>
                <Data name="village">
                    <value>Alorna</value>
                </Data>
            </ExtendedData>
            <Point id="8490">
                <coordinates>73.8876,15.70521,0.0</coordinates>
            </Point>
        </Placemark>
        <Placemark id="8506">
            <ExtendedData>
                <Data name="direction">
                    <value>https://maps.google.com?q=15.70969,73.8892&amp;t=h</value>
                </Data>
                <Data name="id">
                    <value>1892</value>
                </Data>
                <Data name="Sr.No">
                    <value>1892</value>
                </Data>
                <Data name="Reg No">
                    <value>2295/Pernem</value>
                </Data>
                <Data name="Category">
                    <value>agricultural</value>
                </Data>
                <Data name="Type Of Well">
                    <value>Open Well</value>
                </Data>
                <Data name="Applicant Name">
                    <value>Raul Bala Jairam,</value>
                </Data>
                <Data name="Applicant Address">
                    <value>H. No. 57/1,Halarna, Pernem.</value>
                </Data>
                <Data name="latitude">
                    <value>15.70969</value>
                </Data>
                <Data name="longitude">
                    <value>73.8892</value>
                </Data>
                <Data name="taluka">
                    <value>Pernem</value>
                </Data>
                <Data name="village">
                    <value>Alorna</value>
                </Data>
            </ExtendedData>
            <Point id="8505">
                <coordinates>73.8892,15.70969,0.0</coordinates>
            </Point>
        </Placemark>
        <Placemark id="8521">
            <ExtendedData>
                <Data name="direction">
                    <value>https://maps.google.com?q=15.7278,73.93779&amp;t=h</value>
                </Data>
                <Data name="id">
                    <value>1899</value>
                </Data>
                <Data name="Sr.No">
                    <value>1899</value>
                </Data>
                <Data name="Reg No">
                    <value>1555/Pernem</value>
                </Data>
                <Data name="Category">
                    <value>agricultural</value>
                </Data>
                <Data name="Type Of Well">
                    <value>Open Well</value>
                </Data>
                <Data name="Applicant Name">
                    <value>Shri. Naik Gopal Pundalik,</value>
                </Data>
                <Data name="Applicant Address">
                    <value>H. No. 21,Hankhane, Pernem Goa 403512</value>
                </Data>
                <Data name="latitude">
                    <value>15.7278</value>
                </Data>
                <Data name="longitude">
                    <value>73.93779</value>
                </Data>
                <Data name="taluka">
                    <value>Pernem</value>
                </Data>
                <Data name="village">
                    <value>Alorna</value>
                </Data>
            </ExtendedData>
            <Point id="8520">
                <coordinates>73.93779,15.7278,0.0</coordinates>
            </Point>
        </Placemark>
    </Document>
</kml>
