<?xml version="1.0" encoding="UTF-8"?>
<kml xmlns="http://www.opengis.net/kml/2.2" xmlns:gx="http://www.google.com/kml/ext/2.2">
    <Document id="8962">
        <Placemark id="8964">
            <ExtendedData>
                <Data name="direction">
                    <value>https://maps.google.com?q=15.65899,73.74796&amp;t=h</value>
                </Data>
                <Data name="id">
                    <value>1618</value>
                </Data>
                <Data name="Sr.No">
                    <value>1618</value>
                </Data>
                <Data name="Reg No">
                    <value>2207/Pernem</value>
                </Data>
                <Data name="Category">
                    <value>agricultural</value>
                </Data>
                <Data name="Type Of Well">
                    <value>Open Well</value>
                </Data>
                <Data name="Applicant Name">
                    <value>Asgaonkar Kamal Raghunath,</value>
                </Data>
                <Data name="Applicant Address">
                    <value>Askawaddo, MANDREM</value>
                </Data>
                <Data name="latitude">
                    <value>15.65899</value>
                </Data>
                <Data name="longitude">
                    <value>73.74796</value>
                </Data>
                <Data name="taluka">
                    <value>Pernem</value>
                </Data>
                <Data name="village">
                    <value>Mandrem</value>
                </Data>
            </ExtendedData>
            <Point id="8963">
                <coordinates>73.74796,15.65899,0.0</coordinates>
            </Point>
        </Placemark>
        <Placemark id="8979">
            <ExtendedData>
                <Data name="direction">
                    <value>https://maps.google.com?q=15.65783,73.74889&amp;t=h</value>
                </Data>
                <Data name="id">
                    <value>1621</value>
                </Data>
                <Data name="Sr.No">
                    <value>1621</value>
                </Data>
                <Data name="Reg No">
                    <value>2200/Pernem</value>
                </Data>
                <Data name="Category">
                    <value>agricultural</value>
                </Data>
                <Data name="Type Of Well">
                    <value>Open Well</value>
                </Data>
                <Data name="Applicant Name">
                    <value>Gaonkar Krishna Yeshwant,</value>
                </Data>
                <Data name="Applicant Address">
                    <value>Askawaddo,Pernem.</value>
                </Data>
                <Data name="latitude">
                    <value>15.65783</value>
                </Data>
                <Data name="longitude">
                    <value>73.74889</value>
                </Data>
                <Data name="taluka">
                    <value>Pernem</value>
                </Data>
                <Data name="village">
                    <value>Mandrem</value>
                </Data>
            </ExtendedData>
            <Point id="8978">
                <coordinates>73.74889,15.65783,0.0</coordinates>
            </Point>
        </Placemark>
        <Placemark id="8994">
            <ExtendedData>
                <Data name="direction">
                    <value>https://maps.google.com?q=15.65789,73.74592&amp;t=h</value>
                </Data>
                <Data name="id">
                    <value>1627</value>
                </Data>
                <Data name="Sr.No">
                    <value>1627</value>
                </Data>
                <Data name="Reg No">
                    <value>2206/Pernem</value>
                </Data>
                <Data name="Category">
                    <value>agricultural</value>
                </Data>
                <Data name="Type Of Well">
                    <value>Open Well</value>
                </Data>
                <Data name="Applicant Name">
                    <value>Parsekar Narayan MORESHWAR,</value>
                </Data>
                <Data name="Applicant Address">
                    <value>Askawaddo, MANDREM</value>
                </Data>
                <Data name="latitude">
                    <value>15.65789</value>
                </Data>
                <Data name="longitude">
                    <value>73.74592</value>
                </Data>
                <Data name="taluka">
                    <value>Pernem</value>
                </Data>
                <Data name="village">
                    <value>Mandrem</value>
                </Data>
            </ExtendedData>
            <Point id="8993">
                <coordinates>73.74592,15.65789,0.0</coordinates>
            </Point>
        </Placemark>
        <Placemark id="9009">
            <ExtendedData>
                <Data name="direction">
                    <value>https://maps.google.com?q=15.66053,73.7446&amp;t=h</value>
                </Data>
                <Data name="id">
                    <value>1634</value>
                </Data>
                <Data name="Sr.No">
                    <value>1634</value>
                </Data>
                <Data name="Reg No">
                    <value>2215/Pernem</value>
                </Data>
                <Data name="Category">
                    <value>agricultural</value>
                </Data>
                <Data name="Type Of Well">
                    <value>Open Well</value>
                </Data>
                <Data name="Applicant Name">
                    <value>Fernandes Joao Paulo,</value>
                </Data>
                <Data name="Applicant Address">
                    <value>Askawaddo,MANDREM</value>
                </Data>
                <Data name="latitude">
                    <value>15.66053</value>
                </Data>
                <Data name="longitude">
                    <value>73.7446</value>
                </Data>
                <Data name="taluka">
                    <value>Pernem</value>
                </Data>
                <Data name="village">
                    <value>Mandrem</value>
                </Data>
            </ExtendedData>
            <Point id="9008">
                <coordinates>73.7446,15.66053,0.0</coordinates>
            </Point>
        </Placemark>
        <Placemark id="9024">
            <ExtendedData>
                <Data name="direction">
                    <value>https://maps.google.com?q=15.66274,73.7439&amp;t=h</value>
                </Data>
                <Data name="id">
                    <value>1647</value>
                </Data>
                <Data name="Sr.No">
                    <value>1647</value>
                </Data>
                <Data name="Reg No">
                    <value>2332/Pernem</value>
                </Data>
                <Data name="Category">
                    <value>agricultural</value>
                </Data>
                <Data name="Type Of Well">
                    <value>Open Well</value>
                </Data>
                <Data name="Applicant Name">
                    <value>Mhamal Sadu Kashiram,</value>
                </Data>
                <Data name="Applicant Address">
                    <value>Askwadda, Pernem.</value>
                </Data>
                <Data name="latitude">
                    <value>15.66274</value>
                </Data>
                <Data name="longitude">
                    <value>73.7439</value>
                </Data>
                <Data name="taluka">
                    <value>Pernem</value>
                </Data>
                <Data name="village">
                    <value>Mandrem</value>
                </Data>
            </ExtendedData>
            <Point id="9023">
                <coordinates>73.7439,15.66274,0.0</coordinates>
            </Point>
        </Placemark>
        <Placemark id="9039">
            <ExtendedData>
                <Data name="direction">
                    <value>https://maps.google.com?q=15.66367,73.74409&amp;t=h</value>
                </Data>
                <Data name="id">
                    <value>1651</value>
                </Data>
                <Data name="Sr.No">
                    <value>1651</value>
                </Data>
                <Data name="Reg No">
                    <value>2337/Pernem</value>
                </Data>
                <Data name="Category">
                    <value>agricultural</value>
                </Data>
                <Data name="Type Of Well">
                    <value>Open Well</value>
                </Data>
                <Data name="Applicant Name">
                    <value>Mandrekar Pandurang Yeshwant,</value>
                </Data>
                <Data name="Applicant Address">
                    <value>Askwado, Mandrem</value>
                </Data>
                <Data name="latitude">
                    <value>15.66367</value>
                </Data>
                <Data name="longitude">
                    <value>73.74409</value>
                </Data>
                <Data name="taluka">
                    <value>Pernem</value>
                </Data>
                <Data name="village">
                    <value>Mandrem</value>
                </Data>
            </ExtendedData>
            <Point id="9038">
                <coordinates>73.74409,15.66367,0.0</coordinates>
            </Point>
        </Placemark>
        <Placemark id="9054">
            <ExtendedData>
                <Data name="direction">
                    <value>https://maps.google.com?q=15.66587,73.74313&amp;t=h</value>
                </Data>
                <Data name="id">
                    <value>1657</value>
                </Data>
                <Data name="Sr.No">
                    <value>1657</value>
                </Data>
                <Data name="Reg No">
                    <value>2170/Pernem</value>
                </Data>
                <Data name="Category">
                    <value>agricultural</value>
                </Data>
                <Data name="Type Of Well">
                    <value>Open Well</value>
                </Data>
                <Data name="Applicant Name">
                    <value>Bagkar Krishna Rama,</value>
                </Data>
                <Data name="Applicant Address">
                    <value>Askawadda, Mandre, Pernem</value>
                </Data>
                <Data name="latitude">
                    <value>15.66587</value>
                </Data>
                <Data name="longitude">
                    <value>73.74313</value>
                </Data>
                <Data name="taluka">
                    <value>Pernem</value>
                </Data>
                <Data name="village">
                    <value>Mandrem</value>
                </Data>
            </ExtendedData>
            <Point id="9053">
                <coordinates>73.74313,15.66587,0.0</coordinates>
            </Point>
        </Placemark>
        <Placemark id="9069">
            <ExtendedData>
                <Data name="direction">
                    <value>https://maps.google.com?q=15.66134,73.74119&amp;t=h</value>
                </Data>
                <Data name="id">
                    <value>1664</value>
                </Data>
                <Data name="Sr.No">
                    <value>1664</value>
                </Data>
                <Data name="Reg No">
                    <value>2155/Pernem</value>
                </Data>
                <Data name="Category">
                    <value>agricultural</value>
                </Data>
                <Data name="Type Of Well">
                    <value>Open Well</value>
                </Data>
                <Data name="Applicant Name">
                    <value>Shri Mhamal Gopi Jairam,</value>
                </Data>
                <Data name="Applicant Address">
                    <value>Askawadda,Mandrem Goa.</value>
                </Data>
                <Data name="latitude">
                    <value>15.66134</value>
                </Data>
                <Data name="longitude">
                    <value>73.74119</value>
                </Data>
                <Data name="taluka">
                    <value>Pernem</value>
                </Data>
                <Data name="village">
                    <value>Mandrem</value>
                </Data>
            </ExtendedData>
            <Point id="9068">
                <coordinates>73.74119,15.66134,0.0</coordinates>
            </Point>
        </Placemark>
        <Placemark id="9084">
            <ExtendedData>
                <Data name="direction">
                    <value>https://maps.google.com?q=15.66134,73.74139&amp;t=h</value>
                </Data>
                <Data name="id">
                    <value>1666</value>
                </Data>
                <Data name="Sr.No">
                    <value>1666</value>
                </Data>
                <Data name="Reg No">
                    <value>2160/Pernem</value>
                </Data>
                <Data name="Category">
                    <value>agricultural</value>
                </Data>
                <Data name="Type Of Well">
                    <value>Open Well</value>
                </Data>
                <Data name="Applicant Name">
                    <value>Shri Mandrekar Savlaram Sadashiv</value>
                </Data>
                <Data name="Applicant Address">
                    <value>Askawadda, Mandrem Pernem</value>
                </Data>
                <Data name="latitude">
                    <value>15.66134</value>
                </Data>
                <Data name="longitude">
                    <value>73.74139</value>
                </Data>
                <Data name="taluka">
                    <value>Pernem</value>
                </Data>
                <Data name="village">
                    <value>Mandrem</value>
                </Data>
            </ExtendedData>
            <Point id="9083">
                <coordinates>73.74139,15.66134,0.0</coordinates>
            </Point>
        </Placemark>
        <Placemark id="9099">
            <ExtendedData>
                <Data name="direction">
                    <value>https://maps.google.com?q=15.66885,73.74376&amp;t=h</value>
                </Data>
                <Data name="id">
                    <value>1672</value>
                </Data>
                <Data name="Sr.No">
                    <value>1672</value>
                </Data>
                <Data name="Reg No">
                    <value>2174/Pernem</value>
                </Data>
                <Data name="Category">
                    <value>agricultural</value>
                </Data>
                <Data name="Type Of Well">
                    <value>Open Well</value>
                </Data>
                <Data name="Applicant Name">
                    <value>Naik Krishna Narhari</value>
                </Data>
                <Data name="Applicant Address">
                    <value>Naikwada, Pernem Goa.</value>
                </Data>
                <Data name="latitude">
                    <value>15.66885</value>
                </Data>
                <Data name="longitude">
                    <value>73.74376</value>
                </Data>
                <Data name="taluka">
                    <value>Pernem</value>
                </Data>
                <Data name="village">
                    <value>Mandrem</value>
                </Data>
            </ExtendedData>
            <Point id="9098">
                <coordinates>73.74376,15.66885,0.0</coordinates>
            </Point>
        </Placemark>
        <Placemark id="9114">
            <ExtendedData>
                <Data name="direction">
                    <value>https://maps.google.com?q=15.67295,73.7447&amp;t=h</value>
                </Data>
                <Data name="id">
                    <value>1681</value>
                </Data>
                <Data name="Sr.No">
                    <value>1681</value>
                </Data>
                <Data name="Reg No">
                    <value>2186/Pernem</value>
                </Data>
                <Data name="Category">
                    <value>agricultural</value>
                </Data>
                <Data name="Type Of Well">
                    <value>Open Well</value>
                </Data>
                <Data name="Applicant Name">
                    <value>Naik MEGHANTH Narhari,</value>
                </Data>
                <Data name="Applicant Address">
                    <value>Naik wadda, Pernem</value>
                </Data>
                <Data name="latitude">
                    <value>15.67295</value>
                </Data>
                <Data name="longitude">
                    <value>73.7447</value>
                </Data>
                <Data name="taluka">
                    <value>Pernem</value>
                </Data>
                <Data name="village">
                    <value>Mandrem</value>
                </Data>
            </ExtendedData>
            <Point id="9113">
                <coordinates>73.7447,15.67295,0.0</coordinates>
            </Point>
        </Placemark>
        <Placemark id="9129">
            <ExtendedData>
                <Data name="direction">
                    <value>https://maps.google.com?q=15.67408,73.75143&amp;t=h</value>
                </Data>
                <Data name="id">
                    <value>1692</value>
                </Data>
                <Data name="Sr.No">
                    <value>1692</value>
                </Data>
                <Data name="Reg No">
                    <value>2400/Pernem</value>
                </Data>
                <Data name="Category">
                    <value>agricultural</value>
                </Data>
                <Data name="Type Of Well">
                    <value>Open Well</value>
                </Data>
                <Data name="Applicant Name">
                    <value>Salgaonkar Bhagwan H.</value>
                </Data>
                <Data name="Applicant Address">
                    <value>Salgaonkarwadda, Mandrem.</value>
                </Data>
                <Data name="latitude">
                    <value>15.67408</value>
                </Data>
                <Data name="longitude">
                    <value>73.75143</value>
                </Data>
                <Data name="taluka">
                    <value>Pernem</value>
                </Data>
                <Data name="village">
                    <value>Mandrem</value>
                </Data>
            </ExtendedData>
            <Point id="9128">
                <coordinates>73.75143,15.67408,0.0</coordinates>
            </Point>
        </Placemark>
        <Placemark id="9144">
            <ExtendedData>
                <Data name="direction">
                    <value>https://maps.google.com?q=15.67385,73.75107&amp;t=h</value>
                </Data>
                <Data name="id">
                    <value>1693</value>
                </Data>
                <Data name="Sr.No">
                    <value>1693</value>
                </Data>
                <Data name="Reg No">
                    <value>2410/Pernem</value>
                </Data>
                <Data name="Category">
                    <value>agricultural</value>
                </Data>
                <Data name="Type Of Well">
                    <value>Open Well</value>
                </Data>
                <Data name="Applicant Name">
                    <value>Shri Salgaonkar Jagannath Shantaram (Arjun)</value>
                </Data>
                <Data name="Applicant Address">
                    <value>Salgaonkarwada, Mandrem.</value>
                </Data>
                <Data name="latitude">
                    <value>15.67385</value>
                </Data>
                <Data name="longitude">
                    <value>73.75107</value>
                </Data>
                <Data name="taluka">
                    <value>Pernem</value>
                </Data>
                <Data name="village">
                    <value>Mandrem</value>
                </Data>
            </ExtendedData>
            <Point id="9143">
                <coordinates>73.75107,15.67385,0.0</coordinates>
            </Point>
        </Placemark>
        <Placemark id="9159">
            <ExtendedData>
                <Data name="direction">
                    <value>https://maps.google.com?q=15.67295,73.75294&amp;t=h</value>
                </Data>
                <Data name="id">
                    <value>1695</value>
                </Data>
                <Data name="Sr.No">
                    <value>1695</value>
                </Data>
                <Data name="Reg No">
                    <value>2402/Pernem</value>
                </Data>
                <Data name="Category">
                    <value>agricultural</value>
                </Data>
                <Data name="Type Of Well">
                    <value>Open Well</value>
                </Data>
                <Data name="Applicant Name">
                    <value>Salgaonkar Dattaram Vishnu,</value>
                </Data>
                <Data name="Applicant Address">
                    <value>Salgaonkarwada, MANDREM.</value>
                </Data>
                <Data name="latitude">
                    <value>15.67295</value>
                </Data>
                <Data name="longitude">
                    <value>73.75294</value>
                </Data>
                <Data name="taluka">
                    <value>Pernem</value>
                </Data>
                <Data name="village">
                    <value>Mandrem</value>
                </Data>
            </ExtendedData>
            <Point id="9158">
                <coordinates>73.75294,15.67295,0.0</coordinates>
            </Point>
        </Placemark>
        <Placemark id="9174">
            <ExtendedData>
                <Data name="direction">
                    <value>https://maps.google.com?q=15.67385,73.7539&amp;t=h</value>
                </Data>
                <Data name="id">
                    <value>1702</value>
                </Data>
                <Data name="Sr.No">
                    <value>1702</value>
                </Data>
                <Data name="Reg No">
                    <value>2405/Pernem</value>
                </Data>
                <Data name="Category">
                    <value>agricultural</value>
                </Data>
                <Data name="Type Of Well">
                    <value>Open Well</value>
                </Data>
                <Data name="Applicant Name">
                    <value>Salgaonkar Jaidev Ganesh,</value>
                </Data>
                <Data name="Applicant Address">
                    <value>Salgaonkarwadda, Mandrem.</value>
                </Data>
                <Data name="latitude">
                    <value>15.67385</value>
                </Data>
                <Data name="longitude">
                    <value>73.7539</value>
                </Data>
                <Data name="taluka">
                    <value>Pernem</value>
                </Data>
                <Data name="village">
                    <value>Mandrem</value>
                </Data>
            </ExtendedData>
            <Point id="9173">
                <coordinates>73.7539,15.67385,0.0</coordinates>
            </Point>
        </Placemark>
        <Placemark id="9189">
            <ExtendedData>
                <Data name="direction">
                    <value>https://maps.google.com?q=15.67494,73.75935&amp;t=h</value>
                </Data>
                <Data name="id">
                    <value>1704</value>
                </Data>
                <Data name="Sr.No">
                    <value>1704</value>
                </Data>
                <Data name="Reg No">
                    <value>2412/Pernem</value>
                </Data>
                <Data name="Category">
                    <value>agricultural</value>
                </Data>
                <Data name="Type Of Well">
                    <value>Open Well</value>
                </Data>
                <Data name="Applicant Name">
                    <value>Haldankar Ankush Rama,</value>
                </Data>
                <Data name="Applicant Address">
                    <value>Alkhan,Pernem.</value>
                </Data>
                <Data name="latitude">
                    <value>15.67494</value>
                </Data>
                <Data name="longitude">
                    <value>73.75935</value>
                </Data>
                <Data name="taluka">
                    <value>Pernem</value>
                </Data>
                <Data name="village">
                    <value>Mandrem</value>
                </Data>
            </ExtendedData>
            <Point id="9188">
                <coordinates>73.75935,15.67494,0.0</coordinates>
            </Point>
        </Placemark>
        <Placemark id="9204">
            <ExtendedData>
                <Data name="direction">
                    <value>https://maps.google.com?q=15.67292,73.7392&amp;t=h</value>
                </Data>
                <Data name="id">
                    <value>1714</value>
                </Data>
                <Data name="Sr.No">
                    <value>1714</value>
                </Data>
                <Data name="Reg No">
                    <value>2217/Pernem</value>
                </Data>
                <Data name="Category">
                    <value>agricultural</value>
                </Data>
                <Data name="Type Of Well">
                    <value>Open Well</value>
                </Data>
                <Data name="Applicant Name">
                    <value>Asgaonkar Umesh Chandrakant,</value>
                </Data>
                <Data name="Applicant Address">
                    <value>H. NO.194, Dandosswada, MANDREM Pernem</value>
                </Data>
                <Data name="latitude">
                    <value>15.67292</value>
                </Data>
                <Data name="longitude">
                    <value>73.7392</value>
                </Data>
                <Data name="taluka">
                    <value>Pernem</value>
                </Data>
                <Data name="village">
                    <value>Mandrem</value>
                </Data>
            </ExtendedData>
            <Point id="9203">
                <coordinates>73.7392,15.67292,0.0</coordinates>
            </Point>
        </Placemark>
        <Placemark id="9219">
            <ExtendedData>
                <Data name="direction">
                    <value>https://maps.google.com?q=15.66433,73.72468&amp;t=h</value>
                </Data>
                <Data name="id">
                    <value>1716</value>
                </Data>
                <Data name="Sr.No">
                    <value>1716</value>
                </Data>
                <Data name="Reg No">
                    <value>1625/Pernem</value>
                </Data>
                <Data name="Category">
                    <value>agricultural</value>
                </Data>
                <Data name="Type Of Well">
                    <value>Open Well</value>
                </Data>
                <Data name="Applicant Name">
                    <value>Executive Engineer,</value>
                </Data>
                <Data name="Applicant Address">
                    <value>W.D.III, W.R.D,Ponda- Goa. (B.win in the field of Vithalb Parishad)</value>
                </Data>
                <Data name="latitude">
                    <value>15.66433</value>
                </Data>
                <Data name="longitude">
                    <value>73.72468</value>
                </Data>
                <Data name="taluka">
                    <value>Pernem</value>
                </Data>
                <Data name="village">
                    <value>Mandrem</value>
                </Data>
            </ExtendedData>
            <Point id="9218">
                <coordinates>73.72468,15.66433,0.0</coordinates>
            </Point>
        </Placemark>
        <Placemark id="9234">
            <ExtendedData>
                <Data name="direction">
                    <value>https://maps.google.com?q=15.66227,73.73418&amp;t=h</value>
                </Data>
                <Data name="id">
                    <value>1731</value>
                </Data>
                <Data name="Sr.No">
                    <value>1731</value>
                </Data>
                <Data name="Reg No">
                    <value>2168/Pernem</value>
                </Data>
                <Data name="Category">
                    <value>agricultural</value>
                </Data>
                <Data name="Type Of Well">
                    <value>Open Well</value>
                </Data>
                <Data name="Applicant Name">
                    <value>Palekar Subhash Tukaram,</value>
                </Data>
                <Data name="Applicant Address">
                    <value>Deulwada, Mandrem Pernem</value>
                </Data>
                <Data name="latitude">
                    <value>15.66227</value>
                </Data>
                <Data name="longitude">
                    <value>73.73418</value>
                </Data>
                <Data name="taluka">
                    <value>Pernem</value>
                </Data>
                <Data name="village">
                    <value>Mandrem</value>
                </Data>
            </ExtendedData>
            <Point id="9233">
                <coordinates>73.73418,15.66227,0.0</coordinates>
            </Point>
        </Placemark>
        <Placemark id="9249">
            <ExtendedData>
                <Data name="direction">
                    <value>https://maps.google.com?q=15.66238,73.73116&amp;t=h</value>
                </Data>
                <Data name="id">
                    <value>1737</value>
                </Data>
                <Data name="Sr.No">
                    <value>1737</value>
                </Data>
                <Data name="Reg No">
                    <value>2396/Pernem</value>
                </Data>
                <Data name="Category">
                    <value>agricultural</value>
                </Data>
                <Data name="Type Of Well">
                    <value>Open Well</value>
                </Data>
                <Data name="Applicant Name">
                    <value>Pednekar Subhash Ramchandra, .</value>
                </Data>
                <Data name="Applicant Address">
                    <value>Deulwada, Mandrem</value>
                </Data>
                <Data name="latitude">
                    <value>15.66238</value>
                </Data>
                <Data name="longitude">
                    <value>73.73116</value>
                </Data>
                <Data name="taluka">
                    <value>Pernem</value>
                </Data>
                <Data name="village">
                    <value>Mandrem</value>
                </Data>
            </ExtendedData>
            <Point id="9248">
                <coordinates>73.73116,15.66238,0.0</coordinates>
            </Point>
        </Placemark>
        <Placemark id="9264">
            <ExtendedData>
                <Data name="direction">
                    <value>https://maps.google.com?q=15.66208,73.73153&amp;t=h</value>
                </Data>
                <Data name="id">
                    <value>1747</value>
                </Data>
                <Data name="Sr.No">
                    <value>1747</value>
                </Data>
                <Data name="Reg No">
                    <value>2393/Pernem</value>
                </Data>
                <Data name="Category">
                    <value>agricultural</value>
                </Data>
                <Data name="Type Of Well">
                    <value>Open Well</value>
                </Data>
                <Data name="Applicant Name">
                    <value>Satardekar Narsinvha Tukaram,</value>
                </Data>
                <Data name="Applicant Address">
                    <value>Deulwado, Mandrem.</value>
                </Data>
                <Data name="latitude">
                    <value>15.66208</value>
                </Data>
                <Data name="longitude">
                    <value>73.73153</value>
                </Data>
                <Data name="taluka">
                    <value>Pernem</value>
                </Data>
                <Data name="village">
                    <value>Mandrem</value>
                </Data>
            </ExtendedData>
            <Point id="9263">
                <coordinates>73.73153,15.66208,0.0</coordinates>
            </Point>
        </Placemark>
        <Placemark id="9279">
            <ExtendedData>
                <Data name="direction">
                    <value>https://maps.google.com?q=15.663,73.71388&amp;t=h</value>
                </Data>
                <Data name="id">
                    <value>1756</value>
                </Data>
                <Data name="Sr.No">
                    <value>1756</value>
                </Data>
                <Data name="Reg No">
                    <value>2376/Pernem</value>
                </Data>
                <Data name="Category">
                    <value>agricultural</value>
                </Data>
                <Data name="Type Of Well">
                    <value>Open Well</value>
                </Data>
                <Data name="Applicant Name">
                    <value>Fernandes Robert Caitan,</value>
                </Data>
                <Data name="Applicant Address">
                    <value>Zunaswadda, Mandrem.</value>
                </Data>
                <Data name="latitude">
                    <value>15.663</value>
                </Data>
                <Data name="longitude">
                    <value>73.71388</value>
                </Data>
                <Data name="taluka">
                    <value>Pernem</value>
                </Data>
                <Data name="village">
                    <value>Mandrem</value>
                </Data>
            </ExtendedData>
            <Point id="9278">
                <coordinates>73.71388,15.663,0.0</coordinates>
            </Point>
        </Placemark>
        <Placemark id="9294">
            <ExtendedData>
                <Data name="direction">
                    <value>https://maps.google.com?q=15.66193,73.74392&amp;t=h</value>
                </Data>
                <Data name="id">
                    <value>1864</value>
                </Data>
                <Data name="Sr.No">
                    <value>1864</value>
                </Data>
                <Data name="Reg No">
                    <value>3105/Pernem</value>
                </Data>
                <Data name="Category">
                    <value>agricultural</value>
                </Data>
                <Data name="Type Of Well">
                    <value>Open Well</value>
                </Data>
                <Data name="Applicant Name">
                    <value>Elias Lawrence Fernandes</value>
                </Data>
                <Data name="Applicant Address">
                    <value>H.no.15 Askwada Manderm Pernem</value>
                </Data>
                <Data name="latitude">
                    <value>15.66193</value>
                </Data>
                <Data name="longitude">
                    <value>73.74392</value>
                </Data>
                <Data name="taluka">
                    <value>Pernem</value>
                </Data>
                <Data name="village">
                    <value>Mandrem</value>
                </Data>
            </ExtendedData>
            <Point id="9293">
                <coordinates>73.74392,15.66193,0.0</coordinates>
            </Point>
        </Placemark>
        <Placemark id="9309">
            <ExtendedData>
                <Data name="direction">
                    <value>https://maps.google.com?q=15.65441,73.75343&amp;t=h</value>
                </Data>
                <Data name="id">
                    <value>1870</value>
                </Data>
                <Data name="Sr.No">
                    <value>1870</value>
                </Data>
                <Data name="Reg No">
                    <value>2357/Pernem</value>
                </Data>
                <Data name="Category">
                    <value>agricultural</value>
                </Data>
                <Data name="Type Of Well">
                    <value>Open Well</value>
                </Data>
                <Data name="Applicant Name">
                    <value>Kinlekar Prakash Vithhal</value>
                </Data>
                <Data name="Applicant Address">
                    <value>Askwada Mandrem</value>
                </Data>
                <Data name="latitude">
                    <value>15.65441</value>
                </Data>
                <Data name="longitude">
                    <value>73.75343</value>
                </Data>
                <Data name="taluka">
                    <value>Pernem</value>
                </Data>
                <Data name="village">
                    <value>Mandrem</value>
                </Data>
            </ExtendedData>
            <Point id="9308">
                <coordinates>73.75343,15.65441,0.0</coordinates>
            </Point>
        </Placemark>
    </Document>
</kml>
