<?xml version="1.0" encoding="UTF-8"?>
<kml xmlns="http://www.opengis.net/kml/2.2" xmlns:gx="http://www.google.com/kml/ext/2.2">
    <Document id="10893">
        <Placemark id="10895">
            <ExtendedData>
                <Data name="direction">
                    <value>https://maps.google.com?q=15.68835,73.90898&amp;t=h</value>
                </Data>
                <Data name="id">
                    <value>6092</value>
                </Data>
                <Data name="name">
                    <value>Tirth Tali; Galao</value>
                </Data>
                <Data name="taluka">
                    <value>Bicholim</value>
                </Data>
                <Data name="syno">
                    <value>37</value>
                </Data>
                <Data name="subdiv">
                    <value>3</value>
                </Data>
                <Data name="village">
                    <value>Dumacem</value>
                </Data>
                <Data name="latitude">
                    <value>15.68835</value>
                </Data>
                <Data name="longitude">
                    <value>73.90898</value>
                </Data>
                <Data name="photo_1">
                    <value>DCIM/20230420114739251.jpg</value>
                </Data>
                <Data name="photo_2">
                    <value>DCIM/20230420114826790.jpg</value>
                </Data>
                <Data name="constituency">
                    <value>03 - Bicholim</value>
                </Data>
                <Data name="status">
                    <value>Completed</value>
                </Data>
                <Data name="panchayat">
                    <value>Mencurem</value>
                </Data>
                <Data name="wb_type">
                    <value>Tank</value>
                </Data>
                <Data name="owner_type">
                    <value>Private</value>
                </Data>
                <Data name="purpose">
                    <value>Irrigation</value>
                </Data>
                <Data name="construction">
                    <value>Man Made</value>
                </Data>
                <Data name="condition">
                    <value>Good</value>
                </Data>
                <Data name="print_order">
                    <value>091</value>
                </Data>
                <Data name="wb_id">
                    <value>Bi/Duma/02</value>
                </Data>
                <Data name="storage_capacity">
                    <value>1482.0</value>
                </Data>
                <Data name="wb_surface_id">
                    <value>5471</value>
                </Data>
                <Data name="created_at">
                    <value>2023-04-20 00:00:00</value>
                </Data>
                <Data name="updated_at">
                    <value>2024-09-22 05:42:10.761115</value>
                </Data>
                <Data name="book_id">
                    <value>1</value>
                </Data>
                <Data name="owners">
                    <value>Mahadev Dhaku Naik</value>
                </Data>
                <Data name="label_x">
                    <value>986000.0</value>
                </Data>
                <Data name="label_y">
                    <value>1031878.7365250612</value>
                </Data>
            </ExtendedData>
            <Point id="10894">
                <coordinates>73.908976949,15.688345012,0.0</coordinates>
            </Point>
        </Placemark>
    </Document>
</kml>
