<?xml version="1.0" encoding="UTF-8"?>
<kml xmlns="http://www.opengis.net/kml/2.2" xmlns:gx="http://www.google.com/kml/ext/2.2">
    <Document id="12210">
        <Placemark id="12212">
            <ExtendedData>
                <Data name="direction">
                    <value>https://maps.google.com?q=15.69754,73.8968&amp;t=h</value>
                </Data>
                <Data name="id">
                    <value>42</value>
                </Data>
                <Data name="name">
                    <value>Mahadev Tali; Rai,Tale</value>
                </Data>
                <Data name="taluka">
                    <value>Bicholim</value>
                </Data>
                <Data name="syno">
                    <value>1</value>
                </Data>
                <Data name="subdiv">
                    <value>11,13</value>
                </Data>
                <Data name="village">
                    <value>Mencurem</value>
                </Data>
                <Data name="latitude">
                    <value>15.69754</value>
                </Data>
                <Data name="longitude">
                    <value>73.8968</value>
                </Data>
                <Data name="photo_1">
                    <value>DCIM/20230318113142892.jpg</value>
                </Data>
                <Data name="photo_2">
                    <value>DCIM/20230318113156927.jpg</value>
                </Data>
                <Data name="syno_pt_list">
                    <value>1/11,13</value>
                </Data>
                <Data name="constituency">
                    <value>03 - Bicholim</value>
                </Data>
                <Data name="status">
                    <value>Completed</value>
                </Data>
                <Data name="panchayat">
                    <value>Mencurem</value>
                </Data>
                <Data name="wb_type">
                    <value>Temple Tank</value>
                </Data>
                <Data name="owner_type">
                    <value>Private / Public</value>
                </Data>
                <Data name="purpose">
                    <value>Irrigation</value>
                </Data>
                <Data name="construction">
                    <value>Natural/Man Made</value>
                </Data>
                <Data name="condition">
                    <value>Good</value>
                </Data>
                <Data name="print_order">
                    <value>059</value>
                </Data>
                <Data name="wb_id">
                    <value>Bi/Menc/01</value>
                </Data>
                <Data name="storage_capacity">
                    <value>8197.0</value>
                </Data>
                <Data name="wb_surface_id">
                    <value>5171</value>
                </Data>
                <Data name="created_at">
                    <value>2020-02-28 15:24:34</value>
                </Data>
                <Data name="updated_at">
                    <value>2024-09-22 05:42:23.159692</value>
                </Data>
                <Data name="book_id">
                    <value>2</value>
                </Data>
                <Data name="owners">
                    <value>Ajay Atchut Naik
Akshata Ajay Naik
Ashok Atchut Naik
Ashveta Ashok Naik
Darshana Devanand Naik
Dattaram Vasu Naik
Devanand Dattaram Naik
Dharma Dattaram Naik
Government of Goa,DIrector of Health Service Panaji Goa
Hansraj Sukaji Parab
Harischandra Dattaram Naik
Hemangi Hansraj Parab
Ladu Shitaram Naik
Raghoba Vassu Naik
Raghunath Sitaram Naik
Rajaram Vishram Naik
Shri Deu Mauli
Suchita Harischandra Naik</value>
                </Data>
                <Data name="label_x">
                    <value>986001.0</value>
                </Data>
                <Data name="label_y">
                    <value>1032419.7237766335</value>
                </Data>
            </ExtendedData>
            <Point id="12211">
                <coordinates>73.896801328,15.697539709,0.0</coordinates>
            </Point>
        </Placemark>
    </Document>
</kml>
