<?xml version="1.0" encoding="UTF-8"?>
<kml xmlns="http://www.opengis.net/kml/2.2" xmlns:gx="http://www.google.com/kml/ext/2.2">
    <Document id="13891">
        <Placemark id="13893">
            <ExtendedData>
                <Data name="direction">
                    <value>https://maps.google.com?q=15.5686,73.95931&amp;t=h</value>
                </Data>
                <Data name="id">
                    <value>5989</value>
                </Data>
                <Data name="name">
                    <value>Dhat</value>
                </Data>
                <Data name="taluka">
                    <value>Bicholim</value>
                </Data>
                <Data name="syno">
                    <value>32</value>
                </Data>
                <Data name="subdiv">
                    <value>1</value>
                </Data>
                <Data name="village">
                    <value>Piligao</value>
                </Data>
                <Data name="latitude">
                    <value>15.5686</value>
                </Data>
                <Data name="longitude">
                    <value>73.95931</value>
                </Data>
                <Data name="photo_1">
                    <value>DCIM/20230311172435652.jpg</value>
                </Data>
                <Data name="photo_2">
                    <value>DCIM/20230311172441971.jpg</value>
                </Data>
                <Data name="constituency">
                    <value>16 - Maem</value>
                </Data>
                <Data name="status">
                    <value>Completed</value>
                </Data>
                <Data name="panchayat">
                    <value>Piligao</value>
                </Data>
                <Data name="wb_type">
                    <value>Tank</value>
                </Data>
                <Data name="owner_type">
                    <value>Private / Public</value>
                </Data>
                <Data name="purpose">
                    <value>Storage</value>
                </Data>
                <Data name="construction">
                    <value>Man Made</value>
                </Data>
                <Data name="condition">
                    <value>Good</value>
                </Data>
                <Data name="print_order">
                    <value>098</value>
                </Data>
                <Data name="wb_id">
                    <value>Bi/Pili/07</value>
                </Data>
                <Data name="storage_capacity">
                    <value>176.0</value>
                </Data>
                <Data name="wb_surface_id">
                    <value>5428</value>
                </Data>
                <Data name="created_at">
                    <value>2023-03-11 00:00:00</value>
                </Data>
                <Data name="updated_at">
                    <value>2024-09-22 05:42:24.257025</value>
                </Data>
                <Data name="book_id">
                    <value>2</value>
                </Data>
                <Data name="owners">
                    <value>Anand Gajanan Narvekar
Dattaram Vishnu Tivrekar
Deepak Ramchandra Gawade
Government of Goa The Executive Engineer, Work Division XXIII ( Road ), PWD, Bicholim Goa
Govind Shablo Gawde
Krishananath Gurudas Parsekar
Sachin Hanumant  Kumbhar
Shivaji Vithal Gawde
Sripad Vaikunth Naik
Sudin Ravi Lingadkar
Suraj Somnath Kudnekar
Suryakant Monohar Mashelkar
Ulhas Betu Surlikar
Vishwajit Dattu Narvekar</value>
                </Data>
                <Data name="label_x">
                    <value>986001.0</value>
                </Data>
                <Data name="label_y">
                    <value>1022619.7237766335</value>
                </Data>
            </ExtendedData>
            <Point id="13892">
                <coordinates>73.959312448,15.568602075,0.0</coordinates>
            </Point>
        </Placemark>
        <Placemark id="13925">
            <ExtendedData>
                <Data name="direction">
                    <value>https://maps.google.com?q=15.55692,73.95821&amp;t=h</value>
                </Data>
                <Data name="id">
                    <value>103</value>
                </Data>
                <Data name="name">
                    <value>Dipkacho Molo</value>
                </Data>
                <Data name="taluka">
                    <value>Bicholim</value>
                </Data>
                <Data name="syno">
                    <value>163</value>
                </Data>
                <Data name="subdiv">
                    <value>21</value>
                </Data>
                <Data name="village">
                    <value>Piligao</value>
                </Data>
                <Data name="latitude">
                    <value>15.55692</value>
                </Data>
                <Data name="longitude">
                    <value>73.95821</value>
                </Data>
                <Data name="photo_1">
                    <value>DCIM/20230203153014696.jpg</value>
                </Data>
                <Data name="photo_2">
                    <value>DCIM/20230203153027346.jpg</value>
                </Data>
                <Data name="syno_pt_list">
                    <value>155/0; 156/2; 163/1-21; 164/1,6-15,17-21-22-32-33-37</value>
                </Data>
                <Data name="constituency">
                    <value>16 - Maem</value>
                </Data>
                <Data name="status">
                    <value>Completed</value>
                </Data>
                <Data name="panchayat">
                    <value>Piligao</value>
                </Data>
                <Data name="wb_type">
                    <value>Pond</value>
                </Data>
                <Data name="owner_type">
                    <value>Private</value>
                </Data>
                <Data name="purpose">
                    <value>Storage</value>
                </Data>
                <Data name="construction">
                    <value>Natural</value>
                </Data>
                <Data name="condition">
                    <value>Needs Maintenance</value>
                </Data>
                <Data name="print_order">
                    <value>026</value>
                </Data>
                <Data name="wb_id">
                    <value>Bi/Pili/01</value>
                </Data>
                <Data name="storage_capacity">
                    <value>21990.0</value>
                </Data>
                <Data name="wb_surface_id">
                    <value>429</value>
                </Data>
                <Data name="created_at">
                    <value>2020-02-28 15:24:34</value>
                </Data>
                <Data name="updated_at">
                    <value>2024-09-22 05:42:22.271370</value>
                </Data>
                <Data name="book_id">
                    <value>2</value>
                </Data>
                <Data name="owners">
                    <value>Mangesh Janu Desai</value>
                </Data>
                <Data name="label_x">
                    <value>986001.0</value>
                </Data>
                <Data name="label_y">
                    <value>1016319.7237766335</value>
                </Data>
            </ExtendedData>
            <Point id="13924">
                <coordinates>73.958207036,15.556920119,0.0</coordinates>
            </Point>
        </Placemark>
        <Placemark id="13958">
            <ExtendedData>
                <Data name="direction">
                    <value>https://maps.google.com?q=15.55864,73.94679&amp;t=h</value>
                </Data>
                <Data name="id">
                    <value>102</value>
                </Data>
                <Data name="name">
                    <value>Chamunda Devi Temple Tank; Talaye Kadil</value>
                </Data>
                <Data name="taluka">
                    <value>Bicholim</value>
                </Data>
                <Data name="syno">
                    <value>13</value>
                </Data>
                <Data name="subdiv">
                    <value>7</value>
                </Data>
                <Data name="village">
                    <value>Piligao</value>
                </Data>
                <Data name="latitude">
                    <value>15.55864</value>
                </Data>
                <Data name="longitude">
                    <value>73.94679</value>
                </Data>
                <Data name="photo_1">
                    <value>DCIM/20230203164134837.jpg</value>
                </Data>
                <Data name="photo_2">
                    <value>DCIM/20230203164204519.jpg</value>
                </Data>
                <Data name="syno_pt_list">
                    <value>12/7</value>
                </Data>
                <Data name="constituency">
                    <value>16 - Maem</value>
                </Data>
                <Data name="status">
                    <value>Completed</value>
                </Data>
                <Data name="panchayat">
                    <value>Piligao</value>
                </Data>
                <Data name="wb_type">
                    <value>Temple Tank</value>
                </Data>
                <Data name="owner_type">
                    <value>Private</value>
                </Data>
                <Data name="purpose">
                    <value>Storage</value>
                </Data>
                <Data name="construction">
                    <value>Man Made</value>
                </Data>
                <Data name="condition">
                    <value>Good</value>
                </Data>
                <Data name="print_order">
                    <value>067</value>
                </Data>
                <Data name="wb_id">
                    <value>Bi/Pili/02</value>
                </Data>
                <Data name="storage_capacity">
                    <value>2598.0</value>
                </Data>
                <Data name="wb_surface_id">
                    <value>439</value>
                </Data>
                <Data name="created_at">
                    <value>2020-02-28 15:24:34</value>
                </Data>
                <Data name="updated_at">
                    <value>2024-09-22 05:42:23.384266</value>
                </Data>
                <Data name="book_id">
                    <value>2</value>
                </Data>
                <Data name="owners">
                    <value>Sri Devi Chamunda Devasthan</value>
                </Data>
                <Data name="label_x">
                    <value>986001.0</value>
                </Data>
                <Data name="label_y">
                    <value>1020169.7237766335</value>
                </Data>
            </ExtendedData>
            <Point id="13957">
                <coordinates>73.946792324,15.558642378,0.0</coordinates>
            </Point>
        </Placemark>
        <Placemark id="13991">
            <ExtendedData>
                <Data name="direction">
                    <value>https://maps.google.com?q=15.55864,73.95136&amp;t=h</value>
                </Data>
                <Data name="id">
                    <value>6111</value>
                </Data>
                <Data name="name">
                    <value>Mahadev Temple Tank; Valpe</value>
                </Data>
                <Data name="taluka">
                    <value>Bicholim</value>
                </Data>
                <Data name="syno">
                    <value>6</value>
                </Data>
                <Data name="subdiv">
                    <value>11</value>
                </Data>
                <Data name="village">
                    <value>Piligao</value>
                </Data>
                <Data name="latitude">
                    <value>15.55864</value>
                </Data>
                <Data name="longitude">
                    <value>73.95136</value>
                </Data>
                <Data name="photo_1">
                    <value>DCIM/20230503081112682.jpg</value>
                </Data>
                <Data name="photo_2">
                    <value>DCIM/20230503081123583.jpg</value>
                </Data>
                <Data name="constituency">
                    <value>16 - Maem</value>
                </Data>
                <Data name="status">
                    <value>Completed</value>
                </Data>
                <Data name="panchayat">
                    <value>Piligao</value>
                </Data>
                <Data name="wb_type">
                    <value>Temple Tank</value>
                </Data>
                <Data name="owner_type">
                    <value>Private</value>
                </Data>
                <Data name="purpose">
                    <value>Storage</value>
                </Data>
                <Data name="construction">
                    <value>Man Made</value>
                </Data>
                <Data name="condition">
                    <value>Needs Maintenance</value>
                </Data>
                <Data name="print_order">
                    <value>069</value>
                </Data>
                <Data name="wb_id">
                    <value>Bi/Pili/08</value>
                </Data>
                <Data name="storage_capacity">
                    <value>163.0</value>
                </Data>
                <Data name="wb_surface_id">
                    <value>5552</value>
                </Data>
                <Data name="created_at">
                    <value>2023-05-02 13:20:44.678340</value>
                </Data>
                <Data name="updated_at">
                    <value>2024-09-22 05:42:23.438708</value>
                </Data>
                <Data name="book_id">
                    <value>2</value>
                </Data>
                <Data name="owners">
                    <value>Sri Dev Mahadev Devasthan</value>
                </Data>
                <Data name="label_x">
                    <value>986001.0</value>
                </Data>
                <Data name="label_y">
                    <value>1021219.7237766335</value>
                </Data>
            </ExtendedData>
            <Point id="13990">
                <coordinates>73.951357349,15.558637594,0.0</coordinates>
            </Point>
        </Placemark>
        <Placemark id="14023">
            <ExtendedData>
                <Data name="direction">
                    <value>https://maps.google.com?q=15.56117,73.94657&amp;t=h</value>
                </Data>
                <Data name="id">
                    <value>101</value>
                </Data>
                <Data name="name">
                    <value>Ramchandra Temple Tank; Gimone</value>
                </Data>
                <Data name="taluka">
                    <value>Bicholim</value>
                </Data>
                <Data name="syno">
                    <value>21</value>
                </Data>
                <Data name="subdiv">
                    <value>1</value>
                </Data>
                <Data name="village">
                    <value>Piligao</value>
                </Data>
                <Data name="latitude">
                    <value>15.56117</value>
                </Data>
                <Data name="longitude">
                    <value>73.94657</value>
                </Data>
                <Data name="photo_1">
                    <value>DCIM/20230203164853546.jpg</value>
                </Data>
                <Data name="photo_2">
                    <value>DCIM/20230203164947464.jpg</value>
                </Data>
                <Data name="syno_pt_list">
                    <value>21/1</value>
                </Data>
                <Data name="constituency">
                    <value>16 - Maem</value>
                </Data>
                <Data name="status">
                    <value>Completed</value>
                </Data>
                <Data name="panchayat">
                    <value>Piligao</value>
                </Data>
                <Data name="wb_type">
                    <value>Temple Tank</value>
                </Data>
                <Data name="owner_type">
                    <value>Private / Public</value>
                </Data>
                <Data name="purpose">
                    <value>Storage</value>
                </Data>
                <Data name="construction">
                    <value>Man Made</value>
                </Data>
                <Data name="condition">
                    <value>Needs Maintenance</value>
                </Data>
                <Data name="print_order">
                    <value>068</value>
                </Data>
                <Data name="wb_id">
                    <value>Bi/Pili/03</value>
                </Data>
                <Data name="storage_capacity">
                    <value>1200.0</value>
                </Data>
                <Data name="wb_surface_id">
                    <value>440</value>
                </Data>
                <Data name="created_at">
                    <value>2020-02-28 15:24:34</value>
                </Data>
                <Data name="updated_at">
                    <value>2024-09-22 05:42:23.411468</value>
                </Data>
                <Data name="book_id">
                    <value>2</value>
                </Data>
                <Data name="owners">
                    <value>Anant Ramkrishna Garde
Atchut Ramkrishna Garde
Government of Goa P.W.D.Department
Venkatesh Ramkrishna Garde</value>
                </Data>
                <Data name="label_x">
                    <value>986001.0</value>
                </Data>
                <Data name="label_y">
                    <value>1022269.7237766335</value>
                </Data>
            </ExtendedData>
            <Point id="14022">
                <coordinates>73.946566655,15.56117294,0.0</coordinates>
            </Point>
        </Placemark>
        <Placemark id="14056">
            <ExtendedData>
                <Data name="direction">
                    <value>https://maps.google.com?q=15.55596,73.9585&amp;t=h</value>
                </Data>
                <Data name="id">
                    <value>5301</value>
                </Data>
                <Data name="name">
                    <value>Molo</value>
                </Data>
                <Data name="taluka">
                    <value>Bicholim</value>
                </Data>
                <Data name="syno">
                    <value>154</value>
                </Data>
                <Data name="subdiv">
                    <value>6</value>
                </Data>
                <Data name="village">
                    <value>Piligao</value>
                </Data>
                <Data name="latitude">
                    <value>15.55596</value>
                </Data>
                <Data name="longitude">
                    <value>73.9585</value>
                </Data>
                <Data name="photo_1">
                    <value>DCIM/20230203152646532.jpg</value>
                </Data>
                <Data name="photo_2">
                    <value>DCIM/20230203152703634.jpg</value>
                </Data>
                <Data name="syno_pt_list">
                    <value>154/6,13-15</value>
                </Data>
                <Data name="constituency">
                    <value>16 - Maem</value>
                </Data>
                <Data name="status">
                    <value>Completed</value>
                </Data>
                <Data name="panchayat">
                    <value>Piligao</value>
                </Data>
                <Data name="wb_type">
                    <value>Pond</value>
                </Data>
                <Data name="owner_type">
                    <value>Private</value>
                </Data>
                <Data name="purpose">
                    <value>Storage</value>
                </Data>
                <Data name="construction">
                    <value>Natural</value>
                </Data>
                <Data name="condition">
                    <value>Good</value>
                </Data>
                <Data name="print_order">
                    <value>027</value>
                </Data>
                <Data name="wb_id">
                    <value>Bi/Pili/06</value>
                </Data>
                <Data name="storage_capacity">
                    <value>386.0</value>
                </Data>
                <Data name="wb_surface_id">
                    <value>4114</value>
                </Data>
                <Data name="created_at">
                    <value>2022-07-28 11:21:59.811371</value>
                </Data>
                <Data name="updated_at">
                    <value>2024-09-22 05:42:22.299593</value>
                </Data>
                <Data name="book_id">
                    <value>2</value>
                </Data>
                <Data name="owners">
                    <value>Anant Sheth Maideker
Olivia Pia D'Souza</value>
                </Data>
                <Data name="label_x">
                    <value>986001.0</value>
                </Data>
                <Data name="label_y">
                    <value>1015269.7237766335</value>
                </Data>
            </ExtendedData>
            <Point id="14055">
                <coordinates>73.958499133,15.555959576,0.0</coordinates>
            </Point>
        </Placemark>
        <Placemark id="14089">
            <ExtendedData>
                <Data name="direction">
                    <value>https://maps.google.com?q=15.55373,73.95746&amp;t=h</value>
                </Data>
                <Data name="id">
                    <value>5299</value>
                </Data>
                <Data name="name">
                    <value>Sarne Katar</value>
                </Data>
                <Data name="taluka">
                    <value>Bicholim</value>
                </Data>
                <Data name="syno">
                    <value>151</value>
                </Data>
                <Data name="subdiv">
                    <value>1</value>
                </Data>
                <Data name="village">
                    <value>Piligao</value>
                </Data>
                <Data name="latitude">
                    <value>15.55373</value>
                </Data>
                <Data name="longitude">
                    <value>73.95746</value>
                </Data>
                <Data name="photo_1">
                    <value>DCIM/20230311172243397.jpg</value>
                </Data>
                <Data name="photo_2">
                    <value>DCIM/20230311172248686.jpg</value>
                </Data>
                <Data name="syno_pt_list">
                    <value>151/1</value>
                </Data>
                <Data name="constituency">
                    <value>16 - Maem</value>
                </Data>
                <Data name="status">
                    <value>Completed</value>
                </Data>
                <Data name="panchayat">
                    <value>Piligao</value>
                </Data>
                <Data name="wb_type">
                    <value>Tank</value>
                </Data>
                <Data name="owner_type">
                    <value>Private</value>
                </Data>
                <Data name="purpose">
                    <value>Irrigation</value>
                </Data>
                <Data name="construction">
                    <value>Man Made</value>
                </Data>
                <Data name="condition">
                    <value>Good</value>
                </Data>
                <Data name="print_order">
                    <value>099</value>
                </Data>
                <Data name="wb_id">
                    <value>Bi/Pili/10</value>
                </Data>
                <Data name="storage_capacity">
                    <value>54.0</value>
                </Data>
                <Data name="wb_surface_id">
                    <value>4112</value>
                </Data>
                <Data name="created_at">
                    <value>2022-07-28 11:20:39.093212</value>
                </Data>
                <Data name="updated_at">
                    <value>2024-09-22 05:42:24.284639</value>
                </Data>
                <Data name="book_id">
                    <value>2</value>
                </Data>
                <Data name="owners">
                    <value>Asgar Ali Shaikh
Damodar Pandurang Naik
Dinesh Singh
Lilesh Shashikant Phadte
Mohamadrafiq Hussainsab Shaikh
Ravindra Kailas Gupta</value>
                </Data>
                <Data name="label_x">
                    <value>986001.0</value>
                </Data>
                <Data name="label_y">
                    <value>1014919.7237766335</value>
                </Data>
            </ExtendedData>
            <Point id="14088">
                <coordinates>73.957457702,15.553726559,0.0</coordinates>
            </Point>
        </Placemark>
        <Placemark id="14122">
            <ExtendedData>
                <Data name="direction">
                    <value>https://maps.google.com?q=15.56886,73.96058&amp;t=h</value>
                </Data>
                <Data name="id">
                    <value>5303</value>
                </Data>
                <Data name="name">
                    <value>Dhat</value>
                </Data>
                <Data name="taluka">
                    <value>Bicholim</value>
                </Data>
                <Data name="syno">
                    <value>32</value>
                </Data>
                <Data name="subdiv">
                    <value>1</value>
                </Data>
                <Data name="village">
                    <value>Piligao</value>
                </Data>
                <Data name="latitude">
                    <value>15.56886</value>
                </Data>
                <Data name="longitude">
                    <value>73.96058</value>
                </Data>
                <Data name="photo_1">
                    <value>DCIM/20230311172330097.jpg</value>
                </Data>
                <Data name="photo_2">
                    <value>DCIM/20230311172340231.jpg</value>
                </Data>
                <Data name="syno_pt_list">
                    <value>32/1</value>
                </Data>
                <Data name="constituency">
                    <value>16 - Maem</value>
                </Data>
                <Data name="status">
                    <value>Completed</value>
                </Data>
                <Data name="panchayat">
                    <value>Piligao</value>
                </Data>
                <Data name="wb_type">
                    <value>Tank</value>
                </Data>
                <Data name="owner_type">
                    <value>Private / Public</value>
                </Data>
                <Data name="purpose">
                    <value>Irrigation</value>
                </Data>
                <Data name="construction">
                    <value>Natural/Man Made</value>
                </Data>
                <Data name="condition">
                    <value>Good</value>
                </Data>
                <Data name="print_order">
                    <value>097</value>
                </Data>
                <Data name="wb_id">
                    <value>Bi/Pili/05</value>
                </Data>
                <Data name="storage_capacity">
                    <value>456.0</value>
                </Data>
                <Data name="wb_surface_id">
                    <value>4116</value>
                </Data>
                <Data name="created_at">
                    <value>2022-07-28 11:35:27.302461</value>
                </Data>
                <Data name="updated_at">
                    <value>2024-09-22 05:42:24.228796</value>
                </Data>
                <Data name="book_id">
                    <value>2</value>
                </Data>
                <Data name="owners">
                    <value>Anand Gajanan Narvekar
Dattaram Vishnu Tivrekar
Deepak Ramchandra Gawade
Government of Goa The Executive Engineer, Work Division XXIII ( Road ), PWD, Bicholim Goa
Govind Shablo Gawde
Krishananath Gurudas Parsekar
Sachin Hanumant  Kumbhar
Shivaji Vithal Gawde
Sripad Vaikunth Naik
Sudin Ravi Lingadkar
Suraj Somnath Kudnekar
Suryakant Monohar Mashelkar
Ulhas Betu Surlikar
Vishwajit Dattu Narvekar</value>
                </Data>
                <Data name="label_x">
                    <value>986001.0</value>
                </Data>
                <Data name="label_y">
                    <value>1022969.7237766335</value>
                </Data>
            </ExtendedData>
            <Point id="14121">
                <coordinates>73.960584587,15.568855054,0.0</coordinates>
            </Point>
        </Placemark>
        <Placemark id="14155">
            <ExtendedData>
                <Data name="direction">
                    <value>https://maps.google.com?q=15.55411,73.94657&amp;t=h</value>
                </Data>
                <Data name="id">
                    <value>6121</value>
                </Data>
                <Data name="name">
                    <value>Page</value>
                </Data>
                <Data name="taluka">
                    <value>Bicholim</value>
                </Data>
                <Data name="syno">
                    <value>230</value>
                </Data>
                <Data name="subdiv">
                    <value>1</value>
                </Data>
                <Data name="village">
                    <value>Piligao</value>
                </Data>
                <Data name="latitude">
                    <value>15.55411</value>
                </Data>
                <Data name="longitude">
                    <value>73.94657</value>
                </Data>
                <Data name="photo_1">
                    <value>DCIM/20230503084147267.jpg</value>
                </Data>
                <Data name="photo_2">
                    <value>DCIM/20230503084102484.jpg</value>
                </Data>
                <Data name="constituency">
                    <value>16 - Maem</value>
                </Data>
                <Data name="status">
                    <value>Completed</value>
                </Data>
                <Data name="panchayat">
                    <value>Piligao</value>
                </Data>
                <Data name="wb_type">
                    <value>Tank</value>
                </Data>
                <Data name="owner_type">
                    <value>Communidade</value>
                </Data>
                <Data name="purpose">
                    <value>Irrigation</value>
                </Data>
                <Data name="construction">
                    <value>Man Made</value>
                </Data>
                <Data name="condition">
                    <value>Needs Maintenance</value>
                </Data>
                <Data name="print_order">
                    <value>096</value>
                </Data>
                <Data name="wb_id">
                    <value>Bi/Pili/04</value>
                </Data>
                <Data name="storage_capacity">
                    <value>597.0</value>
                </Data>
                <Data name="wb_surface_id">
                    <value>5556</value>
                </Data>
                <Data name="created_at">
                    <value>2023-05-03 00:00:00</value>
                </Data>
                <Data name="updated_at">
                    <value>2024-09-22 05:42:24.201401</value>
                </Data>
                <Data name="book_id">
                    <value>2</value>
                </Data>
                <Data name="owners">
                    <value>Communidad Pilgao</value>
                </Data>
                <Data name="label_x">
                    <value>986001.0</value>
                </Data>
                <Data name="label_y">
                    <value>1017019.7237766335</value>
                </Data>
            </ExtendedData>
            <Point id="14154">
                <coordinates>73.94657115,15.554113112,0.0</coordinates>
            </Point>
        </Placemark>
        <Placemark id="14187">
            <ExtendedData>
                <Data name="direction">
                    <value>https://maps.google.com?q=15.55883,73.94983&amp;t=h</value>
                </Data>
                <Data name="id">
                    <value>6114</value>
                </Data>
                <Data name="name">
                    <value>Aabacho Dob; Kadalanchi Mali</value>
                </Data>
                <Data name="taluka">
                    <value>Bicholim</value>
                </Data>
                <Data name="syno">
                    <value>8</value>
                </Data>
                <Data name="subdiv">
                    <value>1</value>
                </Data>
                <Data name="village">
                    <value>Piligao</value>
                </Data>
                <Data name="latitude">
                    <value>15.55883</value>
                </Data>
                <Data name="longitude">
                    <value>73.94983</value>
                </Data>
                <Data name="photo_1">
                    <value>DCIM/20230503081400786.jpg</value>
                </Data>
                <Data name="photo_2">
                    <value>DCIM/20230503081436513.jpg</value>
                </Data>
                <Data name="constituency">
                    <value>16 - Maem</value>
                </Data>
                <Data name="status">
                    <value>Completed</value>
                </Data>
                <Data name="panchayat">
                    <value>Piligao</value>
                </Data>
                <Data name="wb_type">
                    <value>Pond</value>
                </Data>
                <Data name="owner_type">
                    <value>Private / Public</value>
                </Data>
                <Data name="purpose">
                    <value>Storage</value>
                </Data>
                <Data name="construction">
                    <value>Natural</value>
                </Data>
                <Data name="condition">
                    <value>Needs Maintenance</value>
                </Data>
                <Data name="print_order">
                    <value>028</value>
                </Data>
                <Data name="wb_id">
                    <value>Bi/Pili/09</value>
                </Data>
                <Data name="storage_capacity">
                    <value>91.0</value>
                </Data>
                <Data name="wb_surface_id">
                    <value>5553</value>
                </Data>
                <Data name="created_at">
                    <value>2023-05-02 13:21:55.441912</value>
                </Data>
                <Data name="updated_at">
                    <value>2024-09-22 05:42:22.343521</value>
                </Data>
                <Data name="book_id">
                    <value>2</value>
                </Data>
                <Data name="owners">
                    <value>Government of Goa P.W.D. Department
Keshav Vishnu Lawanis
The Executive Engineer, W.D.XVII (PHE) P .W.D. Alto Pervorim</value>
                </Data>
                <Data name="label_x">
                    <value>986001.0</value>
                </Data>
                <Data name="label_y">
                    <value>1021569.7237766335</value>
                </Data>
            </ExtendedData>
            <Point id="14186">
                <coordinates>73.949829748,15.558825701,0.0</coordinates>
            </Point>
        </Placemark>
    </Document>
</kml>
