<?xml version="1.0" encoding="UTF-8"?>
<kml xmlns="http://www.opengis.net/kml/2.2" xmlns:gx="http://www.google.com/kml/ext/2.2">
    <Document id="15289">
        <Placemark id="15291">
            <ExtendedData>
                <Data name="direction">
                    <value>https://maps.google.com?q=15.316943,73.930704&amp;t=h</value>
                </Data>
                <Data name="id">
                    <value>5354</value>
                </Data>
                <Data name="Sr.No">
                    <value>5354</value>
                </Data>
                <Data name="Reg No">
                    <value>N563</value>
                </Data>
                <Data name="Category">
                    <value>agricultural</value>
                </Data>
                <Data name="Type Of Well">
                    <value>Open Well</value>
                </Data>
                <Data name="Applicant Name">
                    <value>Smt. Freda Disa</value>
                </Data>
                <Data name="Applicant Address">
                    <value>H.No. 31(2), Dongorim, Nuvem, Salcete-Goa. 403604</value>
                </Data>
                <Data name="latitude">
                    <value>15.316943</value>
                </Data>
                <Data name="longitude">
                    <value>73.930704</value>
                </Data>
                <Data name="taluka">
                    <value>Salcete</value>
                </Data>
                <Data name="village">
                    <value>Calata</value>
                </Data>
            </ExtendedData>
            <Point id="15290">
                <coordinates>73.930704,15.316943,0.0</coordinates>
            </Point>
        </Placemark>
    </Document>
</kml>
