<?xml version="1.0" encoding="UTF-8"?>
<kml xmlns="http://www.opengis.net/kml/2.2" xmlns:gx="http://www.google.com/kml/ext/2.2">
    <Document id="15306">
        <Placemark id="15308">
            <ExtendedData>
                <Data name="direction">
                    <value>https://maps.google.com?q=15.331998,73.990679&amp;t=h</value>
                </Data>
                <Data name="id">
                    <value>5135</value>
                </Data>
                <Data name="Sr.No">
                    <value>5135</value>
                </Data>
                <Data name="Reg No">
                    <value>1788</value>
                </Data>
                <Data name="Category">
                    <value>agricultural</value>
                </Data>
                <Data name="Type Of Well">
                    <value>Open Well</value>
                </Data>
                <Data name="Applicant Name">
                    <value>Smt. Luisa Rebello</value>
                </Data>
                <Data name="Applicant Address">
                    <value>H.No.109, Camurlim, Salcete-Goa.</value>
                </Data>
                <Data name="latitude">
                    <value>15.331998</value>
                </Data>
                <Data name="longitude">
                    <value>73.990679</value>
                </Data>
                <Data name="taluka">
                    <value>Salcete</value>
                </Data>
                <Data name="village">
                    <value>Camurlim</value>
                </Data>
            </ExtendedData>
            <Point id="15307">
                <coordinates>73.990679,15.331998,0.0</coordinates>
            </Point>
        </Placemark>
    </Document>
</kml>
