<?xml version="1.0" encoding="UTF-8"?>
<kml xmlns="http://www.opengis.net/kml/2.2" xmlns:gx="http://www.google.com/kml/ext/2.2">
    <Document id="15355">
        <Placemark id="15357">
            <ExtendedData>
                <Data name="direction">
                    <value>https://maps.google.com?q=15.252127,74.043919&amp;t=h</value>
                </Data>
                <Data name="id">
                    <value>5713</value>
                </Data>
                <Data name="Sr.No">
                    <value>5713</value>
                </Data>
                <Data name="Reg No">
                    <value>755/Salcete or 1805</value>
                </Data>
                <Data name="Category">
                    <value>horticulture</value>
                </Data>
                <Data name="Type Of Well">
                    <value>Open Well</value>
                </Data>
                <Data name="Applicant Name">
                    <value>Ana Dionisia Carma Gomes e Da Silva</value>
                </Data>
                <Data name="Applicant Address">
                    <value>NULL</value>
                </Data>
                <Data name="latitude">
                    <value>15.252127</value>
                </Data>
                <Data name="longitude">
                    <value>74.043919</value>
                </Data>
                <Data name="taluka">
                    <value>Salcete</value>
                </Data>
                <Data name="village">
                    <value>Cavorim</value>
                </Data>
            </ExtendedData>
            <Point id="15356">
                <coordinates>74.043919,15.252127,0.0</coordinates>
            </Point>
        </Placemark>
    </Document>
</kml>
