<?xml version="1.0" encoding="UTF-8"?>
<kml xmlns="http://www.opengis.net/kml/2.2" xmlns:gx="http://www.google.com/kml/ext/2.2">
    <Document id="15464">
        <Placemark id="15466">
            <ExtendedData>
                <Data name="direction">
                    <value>https://maps.google.com?q=15.283379,73.912713&amp;t=h</value>
                </Data>
                <Data name="id">
                    <value>5010</value>
                </Data>
                <Data name="Sr.No">
                    <value>5010</value>
                </Data>
                <Data name="Reg No">
                    <value>438</value>
                </Data>
                <Data name="Category">
                    <value>agricultural</value>
                </Data>
                <Data name="Type Of Well">
                    <value>Open Well</value>
                </Data>
                <Data name="Applicant Name">
                    <value>Snowkon Gonsalves</value>
                </Data>
                <Data name="Applicant Address">
                    <value>3rd ward, Colva</value>
                </Data>
                <Data name="latitude">
                    <value>15.283379</value>
                </Data>
                <Data name="longitude">
                    <value>73.912713</value>
                </Data>
                <Data name="taluka">
                    <value>Salcete</value>
                </Data>
                <Data name="village">
                    <value>Colva</value>
                </Data>
            </ExtendedData>
            <Point id="15465">
                <coordinates>73.912713,15.283379,0.0</coordinates>
            </Point>
        </Placemark>
        <Placemark id="15481">
            <ExtendedData>
                <Data name="direction">
                    <value>https://maps.google.com?q=15.282963,73.913553&amp;t=h</value>
                </Data>
                <Data name="id">
                    <value>5019</value>
                </Data>
                <Data name="Sr.No">
                    <value>5019</value>
                </Data>
                <Data name="Reg No">
                    <value>261/Salcete</value>
                </Data>
                <Data name="Category">
                    <value>agricultural</value>
                </Data>
                <Data name="Type Of Well">
                    <value>Open Well</value>
                </Data>
                <Data name="Applicant Name">
                    <value>Shri. Jose Armando Serrao</value>
                </Data>
                <Data name="Applicant Address">
                    <value>hno-192/1,3rd Ward Colva,salcete</value>
                </Data>
                <Data name="latitude">
                    <value>15.282963</value>
                </Data>
                <Data name="longitude">
                    <value>73.913553</value>
                </Data>
                <Data name="taluka">
                    <value>Salcete</value>
                </Data>
                <Data name="village">
                    <value>Colva</value>
                </Data>
            </ExtendedData>
            <Point id="15480">
                <coordinates>73.913553,15.282963,0.0</coordinates>
            </Point>
        </Placemark>
        <Placemark id="15496">
            <ExtendedData>
                <Data name="direction">
                    <value>https://maps.google.com?q=15.275867,73.91873&amp;t=h</value>
                </Data>
                <Data name="id">
                    <value>5020</value>
                </Data>
                <Data name="Sr.No">
                    <value>5020</value>
                </Data>
                <Data name="Reg No">
                    <value>380/Salcete</value>
                </Data>
                <Data name="Category">
                    <value>agricultural</value>
                </Data>
                <Data name="Type Of Well">
                    <value>Open Well</value>
                </Data>
                <Data name="Applicant Name">
                    <value>Mr. Cassino D'costa &amp; Mrs. Elma Serrao</value>
                </Data>
                <Data name="Applicant Address">
                    <value>C/o Vailankanni Cottages, H.no. 414/2,4th Ward Colva Salcete</value>
                </Data>
                <Data name="latitude">
                    <value>15.275867</value>
                </Data>
                <Data name="longitude">
                    <value>73.91873</value>
                </Data>
                <Data name="taluka">
                    <value>Salcete</value>
                </Data>
                <Data name="village">
                    <value>Colva</value>
                </Data>
            </ExtendedData>
            <Point id="15495">
                <coordinates>73.91873,15.275867,0.0</coordinates>
            </Point>
        </Placemark>
        <Placemark id="15511">
            <ExtendedData>
                <Data name="direction">
                    <value>https://maps.google.com?q=15.286996,73.913247&amp;t=h</value>
                </Data>
                <Data name="id">
                    <value>5021</value>
                </Data>
                <Data name="Sr.No">
                    <value>5021</value>
                </Data>
                <Data name="Reg No">
                    <value>187/Salcete</value>
                </Data>
                <Data name="Category">
                    <value>agricultural</value>
                </Data>
                <Data name="Type Of Well">
                    <value>Open Well</value>
                </Data>
                <Data name="Applicant Name">
                    <value>Shri. Anthony Brenov Rodrigues</value>
                </Data>
                <Data name="Applicant Address">
                    <value>hno-392,4th Ward Colva Salcete</value>
                </Data>
                <Data name="latitude">
                    <value>15.286996</value>
                </Data>
                <Data name="longitude">
                    <value>73.913247</value>
                </Data>
                <Data name="taluka">
                    <value>Salcete</value>
                </Data>
                <Data name="village">
                    <value>Colva</value>
                </Data>
            </ExtendedData>
            <Point id="15510">
                <coordinates>73.913247,15.286996,0.0</coordinates>
            </Point>
        </Placemark>
        <Placemark id="15526">
            <ExtendedData>
                <Data name="direction">
                    <value>https://maps.google.com?q=15.286052,73.915158&amp;t=h</value>
                </Data>
                <Data name="id">
                    <value>5341</value>
                </Data>
                <Data name="Sr.No">
                    <value>5341</value>
                </Data>
                <Data name="Reg No">
                    <value>N477</value>
                </Data>
                <Data name="Category">
                    <value>agricultural</value>
                </Data>
                <Data name="Type Of Well">
                    <value>Open Well</value>
                </Data>
                <Data name="Applicant Name">
                    <value>Fabrica Da Igreja de benaulim</value>
                </Data>
                <Data name="Applicant Address">
                    <value>St. John The Baptist Church, Benaulim, Salcete-Goa. 403716</value>
                </Data>
                <Data name="latitude">
                    <value>15.286052</value>
                </Data>
                <Data name="longitude">
                    <value>73.915158</value>
                </Data>
                <Data name="taluka">
                    <value>Salcete</value>
                </Data>
                <Data name="village">
                    <value>Colva</value>
                </Data>
            </ExtendedData>
            <Point id="15525">
                <coordinates>73.915158,15.286052,0.0</coordinates>
            </Point>
        </Placemark>
    </Document>
</kml>
