<?xml version="1.0" encoding="UTF-8"?>
<kml xmlns="http://www.opengis.net/kml/2.2" xmlns:gx="http://www.google.com/kml/ext/2.2">
    <Document id="15541">
        <Placemark id="15543">
            <ExtendedData>
                <Data name="direction">
                    <value>https://maps.google.com?q=15.171286,74.004489&amp;t=h</value>
                </Data>
                <Data name="id">
                    <value>3842</value>
                </Data>
                <Data name="Sr.No">
                    <value>3842</value>
                </Data>
                <Data name="Reg No">
                    <value>x</value>
                </Data>
                <Data name="Category">
                    <value>agricultural</value>
                </Data>
                <Data name="Type Of Well">
                    <value>Open Well</value>
                </Data>
                <Data name="Applicant Name">
                    <value>x</value>
                </Data>
                <Data name="Applicant Address">
                    <value>NULL</value>
                </Data>
                <Data name="latitude">
                    <value>15.171286</value>
                </Data>
                <Data name="longitude">
                    <value>74.004489</value>
                </Data>
                <Data name="taluka">
                    <value>Salcete</value>
                </Data>
                <Data name="village">
                    <value>Cuncolim</value>
                </Data>
            </ExtendedData>
            <Point id="15542">
                <coordinates>74.004489,15.171286,0.0</coordinates>
            </Point>
        </Placemark>
        <Placemark id="15558">
            <ExtendedData>
                <Data name="direction">
                    <value>https://maps.google.com?q=15.176094,73.992917&amp;t=h</value>
                </Data>
                <Data name="id">
                    <value>4601</value>
                </Data>
                <Data name="Sr.No">
                    <value>4601</value>
                </Data>
                <Data name="Reg No">
                    <value>222/Salcete</value>
                </Data>
                <Data name="Category">
                    <value>agricultural</value>
                </Data>
                <Data name="Type Of Well">
                    <value>Open Well</value>
                </Data>
                <Data name="Applicant Name">
                    <value>Shri. Subhash Shambu Dessai</value>
                </Data>
                <Data name="Applicant Address">
                    <value>H.No. 669, Bhivusa, Cuncolim, Salcete-Goa.</value>
                </Data>
                <Data name="latitude">
                    <value>15.176094</value>
                </Data>
                <Data name="longitude">
                    <value>73.992917</value>
                </Data>
                <Data name="taluka">
                    <value>Salcete</value>
                </Data>
                <Data name="village">
                    <value>Cuncolim</value>
                </Data>
            </ExtendedData>
            <Point id="15557">
                <coordinates>73.992917,15.176094,0.0</coordinates>
            </Point>
        </Placemark>
        <Placemark id="15573">
            <ExtendedData>
                <Data name="direction">
                    <value>https://maps.google.com?q=15.18883,74.010971&amp;t=h</value>
                </Data>
                <Data name="id">
                    <value>5519</value>
                </Data>
                <Data name="Sr.No">
                    <value>5519</value>
                </Data>
                <Data name="Reg No">
                    <value>220/Salcete</value>
                </Data>
                <Data name="Category">
                    <value>agricultural</value>
                </Data>
                <Data name="Type Of Well">
                    <value>Open Well</value>
                </Data>
                <Data name="Applicant Name">
                    <value>Shri. Contancio Visitacao Rodrigues</value>
                </Data>
                <Data name="Applicant Address">
                    <value>H.No. 1823, Bathiem, Cuncolim, Salcete-Goa.</value>
                </Data>
                <Data name="latitude">
                    <value>15.18883</value>
                </Data>
                <Data name="longitude">
                    <value>74.010971</value>
                </Data>
                <Data name="taluka">
                    <value>Salcete</value>
                </Data>
                <Data name="village">
                    <value>Cuncolim</value>
                </Data>
            </ExtendedData>
            <Point id="15572">
                <coordinates>74.010971,15.18883,0.0</coordinates>
            </Point>
        </Placemark>
        <Placemark id="15588">
            <ExtendedData>
                <Data name="direction">
                    <value>https://maps.google.com?q=15.188898,74.032418&amp;t=h</value>
                </Data>
                <Data name="id">
                    <value>5604</value>
                </Data>
                <Data name="Sr.No">
                    <value>5604</value>
                </Data>
                <Data name="Reg No">
                    <value>384/Salcete</value>
                </Data>
                <Data name="Category">
                    <value>agricultural</value>
                </Data>
                <Data name="Type Of Well">
                    <value>Bore well</value>
                </Data>
                <Data name="Applicant Name">
                    <value>Shri. Rui Viegas &amp; Smt. Clarissa Viegas</value>
                </Data>
                <Data name="Applicant Address">
                    <value>H.No. 14/56, Murida, Cuncolim, Salcete-goa</value>
                </Data>
                <Data name="latitude">
                    <value>15.188898</value>
                </Data>
                <Data name="longitude">
                    <value>74.032418</value>
                </Data>
                <Data name="taluka">
                    <value>Salcete</value>
                </Data>
                <Data name="village">
                    <value>Cuncolim</value>
                </Data>
            </ExtendedData>
            <Point id="15587">
                <coordinates>74.032418,15.188898,0.0</coordinates>
            </Point>
        </Placemark>
        <Placemark id="15603">
            <ExtendedData>
                <Data name="direction">
                    <value>https://maps.google.com?q=15.182463,74.013549&amp;t=h</value>
                </Data>
                <Data name="id">
                    <value>5646</value>
                </Data>
                <Data name="Sr.No">
                    <value>5646</value>
                </Data>
                <Data name="Reg No">
                    <value>596</value>
                </Data>
                <Data name="Category">
                    <value>agricultural</value>
                </Data>
                <Data name="Type Of Well">
                    <value>Open Well</value>
                </Data>
                <Data name="Applicant Name">
                    <value>Shri. Pulqheria Besmita Francisca Pinto</value>
                </Data>
                <Data name="Applicant Address">
                    <value>H.no.2017,Gouleacotto, Cuncolim, Salcete Goa 403703,</value>
                </Data>
                <Data name="latitude">
                    <value>15.182463</value>
                </Data>
                <Data name="longitude">
                    <value>74.013549</value>
                </Data>
                <Data name="taluka">
                    <value>Salcete</value>
                </Data>
                <Data name="village">
                    <value>Cuncolim</value>
                </Data>
            </ExtendedData>
            <Point id="15602">
                <coordinates>74.013549,15.182463,0.0</coordinates>
            </Point>
        </Placemark>
        <Placemark id="15618">
            <ExtendedData>
                <Data name="direction">
                    <value>https://maps.google.com?q=15.18281,74.00687&amp;t=h</value>
                </Data>
                <Data name="id">
                    <value>5649</value>
                </Data>
                <Data name="Sr.No">
                    <value>5649</value>
                </Data>
                <Data name="Reg No">
                    <value>904</value>
                </Data>
                <Data name="Category">
                    <value>agricultural</value>
                </Data>
                <Data name="Type Of Well">
                    <value>Open Well</value>
                </Data>
                <Data name="Applicant Name">
                    <value>Shri. Purso Shankar Dessai</value>
                </Data>
                <Data name="Applicant Address">
                    <value>H.no 1614, Sanvorcotto, Cuncolim, Salcete, Goa</value>
                </Data>
                <Data name="latitude">
                    <value>15.18281</value>
                </Data>
                <Data name="longitude">
                    <value>74.00687</value>
                </Data>
                <Data name="taluka">
                    <value>Salcete</value>
                </Data>
                <Data name="village">
                    <value>Cuncolim</value>
                </Data>
            </ExtendedData>
            <Point id="15617">
                <coordinates>74.00687,15.18281,0.0</coordinates>
            </Point>
        </Placemark>
        <Placemark id="15633">
            <ExtendedData>
                <Data name="direction">
                    <value>https://maps.google.com?q=15.192545,73.994561&amp;t=h</value>
                </Data>
                <Data name="id">
                    <value>5659</value>
                </Data>
                <Data name="Sr.No">
                    <value>5659</value>
                </Data>
                <Data name="Reg No">
                    <value>590/Salcete</value>
                </Data>
                <Data name="Category">
                    <value>horticulture</value>
                </Data>
                <Data name="Type Of Well">
                    <value>Open Well</value>
                </Data>
                <Data name="Applicant Name">
                    <value>Shri. Leopoldo Jacinto Fernandes &amp; Smt. Matildes Fernandes</value>
                </Data>
                <Data name="Applicant Address">
                    <value>H.no. 10/1-C, Cancnamoddy,Cuncolim, Salcete Goa 403703</value>
                </Data>
                <Data name="latitude">
                    <value>15.192545</value>
                </Data>
                <Data name="longitude">
                    <value>73.994561</value>
                </Data>
                <Data name="taluka">
                    <value>Salcete</value>
                </Data>
                <Data name="village">
                    <value>Cuncolim</value>
                </Data>
            </ExtendedData>
            <Point id="15632">
                <coordinates>73.994561,15.192545,0.0</coordinates>
            </Point>
        </Placemark>
        <Placemark id="15648">
            <ExtendedData>
                <Data name="direction">
                    <value>https://maps.google.com?q=15.191877,73.994578&amp;t=h</value>
                </Data>
                <Data name="id">
                    <value>5663</value>
                </Data>
                <Data name="Sr.No">
                    <value>5663</value>
                </Data>
                <Data name="Reg No">
                    <value>591/Salcete</value>
                </Data>
                <Data name="Category">
                    <value>agricultural</value>
                </Data>
                <Data name="Type Of Well">
                    <value>Open Well</value>
                </Data>
                <Data name="Applicant Name">
                    <value>Shri. Leopoldo Jacinto Fernandes &amp; Smt. Matildes Fernandes</value>
                </Data>
                <Data name="Applicant Address">
                    <value>H.no. 10/1-C, Cancnamoddy, Cuncolim, Salcete, Goa, 403703.</value>
                </Data>
                <Data name="latitude">
                    <value>15.191877</value>
                </Data>
                <Data name="longitude">
                    <value>73.994578</value>
                </Data>
                <Data name="taluka">
                    <value>Salcete</value>
                </Data>
                <Data name="village">
                    <value>Cuncolim</value>
                </Data>
            </ExtendedData>
            <Point id="15647">
                <coordinates>73.994578,15.191877,0.0</coordinates>
            </Point>
        </Placemark>
        <Placemark id="15663">
            <ExtendedData>
                <Data name="direction">
                    <value>https://maps.google.com?q=15.199852,73.997176&amp;t=h</value>
                </Data>
                <Data name="id">
                    <value>5690</value>
                </Data>
                <Data name="Sr.No">
                    <value>5690</value>
                </Data>
                <Data name="Reg No">
                    <value>324/Salcete</value>
                </Data>
                <Data name="Category">
                    <value>horticulture</value>
                </Data>
                <Data name="Type Of Well">
                    <value>Open Well</value>
                </Data>
                <Data name="Applicant Name">
                    <value>Shri. Shawn Jettro Gomes</value>
                </Data>
                <Data name="Applicant Address">
                    <value>H.No. 69/a, Poitowaddo, Cuncolim, Salcete-goa.</value>
                </Data>
                <Data name="latitude">
                    <value>15.199852</value>
                </Data>
                <Data name="longitude">
                    <value>73.997176</value>
                </Data>
                <Data name="taluka">
                    <value>Salcete</value>
                </Data>
                <Data name="village">
                    <value>Cuncolim</value>
                </Data>
            </ExtendedData>
            <Point id="15662">
                <coordinates>73.997176,15.199852,0.0</coordinates>
            </Point>
        </Placemark>
        <Placemark id="15678">
            <ExtendedData>
                <Data name="direction">
                    <value>https://maps.google.com?q=15.167913,73.994351&amp;t=h</value>
                </Data>
                <Data name="id">
                    <value>5696</value>
                </Data>
                <Data name="Sr.No">
                    <value>5696</value>
                </Data>
                <Data name="Reg No">
                    <value>485/Salcete</value>
                </Data>
                <Data name="Category">
                    <value>agricultural</value>
                </Data>
                <Data name="Type Of Well">
                    <value>Open Well</value>
                </Data>
                <Data name="Applicant Name">
                    <value>Shri. Jayendra Tulshidas Chari</value>
                </Data>
                <Data name="Applicant Address">
                    <value>H. No. 194, Fondubhat, Cuncolim, Salcete-goa.</value>
                </Data>
                <Data name="latitude">
                    <value>15.167913</value>
                </Data>
                <Data name="longitude">
                    <value>73.994351</value>
                </Data>
                <Data name="taluka">
                    <value>Salcete</value>
                </Data>
                <Data name="village">
                    <value>Cuncolim</value>
                </Data>
            </ExtendedData>
            <Point id="15677">
                <coordinates>73.994351,15.167913,0.0</coordinates>
            </Point>
        </Placemark>
        <Placemark id="15693">
            <ExtendedData>
                <Data name="direction">
                    <value>https://maps.google.com?q=15.208256,73.990933&amp;t=h</value>
                </Data>
                <Data name="id">
                    <value>5702</value>
                </Data>
                <Data name="Sr.No">
                    <value>5702</value>
                </Data>
                <Data name="Reg No">
                    <value>New</value>
                </Data>
                <Data name="Category">
                    <value>agricultural</value>
                </Data>
                <Data name="Type Of Well">
                    <value>Open Well</value>
                </Data>
                <Data name="Applicant Name">
                    <value>Rosario</value>
                </Data>
                <Data name="Applicant Address">
                    <value>NULL</value>
                </Data>
                <Data name="latitude">
                    <value>15.208256</value>
                </Data>
                <Data name="longitude">
                    <value>73.990933</value>
                </Data>
                <Data name="taluka">
                    <value>Salcete</value>
                </Data>
                <Data name="village">
                    <value>Cuncolim</value>
                </Data>
            </ExtendedData>
            <Point id="15692">
                <coordinates>73.990933,15.208256,0.0</coordinates>
            </Point>
        </Placemark>
    </Document>
</kml>
