<?xml version="1.0" encoding="UTF-8"?>
<kml xmlns="http://www.opengis.net/kml/2.2" xmlns:gx="http://www.google.com/kml/ext/2.2">
    <Document id="15832">
        <Placemark id="15834">
            <ExtendedData>
                <Data name="direction">
                    <value>https://maps.google.com?q=15.219677,73.969283&amp;t=h</value>
                </Data>
                <Data name="id">
                    <value>5607</value>
                </Data>
                <Data name="Sr.No">
                    <value>5607</value>
                </Data>
                <Data name="Reg No">
                    <value>130/Salcete</value>
                </Data>
                <Data name="Category">
                    <value>agricultural</value>
                </Data>
                <Data name="Type Of Well">
                    <value>Open Well</value>
                </Data>
                <Data name="Applicant Name">
                    <value>Shri. Ramesh Remedios Rebello</value>
                </Data>
                <Data name="Applicant Address">
                    <value>H.No. 37/1, Vellor, Deussa, Chinchinim, Salcete-goa.</value>
                </Data>
                <Data name="latitude">
                    <value>15.219677</value>
                </Data>
                <Data name="longitude">
                    <value>73.969283</value>
                </Data>
                <Data name="taluka">
                    <value>Salcete</value>
                </Data>
                <Data name="village">
                    <value>Deussua</value>
                </Data>
            </ExtendedData>
            <Point id="15833">
                <coordinates>73.969283,15.219677,0.0</coordinates>
            </Point>
        </Placemark>
        <Placemark id="15849">
            <ExtendedData>
                <Data name="direction">
                    <value>https://maps.google.com?q=15.220897,73.965561&amp;t=h</value>
                </Data>
                <Data name="id">
                    <value>5608</value>
                </Data>
                <Data name="Sr.No">
                    <value>5608</value>
                </Data>
                <Data name="Reg No">
                    <value>364/Salcete</value>
                </Data>
                <Data name="Category">
                    <value>agricultural</value>
                </Data>
                <Data name="Type Of Well">
                    <value>Open Well</value>
                </Data>
                <Data name="Applicant Name">
                    <value>Shri. Melvino N. Furtado</value>
                </Data>
                <Data name="Applicant Address">
                    <value>H.No.184, Patnimorod, Chinchinim, Salcete -goa</value>
                </Data>
                <Data name="latitude">
                    <value>15.220897</value>
                </Data>
                <Data name="longitude">
                    <value>73.965561</value>
                </Data>
                <Data name="taluka">
                    <value>Salcete</value>
                </Data>
                <Data name="village">
                    <value>Deussua</value>
                </Data>
            </ExtendedData>
            <Point id="15848">
                <coordinates>73.965561,15.220897,0.0</coordinates>
            </Point>
        </Placemark>
        <Placemark id="15864">
            <ExtendedData>
                <Data name="direction">
                    <value>https://maps.google.com?q=15.212663,73.967&amp;t=h</value>
                </Data>
                <Data name="id">
                    <value>5635</value>
                </Data>
                <Data name="Sr.No">
                    <value>5635</value>
                </Data>
                <Data name="Reg No">
                    <value>625</value>
                </Data>
                <Data name="Category">
                    <value>agricultural</value>
                </Data>
                <Data name="Type Of Well">
                    <value>Open Well</value>
                </Data>
                <Data name="Applicant Name">
                    <value>Shri. Agnelo Furtado</value>
                </Data>
                <Data name="Applicant Address">
                    <value>H. No. 376, First Palvem, Chinchinim, Salcete-Goa 403715</value>
                </Data>
                <Data name="latitude">
                    <value>15.212663</value>
                </Data>
                <Data name="longitude">
                    <value>73.967</value>
                </Data>
                <Data name="taluka">
                    <value>Salcete</value>
                </Data>
                <Data name="village">
                    <value>Deussua</value>
                </Data>
            </ExtendedData>
            <Point id="15863">
                <coordinates>73.967,15.212663,0.0</coordinates>
            </Point>
        </Placemark>
        <Placemark id="15879">
            <ExtendedData>
                <Data name="direction">
                    <value>https://maps.google.com?q=15.215316,73.96904&amp;t=h</value>
                </Data>
                <Data name="id">
                    <value>5675</value>
                </Data>
                <Data name="Sr.No">
                    <value>5675</value>
                </Data>
                <Data name="Reg No">
                    <value>605</value>
                </Data>
                <Data name="Category">
                    <value>agricultural</value>
                </Data>
                <Data name="Type Of Well">
                    <value>Open Well</value>
                </Data>
                <Data name="Applicant Name">
                    <value>Smt. Aninha Vaz e lacerda &amp; Shri. Fermino Roque Sebastiao Isac Lacerda</value>
                </Data>
                <Data name="Applicant Address">
                    <value>H. No. 271, 2nd Palvem, Chinchinim, Salcete Goa</value>
                </Data>
                <Data name="latitude">
                    <value>15.215316</value>
                </Data>
                <Data name="longitude">
                    <value>73.96904</value>
                </Data>
                <Data name="taluka">
                    <value>Salcete</value>
                </Data>
                <Data name="village">
                    <value>Deussua</value>
                </Data>
            </ExtendedData>
            <Point id="15878">
                <coordinates>73.96904,15.215316,0.0</coordinates>
            </Point>
        </Placemark>
        <Placemark id="15894">
            <ExtendedData>
                <Data name="direction">
                    <value>https://maps.google.com?q=15.215657,73.969735&amp;t=h</value>
                </Data>
                <Data name="id">
                    <value>5676</value>
                </Data>
                <Data name="Sr.No">
                    <value>5676</value>
                </Data>
                <Data name="Reg No">
                    <value>603/Salcete</value>
                </Data>
                <Data name="Category">
                    <value>agricultural</value>
                </Data>
                <Data name="Type Of Well">
                    <value>Open Well</value>
                </Data>
                <Data name="Applicant Name">
                    <value>Shri. Ciriaco Carmo Flor Lacerda</value>
                </Data>
                <Data name="Applicant Address">
                    <value>H.no.272, Second Pavlem, Chinchinim, Salcete Goa</value>
                </Data>
                <Data name="latitude">
                    <value>15.215657</value>
                </Data>
                <Data name="longitude">
                    <value>73.969735</value>
                </Data>
                <Data name="taluka">
                    <value>Salcete</value>
                </Data>
                <Data name="village">
                    <value>Deussua</value>
                </Data>
            </ExtendedData>
            <Point id="15893">
                <coordinates>73.969735,15.215657,0.0</coordinates>
            </Point>
        </Placemark>
        <Placemark id="15909">
            <ExtendedData>
                <Data name="direction">
                    <value>https://maps.google.com?q=15.21444,73.965411&amp;t=h</value>
                </Data>
                <Data name="id">
                    <value>5677</value>
                </Data>
                <Data name="Sr.No">
                    <value>5677</value>
                </Data>
                <Data name="Reg No">
                    <value>732/Salcete</value>
                </Data>
                <Data name="Category">
                    <value>agricultural</value>
                </Data>
                <Data name="Type Of Well">
                    <value>Open Well</value>
                </Data>
                <Data name="Applicant Name">
                    <value>Shri. Jose Vasco Ferrao</value>
                </Data>
                <Data name="Applicant Address">
                    <value>H.No. 447/1, 4th ward Colva, Salcete Goa 403708,</value>
                </Data>
                <Data name="latitude">
                    <value>15.21444</value>
                </Data>
                <Data name="longitude">
                    <value>73.965411</value>
                </Data>
                <Data name="taluka">
                    <value>Salcete</value>
                </Data>
                <Data name="village">
                    <value>Deussua</value>
                </Data>
            </ExtendedData>
            <Point id="15908">
                <coordinates>73.965411,15.21444,0.0</coordinates>
            </Point>
        </Placemark>
        <Placemark id="15924">
            <ExtendedData>
                <Data name="direction">
                    <value>https://maps.google.com?q=15.211868,73.967956&amp;t=h</value>
                </Data>
                <Data name="id">
                    <value>5678</value>
                </Data>
                <Data name="Sr.No">
                    <value>5678</value>
                </Data>
                <Data name="Reg No">
                    <value>617/Salcete</value>
                </Data>
                <Data name="Category">
                    <value>irrigation</value>
                </Data>
                <Data name="Type Of Well">
                    <value>Open Well</value>
                </Data>
                <Data name="Applicant Name">
                    <value>Smt. Socorina Pereira</value>
                </Data>
                <Data name="Applicant Address">
                    <value>H.no.152, Coddeavaddo, Chinchinim, Salcete Goa</value>
                </Data>
                <Data name="latitude">
                    <value>15.211868</value>
                </Data>
                <Data name="longitude">
                    <value>73.967956</value>
                </Data>
                <Data name="taluka">
                    <value>Salcete</value>
                </Data>
                <Data name="village">
                    <value>Deussua</value>
                </Data>
            </ExtendedData>
            <Point id="15923">
                <coordinates>73.967956,15.211868,0.0</coordinates>
            </Point>
        </Placemark>
        <Placemark id="15939">
            <ExtendedData>
                <Data name="direction">
                    <value>https://maps.google.com?q=15.206892,73.974757&amp;t=h</value>
                </Data>
                <Data name="id">
                    <value>5679</value>
                </Data>
                <Data name="Sr.No">
                    <value>5679</value>
                </Data>
                <Data name="Reg No">
                    <value>763/Salcete</value>
                </Data>
                <Data name="Category">
                    <value>horticulture</value>
                </Data>
                <Data name="Type Of Well">
                    <value>Open Well</value>
                </Data>
                <Data name="Applicant Name">
                    <value>Shri. Jesus Antonio Jose Viegas</value>
                </Data>
                <Data name="Applicant Address">
                    <value>H.No. 184/2, Patni Morod, Chinchinim, Salcete Goa</value>
                </Data>
                <Data name="latitude">
                    <value>15.206892</value>
                </Data>
                <Data name="longitude">
                    <value>73.974757</value>
                </Data>
                <Data name="taluka">
                    <value>Salcete</value>
                </Data>
                <Data name="village">
                    <value>Deussua</value>
                </Data>
            </ExtendedData>
            <Point id="15938">
                <coordinates>73.974757,15.206892,0.0</coordinates>
            </Point>
        </Placemark>
    </Document>
</kml>
