<?xml version="1.0" encoding="UTF-8"?>
<kml xmlns="http://www.opengis.net/kml/2.2" xmlns:gx="http://www.google.com/kml/ext/2.2">
    <Document id="16172">
        <Placemark id="16174">
            <ExtendedData>
                <Data name="direction">
                    <value>https://maps.google.com?q=15.346359,73.982884&amp;t=h</value>
                </Data>
                <Data name="id">
                    <value>4919</value>
                </Data>
                <Data name="Sr.No">
                    <value>4919</value>
                </Data>
                <Data name="Reg No">
                    <value>361/Salcete</value>
                </Data>
                <Data name="Category">
                    <value>agricultural</value>
                </Data>
                <Data name="Type Of Well">
                    <value>Open Well</value>
                </Data>
                <Data name="Applicant Name">
                    <value>Jose da cruz</value>
                </Data>
                <Data name="Applicant Address">
                    <value>H.No-808/A</value>
                </Data>
                <Data name="latitude">
                    <value>15.346359</value>
                </Data>
                <Data name="longitude">
                    <value>73.982884</value>
                </Data>
                <Data name="taluka">
                    <value>Salcete</value>
                </Data>
                <Data name="village">
                    <value>Loutulim</value>
                </Data>
            </ExtendedData>
            <Point id="16173">
                <coordinates>73.982884,15.346359,0.0</coordinates>
            </Point>
        </Placemark>
        <Placemark id="16189">
            <ExtendedData>
                <Data name="direction">
                    <value>https://maps.google.com?q=15.347015,73.967662&amp;t=h</value>
                </Data>
                <Data name="id">
                    <value>4923</value>
                </Data>
                <Data name="Sr.No">
                    <value>4923</value>
                </Data>
                <Data name="Reg No">
                    <value>470/Salcete</value>
                </Data>
                <Data name="Category">
                    <value>agricultural</value>
                </Data>
                <Data name="Type Of Well">
                    <value>Open Well</value>
                </Data>
                <Data name="Applicant Name">
                    <value>Shri. Glori Furtado</value>
                </Data>
                <Data name="Applicant Address">
                    <value>H.No-1896 Soncrem, Shiroda, Ponda</value>
                </Data>
                <Data name="latitude">
                    <value>15.347015</value>
                </Data>
                <Data name="longitude">
                    <value>73.967662</value>
                </Data>
                <Data name="taluka">
                    <value>Salcete</value>
                </Data>
                <Data name="village">
                    <value>Loutulim</value>
                </Data>
            </ExtendedData>
            <Point id="16188">
                <coordinates>73.967662,15.347015,0.0</coordinates>
            </Point>
        </Placemark>
        <Placemark id="16204">
            <ExtendedData>
                <Data name="direction">
                    <value>https://maps.google.com?q=15.344525,73.965015&amp;t=h</value>
                </Data>
                <Data name="id">
                    <value>4924</value>
                </Data>
                <Data name="Sr.No">
                    <value>4924</value>
                </Data>
                <Data name="Reg No">
                    <value>471/salcete</value>
                </Data>
                <Data name="Category">
                    <value>agricultural</value>
                </Data>
                <Data name="Type Of Well">
                    <value>Open Well</value>
                </Data>
                <Data name="Applicant Name">
                    <value>Shri. Savio Maschio Furtado</value>
                </Data>
                <Data name="Applicant Address">
                    <value>H.No-1896 Soncrem, Shiroda,</value>
                </Data>
                <Data name="latitude">
                    <value>15.344525</value>
                </Data>
                <Data name="longitude">
                    <value>73.965015</value>
                </Data>
                <Data name="taluka">
                    <value>Salcete</value>
                </Data>
                <Data name="village">
                    <value>Loutulim</value>
                </Data>
            </ExtendedData>
            <Point id="16203">
                <coordinates>73.965015,15.344525,0.0</coordinates>
            </Point>
        </Placemark>
        <Placemark id="16219">
            <ExtendedData>
                <Data name="direction">
                    <value>https://maps.google.com?q=15.342158,73.97156&amp;t=h</value>
                </Data>
                <Data name="id">
                    <value>5120</value>
                </Data>
                <Data name="Sr.No">
                    <value>5120</value>
                </Data>
                <Data name="Reg No">
                    <value>498/Salcete</value>
                </Data>
                <Data name="Category">
                    <value>horticulture</value>
                </Data>
                <Data name="Type Of Well">
                    <value>Open Well</value>
                </Data>
                <Data name="Applicant Name">
                    <value>Shri. Nilan Barreto Miranda</value>
                </Data>
                <Data name="Applicant Address">
                    <value>Hno.401,Devote, Loutolim</value>
                </Data>
                <Data name="latitude">
                    <value>15.342158</value>
                </Data>
                <Data name="longitude">
                    <value>73.97156</value>
                </Data>
                <Data name="taluka">
                    <value>Salcete</value>
                </Data>
                <Data name="village">
                    <value>Loutulim</value>
                </Data>
            </ExtendedData>
            <Point id="16218">
                <coordinates>73.97156,15.342158,0.0</coordinates>
            </Point>
        </Placemark>
        <Placemark id="16234">
            <ExtendedData>
                <Data name="direction">
                    <value>https://maps.google.com?q=15.343453,73.971618&amp;t=h</value>
                </Data>
                <Data name="id">
                    <value>5121</value>
                </Data>
                <Data name="Sr.No">
                    <value>5121</value>
                </Data>
                <Data name="Reg No">
                    <value>499/Salcete</value>
                </Data>
                <Data name="Category">
                    <value>horticulture</value>
                </Data>
                <Data name="Type Of Well">
                    <value>Bore well</value>
                </Data>
                <Data name="Applicant Name">
                    <value>Shri. Nilan Barreto Miranda</value>
                </Data>
                <Data name="Applicant Address">
                    <value>Hno.401,Devote, Loutolim</value>
                </Data>
                <Data name="latitude">
                    <value>15.343453</value>
                </Data>
                <Data name="longitude">
                    <value>73.971618</value>
                </Data>
                <Data name="taluka">
                    <value>Salcete</value>
                </Data>
                <Data name="village">
                    <value>Loutulim</value>
                </Data>
            </ExtendedData>
            <Point id="16233">
                <coordinates>73.971618,15.343453,0.0</coordinates>
            </Point>
        </Placemark>
        <Placemark id="16249">
            <ExtendedData>
                <Data name="direction">
                    <value>https://maps.google.com?q=15.343496,73.977422&amp;t=h</value>
                </Data>
                <Data name="id">
                    <value>5122</value>
                </Data>
                <Data name="Sr.No">
                    <value>5122</value>
                </Data>
                <Data name="Reg No">
                    <value>497/Salcete</value>
                </Data>
                <Data name="Category">
                    <value>horticulture</value>
                </Data>
                <Data name="Type Of Well">
                    <value>Open Well</value>
                </Data>
                <Data name="Applicant Name">
                    <value>Shri. Nilan Barreto Miranda</value>
                </Data>
                <Data name="Applicant Address">
                    <value>H.No.401, Devote, Loutolim</value>
                </Data>
                <Data name="latitude">
                    <value>15.343496</value>
                </Data>
                <Data name="longitude">
                    <value>73.977422</value>
                </Data>
                <Data name="taluka">
                    <value>Salcete</value>
                </Data>
                <Data name="village">
                    <value>Loutulim</value>
                </Data>
            </ExtendedData>
            <Point id="16248">
                <coordinates>73.977422,15.343496,0.0</coordinates>
            </Point>
        </Placemark>
        <Placemark id="16264">
            <ExtendedData>
                <Data name="direction">
                    <value>https://maps.google.com?q=15.341771,73.96731&amp;t=h</value>
                </Data>
                <Data name="id">
                    <value>5178</value>
                </Data>
                <Data name="Sr.No">
                    <value>5178</value>
                </Data>
                <Data name="Reg No">
                    <value>N517</value>
                </Data>
                <Data name="Category">
                    <value>agricultural</value>
                </Data>
                <Data name="Type Of Well">
                    <value>Bore well</value>
                </Data>
                <Data name="Applicant Name">
                    <value>Shri. Gregley Francis Colaso And Smt. Vanita Coloso</value>
                </Data>
                <Data name="Applicant Address">
                    <value>H.No. 488/A, Totem, Devotte, Loutolim, Salcete-Goa. 403718</value>
                </Data>
                <Data name="latitude">
                    <value>15.341771</value>
                </Data>
                <Data name="longitude">
                    <value>73.96731</value>
                </Data>
                <Data name="taluka">
                    <value>Salcete</value>
                </Data>
                <Data name="village">
                    <value>Loutulim</value>
                </Data>
            </ExtendedData>
            <Point id="16263">
                <coordinates>73.96731,15.341771,0.0</coordinates>
            </Point>
        </Placemark>
        <Placemark id="16279">
            <ExtendedData>
                <Data name="direction">
                    <value>https://maps.google.com?q=15.337719,73.979599&amp;t=h</value>
                </Data>
                <Data name="id">
                    <value>5179</value>
                </Data>
                <Data name="Sr.No">
                    <value>5179</value>
                </Data>
                <Data name="Reg No">
                    <value>N543</value>
                </Data>
                <Data name="Category">
                    <value>agricultural</value>
                </Data>
                <Data name="Type Of Well">
                    <value>Open Well</value>
                </Data>
                <Data name="Applicant Name">
                    <value>Shri. Joaquim Gomes</value>
                </Data>
                <Data name="Applicant Address">
                    <value>H.No.610, Orgao, Loutolim, Goa</value>
                </Data>
                <Data name="latitude">
                    <value>15.337719</value>
                </Data>
                <Data name="longitude">
                    <value>73.979599</value>
                </Data>
                <Data name="taluka">
                    <value>Salcete</value>
                </Data>
                <Data name="village">
                    <value>Loutulim</value>
                </Data>
            </ExtendedData>
            <Point id="16278">
                <coordinates>73.979599,15.337719,0.0</coordinates>
            </Point>
        </Placemark>
        <Placemark id="16294">
            <ExtendedData>
                <Data name="direction">
                    <value>https://maps.google.com?q=15.337438,74.000035&amp;t=h</value>
                </Data>
                <Data name="id">
                    <value>5356</value>
                </Data>
                <Data name="Sr.No">
                    <value>5356</value>
                </Data>
                <Data name="Reg No">
                    <value>N560</value>
                </Data>
                <Data name="Category">
                    <value>horticulture</value>
                </Data>
                <Data name="Type Of Well">
                    <value>Open Well</value>
                </Data>
                <Data name="Applicant Name">
                    <value>Shri. Gabriel Fernandes</value>
                </Data>
                <Data name="Applicant Address">
                    <value>H.No. 1011, Sisorda, Loutlim, Salcete-Goa. 403718</value>
                </Data>
                <Data name="latitude">
                    <value>15.337438</value>
                </Data>
                <Data name="longitude">
                    <value>74.000035</value>
                </Data>
                <Data name="taluka">
                    <value>Salcete</value>
                </Data>
                <Data name="village">
                    <value>Loutulim</value>
                </Data>
            </ExtendedData>
            <Point id="16293">
                <coordinates>74.000035,15.337438,0.0</coordinates>
            </Point>
        </Placemark>
    </Document>
</kml>
