<?xml version="1.0" encoding="UTF-8"?>
<kml xmlns="http://www.opengis.net/kml/2.2" xmlns:gx="http://www.google.com/kml/ext/2.2">
    <Document id="16390">
        <Placemark id="16392">
            <ExtendedData>
                <Data name="direction">
                    <value>https://maps.google.com?q=15.314966,73.946194&amp;t=h</value>
                </Data>
                <Data name="id">
                    <value>5027</value>
                </Data>
                <Data name="Sr.No">
                    <value>5027</value>
                </Data>
                <Data name="Reg No">
                    <value>1136</value>
                </Data>
                <Data name="Category">
                    <value>agricultural</value>
                </Data>
                <Data name="Type Of Well">
                    <value>Open Well</value>
                </Data>
                <Data name="Applicant Name">
                    <value>Carmo Carvalho</value>
                </Data>
                <Data name="Applicant Address">
                    <value>H.No-98/A, Belloy</value>
                </Data>
                <Data name="latitude">
                    <value>15.314966</value>
                </Data>
                <Data name="longitude">
                    <value>73.946194</value>
                </Data>
                <Data name="taluka">
                    <value>Salcete</value>
                </Data>
                <Data name="village">
                    <value>Nuvem</value>
                </Data>
            </ExtendedData>
            <Point id="16391">
                <coordinates>73.946194,15.314966,0.0</coordinates>
            </Point>
        </Placemark>
        <Placemark id="16407">
            <ExtendedData>
                <Data name="direction">
                    <value>https://maps.google.com?q=15.305524,73.947838&amp;t=h</value>
                </Data>
                <Data name="id">
                    <value>5040</value>
                </Data>
                <Data name="Sr.No">
                    <value>5040</value>
                </Data>
                <Data name="Reg No">
                    <value>1791</value>
                </Data>
                <Data name="Category">
                    <value>irrigation</value>
                </Data>
                <Data name="Type Of Well">
                    <value>Open Well</value>
                </Data>
                <Data name="Applicant Name">
                    <value>M/S Fabrica De Gas Carbonico Pvt. Ltd</value>
                </Data>
                <Data name="Applicant Address">
                    <value>NH-17, Nuvem Salcete</value>
                </Data>
                <Data name="latitude">
                    <value>15.305524</value>
                </Data>
                <Data name="longitude">
                    <value>73.947838</value>
                </Data>
                <Data name="taluka">
                    <value>Salcete</value>
                </Data>
                <Data name="village">
                    <value>Nuvem</value>
                </Data>
            </ExtendedData>
            <Point id="16406">
                <coordinates>73.947838,15.305524,0.0</coordinates>
            </Point>
        </Placemark>
        <Placemark id="16422">
            <ExtendedData>
                <Data name="direction">
                    <value>https://maps.google.com?q=15.324099,73.938803&amp;t=h</value>
                </Data>
                <Data name="id">
                    <value>5041</value>
                </Data>
                <Data name="Sr.No">
                    <value>5041</value>
                </Data>
                <Data name="Reg No">
                    <value>434/Salcete</value>
                </Data>
                <Data name="Category">
                    <value>agricultural</value>
                </Data>
                <Data name="Type Of Well">
                    <value>Open Well</value>
                </Data>
                <Data name="Applicant Name">
                    <value>Shri. Chandrakant Hari Gaonkar</value>
                </Data>
                <Data name="Applicant Address">
                    <value>H.No-2/E/2 (FF1) Nuvem</value>
                </Data>
                <Data name="latitude">
                    <value>15.324099</value>
                </Data>
                <Data name="longitude">
                    <value>73.938803</value>
                </Data>
                <Data name="taluka">
                    <value>Salcete</value>
                </Data>
                <Data name="village">
                    <value>Nuvem</value>
                </Data>
            </ExtendedData>
            <Point id="16421">
                <coordinates>73.938803,15.324099,0.0</coordinates>
            </Point>
        </Placemark>
        <Placemark id="16437">
            <ExtendedData>
                <Data name="direction">
                    <value>https://maps.google.com?q=15.311105,73.956717&amp;t=h</value>
                </Data>
                <Data name="id">
                    <value>5069</value>
                </Data>
                <Data name="Sr.No">
                    <value>5069</value>
                </Data>
                <Data name="Reg No">
                    <value>467/Salcete</value>
                </Data>
                <Data name="Category">
                    <value>agricultural</value>
                </Data>
                <Data name="Type Of Well">
                    <value>Bore well</value>
                </Data>
                <Data name="Applicant Name">
                    <value>The father's of the Holy Cross</value>
                </Data>
                <Data name="Applicant Address">
                    <value>Hno.123/A-2, Kirbhatt, Nuvem</value>
                </Data>
                <Data name="latitude">
                    <value>15.311105</value>
                </Data>
                <Data name="longitude">
                    <value>73.956717</value>
                </Data>
                <Data name="taluka">
                    <value>Salcete</value>
                </Data>
                <Data name="village">
                    <value>Nuvem</value>
                </Data>
            </ExtendedData>
            <Point id="16436">
                <coordinates>73.956717,15.311105,0.0</coordinates>
            </Point>
        </Placemark>
        <Placemark id="16452">
            <ExtendedData>
                <Data name="direction">
                    <value>https://maps.google.com?q=15.308858,73.957521&amp;t=h</value>
                </Data>
                <Data name="id">
                    <value>5070</value>
                </Data>
                <Data name="Sr.No">
                    <value>5070</value>
                </Data>
                <Data name="Reg No">
                    <value>38/Salcete</value>
                </Data>
                <Data name="Category">
                    <value>horticulture</value>
                </Data>
                <Data name="Type Of Well">
                    <value>Open Well</value>
                </Data>
                <Data name="Applicant Name">
                    <value>Shri. Rozendo Mariano Santos Fernandes</value>
                </Data>
                <Data name="Applicant Address">
                    <value>H.22/T/1, Kibhatt, Nuvem Salcete</value>
                </Data>
                <Data name="latitude">
                    <value>15.308858</value>
                </Data>
                <Data name="longitude">
                    <value>73.957521</value>
                </Data>
                <Data name="taluka">
                    <value>Salcete</value>
                </Data>
                <Data name="village">
                    <value>Nuvem</value>
                </Data>
            </ExtendedData>
            <Point id="16451">
                <coordinates>73.957521,15.308858,0.0</coordinates>
            </Point>
        </Placemark>
        <Placemark id="16467">
            <ExtendedData>
                <Data name="direction">
                    <value>https://maps.google.com?q=15.311561,73.945607&amp;t=h</value>
                </Data>
                <Data name="id">
                    <value>5071</value>
                </Data>
                <Data name="Sr.No">
                    <value>5071</value>
                </Data>
                <Data name="Reg No">
                    <value>373/Salcete</value>
                </Data>
                <Data name="Category">
                    <value>agricultural</value>
                </Data>
                <Data name="Type Of Well">
                    <value>Bore well</value>
                </Data>
                <Data name="Applicant Name">
                    <value>Institution of carmel college convent</value>
                </Data>
                <Data name="Applicant Address">
                    <value>H.No-790/A, Nuvem</value>
                </Data>
                <Data name="latitude">
                    <value>15.311561</value>
                </Data>
                <Data name="longitude">
                    <value>73.945607</value>
                </Data>
                <Data name="taluka">
                    <value>Salcete</value>
                </Data>
                <Data name="village">
                    <value>Nuvem</value>
                </Data>
            </ExtendedData>
            <Point id="16466">
                <coordinates>73.945607,15.311561,0.0</coordinates>
            </Point>
        </Placemark>
        <Placemark id="16482">
            <ExtendedData>
                <Data name="direction">
                    <value>https://maps.google.com?q=15.308184,73.939039&amp;t=h</value>
                </Data>
                <Data name="id">
                    <value>5077</value>
                </Data>
                <Data name="Sr.No">
                    <value>5077</value>
                </Data>
                <Data name="Reg No">
                    <value>327/Salcete</value>
                </Data>
                <Data name="Category">
                    <value>agricultural</value>
                </Data>
                <Data name="Type Of Well">
                    <value>Open Well</value>
                </Data>
                <Data name="Applicant Name">
                    <value>Shri. Victoria Fernandes</value>
                </Data>
                <Data name="Applicant Address">
                    <value>H.No:-22, Murda Grande, Nuvem</value>
                </Data>
                <Data name="latitude">
                    <value>15.308184</value>
                </Data>
                <Data name="longitude">
                    <value>73.939039</value>
                </Data>
                <Data name="taluka">
                    <value>Salcete</value>
                </Data>
                <Data name="village">
                    <value>Nuvem</value>
                </Data>
            </ExtendedData>
            <Point id="16481">
                <coordinates>73.939039,15.308184,0.0</coordinates>
            </Point>
        </Placemark>
        <Placemark id="16497">
            <ExtendedData>
                <Data name="direction">
                    <value>https://maps.google.com?q=15.326461,73.941983&amp;t=h</value>
                </Data>
                <Data name="id">
                    <value>5079</value>
                </Data>
                <Data name="Sr.No">
                    <value>5079</value>
                </Data>
                <Data name="Reg No">
                    <value>487/Salcete</value>
                </Data>
                <Data name="Category">
                    <value>irrigation</value>
                </Data>
                <Data name="Type Of Well">
                    <value>Open Well</value>
                </Data>
                <Data name="Applicant Name">
                    <value>Smt. Sumitra Jaques</value>
                </Data>
                <Data name="Applicant Address">
                    <value>Hno.292, Godinho Ward, Majorda</value>
                </Data>
                <Data name="latitude">
                    <value>15.326461</value>
                </Data>
                <Data name="longitude">
                    <value>73.941983</value>
                </Data>
                <Data name="taluka">
                    <value>Salcete</value>
                </Data>
                <Data name="village">
                    <value>Nuvem</value>
                </Data>
            </ExtendedData>
            <Point id="16496">
                <coordinates>73.941983,15.326461,0.0</coordinates>
            </Point>
        </Placemark>
    </Document>
</kml>
