<?xml version="1.0" encoding="UTF-8"?>
<kml xmlns="http://www.opengis.net/kml/2.2" xmlns:gx="http://www.google.com/kml/ext/2.2">
    <Document id="17087">
        <Placemark id="17089">
            <ExtendedData>
                <Data name="direction">
                    <value>https://maps.google.com?q=15.159368,73.963759&amp;t=h</value>
                </Data>
                <Data name="id">
                    <value>5402</value>
                </Data>
                <Data name="Sr.No">
                    <value>5402</value>
                </Data>
                <Data name="Reg No">
                    <value>32/Salcete</value>
                </Data>
                <Data name="Category">
                    <value>horticulture</value>
                </Data>
                <Data name="Type Of Well">
                    <value>Open Well</value>
                </Data>
                <Data name="Applicant Name">
                    <value>Shri. Joao Nazareto Diniz &amp; Smt.Veronica Diniz</value>
                </Data>
                <Data name="Applicant Address">
                    <value>H.No. 939, Sibrete, Velim, Salcete-Goa.</value>
                </Data>
                <Data name="latitude">
                    <value>15.159368</value>
                </Data>
                <Data name="longitude">
                    <value>73.963759</value>
                </Data>
                <Data name="taluka">
                    <value>Salcete</value>
                </Data>
                <Data name="village">
                    <value>Velim</value>
                </Data>
            </ExtendedData>
            <Point id="17088">
                <coordinates>73.963759,15.159368,0.0</coordinates>
            </Point>
        </Placemark>
        <Placemark id="17104">
            <ExtendedData>
                <Data name="direction">
                    <value>https://maps.google.com?q=15.139529,73.959824&amp;t=h</value>
                </Data>
                <Data name="id">
                    <value>5406</value>
                </Data>
                <Data name="Sr.No">
                    <value>5406</value>
                </Data>
                <Data name="Reg No">
                    <value>124/Salcete</value>
                </Data>
                <Data name="Category">
                    <value>horticulture</value>
                </Data>
                <Data name="Type Of Well">
                    <value>Open Well</value>
                </Data>
                <Data name="Applicant Name">
                    <value>Smt. Felicina Mafaldina Fernandes</value>
                </Data>
                <Data name="Applicant Address">
                    <value>H.No. 1325, Rangalim,Velim, Salcete-Goa.</value>
                </Data>
                <Data name="latitude">
                    <value>15.139529</value>
                </Data>
                <Data name="longitude">
                    <value>73.959824</value>
                </Data>
                <Data name="taluka">
                    <value>Salcete</value>
                </Data>
                <Data name="village">
                    <value>Velim</value>
                </Data>
            </ExtendedData>
            <Point id="17103">
                <coordinates>73.959824,15.139529,0.0</coordinates>
            </Point>
        </Placemark>
        <Placemark id="17119">
            <ExtendedData>
                <Data name="direction">
                    <value>https://maps.google.com?q=15.167614,73.974053&amp;t=h</value>
                </Data>
                <Data name="id">
                    <value>5540</value>
                </Data>
                <Data name="Sr.No">
                    <value>5540</value>
                </Data>
                <Data name="Reg No">
                    <value>479/Salcete</value>
                </Data>
                <Data name="Category">
                    <value>horticulture</value>
                </Data>
                <Data name="Type Of Well">
                    <value>Open Well</value>
                </Data>
                <Data name="Applicant Name">
                    <value>Shri. Alvaro D'silva</value>
                </Data>
                <Data name="Applicant Address">
                    <value>H.No. 71, Silvas Vaddo, Velim, Salcete-goa.</value>
                </Data>
                <Data name="latitude">
                    <value>15.167614</value>
                </Data>
                <Data name="longitude">
                    <value>73.974053</value>
                </Data>
                <Data name="taluka">
                    <value>Salcete</value>
                </Data>
                <Data name="village">
                    <value>Velim</value>
                </Data>
            </ExtendedData>
            <Point id="17118">
                <coordinates>73.974053,15.167614,0.0</coordinates>
            </Point>
        </Placemark>
        <Placemark id="17134">
            <ExtendedData>
                <Data name="direction">
                    <value>https://maps.google.com?q=15.155868,73.981145&amp;t=h</value>
                </Data>
                <Data name="id">
                    <value>5544</value>
                </Data>
                <Data name="Sr.No">
                    <value>5544</value>
                </Data>
                <Data name="Reg No">
                    <value>549/Salcete</value>
                </Data>
                <Data name="Category">
                    <value>agricultural</value>
                </Data>
                <Data name="Type Of Well">
                    <value>Bore well</value>
                </Data>
                <Data name="Applicant Name">
                    <value>Shri. Moni Mendes</value>
                </Data>
                <Data name="Applicant Address">
                    <value>H.No. 615/a, Gorcomorod, Velim, Salcete-goa</value>
                </Data>
                <Data name="latitude">
                    <value>15.155868</value>
                </Data>
                <Data name="longitude">
                    <value>73.981145</value>
                </Data>
                <Data name="taluka">
                    <value>Salcete</value>
                </Data>
                <Data name="village">
                    <value>Velim</value>
                </Data>
            </ExtendedData>
            <Point id="17133">
                <coordinates>73.981145,15.155868,0.0</coordinates>
            </Point>
        </Placemark>
        <Placemark id="17149">
            <ExtendedData>
                <Data name="direction">
                    <value>https://maps.google.com?q=15.162006,73.965469&amp;t=h</value>
                </Data>
                <Data name="id">
                    <value>5687</value>
                </Data>
                <Data name="Sr.No">
                    <value>5687</value>
                </Data>
                <Data name="Reg No">
                    <value>615/Salcete</value>
                </Data>
                <Data name="Category">
                    <value>agricultural</value>
                </Data>
                <Data name="Type Of Well">
                    <value>Open Well</value>
                </Data>
                <Data name="Applicant Name">
                    <value>Shri. Clevor Santana Menezes</value>
                </Data>
                <Data name="Applicant Address">
                    <value>H.no.689, Carroi, Velim, Salcete-Goa</value>
                </Data>
                <Data name="latitude">
                    <value>15.162006</value>
                </Data>
                <Data name="longitude">
                    <value>73.965469</value>
                </Data>
                <Data name="taluka">
                    <value>Salcete</value>
                </Data>
                <Data name="village">
                    <value>Velim</value>
                </Data>
            </ExtendedData>
            <Point id="17148">
                <coordinates>73.965469,15.162006,0.0</coordinates>
            </Point>
        </Placemark>
    </Document>
</kml>
