<?xml version="1.0" encoding="UTF-8"?>
<kml xmlns="http://www.opengis.net/kml/2.2" xmlns:gx="http://www.google.com/kml/ext/2.2">
    <Document id="5689">
        <Placemark id="5691">
            <ExtendedData>
                <Data name="id">
                    <value>108</value>
                </Data>
                <Data name="taluka">
                    <value>Tiswadi</value>
                </Data>
                <Data name="village">
                    <value>Batim</value>
                </Data>
                <Data name="lg_code">
                    <value>626722</value>
                </Data>
                <Data name="dslr_code">
                    <value>00008000</value>
                </Data>
            </ExtendedData>
            <Polygon id="5690">
                <outerBoundaryIs>
                    <LinearRing id="5694">
                        <coordinates>73.900058277,15.44539888,0.0 73.900887491,15.445920812,0.0 73.901287783,15.446529124,0.0 73.901294235,15.446698054,0.0 73.901503043,15.447103569,0.0 73.901643368,15.447308454,0.0 73.901833763,15.447520752,0.0 73.902022025,15.44764014,0.0 73.902078586,15.447732018,0.0 73.902046864,15.448060354,0.0 73.901829035,15.448313647,0.0 73.901644886,15.448705263,0.0 73.901386703,15.449123241,0.0 73.901379027,15.449241486,0.0 73.900993611,15.449387013,0.0 73.900932587,15.449522126,0.0 73.901243923,15.449502205,0.0 73.901156653,15.44989492,0.0 73.9009528,15.450511409,0.0 73.90081337,15.450709835,0.0 73.899860366,15.45404992,0.0 73.898806688,15.453916412,0.0 73.895282314,15.453051141,0.0 73.894690252,15.452810141,0.0 73.894468201,15.45277625,0.0 73.894367003,15.454849769,0.0 73.894497567,15.454978637,0.0 73.894301486,15.455246714,0.0 73.893852539,15.456133361,0.0 73.893268578,15.457066397,0.0 73.892989732,15.457391445,0.0 73.892397035,15.458364594,0.0 73.892213874,15.458898733,0.0 73.892107107,15.459061272,0.0 73.891848012,15.459075927,0.0 73.891599879,15.458942777,0.0 73.891244978,15.458976388,0.0 73.890844315,15.459085993,0.0 73.890554526,15.459506053,0.0 73.89040859,15.459624229,0.0 73.890327929,15.459822677,0.0 73.890306077,15.4599747,0.0 73.890464851,15.46028518,0.0 73.890791292,15.460555622,0.0 73.891067729,15.460688788,0.0 73.890725657,15.461161612,0.0 73.89033364,15.461383133,0.0 73.889756589,15.461543327,0.0 73.889310237,15.461581112,0.0 73.888807215,15.461732894,0.0 73.888491345,15.462053694,0.0 73.8875071,15.462302363,0.0 73.887001953,15.462352783,0.0 73.886479451,15.462287057,0.0 73.88623796,15.461953305,0.0 73.885953112,15.461277455,0.0 73.88553963,15.460928832,0.0 73.884777709,15.460734173,0.0 73.884024387,15.460740114,0.0 73.882766191,15.460315026,0.0 73.881631813,15.460398886,0.0 73.880996252,15.460548995,0.0 73.877888127,15.458934063,0.0 73.876325021,15.458722039,0.0 73.87558498,15.458375326,0.0 73.874971517,15.457530352,0.0 73.874876141,15.456829255,0.0 73.874976798,15.455984683,0.0 73.874811789,15.455224423,0.0 73.873746033,15.453483882,0.0 73.87385818,15.452070345,0.0 73.874056056,15.451987897,0.0 73.874253931,15.451966696,0.0 73.874345802,15.451858335,0.0 73.874508343,15.451688728,0.0 73.87471093,15.451709929,0.0 73.874814579,15.451669883,0.0 73.87487347,15.45158979,0.0 73.875017166,15.451528543,0.0 73.875370515,15.451469651,0.0 73.875627282,15.451469651,0.0 73.875516566,15.45087838,0.0 73.875488298,15.450249419,0.0 73.875556612,15.450171682,0.0 73.876842803,15.449323644,0.0 73.877570703,15.449076299,0.0 73.877483543,15.448807754,0.0 73.877763867,15.448487384,0.0 73.877862805,15.44824004,0.0 73.877975876,15.448105767,0.0 73.878687286,15.447530985,0.0 73.879080682,15.447354311,0.0 73.879057125,15.446939714,0.0 73.879120728,15.446777174,0.0 73.879226733,15.446433247,0.0 73.879436386,15.44606812,0.0 73.879509412,15.44581842,0.0 73.879697865,15.445615833,0.0 73.879968766,15.445333153,0.0 73.880013524,15.445076386,0.0 73.880055925,15.444996294,0.0 73.880103039,15.444739527,0.0 73.880465811,15.44448276,0.0 73.880727289,15.444456847,0.0 73.881050015,15.4443956,0.0 73.881257313,15.444301374,0.0 73.881262024,15.444426224,0.0 73.881342117,15.444600543,0.0 73.881356251,15.444821975,0.0 73.881499946,15.444784284,0.0 73.881507013,15.44482433,0.0 73.881617729,15.444847887,0.0 73.881992279,15.444904423,0.0 73.88213833,15.445184747,0.0 73.882197222,15.44516119,0.0 73.882531726,15.445262483,0.0 73.882727245,15.44541089,0.0 73.882840317,15.445368488,0.0 73.882837962,15.445335509,0.0 73.882915698,15.445319019,0.0 73.883476346,15.445290751,0.0 73.883488124,15.445347287,0.0 73.883167754,15.445420313,0.0 73.883386831,15.446322531,0.0 73.883869741,15.446240083,0.0 73.883940411,15.446275418,0.0 73.883971035,15.44658401,0.0 73.884345585,15.446522762,0.0 73.885179489,15.44630133,0.0 73.885907388,15.44613879,0.0 73.885923878,15.446185903,0.0 73.887711825,15.445759528,0.0 73.888036906,15.445863177,0.0 73.888644667,15.44656752,0.0 73.889139356,15.447016273,0.0 73.889354899,15.446912624,0.0 73.890082798,15.446779529,0.0 73.89007102,15.446667636,0.0 73.890146401,15.446639368,0.0 73.89016878,15.44660521,0.0 73.890232383,15.446261284,0.0 73.890331321,15.446127011,0.0 73.890522129,15.446011584,0.0 73.891179359,15.4458726,0.0 73.89152093,15.445768951,0.0 73.89139608,15.445401467,0.0 73.891539775,15.445384978,0.0 73.891935526,15.445172968,0.0 73.891853078,15.444963314,0.0 73.892098067,15.444869088,0.0 73.892317143,15.445135278,0.0 73.892493818,15.445220082,0.0 73.892543287,15.445278973,0.0 73.892555065,15.445323731,0.0 73.893358346,15.445008072,0.0 73.893407814,15.445050474,0.0 73.893615113,15.444953892,0.0 73.894069755,15.445807819,0.0 73.89429001,15.445939736,0.0 73.895910705,15.444700658,0.0 73.898789323,15.444356732,0.0 73.899444197,15.444210681,0.0 73.900058277,15.44539888,0.0</coordinates>
                    </LinearRing>
                </outerBoundaryIs>
            </Polygon>
        </Placemark>
    </Document>
</kml>
