<?xml version="1.0" encoding="UTF-8"?>
<kml xmlns="http://www.opengis.net/kml/2.2" xmlns:gx="http://www.google.com/kml/ext/2.2">
    <Document id="5703">
        <Placemark id="5705">
            <ExtendedData>
                <Data name="id">
                    <value>99</value>
                </Data>
                <Data name="taluka">
                    <value>Tiswadi</value>
                </Data>
                <Data name="village">
                    <value>Calapor</value>
                </Data>
                <Data name="lg_code">
                    <value>626732</value>
                </Data>
                <Data name="dslr_code">
                    <value>40121000</value>
                </Data>
            </ExtendedData>
            <Polygon id="5704">
                <outerBoundaryIs>
                    <LinearRing id="5708">
                        <coordinates>73.82754206,15.472099844,0.0 73.827658688,15.472495698,0.0 73.827850139,15.472584073,0.0 73.828264315,15.472577429,0.0 73.828688088,15.472545253,0.0 73.829133375,15.472552562,0.0 73.829159761,15.472489896,0.0 73.829298619,15.47248536,0.0 73.829298469,15.472668776,0.0 73.829200313,15.4726687,0.0 73.829295504,15.473365292,0.0 73.829403218,15.473388592,0.0 73.829410166,15.47367417,0.0 73.829371741,15.473820409,0.0 73.829467161,15.474238394,0.0 73.82922534,15.474263746,0.0 73.829315993,15.474656188,0.0 73.82907892,15.474727979,0.0 73.829267685,15.475176218,0.0 73.829313039,15.475338774,0.0 73.829485342,15.475424811,0.0 73.829667348,15.475357621,0.0 73.8298012,15.4756224,0.0 73.829810575,15.475868511,0.0 73.829626141,15.47597749,0.0 73.829070717,15.475972418,0.0 73.828702043,15.47595356,0.0 73.828750159,15.475668024,0.0 73.828271396,15.475602645,0.0 73.828091307,15.476247946,0.0 73.827966819,15.476243206,0.0 73.827583212,15.476909243,0.0 73.827472878,15.477157582,0.0 73.827331622,15.477162115,0.0 73.827252746,15.477006498,0.0 73.827001718,15.477276511,0.0 73.827088878,15.477460253,0.0 73.827025275,15.477603948,0.0 73.827138347,15.478616883,0.0 73.826883935,15.478689908,0.0 73.826879224,15.478760578,0.0 73.826690771,15.478770001,0.0 73.826709616,15.478934897,0.0 73.826629524,15.479158685,0.0 73.826309154,15.47917753,0.0 73.826318577,15.479340071,0.0 73.825871001,15.479417808,0.0 73.826118345,15.480315315,0.0 73.82612439,15.480343028,0.0 73.826290603,15.480301475,0.0 73.826695188,15.480186637,0.0 73.827267614,15.481052342,0.0 73.827283514,15.481117712,0.0 73.827818839,15.481126546,0.0 73.82813862,15.481108878,0.0 73.828150987,15.481559398,0.0 73.828340029,15.481550565,0.0 73.828712812,15.48173784,0.0 73.829166866,15.481948082,0.0 73.830173911,15.481912748,0.0 73.830129742,15.482446305,0.0 73.831530772,15.482525808,0.0 73.831495437,15.48286679,0.0 73.831127954,15.484357924,0.0 73.831774583,15.484396792,0.0 73.831566107,15.485004553,0.0 73.832081997,15.484986886,0.0 73.832198602,15.485364969,0.0 73.832908834,15.485061089,0.0 73.832898234,15.485379103,0.0 73.832832864,15.48544624,0.0 73.83273746,15.486004531,0.0 73.832684457,15.486486853,0.0 73.832695058,15.486990376,0.0 73.833414123,15.486902038,0.0 73.83370387,15.486889671,0.0 73.833737438,15.486953274,0.0 73.834170291,15.486932073,0.0 73.834177358,15.486887904,0.0 73.834242727,15.48686847,0.0 73.835564253,15.486826068,0.0 73.835619022,15.48700451,0.0 73.836391091,15.486993909,0.0 73.836931715,15.488571613,0.0 73.836986484,15.488705886,0.0 73.836898147,15.488739454,0.0 73.836862223,15.488775378,0.0 73.837003857,15.489088976,0.0 73.837809493,15.489112532,0.0 73.838596284,15.489312763,0.0 73.839444322,15.489894612,0.0 73.840033238,15.490045374,0.0 73.840106263,15.489840432,0.0 73.839446678,15.489171424,0.0 73.839590373,15.488879322,0.0 73.840033238,15.488580153,0.0 73.840447834,15.488165556,0.0 73.841321784,15.487051328,0.0 73.841522016,15.487296317,0.0 73.842574996,15.486514238,0.0 73.843196891,15.486240981,0.0 73.843660956,15.486222136,0.0 73.843788162,15.48614911,0.0 73.844304052,15.485873498,0.0 73.844433613,15.485637932,0.0 73.844803452,15.485322273,0.0 73.844834076,15.484726291,0.0 73.84495657,15.48406435,0.0 73.844834076,15.484026659,0.0 73.843945991,15.483845273,0.0 73.843823497,15.483576728,0.0 73.843910656,15.482806427,0.0 73.844108532,15.482726334,0.0 73.845229827,15.482745179,0.0 73.845453615,15.482650953,0.0 73.845679758,15.482648597,0.0 73.846141468,15.482495479,0.0 73.846301653,15.482120929,0.0 73.846923547,15.480646285,0.0 73.847156758,15.480592105,0.0 73.847371123,15.480193998,0.0 73.847599622,15.479572103,0.0 73.847707983,15.47961215,0.0 73.848294542,15.478603927,0.0 73.848358145,15.477499121,0.0 73.848162625,15.477420207,0.0 73.848291009,15.477016211,0.0 73.848500663,15.476856026,0.0 73.848592533,15.476865448,0.0 73.848723273,15.476709975,0.0 73.849474729,15.476903139,0.0 73.849500641,15.47679949,0.0 73.851415794,15.477126927,0.0 73.851627803,15.476806557,0.0 73.851667849,15.476427295,0.0 73.851898704,15.47583838,0.0 73.852025455,15.475578595,0.0 73.851281521,15.475404938,0.0 73.851095424,15.475386093,0.0 73.850914795,15.475345861,0.0 73.850841415,15.475286092,0.0 73.850777488,15.475254658,0.0 73.850773059,15.474824366,0.0 73.850702108,15.474680378,0.0 73.85019842,15.474664725,0.0 73.850151104,15.47458966,0.0 73.850170126,15.474487078,0.0 73.850274372,15.47444121,0.0 73.850440141,15.474476541,0.0 73.850501693,15.474516396,0.0 73.850558582,15.474453652,0.0 73.85058565,15.474139758,0.0 73.849140225,15.473979763,0.0 73.847887013,15.473687661,0.0 73.848115512,15.472670015,0.0 73.848428815,15.471211861,0.0 73.848737407,15.470420359,0.0 73.849161426,15.4696053,0.0 73.849352234,15.469513429,0.0 73.850010642,15.467595921,0.0 73.850352213,15.466937513,0.0 73.850557155,15.466972848,0.0 73.851942284,15.466989338,0.0 73.852776188,15.466895111,0.0 73.853148383,15.465729059,0.0 73.854243765,15.46505534,0.0 73.854359193,15.465293262,0.0 73.855376838,15.465542962,0.0 73.855546446,15.465519405,0.0 73.855621827,15.465189612,0.0 73.855678363,15.465137788,0.0 73.855871527,15.465229659,0.0 73.856215454,15.4651637,0.0 73.85566894,15.464687857,0.0 73.855732543,15.464322729,0.0 73.857747223,15.464744981,0.0 73.857139462,15.463272693,0.0 73.856551724,15.463322162,0.0 73.856087659,15.463216157,0.0 73.854848581,15.463143132,0.0 73.854669551,15.463503548,0.0 73.85345403,15.462575417,0.0 73.853177864,15.462485241,0.0 73.85253061,15.462273893,0.0 73.851395182,15.461663776,0.0 73.851628392,15.461126685,0.0 73.851494119,15.460796893,0.0 73.851126636,15.460672043,0.0 73.851143126,15.460337539,0.0 73.851246775,15.460132596,0.0 73.851246775,15.459454166,0.0 73.850382247,15.459359939,0.0 73.849428204,15.459322249,0.0 73.849256241,15.459371718,0.0 73.849041876,15.459279847,0.0 73.848401136,15.458262201,0.0 73.848054854,15.457286957,0.0 73.848038364,15.457110283,0.0 73.847478894,15.456670952,0.0 73.846872312,15.456196286,0.0 73.846328154,15.45606908,0.0 73.846401179,15.455692174,0.0 73.846299886,15.455579103,0.0 73.845039607,15.455440119,0.0 73.844519006,15.455171573,0.0 73.844257527,15.455362382,0.0 73.843162145,15.456528434,0.0 73.839532071,15.45524931,0.0 73.839470823,15.45533647,0.0 73.83929886,15.455970143,0.0 73.839011469,15.456467187,0.0 73.838905465,15.456490744,0.0 73.838693455,15.456413007,0.0 73.838302415,15.456125616,0.0 73.838314194,15.455487232,0.0 73.838384863,15.455184529,0.0 73.839221123,15.454050278,0.0 73.839178721,15.452931339,0.0 73.840215212,15.450978496,0.0 73.839908976,15.450747641,0.0 73.840088007,15.450457895,0.0 73.840483758,15.450024453,0.0 73.840837107,15.449440249,0.0 73.840129231,15.448833666,0.0 73.839721112,15.448933193,0.0 73.839567994,15.449321877,0.0 73.839271181,15.449446727,0.0 73.838050948,15.450850701,0.0 73.835754179,15.451510287,0.0 73.835520968,15.451359524,0.0 73.83504748,15.451331256,0.0 73.834651729,15.451441972,0.0 73.83456457,15.451710518,0.0 73.834076948,15.451875414,0.0 73.833926185,15.451833012,0.0 73.833919118,15.451734074,0.0 73.833565769,15.451679894,0.0 73.832805479,15.452553256,0.0 73.83223482,15.45293075,0.0 73.832458608,15.453672784,0.0 73.832809602,15.454167473,0.0 73.832868493,15.454421884,0.0 73.832819024,15.454961331,0.0 73.832604659,15.455653895,0.0 73.832350248,15.456358238,0.0 73.832036945,15.456577314,0.0 73.832303135,15.457731588,0.0 73.832663551,15.45789884,0.0 73.832762489,15.458796347,0.0 73.832783689,15.459474778,0.0 73.832373804,15.459788081,0.0 73.832333758,15.459981245,0.0 73.832559902,15.460815149,0.0 73.832873205,15.461319261,0.0 73.832607015,15.461769192,0.0 73.832265444,15.462520648,0.0 73.832112326,15.463140187,0.0 73.831488076,15.463415799,0.0 73.829857958,15.46420259,0.0 73.829754309,15.46414841,0.0 73.828204284,15.464530027,0.0 73.827898048,15.464694924,0.0 73.827697816,15.464892799,0.0 73.82774493,15.465743193,0.0 73.827596523,15.465792662,0.0 73.827774375,15.467090631,0.0 73.828090034,15.468506384,0.0 73.828188972,15.469469849,0.0 73.828108879,15.469842044,0.0 73.828148926,15.470190682,0.0 73.828240796,15.47066417,0.0 73.82827142,15.471333178,0.0 73.828148926,15.471380291,0.0 73.828101812,15.471528697,0.0 73.827878025,15.471502785,0.0 73.82788038,15.471611146,0.0 73.827658948,15.471641769,0.0 73.827687216,15.471980984,0.0 73.82754206,15.472099844,0.0</coordinates>
                    </LinearRing>
                </outerBoundaryIs>
            </Polygon>
        </Placemark>
    </Document>
</kml>
