<?xml version="1.0" encoding="UTF-8"?>
<kml xmlns="http://www.opengis.net/kml/2.2" xmlns:gx="http://www.google.com/kml/ext/2.2">
    <Document id="5717">
        <Placemark id="5719">
            <ExtendedData>
                <Data name="id">
                    <value>111</value>
                </Data>
                <Data name="taluka">
                    <value>Tiswadi</value>
                </Data>
                <Data name="village">
                    <value>Capao</value>
                </Data>
                <Data name="lg_code">
                    <value>626708</value>
                </Data>
                <Data name="dslr_code">
                    <value>00006300</value>
                </Data>
            </ExtendedData>
            <Polygon id="5718">
                <outerBoundaryIs>
                    <LinearRing id="5722">
                        <coordinates>73.901916387,15.537571406,0.0 73.903480956,15.538977226,0.0 73.903485288,15.539062002,0.0 73.903528981,15.539123483,0.0 73.903559596,15.539102303,0.0 73.903826168,15.539384293,0.0 73.904016243,15.53963022,0.0 73.904208529,15.539825284,0.0 73.904420459,15.540086056,0.0 73.905084855,15.540469946,0.0 73.905548227,15.540646051,0.0 73.90595255,15.540879352,0.0 73.90630655,15.541205883,0.0 73.906324007,15.541277948,0.0 73.906223381,15.541422021,0.0 73.906243047,15.541441104,0.0 73.906415785,15.541362761,0.0 73.907515135,15.541948166,0.0 73.909263411,15.543347663,0.0 73.909181401,15.543416509,0.0 73.909233828,15.543509782,0.0 73.909357283,15.543649709,0.0 73.910487267,15.544217097,0.0 73.910843566,15.544312612,0.0 73.911128804,15.54443565,0.0 73.911751718,15.544753803,0.0 73.91181291,15.544800453,0.0 73.912139778,15.544707332,0.0 73.912239273,15.54464591,0.0 73.912303767,15.544638518,0.0 73.91252783,15.544678875,0.0 73.912554057,15.544692661,0.0 73.912539838,15.544714909,0.0 73.913288438,15.545080792,0.0 73.913423932,15.545194231,0.0 73.913566007,15.545253628,0.0 73.913730984,15.545439136,0.0 73.913746238,15.545556766,0.0 73.913801936,15.545673352,0.0 73.913800816,15.545739051,0.0 73.913827019,15.545813239,0.0 73.91392207,15.545925602,0.0 73.913934337,15.545996075,0.0 73.913917108,15.546029183,0.0 73.912995568,15.546859872,0.0 73.912238921,15.547412722,0.0 73.911961212,15.547566264,0.0 73.911811434,15.547627666,0.0 73.911510823,15.547655097,0.0 73.911438666,15.547685798,0.0 73.911164279,15.547738672,0.0 73.911003589,15.547754502,0.0 73.910780606,15.547737457,0.0 73.91053468,15.54769497,0.0 73.91031609,15.547632361,0.0 73.910074567,15.547519937,0.0 73.910011168,15.547519911,0.0 73.909910543,15.547659747,0.0 73.909372875,15.547362818,0.0 73.908835264,15.546938726,0.0 73.908233213,15.546402281,0.0 73.907525191,15.545744987,0.0 73.907480407,15.545673969,0.0 73.905556878,15.545051125,0.0 73.904348075,15.544758133,0.0 73.90297304,15.544656864,0.0 73.902018763,15.544713664,0.0 73.901428072,15.544474444,0.0 73.900154278,15.544105104,0.0 73.899261693,15.543177483,0.0 73.898595238,15.542539253,0.0 73.89828075,15.541900124,0.0 73.898424087,15.541600302,0.0 73.898803542,15.54126138,0.0 73.898811284,15.541077,0.0 73.89892961,15.540510128,0.0 73.8989931,15.540317296,0.0 73.899135604,15.539479158,0.0 73.89923415,15.539125272,0.0 73.899353341,15.539022538,0.0 73.899456162,15.538868931,0.0 73.899315447,15.538276509,0.0 73.899276223,15.53801899,0.0 73.899306892,15.537886544,0.0 73.89942499,15.53778275,0.0 73.899595531,15.537726665,0.0 73.900335528,15.537698389,0.0 73.900632788,15.537791774,0.0 73.901916387,15.537571406,0.0</coordinates>
                    </LinearRing>
                </outerBoundaryIs>
            </Polygon>
        </Placemark>
    </Document>
</kml>
