<?xml version="1.0" encoding="UTF-8"?>
<kml xmlns="http://www.opengis.net/kml/2.2" xmlns:gx="http://www.google.com/kml/ext/2.2">
    <Document id="5745">
        <Placemark id="5747">
            <ExtendedData>
                <Data name="id">
                    <value>127</value>
                </Data>
                <Data name="taluka">
                    <value>Tiswadi</value>
                </Data>
                <Data name="village">
                    <value>Carambolim</value>
                </Data>
                <Data name="lg_code">
                    <value>626718</value>
                </Data>
                <Data name="dslr_code">
                    <value>00007600</value>
                </Data>
            </ExtendedData>
            <Polygon id="5746">
                <outerBoundaryIs>
                    <LinearRing id="5750">
                        <coordinates>73.935575247,15.437879797,0.0 73.936227061,15.437210885,0.0 73.936681557,15.437168628,0.0 73.937830777,15.437491098,0.0 73.938040515,15.437571692,0.0 73.938626092,15.437597288,0.0 73.938848946,15.437656692,0.0 73.939770972,15.437834971,0.0 73.94022112,15.437716408,0.0 73.941361624,15.437983753,0.0 73.942493331,15.438471505,0.0 73.942589418,15.438666512,0.0 73.943734173,15.439408586,0.0 73.944149195,15.439913101,0.0 73.944608039,15.43996832,0.0 73.944940154,15.44001079,0.0 73.945385856,15.440188927,0.0 73.94572663,15.440545065,0.0 73.945901397,15.440689225,0.0 73.945888226,15.440922353,0.0 73.945979934,15.441172461,0.0 73.945940465,15.441702294,0.0 73.945625596,15.442549966,0.0 73.945712902,15.442922997,0.0 73.945415525,15.44371133,0.0 73.944707082,15.44551262,0.0 73.944811033,15.449043517,0.0 73.945046366,15.45155291,0.0 73.945404015,15.453600228,0.0 73.945709822,15.45475756,0.0 73.947719136,15.459013736,0.0 73.949370723,15.460887641,0.0 73.953994636,15.461337955,0.0 73.957324577,15.463313872,0.0 73.957621048,15.466891422,0.0 73.956711253,15.470265278,0.0 73.955670745,15.471562124,0.0 73.953861042,15.472528186,0.0 73.951832617,15.474214769,0.0 73.951075991,15.476244955,0.0 73.950284614,15.4773087,0.0 73.950188441,15.477368021,0.0 73.95000486,15.477384934,0.0 73.94950234,15.47685074,0.0 73.949393032,15.47700331,0.0 73.949305566,15.47720251,0.0 73.949082648,15.477219414,0.0 73.948317634,15.477672781,0.0 73.947854285,15.477816789,0.0 73.947360284,15.478181203,0.0 73.946324074,15.479384753,0.0 73.946310904,15.479605164,0.0 73.945904226,15.480308694,0.0 73.945943481,15.480630846,0.0 73.945357713,15.480868071,0.0 73.945091085,15.480872244,0.0 73.945003637,15.480982429,0.0 73.94484633,15.480804364,0.0 73.944645324,15.480588138,0.0 73.94371862,15.480833751,0.0 73.942826764,15.481503241,0.0 73.942424582,15.481698119,0.0 73.941948012,15.482185448,0.0 73.941716317,15.482304071,0.0 73.94146709,15.482596478,0.0 73.937108713,15.484295012,0.0 73.936031462,15.483631342,0.0 73.935874064,15.483766936,0.0 73.935836918,15.483743612,0.0 73.934846643,15.48451901,0.0 73.934748331,15.484406655,0.0 73.93399212,15.484484847,0.0 73.933587766,15.484594933,0.0 73.933723215,15.484762403,0.0 73.93396127,15.485281718,0.0 73.93395686,15.48540464,0.0 73.933786236,15.485889923,0.0 73.933840808,15.486097637,0.0 73.933731448,15.486358286,0.0 73.933748719,15.48702801,0.0 73.933777062,15.487246312,0.0 73.933715687,15.487812164,0.0 73.933750619,15.48792662,0.0 73.933512368,15.488009204,0.0 73.933634629,15.488414038,0.0 73.934143742,15.488793556,0.0 73.933898659,15.489740838,0.0 73.933898606,15.489910387,0.0 73.934368388,15.490272938,0.0 73.934068572,15.491512676,0.0 73.933771049,15.492402719,0.0 73.9325863,15.492894053,0.0 73.932909464,15.493835147,0.0 73.932690793,15.494178417,0.0 73.931449396,15.494089023,0.0 73.931335733,15.494122897,0.0 73.931379298,15.494567977,0.0 73.931278683,15.494801075,0.0 73.931287354,15.495017253,0.0 73.93113424,15.495381735,0.0 73.930845587,15.495835188,0.0 73.930570136,15.496021606,0.0 73.930307817,15.496148685,0.0 73.930063618,15.496207715,0.0 73.9300775,15.495761034,0.0 73.929153031,15.495612915,0.0 73.928491706,15.49532182,0.0 73.928504032,15.495228837,0.0 73.927891787,15.495223869,0.0 73.927377858,15.495323841,0.0 73.926772992,15.495309336,0.0 73.926497623,15.49525679,0.0 73.925157582,15.495206271,0.0 73.924655979,15.495215638,0.0 73.92371172,15.495408441,0.0 73.922457575,15.495794258,0.0 73.922332269,15.49554148,0.0 73.922160225,15.495343525,0.0 73.921993031,15.49532916,0.0 73.922022647,15.49503352,0.0 73.921767443,15.493669621,0.0 73.921261202,15.492949388,0.0 73.921266158,15.49284925,0.0 73.920533322,15.493149408,0.0 73.920120143,15.49341153,0.0 73.919554564,15.493554382,0.0 73.919584303,15.492948785,0.0 73.919791263,15.491856859,0.0 73.919727631,15.491089098,0.0 73.919123435,15.489386501,0.0 73.918764652,15.48888567,0.0 73.918027182,15.488494376,0.0 73.917265417,15.48737348,0.0 73.9174722,15.486744106,0.0 73.91776745,15.486229211,0.0 73.917713389,15.486152894,0.0 73.917137975,15.486338654,0.0 73.9169167,15.486314728,0.0 73.915053275,15.485622578,0.0 73.91310632,15.484801629,0.0 73.912447915,15.483552006,0.0 73.912187795,15.48236453,0.0 73.91141132,15.481272219,0.0 73.910650521,15.480909502,0.0 73.910512882,15.480804538,0.0 73.909988145,15.477533088,0.0 73.910185011,15.477123071,0.0 73.91047577,15.475625859,0.0 73.910358484,15.473937738,0.0 73.910402888,15.47358965,0.0 73.910487835,15.470435275,0.0 73.910495262,15.470316064,0.0 73.910902769,15.470251467,0.0 73.91190518,15.470834662,0.0 73.912375396,15.471040727,0.0 73.912881624,15.471044094,0.0 73.913446277,15.471921674,0.0 73.915830203,15.472571902,0.0 73.916218907,15.472454857,0.0 73.917102477,15.472173294,0.0 73.918092222,15.471812583,0.0 73.918229346,15.471936161,0.0 73.918598539,15.471594222,0.0 73.91922588,15.470903967,0.0 73.919686537,15.470511382,0.0 73.920170094,15.470014281,0.0 73.921039174,15.469146736,0.0 73.921316834,15.469007471,0.0 73.92204859,15.468526291,0.0 73.922809667,15.46823516,0.0 73.922914028,15.468639035,0.0 73.92293995,15.469193332,0.0 73.92306378,15.46994404,0.0 73.92421345,15.469820909,0.0 73.924869973,15.469653263,0.0 73.925144332,15.469605845,0.0 73.92547098,15.469463424,0.0 73.925418765,15.469349382,0.0 73.925559208,15.469333592,0.0 73.925817261,15.469216486,0.0 73.926052514,15.468928335,0.0 73.926294244,15.468789052,0.0 73.926758125,15.468466135,0.0 73.927208973,15.468048192,0.0 73.927686022,15.467414875,0.0 73.928244685,15.466870271,0.0 73.92852236,15.466664482,0.0 73.928832737,15.466332009,0.0 73.928963484,15.46600898,0.0 73.928859106,15.465625696,0.0 73.928882024,15.465457833,0.0 73.929339332,15.465220427,0.0 73.929747762,15.464653599,0.0 73.929976497,15.464289425,0.0 73.930123589,15.463912555,0.0 73.930365342,15.463681414,0.0 73.930933709,15.463368022,0.0 73.931351867,15.462988069,0.0 73.931658994,15.462576407,0.0 73.932031375,15.462354806,0.0 73.932540919,15.462139581,0.0 73.932985123,15.461994017,0.0 73.933481525,15.462019505,0.0 73.933945182,15.462317376,0.0 73.934474282,15.462222512,0.0 73.934689954,15.461823488,0.0 73.934722896,15.460917632,0.0 73.934559861,15.460100404,0.0 73.93433142,15.459568219,0.0 73.934089894,15.459112047,0.0 73.934070445,15.458649606,0.0 73.934090168,15.458244189,0.0 73.93395329,15.457344616,0.0 73.933790061,15.457154526,0.0 73.933437541,15.45657796,0.0 73.932915145,15.456178714,0.0 73.93249732,15.455583123,0.0 73.932092548,15.455025543,0.0 73.932105654,15.454892518,0.0 73.932138551,15.454157699,0.0 73.932249693,15.453828327,0.0 73.932321775,15.453099855,0.0 73.93203439,15.453106101,0.0 73.931446511,15.453257954,0.0 73.931165697,15.453143842,0.0 73.93059754,15.45290928,0.0 73.930336285,15.452902863,0.0 73.929918362,15.452636672,0.0 73.929315954,15.452422572,0.0 73.929186932,15.452376716,0.0 73.928951911,15.452053569,0.0 73.929154453,15.451850923,0.0 73.929879628,15.451287362,0.0 73.931042393,15.45074294,0.0 73.931885123,15.450179409,0.0 73.931885276,15.449710639,0.0 73.931696168,15.448792044,0.0 73.931735586,15.448088901,0.0 73.931801189,15.447202058,0.0 73.931984415,15.446125209,0.0 73.932441754,15.445650243,0.0 73.93317335,15.445333728,0.0 73.933917946,15.445207257,0.0 73.934812863,15.444745086,0.0 73.93523427,15.444273271,0.0 73.93557404,15.443788763,0.0 73.935946452,15.443342271,0.0 73.93610333,15.442914722,0.0 73.936005597,15.442154525,0.0 73.935923998,15.442024639,0.0 73.935855702,15.441112417,0.0 73.935395592,15.44004488,0.0 73.935369505,15.43992768,0.0 73.935519773,15.439750351,0.0 73.93558209,15.438866672,0.0 73.935670378,15.438480279,0.0 73.93567045,15.438245894,0.0 73.935654196,15.438008336,0.0 73.935575247,15.437879797,0.0</coordinates>
                    </LinearRing>
                </outerBoundaryIs>
            </Polygon>
        </Placemark>
    </Document>
</kml>
