<?xml version="1.0" encoding="UTF-8"?>
<kml xmlns="http://www.opengis.net/kml/2.2" xmlns:gx="http://www.google.com/kml/ext/2.2">
    <Document id="5815">
        <Placemark id="5817">
            <ExtendedData>
                <Data name="id">
                    <value>130</value>
                </Data>
                <Data name="taluka">
                    <value>Tiswadi</value>
                </Data>
                <Data name="village">
                    <value>Cumbarjua</value>
                </Data>
                <Data name="lg_code">
                    <value>626728</value>
                </Data>
                <Data name="dslr_code">
                    <value>00006900</value>
                </Data>
            </ExtendedData>
            <Polygon id="5816">
                <outerBoundaryIs>
                    <LinearRing id="5820">
                        <coordinates>73.953893799,15.499763072,0.0 73.9539987,15.499811133,0.0 73.954173525,15.499943983,0.0 73.954249253,15.500133328,0.0 73.954491107,15.500257714,0.0 73.954584353,15.50030012,0.0 73.954680504,15.50038774,0.0 73.954875757,15.500390606,0.0 73.955607158,15.500727026,0.0 73.956653244,15.501331957,0.0 73.957052434,15.501628746,0.0 73.957026191,15.501699386,0.0 73.957151495,15.501744623,0.0 73.957212707,15.501682467,0.0 73.957416678,15.501812494,0.0 73.957565262,15.502024459,0.0 73.958325765,15.502612373,0.0 73.958864841,15.502931791,0.0 73.95940104,15.503067529,0.0 73.959774063,15.503090204,0.0 73.959954765,15.503002636,0.0 73.960287006,15.502929225,0.0 73.960901965,15.502675011,0.0 73.961158435,15.502593108,0.0 73.961478995,15.502646854,0.0 73.961741231,15.502906875,0.0 73.961720782,15.503169672,0.0 73.961671191,15.503432464,0.0 73.961516658,15.503847832,0.0 73.961102679,15.504653116,0.0 73.960085252,15.506410591,0.0 73.960123132,15.506447333,0.0 73.959595417,15.507591691,0.0 73.959551637,15.507927955,0.0 73.959265954,15.508320691,0.0 73.958869448,15.509103367,0.0 73.958449678,15.509617587,0.0 73.956864067,15.510566755,0.0 73.956260747,15.510775747,0.0 73.955823577,15.510835002,0.0 73.955491336,15.510843413,0.0 73.954803552,15.510795234,0.0 73.954619942,15.510817803,0.0 73.954535441,15.510741489,0.0 73.95406913,15.510786606,0.0 73.953672753,15.510885426,0.0 73.95353577,15.510913656,0.0 73.953343397,15.511023822,0.0 73.95287992,15.511416511,0.0 73.951955836,15.51238274,0.0 73.951553566,15.512733052,0.0 73.951419512,15.512699113,0.0 73.951361241,15.512625629,0.0 73.951370018,15.512481515,0.0 73.951224269,15.512602993,0.0 73.951384497,15.512877132,0.0 73.949606398,15.514151174,0.0 73.949373215,15.514269805,0.0 73.948889277,15.514848984,0.0 73.948737599,15.515363247,0.0 73.94884235,15.516049943,0.0 73.94915107,15.516917538,0.0 73.949217985,15.517397941,0.0 73.949133399,15.517669199,0.0 73.948792233,15.518367095,0.0 73.948512311,15.518898282,0.0 73.947897126,15.519802397,0.0 73.947725135,15.519940821,0.0 73.947558992,15.520002949,0.0 73.947454067,15.520014228,0.0 73.946754493,15.520372938,0.0 73.946550473,15.520387018,0.0 73.946393109,15.520310683,0.0 73.946261981,15.520214573,0.0 73.94622703,15.520124139,0.0 73.945941403,15.520142437,0.0 73.945754893,15.520070333,0.0 73.94530467,15.519808835,0.0 73.94442757,15.519188351,0.0 73.943713654,15.518688002,0.0 73.943129364,15.518449071,0.0 73.942065636,15.51823262,0.0 73.941729035,15.518154822,0.0 73.941647431,15.518150562,0.0 73.941634307,15.518180229,0.0 73.941472554,15.518177361,0.0 73.941274392,15.518096772,0.0 73.940943658,15.517887574,0.0 73.940474554,15.517443796,0.0 73.940174497,15.516977457,0.0 73.940078462,15.51648574,0.0 73.940113514,15.516214472,0.0 73.940340963,15.515790662,0.0 73.940664523,15.515592942,0.0 73.940865642,15.515516699,0.0 73.941261987,15.51558745,0.0 73.941585463,15.515683613,0.0 73.941696185,15.51577972,0.0 73.942010941,15.515796758,0.0 73.942056144,15.515693628,0.0 73.942354843,15.515806738,0.0 73.942410177,15.515955108,0.0 73.942442237,15.51595229,0.0 73.942443729,15.515826542,0.0 73.943181085,15.515826733,0.0 73.943710088,15.515713836,0.0 73.94383106,15.515633331,0.0 73.944094852,15.515504824,0.0 73.944440306,15.515158749,0.0 73.944695404,15.51484091,0.0 73.944874771,15.514356328,0.0 73.944877785,15.513979083,0.0 73.94487202,15.513740301,0.0 73.94411491,15.511363604,0.0 73.94356733,15.51016532,0.0 73.943299424,15.509374025,0.0 73.943357807,15.509023639,0.0 73.943649416,15.50838508,0.0 73.944401601,15.507322765,0.0 73.945357921,15.505729245,0.0 73.94669303,15.504344923,0.0 73.947241008,15.503983351,0.0 73.949088826,15.503322544,0.0 73.949193726,15.503379084,0.0 73.951391324,15.50237924,0.0 73.951467131,15.502226663,0.0 73.951883976,15.501768972,0.0 73.952044274,15.501706839,0.0 73.95214922,15.501565571,0.0 73.952539884,15.50088746,0.0 73.95305871,15.500486305,0.0 73.953420106,15.500350742,0.0 73.953504644,15.500234902,0.0 73.953621233,15.500150152,0.0 73.95381073,15.499825223,0.0 73.953893799,15.499763072,0.0</coordinates>
                    </LinearRing>
                </outerBoundaryIs>
            </Polygon>
        </Placemark>
    </Document>
</kml>
