<?xml version="1.0" encoding="UTF-8"?>
<kml xmlns="http://www.opengis.net/kml/2.2" xmlns:gx="http://www.google.com/kml/ext/2.2">
    <Document id="5829">
        <Placemark id="5831">
            <ExtendedData>
                <Data name="id">
                    <value>107</value>
                </Data>
                <Data name="taluka">
                    <value>Tiswadi</value>
                </Data>
                <Data name="village">
                    <value>Curca</value>
                </Data>
                <Data name="lg_code">
                    <value>626723</value>
                </Data>
                <Data name="dslr_code">
                    <value>00008100</value>
                </Data>
            </ExtendedData>
            <Polygon id="5830">
                <outerBoundaryIs>
                    <LinearRing id="5834">
                        <coordinates>73.86518169,15.453905405,0.0 73.863975592,15.449243551,0.0 73.865881322,15.44936369,0.0 73.865890744,15.449495607,0.0 73.866347743,15.449335422,0.0 73.866573886,15.449330711,0.0 73.866788251,15.449236484,0.0 73.866917813,15.449036253,0.0 73.867202848,15.448289508,0.0 73.86753264,15.448042164,0.0 73.867860077,15.447750062,0.0 73.867987283,15.447813665,0.0 73.868159246,15.447469738,0.0 73.869638602,15.446174124,0.0 73.869662158,15.445999805,0.0 73.870043775,15.445764239,0.0 73.870463083,15.445523962,0.0 73.871117957,15.444553429,0.0 73.871113246,15.444256616,0.0 73.871120902,15.444221281,0.0 73.871806399,15.444499249,0.0 73.873730974,15.445790152,0.0 73.87394534,15.446065764,0.0 73.874362292,15.447106966,0.0 73.874816934,15.448131679,0.0 73.874901738,15.449231773,0.0 73.874451807,15.449349556,0.0 73.874312823,15.449486184,0.0 73.873910005,15.44973824,0.0 73.873709774,15.45027062,0.0 73.87367915,15.450732329,0.0 73.873735686,15.451354224,0.0 73.87385818,15.452070345,0.0 73.873746033,15.453483882,0.0 73.874811789,15.455224423,0.0 73.874976798,15.455984683,0.0 73.874876141,15.456829255,0.0 73.874971517,15.457530352,0.0 73.87558498,15.458375326,0.0 73.876325021,15.458722039,0.0 73.877888127,15.458934063,0.0 73.880996252,15.460548995,0.0 73.880586617,15.461102007,0.0 73.88109584,15.461537265,0.0 73.881308944,15.462001925,0.0 73.881635237,15.462517324,0.0 73.881678662,15.462728504,0.0 73.881896046,15.463328307,0.0 73.881904544,15.463699948,0.0 73.87993254,15.46268111,0.0 73.879662603,15.462609171,0.0 73.87934032,15.462697681,0.0 73.878830139,15.463913669,0.0 73.877762231,15.465707919,0.0 73.877356958,15.466218695,0.0 73.878034847,15.468647377,0.0 73.877629633,15.469048352,0.0 73.87720229,15.470049,0.0 73.875838871,15.470749282,0.0 73.87387938,15.470579249,0.0 73.873234826,15.470688683,0.0 73.870276168,15.467820404,0.0 73.870397125,15.46769427,0.0 73.870347656,15.467578842,0.0 73.869391257,15.466789696,0.0 73.86810271,15.463814495,0.0 73.868208715,15.463282116,0.0 73.866439613,15.463871031,0.0 73.866628066,15.463211446,0.0 73.866825942,15.462189089,0.0 73.866833009,15.462111352,0.0 73.867012039,15.462097218,0.0 73.866903679,15.461538926,0.0 73.866390144,15.460156153,0.0 73.866376011,15.459991257,0.0 73.866424302,15.459494212,0.0 73.866449036,15.459007768,0.0 73.866357165,15.457226888,0.0 73.866065063,15.455893584,0.0 73.865650467,15.454948963,0.0 73.865153422,15.453999632,0.0 73.86518169,15.453905405,0.0</coordinates>
                    </LinearRing>
                </outerBoundaryIs>
            </Polygon>
        </Placemark>
    </Document>
</kml>
