<?xml version="1.0" encoding="UTF-8"?>
<kml xmlns="http://www.opengis.net/kml/2.2" xmlns:gx="http://www.google.com/kml/ext/2.2">
    <Document id="5843">
        <Placemark id="5845">
            <ExtendedData>
                <Data name="id">
                    <value>248</value>
                </Data>
                <Data name="taluka">
                    <value>Tiswadi</value>
                </Data>
                <Data name="village">
                    <value>Durgawado</value>
                </Data>
                <Data name="lg_code">
                    <value>645599</value>
                </Data>
                <Data name="dslr_code">
                    <value>00036400</value>
                </Data>
            </ExtendedData>
            <Polygon id="5844">
                <outerBoundaryIs>
                    <LinearRing id="5848">
                        <coordinates>73.827001718,15.477276511,0.0 73.827252746,15.477006498,0.0 73.827331622,15.477162115,0.0 73.827472878,15.477157582,0.0 73.827583212,15.476909243,0.0 73.827966819,15.476243206,0.0 73.828091307,15.476247946,0.0 73.828271396,15.475602645,0.0 73.828750159,15.475668024,0.0 73.828702043,15.47595356,0.0 73.829070717,15.475972418,0.0 73.829626141,15.47597749,0.0 73.829810575,15.475868511,0.0 73.8298012,15.4756224,0.0 73.829667348,15.475357621,0.0 73.829485342,15.475424811,0.0 73.829313039,15.475338774,0.0 73.829267685,15.475176218,0.0 73.82907892,15.474727979,0.0 73.829315993,15.474656188,0.0 73.82922534,15.474263746,0.0 73.829467161,15.474238394,0.0 73.829371741,15.473820409,0.0 73.829410166,15.47367417,0.0 73.829403218,15.473388592,0.0 73.829295504,15.473365292,0.0 73.829200313,15.4726687,0.0 73.829298469,15.472668776,0.0 73.829298619,15.47248536,0.0 73.829159761,15.472489896,0.0 73.829133375,15.472552562,0.0 73.828688088,15.472545253,0.0 73.828264315,15.472577429,0.0 73.827850139,15.472584073,0.0 73.827658688,15.472495698,0.0 73.82754206,15.472099844,0.0 73.827362135,15.472247174,0.0 73.826938116,15.472372024,0.0 73.826075944,15.472862002,0.0 73.825749685,15.472916182,0.0 73.825423425,15.472970362,0.0 73.825161182,15.473078291,0.0 73.824942106,15.473153672,0.0 73.824848687,15.473192333,0.0 73.824833516,15.473261538,0.0 73.824834173,15.473369934,0.0 73.82493462,15.473493065,0.0 73.825164346,15.473616298,0.0 73.825300652,15.473802144,0.0 73.825382616,15.474161895,0.0 73.825766588,15.474015843,0.0 73.826252296,15.474956463,0.0 73.826403058,15.475309812,0.0 73.826595265,15.475793505,0.0 73.826311407,15.475966648,0.0 73.826027552,15.476139788,0.0 73.82618067,15.476552029,0.0 73.826343212,15.477202191,0.0 73.826456284,15.477515494,0.0 73.827001718,15.477276511,0.0</coordinates>
                    </LinearRing>
                </outerBoundaryIs>
            </Polygon>
        </Placemark>
    </Document>
</kml>
