<?xml version="1.0" encoding="UTF-8"?>
<kml xmlns="http://www.opengis.net/kml/2.2" xmlns:gx="http://www.google.com/kml/ext/2.2">
    <Document id="5927">
        <Placemark id="5929">
            <ExtendedData>
                <Data name="id">
                    <value>115</value>
                </Data>
                <Data name="taluka">
                    <value>Tiswadi</value>
                </Data>
                <Data name="village">
                    <value>Goltim</value>
                </Data>
                <Data name="lg_code">
                    <value>626710</value>
                </Data>
                <Data name="dslr_code">
                    <value>00006500</value>
                </Data>
            </ExtendedData>
            <Polygon id="5928">
                <outerBoundaryIs>
                    <LinearRing id="5932">
                        <coordinates>73.899897049,15.506222718,0.0 73.899884011,15.50616749,0.0 73.899933231,15.506081148,0.0 73.899993898,15.506055743,0.0 73.900312996,15.506094566,0.0 73.900516247,15.506142343,0.0 73.900682361,15.506144537,0.0 73.900915109,15.50621458,0.0 73.901139145,15.5062168,0.0 73.902118227,15.506488513,0.0 73.902281057,15.506503421,0.0 73.903574842,15.506874877,0.0 73.904185697,15.507004423,0.0 73.905104675,15.507283515,0.0 73.905183352,15.507304742,0.0 73.905487169,15.507308052,0.0 73.905667464,15.507372769,0.0 73.905761421,15.507438509,0.0 73.906467403,15.507470599,0.0 73.906795304,15.507385964,0.0 73.907267411,15.507417953,0.0 73.907326403,15.507468842,0.0 73.909710997,15.507601229,0.0 73.910115334,15.507664975,0.0 73.910351366,15.507730771,0.0 73.91135879,15.508218629,0.0 73.911832976,15.508507052,0.0 73.912514731,15.508988417,0.0 73.913530802,15.509732711,0.0 73.9143939,15.51041548,0.0 73.914433133,15.510686773,0.0 73.914920414,15.511049371,0.0 73.914999034,15.511214711,0.0 73.915202257,15.511352548,0.0 73.915346492,15.511418303,0.0 73.915940896,15.511742792,0.0 73.916270856,15.511978166,0.0 73.917284654,15.513010674,0.0 73.917411407,15.513070064,0.0 73.917573111,15.513186689,0.0 73.917568716,15.513246029,0.0 73.917610152,15.513483413,0.0 73.917009093,15.513384638,0.0 73.916318351,15.513446898,0.0 73.915877763,15.5138102,0.0 73.915205444,15.514252889,0.0 73.914578063,15.51437557,0.0 73.91468858,15.514052411,0.0 73.914724843,15.51357239,0.0 73.914434301,15.513156884,0.0 73.91438076,15.513130371,0.0 73.914330485,15.513133531,0.0 73.914069318,15.513044417,0.0 73.913897776,15.512938382,0.0 73.913872667,15.512871612,0.0 73.913844317,15.512713709,0.0 73.913890253,15.512631072,0.0 73.913877287,15.512270777,0.0 73.913829239,15.512175387,0.0 73.91360418,15.511988795,0.0 73.913304775,15.511869994,0.0 73.913055582,15.511899567,0.0 73.912945697,15.512016618,0.0 73.913063526,15.512504117,0.0 73.912992382,15.512756292,0.0 73.912788976,15.513056101,0.0 73.912371363,15.513349467,0.0 73.912060912,15.513505116,0.0 73.91141065,15.513463529,0.0 73.911321017,15.513498462,0.0 73.911025954,15.513448539,0.0 73.910800799,15.513487656,0.0 73.91070674,15.51364657,0.0 73.910688051,15.513901945,0.0 73.910715324,15.514017461,0.0 73.910920652,15.514340746,0.0 73.911191589,15.5145867,0.0 73.911261456,15.514773231,0.0 73.911243933,15.514857999,0.0 73.910631672,15.51539183,0.0 73.909512384,15.515717755,0.0 73.909332918,15.516239043,0.0 73.909359811,15.517224554,0.0 73.909192573,15.517270052,0.0 73.909239542,15.517330473,0.0 73.909358679,15.517313567,0.0 73.909532343,15.517567961,0.0 73.909796529,15.518265337,0.0 73.910025941,15.518502798,0.0 73.910366929,15.518519892,0.0 73.910300059,15.518984003,0.0 73.910299962,15.519208655,0.0 73.910385117,15.519426983,0.0 73.910345668,15.519667514,0.0 73.910352117,15.519917601,0.0 73.910047979,15.520612625,0.0 73.910174735,15.520672019,0.0 73.910171425,15.520743016,0.0 73.910055465,15.520990933,0.0 73.910030195,15.52129611,0.0 73.909859604,15.521506916,0.0 73.909865008,15.521646796,0.0 73.909776466,15.521677491,0.0 73.909693058,15.522466916,0.0 73.909737792,15.52264602,0.0 73.909739921,15.522775301,0.0 73.909573633,15.523139762,0.0 73.909496953,15.52353817,0.0 73.909409425,15.523745831,0.0 73.908915154,15.524324211,0.0 73.908783818,15.524733192,0.0 73.908409758,15.525337053,0.0 73.908153957,15.525440795,0.0 73.907867412,15.525862427,0.0 73.90757437,15.526146298,0.0 73.907252872,15.526512812,0.0 73.907206958,15.526531867,0.0 73.907128241,15.526584817,0.0 73.907034185,15.526718297,0.0 73.906926946,15.527002245,0.0 73.906953154,15.52705524,0.0 73.906508743,15.528523765,0.0 73.906583058,15.52854287,0.0 73.906508644,15.528744177,0.0 73.906418834,15.529155294,0.0 73.90618655,15.53041621,0.0 73.906822463,15.530884857,0.0 73.906325474,15.532584367,0.0 73.906351685,15.532631004,0.0 73.90592924,15.533832498,0.0 73.906073977,15.535231332,0.0 73.906070621,15.535400878,0.0 73.906267174,15.535822713,0.0 73.906357747,15.536151251,0.0 73.906484387,15.536487222,0.0 73.90607526,15.537224583,0.0 73.906042365,15.537455578,0.0 73.905904396,15.538000193,0.0 73.905096283,15.537592401,0.0 73.90502412,15.537643235,0.0 73.904683163,15.537490494,0.0 73.90453233,15.537479832,0.0 73.904298489,15.537331376,0.0 73.903905052,15.537214641,0.0 73.903778309,15.537110738,0.0 73.903061491,15.536661121,0.0 73.902641944,15.536287931,0.0 73.901407144,15.535615548,0.0 73.901422454,15.53559913,0.0 73.901694754,15.53530996,0.0 73.901749469,15.535175405,0.0 73.901798672,15.535138338,0.0 73.901871913,15.535121416,0.0 73.901964841,15.535074832,0.0 73.90199656,15.535030339,0.0 73.902018442,15.534983723,0.0 73.901993335,15.534914833,0.0 73.90174426,15.534633908,0.0 73.901453757,15.534129373,0.0 73.901392961,15.533261471,0.0 73.901348245,15.533056934,0.0 73.901263047,15.532938212,0.0 73.901162544,15.532825841,0.0 73.900939725,15.53250148,0.0 73.900952865,15.532450622,0.0 73.90081973,15.532007617,0.0 73.900817761,15.531554075,0.0 73.900900913,15.531378206,0.0 73.90096675,15.53083992,0.0 73.901755878,15.530874182,0.0 73.901937487,15.530511854,0.0 73.901980175,15.530382592,0.0 73.902141926,15.530408096,0.0 73.902271172,15.52982851,0.0 73.902300721,15.529747988,0.0 73.902358672,15.529700328,0.0 73.902497517,15.529626212,0.0 73.902598099,15.529569034,0.0 73.902630917,15.529508647,0.0 73.902601544,15.529214044,0.0 73.902640907,15.529182271,0.0 73.902774524,15.528599508,0.0 73.902826989,15.528597412,0.0 73.902882109,15.527590743,0.0 73.902677895,15.527221886,0.0 73.902953373,15.527119218,0.0 73.901879171,15.526707589,0.0 73.901669324,15.526697958,0.0 73.900746068,15.526054321,0.0 73.900629216,15.52585399,0.0 73.900274262,15.525309156,0.0 73.899964103,15.524804609,0.0 73.89990622,15.524712391,0.0 73.899803557,15.524554453,0.0 73.899934732,15.524515304,0.0 73.899859408,15.524328767,0.0 73.899698714,15.524385917,0.0 73.899636463,15.524287338,0.0 73.899195382,15.523307996,0.0 73.898837046,15.522992048,0.0 73.898603476,15.522330703,0.0 73.898533542,15.522300999,0.0 73.898503219,15.52172876,0.0 73.898516437,15.52151895,0.0 73.898619389,15.521078171,0.0 73.898761706,15.520599263,0.0 73.898965273,15.520025011,0.0 73.898934756,15.51984909,0.0 73.898956699,15.519675313,0.0 73.899028963,15.519408308,0.0 73.899175716,15.518791642,0.0 73.899585019,15.517664332,0.0 73.899639784,15.517418512,0.0 73.89989143,15.516852758,0.0 73.900143155,15.516119575,0.0 73.900554747,15.514752776,0.0 73.900717908,15.514088431,0.0 73.90087559,15.513454815,0.0 73.900953274,15.513269406,0.0 73.900982899,15.513025693,0.0 73.900914113,15.512885785,0.0 73.900871523,15.512815827,0.0 73.9007699,15.512780812,0.0 73.900510912,15.512718175,0.0 73.900246486,15.512600431,0.0 73.899892425,15.512520795,0.0 73.899731754,15.512551453,0.0 73.899626866,15.512487825,0.0 73.899543926,15.512237703,0.0 73.899479483,15.512159257,0.0 73.899335244,15.512110447,0.0 73.899313416,15.512048975,0.0 73.899243502,15.511985363,0.0 73.898867667,15.511735107,0.0 73.898557392,15.511514552,0.0 73.89834546,15.51133007,0.0 73.898336778,15.511205024,0.0 73.898371836,15.511031253,0.0 73.898334754,15.510874404,0.0 73.898400464,15.510596798,0.0 73.898335136,15.510094481,0.0 73.898025275,15.509036779,0.0 73.898029796,15.508731594,0.0 73.897983995,15.508528114,0.0 73.898049669,15.508322567,0.0 73.898058764,15.507604109,0.0 73.898341951,15.507335081,0.0 73.898499471,15.507035265,0.0 73.898771684,15.506854184,0.0 73.899030705,15.506833109,0.0 73.899230715,15.50680141,0.0 73.899294083,15.506839588,0.0 73.899445987,15.506850254,0.0 73.89972584,15.50668825,0.0 73.899726967,15.506618312,0.0 73.899827547,15.50654418,0.0 73.899941302,15.506341833,0.0 73.89992166,15.506280362,0.0 73.899933703,15.506236921,0.0 73.899897049,15.506222718,0.0</coordinates>
                    </LinearRing>
                </outerBoundaryIs>
            </Polygon>
        </Placemark>
    </Document>
</kml>
