<?xml version="1.0" encoding="UTF-8"?>
<kml xmlns="http://www.opengis.net/kml/2.2" xmlns:gx="http://www.google.com/kml/ext/2.2">
    <Document id="5941">
        <Placemark id="5943">
            <ExtendedData>
                <Data name="id">
                    <value>131</value>
                </Data>
                <Data name="taluka">
                    <value>Tiswadi</value>
                </Data>
                <Data name="village">
                    <value>Jua</value>
                </Data>
                <Data name="lg_code">
                    <value>626727</value>
                </Data>
                <Data name="dslr_code">
                    <value>00006800</value>
                </Data>
            </ExtendedData>
            <Polygon id="5942">
                <outerBoundaryIs>
                    <LinearRing id="5946">
                        <coordinates>73.939779833,15.516129607,0.0 73.939791371,15.516542178,0.0 73.939823359,15.516788032,0.0 73.939919439,15.51712433,0.0 73.940009734,15.517310858,0.0 73.940344777,15.517731994,0.0 73.940729377,15.518122059,0.0 73.941201423,15.518475411,0.0 73.941452053,15.518531994,0.0 73.942166052,15.518713034,0.0 73.942609046,15.518744234,0.0 73.942984983,15.518863015,0.0 73.943416265,15.519094842,0.0 73.94345705,15.519159846,0.0 73.944476985,15.519680054,0.0 73.944549848,15.519677246,0.0 73.946111795,15.520553634,0.0 73.946272058,15.520692137,0.0 73.946292422,15.520836259,0.0 73.946277793,15.521053842,0.0 73.946064866,15.521695249,0.0 73.945992006,15.521683928,0.0 73.945933713,15.521692391,0.0 73.94591038,15.521757379,0.0 73.946012375,15.521811094,0.0 73.94544097,15.522404374,0.0 73.94482589,15.522825266,0.0 73.94449645,15.523181236,0.0 73.944181602,15.523466563,0.0 73.944082473,15.523593699,0.0 73.94396583,15.523816908,0.0 73.943840358,15.524356606,0.0 73.943843227,15.524523329,0.0 73.943840216,15.52487938,0.0 73.943778909,15.525252371,0.0 73.94393628,15.525311753,0.0 73.944009144,15.525314597,0.0 73.944425856,15.525591632,0.0 73.945023299,15.525769807,0.0 73.945378879,15.525769896,0.0 73.945792768,15.525702178,0.0 73.946133792,15.525637268,0.0 73.946299916,15.525668392,0.0 73.946226935,15.526117678,0.0 73.946326033,15.526109225,0.0 73.946401957,15.525549733,0.0 73.946970342,15.525391625,0.0 73.947719388,15.525400281,0.0 73.948252726,15.525524743,0.0 73.948838492,15.525793331,0.0 73.949086173,15.526033582,0.0 73.950496662,15.526765787,0.0 73.950700633,15.526983419,0.0 73.950697699,15.527062541,0.0 73.950802616,15.527102126,0.0 73.950901739,15.526991942,0.0 73.95210541,15.527257832,0.0 73.952498847,15.527413336,0.0 73.952848539,15.527687515,0.0 73.953055421,15.527933404,0.0 73.953830452,15.529094974,0.0 73.954072249,15.529626276,0.0 73.954060513,15.529973848,0.0 73.954220681,15.530598385,0.0 73.954098246,15.530688785,0.0 73.954159399,15.530934643,0.0 73.954494467,15.531474441,0.0 73.954768367,15.531839027,0.0 73.954820744,15.532237476,0.0 73.955085881,15.532692485,0.0 73.955289891,15.532777301,0.0 73.955537598,15.532975157,0.0 73.955808591,15.533317134,0.0 73.956481674,15.53432608,0.0 73.957052787,15.535148502,0.0 73.957428691,15.535614832,0.0 73.957431548,15.535897414,0.0 73.957355666,15.53637496,0.0 73.957139898,15.53675075,0.0 73.957166098,15.536909,0.0 73.957142735,15.537126583,0.0 73.957410786,15.537643757,0.0 73.957932444,15.538053599,0.0 73.958279265,15.53823169,0.0 73.958926243,15.538740457,0.0 73.958319868,15.539246162,0.0 73.957827125,15.539958171,0.0 73.957687153,15.540263331,0.0 73.957509315,15.540435671,0.0 73.95758501,15.540876511,0.0 73.957004814,15.54160263,0.0 73.956016507,15.542472783,0.0 73.955771584,15.542837263,0.0 73.955474227,15.543043486,0.0 73.955669486,15.543204597,0.0 73.955220483,15.543755538,0.0 73.954692708,15.5446173,0.0 73.95234862,15.546984828,0.0 73.950812305,15.547693767,0.0 73.949558881,15.547766955,0.0 73.948282201,15.547580156,0.0 73.948072297,15.547704442,0.0 73.94775169,15.547580031,0.0 73.947186194,15.547602503,0.0 73.947028822,15.54747813,0.0 73.946982221,15.547331177,0.0 73.94521035,15.545878282,0.0 73.942138924,15.542831282,0.0 73.939166569,15.540202485,0.0 73.93632824,15.537991906,0.0 73.935360715,15.537426463,0.0 73.934288271,15.536844031,0.0 73.934247536,15.536617955,0.0 73.933489808,15.536289934,0.0 73.932778733,15.535916712,0.0 73.930423717,15.535656008,0.0 73.930173088,15.535542897,0.0 73.929246537,15.534570525,0.0 73.929165064,15.534163583,0.0 73.929870656,15.533474312,0.0 73.93044196,15.533406674,0.0 73.931124102,15.533096049,0.0 73.932430213,15.532084815,0.0 73.932756782,15.531700605,0.0 73.932902523,15.531678043,0.0 73.933205774,15.531288174,0.0 73.933322468,15.530954764,0.0 73.933800523,15.530796663,0.0 73.933521142,15.52946845,0.0 73.933334704,15.529157555,0.0 73.932985112,15.528648804,0.0 73.932892217,15.527495847,0.0 73.93213468,15.526693086,0.0 73.932076488,15.526387881,0.0 73.931726825,15.526116496,0.0 73.931621822,15.526353831,0.0 73.930934101,15.525980611,0.0 73.930152937,15.52613861,0.0 73.929803243,15.525968951,0.0 73.929675129,15.525590252,0.0 73.929418697,15.525437576,0.0 73.929086608,15.524928825,0.0 73.929057609,15.524499293,0.0 73.929110313,15.523792858,0.0 73.929261955,15.523544236,0.0 73.92985672,15.522967961,0.0 73.929973387,15.522713675,0.0 73.930812918,15.522290068,0.0 73.931296777,15.522154581,0.0 73.932159617,15.521736628,0.0 73.932917598,15.52110953,0.0 73.932981783,15.520906091,0.0 73.933891476,15.519770391,0.0 73.934561941,15.519360848,0.0 73.9352382,15.51905586,0.0 73.935897045,15.518507845,0.0 73.935955382,15.518355269,0.0 73.939779833,15.516129607,0.0</coordinates>
                    </LinearRing>
                </outerBoundaryIs>
            </Polygon>
        </Placemark>
    </Document>
</kml>
