<?xml version="1.0" encoding="UTF-8"?>
<kml xmlns="http://www.opengis.net/kml/2.2" xmlns:gx="http://www.google.com/kml/ext/2.2">
    <Document id="5955">
        <Placemark id="5957">
            <ExtendedData>
                <Data name="id">
                    <value>113</value>
                </Data>
                <Data name="taluka">
                    <value>Tiswadi</value>
                </Data>
                <Data name="village">
                    <value>Malar</value>
                </Data>
                <Data name="lg_code">
                    <value>626711</value>
                </Data>
                <Data name="dslr_code">
                    <value>00006600</value>
                </Data>
            </ExtendedData>
            <Polygon id="5956">
                <outerBoundaryIs>
                    <LinearRing id="5960">
                        <coordinates>73.913055582,15.511899567,0.0 73.913304775,15.511869994,0.0 73.91360418,15.511988795,0.0 73.913829239,15.512175387,0.0 73.913877287,15.512270777,0.0 73.913890253,15.512631072,0.0 73.913844317,15.512713709,0.0 73.913872667,15.512871612,0.0 73.913897776,15.512938382,0.0 73.914069318,15.513044417,0.0 73.914330485,15.513133531,0.0 73.91438076,15.513130371,0.0 73.914434301,15.513156884,0.0 73.914724843,15.51357239,0.0 73.91468858,15.514052411,0.0 73.914578063,15.51437557,0.0 73.915205444,15.514252889,0.0 73.915877763,15.5138102,0.0 73.916318351,15.513446898,0.0 73.917009093,15.513384638,0.0 73.917610152,15.513483413,0.0 73.917922577,15.513852297,0.0 73.91808319,15.513964682,0.0 73.918215347,15.514181966,0.0 73.918212027,15.514284753,0.0 73.918357262,15.514595293,0.0 73.918519866,15.515208906,0.0 73.918573362,15.515353042,0.0 73.91861043,15.515586185,0.0 73.91882447,15.516023911,0.0 73.918896515,15.516248589,0.0 73.918984949,15.51648599,0.0 73.919064699,15.516573442,0.0 73.919091984,15.516669883,0.0 73.91906081,15.516735572,0.0 73.919085366,15.516824594,0.0 73.919134511,15.516917863,0.0 73.919198971,15.516976169,0.0 73.919629253,15.517829367,0.0 73.919815976,15.518266022,0.0 73.919858526,15.51845784,0.0 73.919856254,15.518681431,0.0 73.919957761,15.51903434,0.0 73.920062603,15.519239956,0.0 73.920175144,15.519321592,0.0 73.920427401,15.519872715,0.0 73.920950613,15.520678258,0.0 73.921145025,15.521025902,0.0 73.921371147,15.521335409,0.0 73.921422427,15.521571735,0.0 73.921534951,15.521701056,0.0 73.921661652,15.521917275,0.0 73.921887775,15.52223102,0.0 73.92190628,15.522430246,0.0 73.92204284,15.522587126,0.0 73.922549852,15.522905208,0.0 73.922595729,15.522978342,0.0 73.922798957,15.523144253,0.0 73.922731075,15.523463192,0.0 73.922582331,15.523735477,0.0 73.922530954,15.523756652,0.0 73.922341864,15.52377778,0.0 73.922351666,15.523871035,0.0 73.922230224,15.524200552,0.0 73.922200708,15.524215377,0.0 73.922212705,15.52428532,0.0 73.922266221,15.524388127,0.0 73.922305565,15.524395559,0.0 73.922802899,15.524301422,0.0 73.922880834,15.526341328,0.0 73.922960833,15.528715033,0.0 73.922918181,15.528782838,0.0 73.922846043,15.528784932,0.0 73.92278912,15.52902016,0.0 73.922785634,15.529577549,0.0 73.92277577,15.529651723,0.0 73.922730923,15.52974284,0.0 73.922648373,15.529820167,0.0 73.922295273,15.529990121,0.0 73.921682038,15.530163691,0.0 73.921635043,15.530155197,0.0 73.921540408,15.530394651,0.0 73.921112535,15.530304955,0.0 73.921106461,15.530468673,0.0 73.920883219,15.531180167,0.0 73.920831676,15.531629451,0.0 73.920732195,15.531677101,0.0 73.92064896,15.532112598,0.0 73.920512088,15.532754713,0.0 73.920420211,15.532924228,0.0 73.920791696,15.533284652,0.0 73.920799329,15.53333128,0.0 73.920850664,15.533427729,0.0 73.921040803,15.533545951,0.0 73.92099962,15.53405723,0.0 73.921126801,15.534467371,0.0 73.921176878,15.534997757,0.0 73.921193254,15.535047567,0.0 73.921137382,15.535383995,0.0 73.921037858,15.535539202,0.0 73.920900635,15.535667373,0.0 73.920786876,15.535889865,0.0 73.92072341,15.536072636,0.0 73.920720645,15.536158999,0.0 73.920877999,15.536267672,0.0 73.921049596,15.536287867,0.0 73.921192794,15.536257188,0.0 73.921313035,15.536238157,0.0 73.92137314,15.536267849,0.0 73.921502033,15.536489367,0.0 73.921591634,15.536560397,0.0 73.921699636,15.537110408,0.0 73.921892982,15.537430499,0.0 73.922125597,15.537966777,0.0 73.922101487,15.538134197,0.0 73.922059916,15.538230613,0.0 73.921973533,15.538316416,0.0 73.921828084,15.538517703,0.0 73.921763532,15.53868299,0.0 73.921812684,15.538774139,0.0 73.921971145,15.538853671,0.0 73.92198647,15.538793275,0.0 73.92203566,15.538786934,0.0 73.922043281,15.538865353,0.0 73.922390888,15.538812492,0.0 73.922631321,15.538907947,0.0 73.922754815,15.538959915,0.0 73.923010554,15.539047957,0.0 73.923044418,15.539103602,0.0 73.922930692,15.539237082,0.0 73.922907754,15.539193627,0.0 73.922157857,15.539379866,0.0 73.921025344,15.539698426,0.0 73.920935719,15.539685678,0.0 73.920872397,15.539491735,0.0 73.920758705,15.539530902,0.0 73.920722565,15.539713153,0.0 73.920515909,15.539897463,0.0 73.920292867,15.540054214,0.0 73.919884986,15.540507608,0.0 73.919238799,15.541009658,0.0 73.919038655,15.541304175,0.0 73.918997123,15.541294623,0.0 73.918870173,15.541693014,0.0 73.918864674,15.541778846,0.0 73.918879922,15.541918729,0.0 73.918874404,15.542054365,0.0 73.918804411,15.54214971,0.0 73.918629466,15.542290582,0.0 73.918445809,15.542351976,0.0 73.918239235,15.54231587,0.0 73.918217267,15.542587139,0.0 73.918191005,15.542659187,0.0 73.91780499,15.543075496,0.0 73.917730606,15.543215346,0.0 73.917465994,15.543442018,0.0 73.917191552,15.543649611,0.0 73.916488547,15.544057321,0.0 73.915869772,15.544301871,0.0 73.915477355,15.544315497,0.0 73.915073934,15.544507143,0.0 73.914697909,15.544529251,0.0 73.914327397,15.544436916,0.0 73.914067296,15.544317071,0.0 73.913873895,15.544144269,0.0 73.91370342,15.544038234,0.0 73.913600742,15.543869706,0.0 73.912685723,15.542864773,0.0 73.912537121,15.542735434,0.0 73.912248677,15.542442849,0.0 73.911912189,15.54203368,0.0 73.911459863,15.541567242,0.0 73.911239123,15.541433634,0.0 73.911136432,15.541302193,0.0 73.910819541,15.541083771,0.0 73.910994637,15.54060063,0.0 73.910806683,15.54048293,0.0 73.910722567,15.540369511,0.0 73.91068766,15.540206307,0.0 73.910606851,15.540028248,0.0 73.910535842,15.539939207,0.0 73.910422191,15.539878759,0.0 73.91023529,15.53985643,0.0 73.910170796,15.539865941,0.0 73.910039587,15.539966557,0.0 73.909878337,15.540026362,0.0 73.909221487,15.539866082,0.0 73.909095813,15.539804569,0.0 73.908982134,15.53981088,0.0 73.908920942,15.539768468,0.0 73.90896142,15.539687949,0.0 73.908923167,15.539679456,0.0 73.908887068,15.539745141,0.0 73.90886193,15.539739832,0.0 73.908603805,15.54011909,0.0 73.908189616,15.53994725,0.0 73.907997294,15.539826367,0.0 73.907895669,15.539762744,0.0 73.90778975,15.539524273,0.0 73.907750484,15.539335634,0.0 73.907800862,15.539115243,0.0 73.907829306,15.539060151,0.0 73.907712411,15.538924464,0.0 73.907280802,15.53860638,0.0 73.907036062,15.538382686,0.0 73.907001672,15.538292599,0.0 73.907013767,15.538132063,0.0 73.906641167,15.537853211,0.0 73.90611234,15.537408982,0.0 73.905980906,15.538004464,0.0 73.905904396,15.538000193,0.0 73.906042365,15.537455578,0.0 73.90607526,15.537224583,0.0 73.906484387,15.536487222,0.0 73.906357747,15.536151251,0.0 73.906267174,15.535822713,0.0 73.906070621,15.535400878,0.0 73.906073977,15.535231332,0.0 73.90592924,15.533832498,0.0 73.906351685,15.532631004,0.0 73.906325474,15.532584367,0.0 73.906822463,15.530884857,0.0 73.90618655,15.53041621,0.0 73.906418834,15.529155294,0.0 73.906508644,15.528744177,0.0 73.906583058,15.52854287,0.0 73.906508743,15.528523765,0.0 73.906953154,15.52705524,0.0 73.906926946,15.527002245,0.0 73.907034185,15.526718297,0.0 73.907128241,15.526584817,0.0 73.907206958,15.526531867,0.0 73.907252872,15.526512812,0.0 73.90757437,15.526146298,0.0 73.907867412,15.525862427,0.0 73.908153957,15.525440795,0.0 73.908409758,15.525337053,0.0 73.908783818,15.524733192,0.0 73.908915154,15.524324211,0.0 73.909409425,15.523745831,0.0 73.909496953,15.52353817,0.0 73.909573633,15.523139762,0.0 73.909739921,15.522775301,0.0 73.909737792,15.52264602,0.0 73.909693058,15.522466916,0.0 73.909776466,15.521677491,0.0 73.909865008,15.521646796,0.0 73.909859604,15.521506916,0.0 73.910030195,15.52129611,0.0 73.910055465,15.520990933,0.0 73.910171425,15.520743016,0.0 73.910174735,15.520672019,0.0 73.910047979,15.520612625,0.0 73.910352117,15.519917601,0.0 73.910345668,15.519667514,0.0 73.910385117,15.519426983,0.0 73.910299962,15.519208655,0.0 73.910300059,15.518984003,0.0 73.910366929,15.518519892,0.0 73.910025941,15.518502798,0.0 73.909796529,15.518265337,0.0 73.909532343,15.517567961,0.0 73.909358679,15.517313567,0.0 73.909239542,15.517330473,0.0 73.909192573,15.517270052,0.0 73.909359811,15.517224554,0.0 73.909332918,15.516239043,0.0 73.909512384,15.515717755,0.0 73.910631672,15.51539183,0.0 73.911243933,15.514857999,0.0 73.911261456,15.514773231,0.0 73.911191589,15.5145867,0.0 73.910920652,15.514340746,0.0 73.910715324,15.514017461,0.0 73.910688051,15.513901945,0.0 73.91070674,15.51364657,0.0 73.910800799,15.513487656,0.0 73.911025954,15.513448539,0.0 73.911321017,15.513498462,0.0 73.91141065,15.513463529,0.0 73.912060912,15.513505116,0.0 73.912371363,15.513349467,0.0 73.912788976,15.513056101,0.0 73.912992382,15.512756292,0.0 73.913063526,15.512504117,0.0 73.912945697,15.512016618,0.0 73.913055582,15.511899567,0.0</coordinates>
                    </LinearRing>
                </outerBoundaryIs>
            </Polygon>
        </Placemark>
    </Document>
</kml>
