<?xml version="1.0" encoding="UTF-8"?>
<kml xmlns="http://www.opengis.net/kml/2.2" xmlns:gx="http://www.google.com/kml/ext/2.2">
    <Document id="5997">
        <Placemark id="5999">
            <ExtendedData>
                <Data name="id">
                    <value>119</value>
                </Data>
                <Data name="taluka">
                    <value>Tiswadi</value>
                </Data>
                <Data name="village">
                    <value>Morambi-O-Grande</value>
                </Data>
                <Data name="lg_code">
                    <value>626737</value>
                </Data>
                <Data name="dslr_code">
                    <value>40120180</value>
                </Data>
            </ExtendedData>
            <Polygon id="5998">
                <outerBoundaryIs>
                    <LinearRing id="6002">
                        <coordinates>73.875838871,15.470749282,0.0 73.876678627,15.471131228,0.0 73.876760758,15.47267417,0.0 73.87690474,15.473102361,0.0 73.876716396,15.473780452,0.0 73.876851562,15.4743358,0.0 73.876942702,15.475429442,0.0 73.877960455,15.476536312,0.0 73.877977876,15.47664229,0.0 73.877741689,15.476917676,0.0 73.878576259,15.47736744,0.0 73.878982323,15.478100962,0.0 73.879082698,15.478368056,0.0 73.879427889,15.478554748,0.0 73.879663532,15.479220356,0.0 73.879767952,15.480055441,0.0 73.879723824,15.480780239,0.0 73.879745615,15.480890457,0.0 73.879935464,15.481386491,0.0 73.880182165,15.481833809,0.0 73.880542249,15.482738971,0.0 73.878885278,15.483378118,0.0 73.877368137,15.484072432,0.0 73.877245626,15.484280062,0.0 73.877122893,15.484864937,0.0 73.876536608,15.485822561,0.0 73.874709276,15.486217855,0.0 73.872584622,15.48675072,0.0 73.871959399,15.48701316,0.0 73.871882908,15.487008877,0.0 73.871850098,15.487053364,0.0 73.871834495,15.487547166,0.0 73.871923965,15.48776975,0.0 73.871989502,15.487816414,0.0 73.872028846,15.487810079,0.0 73.872262259,15.488526557,0.0 73.872275295,15.488651607,0.0 73.872312416,15.488706732,0.0 73.872174688,15.488768113,0.0 73.872224888,15.488878349,0.0 73.872187718,15.48890376,0.0 73.872549967,15.489806816,0.0 73.872532377,15.489978474,0.0 73.872597787,15.490234954,0.0 73.872645655,15.490584676,0.0 73.872632219,15.491112388,0.0 73.872660543,15.491256521,0.0 73.872905129,15.491580923,0.0 73.872808606,15.492165811,0.0 73.872821634,15.492305696,0.0 73.872707692,15.492782486,0.0 73.872528338,15.493002796,0.0 73.872471242,15.49344359,0.0 73.87250159,15.493852643,0.0 73.872435931,15.49400096,0.0 73.87208187,15.493990159,0.0 73.871889503,15.494045151,0.0 73.871485028,15.494267449,0.0 73.871106861,15.494360481,0.0 73.870844606,15.494330657,0.0 73.870741909,15.49428821,0.0 73.870612966,15.494275418,0.0 73.870287256,15.494362121,0.0 73.869659975,15.494380826,0.0 73.869629458,15.494251528,0.0 73.86929947,15.494189871,0.0 73.869002186,15.494255396,0.0 73.868881807,15.494526602,0.0 73.868822675,15.494717309,0.0 73.868628038,15.494903697,0.0 73.868468413,15.495022286,0.0 73.868308723,15.495242604,0.0 73.868035326,15.495549748,0.0 73.86721099,15.496108765,0.0 73.866211755,15.496737612,0.0 73.866141743,15.496847776,0.0 73.866032407,15.496932484,0.0 73.865894677,15.496987504,0.0 73.865896839,15.497023535,0.0 73.865700068,15.497123025,0.0 73.865603975,15.497006402,0.0 73.865448776,15.497035979,0.0 73.865173248,15.497247746,0.0 73.865085857,15.497194709,0.0 73.864799737,15.496889347,0.0 73.864771302,15.496923239,0.0 73.864718885,15.496863865,0.0 73.864387533,15.497214416,0.0 73.86398083,15.497481205,0.0 73.863401603,15.497530653,0.0 73.86297531,15.497670267,0.0 73.862872549,15.497725306,0.0 73.862833235,15.497682895,0.0 73.862288684,15.498176366,0.0 73.860290729,15.49858203,0.0 73.860391094,15.498842774,0.0 73.860231517,15.498878702,0.0 73.859802809,15.499353166,0.0 73.859743667,15.499543871,0.0 73.859870103,15.500037761,0.0 73.860173677,15.500330043,0.0 73.86011319,15.500335492,0.0 73.859993051,15.500278956,0.0 73.859818144,15.500289557,0.0 73.859754541,15.50035846,0.0 73.859236884,15.500360227,0.0 73.859243951,15.500503333,0.0 73.859367623,15.500517467,0.0 73.859447127,15.501079292,0.0 73.859710372,15.501411441,0.0 73.859300487,15.501750656,0.0 73.859162681,15.502054536,0.0 73.859395891,15.503001512,0.0 73.856339421,15.502648163,0.0 73.856457792,15.501505078,0.0 73.855979004,15.501122578,0.0 73.855777595,15.500985655,0.0 73.854840336,15.501117277,0.0 73.854721081,15.501076642,0.0 73.854721081,15.501134945,0.0 73.854099186,15.501173813,0.0 73.854140705,15.50176479,0.0 73.853896894,15.501863728,0.0 73.853527644,15.501828393,0.0 73.853494076,15.502047469,0.0 73.85122204,15.501895529,0.0 73.850953495,15.501692353,0.0 73.850729118,15.501619033,0.0 73.850521526,15.501665852,0.0 73.850273298,15.50132487,0.0 73.850128425,15.501353138,0.0 73.84839613,15.501050141,0.0 73.850184478,15.501335873,0.0 73.850065702,15.500858938,0.0 73.849851956,15.500235703,0.0 73.849385379,15.500148492,0.0 73.849387692,15.499972587,0.0 73.849419542,15.499754315,0.0 73.849499477,15.499536076,0.0 73.849547555,15.499544586,0.0 73.84954437,15.499416363,0.0 73.849702929,15.499279772,0.0 73.849711696,15.499245869,0.0 73.849974118,15.499047887,0.0 73.849983978,15.499012924,0.0 73.849871618,15.498734153,0.0 73.849762445,15.498582545,0.0 73.849649942,15.498502992,0.0 73.849577989,15.498262397,0.0 73.849508099,15.49819241,0.0 73.849187958,15.498114836,0.0 73.84876941,15.498111371,0.0 73.848785891,15.49798846,0.0 73.848579342,15.497996796,0.0 73.848510517,15.497964958,0.0 73.848485493,15.497813407,0.0 73.848481285,15.497588753,0.0 73.848901184,15.497236167,0.0 73.848973404,15.497107996,0.0 73.848983357,15.496945872,0.0 73.849051288,15.496702192,0.0 73.849017433,15.496672498,0.0 73.849049403,15.496287857,0.0 73.849031933,15.496267711,0.0 73.849054697,15.496146393,0.0 73.849115895,15.496145376,0.0 73.849338849,15.496117976,0.0 73.849686342,15.496147883,0.0 73.850130537,15.496193751,0.0 73.850999324,15.496192748,0.0 73.851343536,15.49622689,0.0 73.851828781,15.496176351,0.0 73.852411245,15.496184158,0.0 73.853328139,15.496149799,0.0 73.853334782,15.496148852,0.0 73.853424316,15.496136087,0.0 73.853365443,15.495938948,0.0 73.8533775,15.495888091,0.0 73.853404852,15.495843603,0.0 73.853468272,15.495790661,0.0 73.853587491,15.495644504,0.0 73.853633456,15.495550223,0.0 73.853752851,15.495153983,0.0 73.854037912,15.494605258,0.0 73.854213251,15.494685909,0.0 73.854385628,15.494314605,0.0 73.854423398,15.49421661,0.0 73.854431631,15.494163101,0.0 73.85445787,15.494147223,0.0 73.854439875,15.494094758,0.0 73.854473335,15.493909336,0.0 73.854595431,15.493553894,0.0 73.854573868,15.493134777,0.0 73.853631597,15.49275638,0.0 73.853984515,15.492056166,0.0 73.854069098,15.491924582,0.0 73.854078598,15.491909992,0.0 73.854106473,15.491897295,0.0 73.854111931,15.491905246,0.0 73.854205406,15.491846495,0.0 73.854338218,15.49179148,0.0 73.854395072,15.49175019,0.0 73.854562915,15.491607773,0.0 73.85473627,15.491396481,0.0 73.854294427,15.491125973,0.0 73.854065593,15.490975347,0.0 73.854000078,15.490902186,0.0 73.853921404,15.490892067,0.0 73.85364433,15.490968181,0.0 73.853597345,15.490960732,0.0 73.853530203,15.490870085,0.0 73.853479724,15.49076451,0.0 73.85362266,15.490704307,0.0 73.853775771,15.490531681,0.0 73.854101757,15.490051861,0.0 73.854219962,15.489788079,0.0 73.854264801,15.489737244,0.0 73.854465796,15.489846523,0.0 73.854589393,15.489685534,0.0 73.854556634,15.489650543,0.0 73.854832247,15.489316925,0.0 73.854910899,15.489357244,0.0 73.855005009,15.489168683,0.0 73.855127557,15.488943052,0.0 73.855473182,15.488500332,0.0 73.855607895,15.488064892,0.0 73.855822416,15.48757758,0.0 73.855997638,15.48702984,0.0 73.85609856,15.486469335,0.0 73.855438595,15.486377772,0.0 73.855215724,15.48630239,0.0 73.855268174,15.486306663,0.0 73.855443066,15.486233659,0.0 73.855561326,15.485886161,0.0 73.855569082,15.485731453,0.0 73.855491502,15.485722925,0.0 73.855536493,15.485452736,0.0 73.855579348,15.485110488,0.0 73.855378875,15.484256256,0.0 73.855189808,15.48350164,0.0 73.855140777,15.483295501,0.0 73.855121663,15.483283832,0.0 73.855069196,15.483305521,0.0 73.855049668,15.48310205,0.0 73.854975478,15.482934572,0.0 73.855148156,15.482898656,0.0 73.855143989,15.482606181,0.0 73.855225095,15.48225654,0.0 73.855417525,15.482101953,0.0 73.855660276,15.481866862,0.0 73.856108527,15.481536534,0.0 73.856189455,15.481441216,0.0 73.856226705,15.481301362,0.0 73.85630112,15.481142458,0.0 73.856889171,15.48090971,0.0 73.857063894,15.481077252,0.0 73.857470316,15.481185602,0.0 73.857566668,15.480905908,0.0 73.857761421,15.480545742,0.0 73.857800843,15.480422845,0.0 73.857840529,15.479914224,0.0 73.857875506,15.479899411,0.0 73.857899787,15.479547613,0.0 73.857941352,15.479486178,0.0 73.858122757,15.47946722,0.0 73.860479779,15.479448584,0.0 73.86074861,15.479418023,0.0 73.861160599,15.479369536,0.0 73.861015228,15.479428787,0.0 73.861009722,15.479491305,0.0 73.861186745,15.479489297,0.0 73.861592345,15.479190721,0.0 73.862475308,15.47912769,0.0 73.865176619,15.478976758,0.0 73.865071956,15.478607926,0.0 73.866318105,15.477913531,0.0 73.867096298,15.477634244,0.0 73.867022361,15.477057734,0.0 73.86721956,15.476256734,0.0 73.867403373,15.475883836,0.0 73.867587282,15.475358345,0.0 73.867815226,15.474315755,0.0 73.867356768,15.473569466,0.0 73.866321582,15.472496446,0.0 73.865604983,15.472178108,0.0 73.864787671,15.472012752,0.0 73.864765703,15.471801422,0.0 73.866234512,15.471232678,0.0 73.866828401,15.470923717,0.0 73.866988483,15.470749562,0.0 73.867278229,15.470163003,0.0 73.868517307,15.470285497,0.0 73.868295875,15.469562309,0.0 73.868474905,15.469538752,0.0 73.869186315,15.468956904,0.0 73.870276168,15.467820404,0.0 73.873234826,15.470688683,0.0 73.87387938,15.470579249,0.0 73.875838871,15.470749282,0.0</coordinates>
                    </LinearRing>
                </outerBoundaryIs>
            </Polygon>
        </Placemark>
    </Document>
</kml>
