<?xml version="1.0" encoding="UTF-8"?>
<kml xmlns="http://www.opengis.net/kml/2.2" xmlns:gx="http://www.google.com/kml/ext/2.2">
    <Document id="6039">
        <Placemark id="6041">
            <ExtendedData>
                <Data name="id">
                    <value>112</value>
                </Data>
                <Data name="taluka">
                    <value>Tiswadi</value>
                </Data>
                <Data name="village">
                    <value>Naroa</value>
                </Data>
                <Data name="lg_code">
                    <value>924822</value>
                </Data>
                <Data name="dslr_code">
                    <value>00006700</value>
                </Data>
            </ExtendedData>
            <Polygon id="6040">
                <outerBoundaryIs>
                    <LinearRing id="6044">
                        <coordinates>73.922798957,15.523144253,0.0 73.923233864,15.52338813,0.0 73.923472,15.523737906,0.0 73.923299261,15.523875604,0.0 73.923358229,15.524017622,0.0 73.923415067,15.524007045,0.0 73.924011677,15.524407809,0.0 73.924160267,15.524554096,0.0 73.92539503,15.525351394,0.0 73.927335754,15.526462583,0.0 73.927370697,15.526553727,0.0 73.92741221,15.526610963,0.0 73.92864932,15.527014044,0.0 73.928848203,15.527126434,0.0 73.929001178,15.527249406,0.0 73.92912795,15.527287595,0.0 73.929217586,15.527255833,0.0 73.929263483,15.527277041,0.0 73.929501638,15.527614095,0.0 73.929580324,15.527639552,0.0 73.929777076,15.527595109,0.0 73.929973775,15.527705377,0.0 73.930183628,15.527705444,0.0 73.93066444,15.528004424,0.0 73.93132885,15.528377639,0.0 73.931385667,15.528432759,0.0 73.93142935,15.52854086,0.0 73.931435879,15.528627756,0.0 73.931388821,15.528807886,0.0 73.931326471,15.52896046,0.0 73.931268476,15.529160721,0.0 73.931116409,15.529587724,0.0 73.930904247,15.529952186,0.0 73.930803677,15.529995602,0.0 73.930652721,15.530363262,0.0 73.930179222,15.531052963,0.0 73.929812906,15.531529701,0.0 73.92940506,15.531990531,0.0 73.929273887,15.532027577,0.0 73.929165649,15.532115496,0.0 73.929076006,15.532166332,0.0 73.928982002,15.532181137,0.0 73.92896123,15.532194906,0.0 73.9289962,15.532212932,0.0 73.92908143,15.532283957,0.0 73.928999436,15.532339034,0.0 73.928735944,15.53256466,0.0 73.928282292,15.532723465,0.0 73.927970753,15.532814496,0.0 73.927703007,15.532696784,0.0 73.927623215,15.532704176,0.0 73.927601344,15.532734899,0.0 73.927692053,15.53276566,0.0 73.927501699,15.533254108,0.0 73.927458972,15.533539147,0.0 73.927220468,15.534185471,0.0 73.927165605,15.534790529,0.0 73.927188444,15.535116917,0.0 73.927283444,15.535380807,0.0 73.92729868,15.535570494,0.0 73.927271335,15.535624529,0.0 73.927127034,15.535689122,0.0 73.926884362,15.535746264,0.0 73.926217527,15.536002484,0.0 73.926076516,15.536032107,0.0 73.926002178,15.536065992,0.0 73.925921256,15.536174052,0.0 73.925768194,15.536278908,0.0 73.925562624,15.53650455,0.0 73.925352703,15.536672968,0.0 73.925183274,15.536699402,0.0 73.925198558,15.536748153,0.0 73.925257555,15.536824469,0.0 73.925249889,15.536864735,0.0 73.925056341,15.53709038,0.0 73.925001679,15.537118973,0.0 73.924932774,15.537240812,0.0 73.924928358,15.537361614,0.0 73.924910864,15.537377503,0.0 73.924883369,15.537844811,0.0 73.924634067,15.53809269,0.0 73.924470076,15.538190124,0.0 73.924116899,15.538535457,0.0 73.923911346,15.538704935,0.0 73.923927732,15.538730373,0.0 73.923633641,15.538900879,0.0 73.923505734,15.538959117,0.0 73.923258671,15.539055461,0.0 73.923231346,15.539054392,0.0 73.923281569,15.539207003,0.0 73.923235657,15.539219703,0.0 73.923175596,15.539068149,0.0 73.923103447,15.539088257,0.0 73.923079406,15.539074473,0.0 73.923069583,15.539034202,0.0 73.923010554,15.539047957,0.0 73.922754815,15.538959915,0.0 73.922631321,15.538907947,0.0 73.922390888,15.538812492,0.0 73.922043281,15.538865353,0.0 73.92203566,15.538786934,0.0 73.92198647,15.538793275,0.0 73.921971145,15.538853671,0.0 73.921812684,15.538774139,0.0 73.921763532,15.53868299,0.0 73.921828084,15.538517703,0.0 73.921973533,15.538316416,0.0 73.922059916,15.538230613,0.0 73.922101487,15.538134197,0.0 73.922125597,15.537966777,0.0 73.921892982,15.537430499,0.0 73.921699636,15.537110408,0.0 73.921591634,15.536560397,0.0 73.921502033,15.536489367,0.0 73.92137314,15.536267849,0.0 73.921313035,15.536238157,0.0 73.921192794,15.536257188,0.0 73.921049596,15.536287867,0.0 73.920877999,15.536267672,0.0 73.920720645,15.536158999,0.0 73.92072341,15.536072636,0.0 73.920786876,15.535889865,0.0 73.920900635,15.535667373,0.0 73.921037858,15.535539202,0.0 73.921137382,15.535383995,0.0 73.921193254,15.535047567,0.0 73.921176878,15.534997757,0.0 73.921126801,15.534467371,0.0 73.92099962,15.53405723,0.0 73.921040803,15.533545951,0.0 73.920850664,15.533427729,0.0 73.920799329,15.53333128,0.0 73.920791696,15.533284652,0.0 73.920420211,15.532924228,0.0 73.920512088,15.532754713,0.0 73.92064896,15.532112598,0.0 73.920732195,15.531677101,0.0 73.920831676,15.531629451,0.0 73.920883219,15.531180167,0.0 73.921106461,15.530468673,0.0 73.921112535,15.530304955,0.0 73.921540408,15.530394651,0.0 73.921635043,15.530155197,0.0 73.921682038,15.530163691,0.0 73.922295273,15.529990121,0.0 73.922648373,15.529820167,0.0 73.922730923,15.52974284,0.0 73.92277577,15.529651723,0.0 73.922785634,15.529577549,0.0 73.92278912,15.52902016,0.0 73.922846043,15.528784932,0.0 73.922918181,15.528782838,0.0 73.922960833,15.528715033,0.0 73.922880834,15.526341328,0.0 73.922802899,15.524301422,0.0 73.922305565,15.524395559,0.0 73.922266221,15.524388127,0.0 73.922212705,15.52428532,0.0 73.922200708,15.524215377,0.0 73.922230224,15.524200552,0.0 73.922351666,15.523871035,0.0 73.922341864,15.52377778,0.0 73.922530954,15.523756652,0.0 73.922582331,15.523735477,0.0 73.922731075,15.523463192,0.0 73.922798957,15.523144253,0.0</coordinates>
                    </LinearRing>
                </outerBoundaryIs>
            </Polygon>
        </Placemark>
    </Document>
</kml>
