<?xml version="1.0" encoding="UTF-8"?>
<kml xmlns="http://www.opengis.net/kml/2.2" xmlns:gx="http://www.google.com/kml/ext/2.2">
    <Document id="6067">
        <Placemark id="6069">
            <ExtendedData>
                <Data name="id">
                    <value>105</value>
                </Data>
                <Data name="taluka">
                    <value>Tiswadi</value>
                </Data>
                <Data name="village">
                    <value>Neura-O-Grande</value>
                </Data>
                <Data name="lg_code">
                    <value>626726</value>
                </Data>
                <Data name="dslr_code">
                    <value>00008400</value>
                </Data>
            </ExtendedData>
            <Polygon id="6068">
                <outerBoundaryIs>
                    <LinearRing id="6072">
                        <coordinates>73.910566963,15.450035584,0.0 73.910601174,15.450027735,0.0 73.911368582,15.450085055,0.0 73.911427458,15.449863363,0.0 73.911378654,15.449435749,0.0 73.911558374,15.449179264,0.0 73.911607504,15.448837208,0.0 73.912257358,15.448862805,0.0 73.912946313,15.449094295,0.0 73.913256432,15.449379479,0.0 73.914001186,15.448933171,0.0 73.91393915,15.44890464,0.0 73.914112553,15.448119201,0.0 73.914566485,15.448100372,0.0 73.914582905,15.447875495,0.0 73.91540267,15.447650926,0.0 73.915781485,15.447647903,0.0 73.916604564,15.447296636,0.0 73.917218691,15.446821761,0.0 73.917375682,15.446210518,0.0 73.919250098,15.446325234,0.0 73.920693467,15.446404939,0.0 73.921114687,15.446522281,0.0 73.922055159,15.446589129,0.0 73.923488774,15.446561121,0.0 73.924001456,15.446615143,0.0 73.924461931,15.446551953,0.0 73.92508902,15.446298776,0.0 73.925421953,15.446745487,0.0 73.9255003,15.44682153,0.0 73.925784391,15.446872303,0.0 73.925960696,15.446980053,0.0 73.927064381,15.447252812,0.0 73.927257254,15.446676415,0.0 73.927502525,15.445669272,0.0 73.92759421,15.444953477,0.0 73.927937211,15.444624182,0.0 73.927999357,15.444335972,0.0 73.928289941,15.4444881,0.0 73.928858065,15.444744839,0.0 73.929009938,15.444675206,0.0 73.929519344,15.444752969,0.0 73.930546385,15.44470895,0.0 73.930412389,15.445031979,0.0 73.930183704,15.445310636,0.0 73.930219557,15.445516526,0.0 73.930363212,15.445608425,0.0 73.930901998,15.445725786,0.0 73.93121544,15.445893754,0.0 73.931984415,15.446125209,0.0 73.932441754,15.445650243,0.0 73.93317335,15.445333728,0.0 73.933917946,15.445207257,0.0 73.934812863,15.444745086,0.0 73.93523427,15.444273271,0.0 73.93557404,15.443788763,0.0 73.935946452,15.443342271,0.0 73.93610333,15.442914722,0.0 73.936005597,15.442154525,0.0 73.935923998,15.442024639,0.0 73.935855702,15.441112417,0.0 73.935395592,15.44004488,0.0 73.935369505,15.43992768,0.0 73.935519773,15.439750351,0.0 73.93558209,15.438866672,0.0 73.935670378,15.438480279,0.0 73.93567045,15.438245894,0.0 73.935654196,15.438008336,0.0 73.935553017,15.437843603,0.0 73.935389766,15.437767539,0.0 73.934135985,15.437254056,0.0 73.9339923,15.437266683,0.0 73.933737629,15.437152582,0.0 73.933525413,15.437028991,0.0 73.932454527,15.436452206,0.0 73.932154144,15.436331754,0.0 73.931801431,15.436464676,0.0 73.931530273,15.436847844,0.0 73.931484466,15.437123391,0.0 73.931441859,15.437598484,0.0 73.931356873,15.437851847,0.0 73.931392619,15.438383976,0.0 73.931128141,15.438301543,0.0 73.930916047,15.437810535,0.0 73.930791999,15.437690136,0.0 73.930753035,15.437021808,0.0 73.930811871,15.436847621,0.0 73.931089567,15.436448619,0.0 73.931266039,15.436030581,0.0 73.931305256,15.435935572,0.0 73.931261253,15.435691671,0.0 73.931112754,15.435450904,0.0 73.9309936,15.435347928,0.0 73.930565901,15.435126079,0.0 73.930005961,15.434880431,0.0 73.929832929,15.434772686,0.0 73.929604459,15.434446375,0.0 73.92908867,15.434009113,0.0 73.928714805,15.433936144,0.0 73.928597273,15.433866424,0.0 73.928567902,15.433815736,0.0 73.928561436,15.433627276,0.0 73.928199149,15.433120379,0.0 73.928084886,15.433045909,0.0 73.92787435,15.432805121,0.0 73.927853217,15.432537471,0.0 73.927753617,15.432554859,0.0 73.927515331,15.432299808,0.0 73.927339082,15.432063781,0.0 73.926855985,15.431550508,0.0 73.926934367,15.431514109,0.0 73.926710761,15.431306573,0.0 73.926558992,15.431105394,0.0 73.926454534,15.431008755,0.0 73.926234238,15.430677691,0.0 73.926067759,15.430524019,0.0 73.92600085,15.43043531,0.0 73.925867075,15.4301407,0.0 73.925588024,15.429754187,0.0 73.925501554,15.429581536,0.0 73.925335155,15.429206146,0.0 73.925274828,15.428978075,0.0 73.925100115,15.429027111,0.0 73.924920544,15.428963703,0.0 73.924631541,15.429020617,0.0 73.924193981,15.429031554,0.0 73.92344777,15.429253014,0.0 73.92330085,15.429195951,0.0 73.923343314,15.429157957,0.0 73.923305842,15.428939395,0.0 73.923341778,15.428893481,0.0 73.923363085,15.428670189,0.0 73.923266775,15.428622645,0.0 73.92355748,15.42837569,0.0 73.92379262,15.428275999,0.0 73.924210607,15.428206459,0.0 73.924391827,15.428222358,0.0 73.92448324,15.428266732,0.0 73.924858749,15.428279529,0.0 73.925580272,15.428599677,0.0 73.925614572,15.428560096,0.0 73.925605211,15.427340655,0.0 73.925680548,15.426680282,0.0 73.925773833,15.426048423,0.0 73.925870433,15.4252772,0.0 73.925857498,15.424920866,0.0 73.925634015,15.424393423,0.0 73.925531282,15.424046561,0.0 73.924837632,15.423441359,0.0 73.924524317,15.423027911,0.0 73.923959557,15.422674556,0.0 73.923717959,15.422595289,0.0 73.92361839,15.422538242,0.0 73.923373523,15.422465308,0.0 73.923089685,15.421819065,0.0 73.92294933,15.421685987,0.0 73.921999411,15.420982498,0.0 73.921460786,15.420624395,0.0 73.921114777,15.420348711,0.0 73.919531907,15.418390705,0.0 73.918102083,15.417566665,0.0 73.917749634,15.417088261,0.0 73.917459143,15.416815759,0.0 73.916923842,15.416353123,0.0 73.916355912,15.415842962,0.0 73.915595337,15.415342229,0.0 73.915392975,15.415155277,0.0 73.915148149,15.415012652,0.0 73.914315814,15.414350351,0.0 73.914181858,15.414562514,0.0 73.914054462,15.414698661,0.0 73.913976115,15.414660623,0.0 73.914074095,15.414597313,0.0 73.914279996,15.414112784,0.0 73.914436763,15.414008321,0.0 73.914528211,15.413948176,0.0 73.914609871,15.413869023,0.0 73.91426063,15.41356482,0.0 73.913898262,15.413422148,0.0 73.913447628,15.413545501,0.0 73.912898985,15.413801844,0.0 73.911840723,15.414675623,0.0 73.911647958,15.414966945,0.0 73.911625025,15.415150643,0.0 73.911403017,15.415103044,0.0 73.911615462,15.414599516,0.0 73.91129559,15.414342831,0.0 73.911116021,15.414314253,0.0 73.910492288,15.414542054,0.0 73.910325728,15.41463384,0.0 73.910015457,15.414830092,0.0 73.909734626,15.414902828,0.0 73.908970749,15.414531933,0.0 73.907854064,15.414569482,0.0 73.907415331,15.414824491,0.0 73.907132124,15.415357858,0.0 73.907223769,15.415491634,0.0 73.907864509,15.415720133,0.0 73.90829795,15.415974545,0.0 73.908436934,15.416026369,0.0 73.908860954,15.416257224,0.0 73.9091507,15.41650928,0.0 73.909442802,15.4167048,0.0 73.909789084,15.416733068,0.0 73.910045851,15.416820227,0.0 73.910809086,15.41693801,0.0 73.910936291,15.416926232,0.0 73.911299063,15.417022814,0.0 73.912161235,15.417515147,0.0 73.912714816,15.417811961,0.0 73.913355556,15.418462123,0.0 73.913935048,15.418575195,0.0 73.914448582,15.418761292,0.0 73.914823133,15.418881431,0.0 73.9150799,15.419131131,0.0 73.915084611,15.419465635,0.0 73.914976251,15.419611686,0.0 73.914917359,15.419844897,0.0 73.914752463,15.420040416,0.0 73.914620546,15.420158199,0.0 73.914481562,15.420221802,0.0 73.914382624,15.420217091,0.0 73.914337866,15.420231225,0.0 73.914201238,15.420417322,0.0 73.914057543,15.420551595,0.0 73.913910314,15.420575152,0.0 73.913652369,15.420769494,0.0 73.9135923,15.420781272,0.0 73.913463916,15.4209073,0.0 73.913422692,15.421009771,0.0 73.913247195,15.421171134,0.0 73.913022229,15.421463236,0.0 73.913011629,15.421592797,0.0 73.912953915,15.42168349,0.0 73.912920936,15.421862521,0.0 73.912780774,15.422343075,0.0 73.912715993,15.422473815,0.0 73.912661813,15.42268818,0.0 73.912569942,15.42296497,0.0 73.912453337,15.424252339,0.0 73.912541675,15.424393679,0.0 73.91250045,15.424596266,0.0 73.912353222,15.424737605,0.0 73.912214238,15.424744672,0.0 73.911999872,15.424715227,0.0 73.911798463,15.424714049,0.0 73.911719549,15.424763518,0.0 73.911654768,15.424902502,0.0 73.911679502,15.424974349,0.0 73.911640634,15.425098022,0.0 73.911554652,15.42513689,0.0 73.911324975,15.425152202,0.0 73.911336754,15.425219338,0.0 73.910875044,15.425312387,0.0 73.910896245,15.425452549,0.0 73.910473404,15.425571509,0.0 73.910462803,15.425520863,0.0 73.910367399,15.425590355,0.0 73.910200147,15.42566338,0.0 73.910375644,15.426066198,0.0 73.910439247,15.42607091,0.0 73.910412157,15.426387157,0.0 73.910187191,15.426682204,0.0 73.909936313,15.427175715,0.0 73.909538206,15.427375946,0.0 73.90928615,15.427624468,0.0 73.909157767,15.428029642,0.0 73.909002293,15.428026109,0.0 73.908321507,15.428238118,0.0 73.908269682,15.42854671,0.0 73.907400443,15.428457195,0.0 73.907237903,15.428803477,0.0 73.907061228,15.428916549,0.0 73.906958757,15.429044932,0.0 73.906405176,15.429576134,0.0 73.9061967,15.429810522,0.0 73.906250881,15.429823478,0.0 73.906339218,15.429862347,0.0 73.906399287,15.429908282,0.0 73.906485269,15.430351147,0.0 73.906478202,15.430394726,0.0 73.906438156,15.430421816,0.0 73.906394576,15.430493664,0.0 73.906398109,15.430600847,0.0 73.906356885,15.430715096,0.0 73.906297994,15.430777521,0.0 73.905916377,15.430722163,0.0 73.90583864,15.430888237,0.0 73.905633697,15.431053134,0.0 73.905898709,15.431172095,0.0 73.906084806,15.431470086,0.0 73.906067139,15.431622026,0.0 73.906114252,15.432114359,0.0 73.906156654,15.432905861,0.0 73.906255592,15.433657317,0.0 73.906612264,15.435199644,0.0 73.90731633,15.438056906,0.0 73.907567142,15.439479159,0.0 73.908173811,15.441104271,0.0 73.90813419,15.442092473,0.0 73.908277715,15.442453612,0.0 73.908231762,15.442988878,0.0 73.90839404,15.445266282,0.0 73.908720195,15.446191288,0.0 73.907981315,15.448123076,0.0 73.910240591,15.449390948,0.0 73.910503313,15.449772722,0.0 73.910566963,15.450035584,0.0</coordinates>
                    </LinearRing>
                </outerBoundaryIs>
            </Polygon>
        </Placemark>
    </Document>
</kml>
