<?xml version="1.0" encoding="UTF-8"?>
<kml xmlns="http://www.opengis.net/kml/2.2" xmlns:gx="http://www.google.com/kml/ext/2.2">
    <Document id="6122">
        <Placemark id="6124">
            <ExtendedData>
                <Data name="id">
                    <value>118</value>
                </Data>
                <Data name="taluka">
                    <value>Tiswadi</value>
                </Data>
                <Data name="village">
                    <value>Renovadi</value>
                </Data>
                <Data name="lg_code">
                    <value>626738</value>
                </Data>
                <Data name="dslr_code">
                    <value>40120190</value>
                </Data>
            </ExtendedData>
            <Polygon id="6123">
                <outerBoundaryIs>
                    <LinearRing id="6127">
                        <coordinates>73.853479724,15.49076451,0.0 73.853530203,15.490870085,0.0 73.853597345,15.490960732,0.0 73.85364433,15.490968181,0.0 73.853921404,15.490892067,0.0 73.854000078,15.490902186,0.0 73.854065593,15.490975347,0.0 73.854294427,15.491125973,0.0 73.85473627,15.491396481,0.0 73.854562915,15.491607773,0.0 73.854395072,15.49175019,0.0 73.854338218,15.49179148,0.0 73.854205406,15.491846495,0.0 73.854111931,15.491905246,0.0 73.854106473,15.491897295,0.0 73.854078598,15.491909992,0.0 73.854046873,15.491958717,0.0 73.853984515,15.492056166,0.0 73.853631597,15.49275638,0.0 73.854573868,15.493134777,0.0 73.854485103,15.493490771,0.0 73.854595431,15.493553894,0.0 73.854473335,15.493909336,0.0 73.854439875,15.494094758,0.0 73.85445787,15.494147223,0.0 73.854431631,15.494163101,0.0 73.854423398,15.49421661,0.0 73.854385628,15.494314605,0.0 73.854213251,15.494685909,0.0 73.854037912,15.494605258,0.0 73.853832736,15.494997203,0.0 73.853752851,15.495153983,0.0 73.853633456,15.495550223,0.0 73.853587491,15.495644504,0.0 73.853468272,15.495790661,0.0 73.853404852,15.495843603,0.0 73.8533775,15.495888091,0.0 73.853365443,15.495938948,0.0 73.853424316,15.496136087,0.0 73.853328139,15.496149799,0.0 73.852940179,15.496166496,0.0 73.852411245,15.496184158,0.0 73.851828781,15.496176351,0.0 73.851343536,15.49622689,0.0 73.850999324,15.496192748,0.0 73.850130537,15.496193751,0.0 73.849686342,15.496147883,0.0 73.849702855,15.495980465,0.0 73.848910685,15.495816735,0.0 73.848843447,15.495106705,0.0 73.848893758,15.495048457,0.0 73.848996647,15.494821756,0.0 73.849060202,15.494584432,0.0 73.849271851,15.493566226,0.0 73.84939434,15.493433849,0.0 73.849555038,15.493356602,0.0 73.849815133,15.493344063,0.0 73.849965124,15.492958442,0.0 73.850072371,15.492746579,0.0 73.850554642,15.492261572,0.0 73.850777689,15.492097473,0.0 73.850788631,15.492078406,0.0 73.850998532,15.491959863,0.0 73.85121419,15.491430699,0.0 73.851384706,15.491372532,0.0 73.851449216,15.49132277,0.0 73.851545476,15.491190375,0.0 73.851685518,15.490959459,0.0 73.851971073,15.490483854,0.0 73.852042078,15.490520991,0.0 73.852333047,15.490113209,0.0 73.853180092,15.490690238,0.0 73.853321015,15.490754972,0.0 73.853433005,15.490784187,0.0 73.853479724,15.49076451,0.0</coordinates>
                    </LinearRing>
                </outerBoundaryIs>
            </Polygon>
        </Placemark>
    </Document>
</kml>
