<?xml version="1.0" encoding="UTF-8"?>
<kml xmlns="http://www.opengis.net/kml/2.2" xmlns:gx="http://www.google.com/kml/ext/2.2">
    <Document id="6136">
        <Placemark id="6138">
            <ExtendedData>
                <Data name="id">
                    <value>101</value>
                </Data>
                <Data name="taluka">
                    <value>Tiswadi</value>
                </Data>
                <Data name="village">
                    <value>Siridao</value>
                </Data>
                <Data name="lg_code">
                    <value>626724</value>
                </Data>
                <Data name="dslr_code">
                    <value>00008200</value>
                </Data>
            </ExtendedData>
            <Polygon id="6137">
                <outerBoundaryIs>
                    <LinearRing id="6141">
                        <coordinates>73.853709619,15.447041008,0.0 73.853775577,15.446666458,0.0 73.853719042,15.44655103,0.0 73.854797935,15.446282485,0.0 73.85513715,15.445790152,0.0 73.855662462,15.444671212,0.0 73.855874472,15.443955091,0.0 73.855827359,15.44384202,0.0 73.855926296,15.443731304,0.0 73.856797891,15.443512227,0.0 73.857372673,15.443566407,0.0 73.857749578,15.443321418,0.0 73.857869717,15.443109409,0.0 73.858192443,15.443050517,0.0 73.858463344,15.442913889,0.0 73.858640018,15.442569962,0.0 73.858852028,15.442471025,0.0 73.859092305,15.442461602,0.0 73.859228934,15.442532272,0.0 73.859733045,15.442395643,0.0 73.860345517,15.44063832,0.0 73.860406764,15.440143631,0.0 73.860566949,15.43967721,0.0 73.860727134,15.437302703,0.0 73.860769536,15.436341594,0.0 73.860618774,15.436280346,0.0 73.860750691,15.435714988,0.0 73.860972123,15.435380484,0.0 73.861419699,15.434179096,0.0 73.861561039,15.43419323,0.0 73.862187644,15.433166162,0.0 73.86245619,15.431404127,0.0 73.862423211,15.431177984,0.0 73.862470324,15.431017799,0.0 73.862588107,15.430956552,0.0 73.862555128,15.430070823,0.0 73.86224418,15.429679783,0.0 73.862126397,15.429510175,0.0 73.861909676,15.42942066,0.0 73.86227716,15.429095579,0.0 73.862870786,15.428897703,0.0 73.864001504,15.429072022,0.0 73.865622199,15.429726896,0.0 73.865636333,15.429981308,0.0 73.866041507,15.429920061,0.0 73.867247605,15.430834057,0.0 73.867949592,15.431281633,0.0 73.869216938,15.431677384,0.0 73.869631535,15.43191295,0.0 73.87068216,15.432190918,0.0 73.871351167,15.432280433,0.0 73.872349968,15.433048379,0.0 73.872618513,15.432186207,0.0 73.874338146,15.431719786,0.0 73.877909329,15.430716274,0.0 73.878974088,15.433142605,0.0 73.879393396,15.433166162,0.0 73.878813903,15.43394353,0.0 73.87894582,15.435220299,0.0 73.878182586,15.436157852,0.0 73.877424063,15.436737345,0.0 73.876260366,15.437166075,0.0 73.87351602,15.437349817,0.0 73.871061421,15.437175498,0.0 73.869737539,15.436482933,0.0 73.868079154,15.43486695,0.0 73.866769406,15.434207364,0.0 73.864997949,15.434749166,0.0 73.864442012,15.435239144,0.0 73.863947324,15.436087182,0.0 73.863702335,15.436977622,0.0 73.863773005,15.438725523,0.0 73.864008571,15.439507603,0.0 73.864489126,15.440553516,0.0 73.866585664,15.442461602,0.0 73.866840076,15.442838508,0.0 73.866844787,15.442956291,0.0 73.867612733,15.443964514,0.0 73.868159246,15.44459112,0.0 73.868522018,15.444633522,0.0 73.86863509,15.444723037,0.0 73.869902436,15.444652367,0.0 73.871113246,15.444256616,0.0 73.871117957,15.444553429,0.0 73.870463083,15.445523962,0.0 73.870043775,15.445764239,0.0 73.869662158,15.445999805,0.0 73.869638602,15.446174124,0.0 73.868159246,15.447469738,0.0 73.867987283,15.447813665,0.0 73.867860077,15.447750062,0.0 73.86753264,15.448042164,0.0 73.867202848,15.448289508,0.0 73.866917813,15.449036253,0.0 73.866788251,15.449236484,0.0 73.866573886,15.449330711,0.0 73.866347743,15.449335422,0.0 73.865890744,15.449495607,0.0 73.865881322,15.44936369,0.0 73.863975592,15.449243551,0.0 73.863306584,15.449219995,0.0 73.861860208,15.448715883,0.0 73.861612863,15.448499162,0.0 73.860684732,15.44870646,0.0 73.859563438,15.448605167,0.0 73.859429165,15.448565121,0.0 73.858614106,15.448301287,0.0 73.858244267,15.44826124,0.0 73.8577378,15.44790318,0.0 73.856809669,15.447613434,0.0 73.856143017,15.447373156,0.0 73.85583207,15.446737128,0.0 73.854171329,15.447078698,0.0 73.853796778,15.447081054,0.0 73.853709619,15.447041008,0.0</coordinates>
                    </LinearRing>
                </outerBoundaryIs>
            </Polygon>
        </Placemark>
    </Document>
</kml>
