<?xml version="1.0" encoding="UTF-8"?>
<kml xmlns="http://www.opengis.net/kml/2.2" xmlns:gx="http://www.google.com/kml/ext/2.2">
    <Document id="25459">
        <Placemark id="25461">
            <ExtendedData>
                <Data name="direction">
                    <value>https://maps.google.com?q=15.70961,73.944&amp;t=h</value>
                </Data>
                <Data name="id">
                    <value>6060</value>
                </Data>
                <Data name="name">
                    <value>गोरणीचे तेम</value>
                </Data>
                <Data name="taluka">
                    <value>Pernem</value>
                </Data>
                <Data name="syno">
                    <value>134</value>
                </Data>
                <Data name="subdiv">
                    <value>0</value>
                </Data>
                <Data name="village">
                    <value>Ibrampur</value>
                </Data>
                <Data name="latitude">
                    <value>15.70961</value>
                </Data>
                <Data name="longitude">
                    <value>73.944</value>
                </Data>
                <Data name="photo_1">
                    <value>DCIM/20230413090643805.jpg</value>
                </Data>
                <Data name="photo_2">
                    <value>DCIM/20230413090653218.jpg</value>
                </Data>
                <Data name="constituency">
                    <value>02 - Pernem</value>
                </Data>
                <Data name="status">
                    <value>Completed</value>
                </Data>
                <Data name="panchayat">
                    <value>Ibrampur</value>
                </Data>
                <Data name="wb_type">
                    <value>Pond</value>
                </Data>
                <Data name="owner_type">
                    <value>Communidade / Public</value>
                </Data>
                <Data name="purpose">
                    <value>Storage</value>
                </Data>
                <Data name="construction">
                    <value>Natural</value>
                </Data>
                <Data name="condition">
                    <value>Needs Maintenance</value>
                </Data>
                <Data name="print_order">
                    <value>026</value>
                </Data>
                <Data name="wb_id">
                    <value>Pe/Ibra/08</value>
                </Data>
                <Data name="storage_capacity">
                    <value>1007.0</value>
                </Data>
                <Data name="wb_surface_id">
                    <value>5509</value>
                </Data>
                <Data name="created_at">
                    <value>2023-04-13 00:00:00</value>
                </Data>
                <Data name="updated_at">
                    <value>2023-07-22 14:03:14.307690</value>
                </Data>
                <Data name="book_id">
                    <value>1</value>
                </Data>
                <Data name="owners">
                    <value>Govt.  of  Goa:  Executive  Engineer,  W.D.XV,  G.T.I.D.C.Sarvona-Bicholim
Govt.  of  Goa:Executive  Engineer,W.D.XV,  G.T.I.D.C.Sarvona-Bicholim:50.00M2
Govt.of  Goa,Executive  Engineer,W.D.XV,GTIDC,Sarvona,Bicholim
कुमुनीदाद  इब्रामपूर</value>
                </Data>
                <Data name="label_x">
                    <value>995165.0</value>
                </Data>
                <Data name="label_y">
                    <value>1036455.96296072</value>
                </Data>
            </ExtendedData>
            <Point id="25460">
                <coordinates>73.944002907,15.70961136,0.0</coordinates>
            </Point>
        </Placemark>
        <Placemark id="25493">
            <ExtendedData>
                <Data name="direction">
                    <value>https://maps.google.com?q=15.70636,73.94472&amp;t=h</value>
                </Data>
                <Data name="id">
                    <value>6058</value>
                </Data>
                <Data name="name">
                    <value>कासार वाडो</value>
                </Data>
                <Data name="taluka">
                    <value>Pernem</value>
                </Data>
                <Data name="syno">
                    <value>164</value>
                </Data>
                <Data name="subdiv">
                    <value>8</value>
                </Data>
                <Data name="village">
                    <value>Ibrampur</value>
                </Data>
                <Data name="latitude">
                    <value>15.70636</value>
                </Data>
                <Data name="longitude">
                    <value>73.94472</value>
                </Data>
                <Data name="photo_1">
                    <value>DCIM/20230413090438994.jpg</value>
                </Data>
                <Data name="photo_2">
                    <value>DCIM/20230413090506078.jpg</value>
                </Data>
                <Data name="constituency">
                    <value>02 - Pernem</value>
                </Data>
                <Data name="status">
                    <value>Completed</value>
                </Data>
                <Data name="panchayat">
                    <value>Ibrampur</value>
                </Data>
                <Data name="wb_type">
                    <value>Tank</value>
                </Data>
                <Data name="owner_type">
                    <value>Private</value>
                </Data>
                <Data name="purpose">
                    <value>Irrigation</value>
                </Data>
                <Data name="construction">
                    <value>Man Made</value>
                </Data>
                <Data name="condition">
                    <value>Good</value>
                </Data>
                <Data name="print_order">
                    <value>096</value>
                </Data>
                <Data name="wb_id">
                    <value>Pe/Ibra/09</value>
                </Data>
                <Data name="storage_capacity">
                    <value>212.0</value>
                </Data>
                <Data name="wb_surface_id">
                    <value>5507</value>
                </Data>
                <Data name="created_at">
                    <value>2023-04-13 00:00:00</value>
                </Data>
                <Data name="updated_at">
                    <value>2023-07-22 14:03:14.307690</value>
                </Data>
                <Data name="book_id">
                    <value>1</value>
                </Data>
                <Data name="owners">
                    <value>Maria Dominica Grottie Barros alias Goretti Barros
Yvette Pereira e Sousa</value>
                </Data>
                <Data name="label_x">
                    <value>995165.0</value>
                </Data>
                <Data name="label_y">
                    <value>1036155.96296072</value>
                </Data>
            </ExtendedData>
            <Point id="25492">
                <coordinates>73.944724262,15.706361229,0.0</coordinates>
            </Point>
        </Placemark>
        <Placemark id="25525">
            <ExtendedData>
                <Data name="direction">
                    <value>https://maps.google.com?q=15.71341,73.93281&amp;t=h</value>
                </Data>
                <Data name="id">
                    <value>6057</value>
                </Data>
                <Data name="name">
                    <value>घोडेंखेंड</value>
                </Data>
                <Data name="taluka">
                    <value>Pernem</value>
                </Data>
                <Data name="syno">
                    <value>75</value>
                </Data>
                <Data name="subdiv">
                    <value>3</value>
                </Data>
                <Data name="village">
                    <value>Ibrampur</value>
                </Data>
                <Data name="latitude">
                    <value>15.71341</value>
                </Data>
                <Data name="longitude">
                    <value>73.93281</value>
                </Data>
                <Data name="photo_1">
                    <value>DCIM/20230413083016697.jpg</value>
                </Data>
                <Data name="photo_2">
                    <value>DCIM/20230413083030128.jpg</value>
                </Data>
                <Data name="constituency">
                    <value>02 - Pernem</value>
                </Data>
                <Data name="status">
                    <value>Completed</value>
                </Data>
                <Data name="panchayat">
                    <value>Ibrampur</value>
                </Data>
                <Data name="wb_type">
                    <value>Pond</value>
                </Data>
                <Data name="owner_type">
                    <value>Private</value>
                </Data>
                <Data name="purpose">
                    <value>Storage</value>
                </Data>
                <Data name="construction">
                    <value>Natural</value>
                </Data>
                <Data name="condition">
                    <value>Needs Maintenance</value>
                </Data>
                <Data name="print_order">
                    <value>028</value>
                </Data>
                <Data name="wb_id">
                    <value>Pe/Ibra/12</value>
                </Data>
                <Data name="storage_capacity">
                    <value>38.0</value>
                </Data>
                <Data name="wb_surface_id">
                    <value>5524</value>
                </Data>
                <Data name="created_at">
                    <value>2023-04-13 00:00:00</value>
                </Data>
                <Data name="updated_at">
                    <value>2023-07-22 14:03:14.307690</value>
                </Data>
                <Data name="book_id">
                    <value>1</value>
                </Data>
                <Data name="owners">
                    <value>सिताराम  रायु  परब</value>
                </Data>
                <Data name="label_x">
                    <value>995165.0</value>
                </Data>
                <Data name="label_y">
                    <value>1034955.96296072</value>
                </Data>
            </ExtendedData>
            <Point id="25524">
                <coordinates>73.932810401,15.713411416,0.0</coordinates>
            </Point>
        </Placemark>
        <Placemark id="25557">
            <ExtendedData>
                <Data name="direction">
                    <value>https://maps.google.com?q=15.71318,73.94869&amp;t=h</value>
                </Data>
                <Data name="id">
                    <value>650</value>
                </Data>
                <Data name="name">
                    <value>तळी</value>
                </Data>
                <Data name="taluka">
                    <value>Pernem</value>
                </Data>
                <Data name="syno">
                    <value>152</value>
                </Data>
                <Data name="subdiv">
                    <value>2</value>
                </Data>
                <Data name="village">
                    <value>Ibrampur</value>
                </Data>
                <Data name="latitude">
                    <value>15.71318</value>
                </Data>
                <Data name="longitude">
                    <value>73.94869</value>
                </Data>
                <Data name="photo_1">
                    <value>DCIM/20230413090222526.jpg</value>
                </Data>
                <Data name="photo_2">
                    <value>DCIM/20230413090230349.jpg</value>
                </Data>
                <Data name="syno_pt_list">
                    <value>152/2</value>
                </Data>
                <Data name="constituency">
                    <value>02 - Pernem</value>
                </Data>
                <Data name="status">
                    <value>Completed</value>
                </Data>
                <Data name="panchayat">
                    <value>Ibrampur</value>
                </Data>
                <Data name="wb_type">
                    <value>Pond</value>
                </Data>
                <Data name="owner_type">
                    <value>Communidade</value>
                </Data>
                <Data name="purpose">
                    <value>Irrigation</value>
                </Data>
                <Data name="construction">
                    <value>Natural</value>
                </Data>
                <Data name="condition">
                    <value>Needs Maintenance</value>
                </Data>
                <Data name="print_order">
                    <value>027</value>
                </Data>
                <Data name="wb_id">
                    <value>Pe/Ibra/11</value>
                </Data>
                <Data name="storage_capacity">
                    <value>61.0</value>
                </Data>
                <Data name="wb_surface_id">
                    <value>3373</value>
                </Data>
                <Data name="created_at">
                    <value>2020-02-28 15:24:34</value>
                </Data>
                <Data name="updated_at">
                    <value>2023-07-22 14:03:14.307690</value>
                </Data>
                <Data name="book_id">
                    <value>1</value>
                </Data>
                <Data name="owners">
                    <value>कुमुनीदाद  इब्रामपूर</value>
                </Data>
                <Data name="label_x">
                    <value>995165.0</value>
                </Data>
                <Data name="label_y">
                    <value>1037055.96296072</value>
                </Data>
            </ExtendedData>
            <Point id="25556">
                <coordinates>73.948689753,15.713179863,0.0</coordinates>
            </Point>
        </Placemark>
        <Placemark id="25590">
            <ExtendedData>
                <Data name="direction">
                    <value>https://maps.google.com?q=15.70609,73.94507&amp;t=h</value>
                </Data>
                <Data name="id">
                    <value>6059</value>
                </Data>
                <Data name="name">
                    <value>कासार वाडो</value>
                </Data>
                <Data name="taluka">
                    <value>Pernem</value>
                </Data>
                <Data name="syno">
                    <value>164</value>
                </Data>
                <Data name="subdiv">
                    <value>8</value>
                </Data>
                <Data name="village">
                    <value>Ibrampur</value>
                </Data>
                <Data name="latitude">
                    <value>15.70609</value>
                </Data>
                <Data name="longitude">
                    <value>73.94507</value>
                </Data>
                <Data name="photo_1">
                    <value>DCIM/20230413090527946.jpg</value>
                </Data>
                <Data name="photo_2">
                    <value>DCIM/20230413090554026.jpg</value>
                </Data>
                <Data name="constituency">
                    <value>02 - Pernem</value>
                </Data>
                <Data name="status">
                    <value>Completed</value>
                </Data>
                <Data name="panchayat">
                    <value>Ibrampur</value>
                </Data>
                <Data name="wb_type">
                    <value>Tank</value>
                </Data>
                <Data name="owner_type">
                    <value>Private</value>
                </Data>
                <Data name="purpose">
                    <value>Irrigation</value>
                </Data>
                <Data name="construction">
                    <value>Man Made</value>
                </Data>
                <Data name="condition">
                    <value>Good</value>
                </Data>
                <Data name="print_order">
                    <value>097</value>
                </Data>
                <Data name="wb_id">
                    <value>Pe/Ibra/10</value>
                </Data>
                <Data name="storage_capacity">
                    <value>76.0</value>
                </Data>
                <Data name="wb_surface_id">
                    <value>5508</value>
                </Data>
                <Data name="created_at">
                    <value>2023-04-13 00:00:00</value>
                </Data>
                <Data name="updated_at">
                    <value>2023-07-22 14:03:14.307690</value>
                </Data>
                <Data name="book_id">
                    <value>1</value>
                </Data>
                <Data name="owners">
                    <value>Maria Dominica Grottie Barros alias Goretti Barros
Yvette Pereira e Sousa</value>
                </Data>
                <Data name="label_x">
                    <value>995165.0</value>
                </Data>
                <Data name="label_y">
                    <value>1035855.96296072</value>
                </Data>
            </ExtendedData>
            <Point id="25589">
                <coordinates>73.945073948,15.706087065,0.0</coordinates>
            </Point>
        </Placemark>
    </Document>
</kml>
