<?xml version="1.0" encoding="UTF-8"?>
<kml xmlns="http://www.opengis.net/kml/2.2" xmlns:gx="http://www.google.com/kml/ext/2.2">
    <Document id="26084">
        <Placemark id="26086">
            <ExtendedData>
                <Data name="direction">
                    <value>https://maps.google.com?q=15.70949,73.86096&amp;t=h</value>
                </Data>
                <Data name="id">
                    <value>5998</value>
                </Data>
                <Data name="name">
                    <value>डोंगराळ ठिकाण</value>
                </Data>
                <Data name="taluka">
                    <value>Pernem</value>
                </Data>
                <Data name="syno">
                    <value>31</value>
                </Data>
                <Data name="subdiv">
                    <value>55</value>
                </Data>
                <Data name="village">
                    <value>Ozorim</value>
                </Data>
                <Data name="latitude">
                    <value>15.70949</value>
                </Data>
                <Data name="longitude">
                    <value>73.86096</value>
                </Data>
                <Data name="photo_1">
                    <value>DCIM/20230318074513444.jpg</value>
                </Data>
                <Data name="photo_2">
                    <value>DCIM/20230318074518668.jpg</value>
                </Data>
                <Data name="constituency">
                    <value>02 - Pernem</value>
                </Data>
                <Data name="status">
                    <value>Completed</value>
                </Data>
                <Data name="panchayat">
                    <value>Ozarim</value>
                </Data>
                <Data name="wb_type">
                    <value>Tank</value>
                </Data>
                <Data name="owner_type">
                    <value>Private</value>
                </Data>
                <Data name="purpose">
                    <value>Storage</value>
                </Data>
                <Data name="construction">
                    <value>Natural/Man Made</value>
                </Data>
                <Data name="condition">
                    <value>Needs Maintenance</value>
                </Data>
                <Data name="print_order">
                    <value>062</value>
                </Data>
                <Data name="wb_id">
                    <value>Pe/Ozor/06</value>
                </Data>
                <Data name="storage_capacity">
                    <value>201.0</value>
                </Data>
                <Data name="wb_surface_id">
                    <value>5522</value>
                </Data>
                <Data name="created_at">
                    <value>2023-03-18 00:00:00</value>
                </Data>
                <Data name="updated_at">
                    <value>2023-07-22 14:03:14.307690</value>
                </Data>
                <Data name="book_id">
                    <value>2</value>
                </Data>
                <Data name="owners">
                    <value>शंकरजी  जशवंत  देसाई  कोर्टरिसीव्हर</value>
                </Data>
                <Data name="label_x">
                    <value>995166.0</value>
                </Data>
                <Data name="label_y">
                    <value>1037055.64998704</value>
                </Data>
            </ExtendedData>
            <Point id="26085">
                <coordinates>73.860958895,15.709487048,0.0</coordinates>
            </Point>
        </Placemark>
        <Placemark id="26118">
            <ExtendedData>
                <Data name="direction">
                    <value>https://maps.google.com?q=15.6952,73.87591&amp;t=h</value>
                </Data>
                <Data name="id">
                    <value>660</value>
                </Data>
                <Data name="name">
                    <value>आवळीचा मळा तळावरील मळो</value>
                </Data>
                <Data name="taluka">
                    <value>Pernem</value>
                </Data>
                <Data name="syno">
                    <value>73</value>
                </Data>
                <Data name="subdiv">
                    <value>1</value>
                </Data>
                <Data name="village">
                    <value>Ozorim</value>
                </Data>
                <Data name="latitude">
                    <value>15.6952</value>
                </Data>
                <Data name="longitude">
                    <value>73.87591</value>
                </Data>
                <Data name="photo_1">
                    <value>DCIM/20230318083407118.jpg</value>
                </Data>
                <Data name="photo_2">
                    <value>DCIM/20230318083412785.jpg</value>
                </Data>
                <Data name="syno_pt_list">
                    <value>73/1</value>
                </Data>
                <Data name="constituency">
                    <value>02 - Pernem</value>
                </Data>
                <Data name="status">
                    <value>Completed</value>
                </Data>
                <Data name="panchayat">
                    <value>Ozarim</value>
                </Data>
                <Data name="wb_type">
                    <value>Tank</value>
                </Data>
                <Data name="owner_type">
                    <value>Private</value>
                </Data>
                <Data name="purpose">
                    <value>Storage</value>
                </Data>
                <Data name="construction">
                    <value>Natural</value>
                </Data>
                <Data name="condition">
                    <value>Good</value>
                </Data>
                <Data name="print_order">
                    <value>060</value>
                </Data>
                <Data name="wb_id">
                    <value>Pe/Ozor/03</value>
                </Data>
                <Data name="storage_capacity">
                    <value>2833.0</value>
                </Data>
                <Data name="wb_surface_id">
                    <value>3376</value>
                </Data>
                <Data name="created_at">
                    <value>2020-02-28 15:24:34</value>
                </Data>
                <Data name="updated_at">
                    <value>2023-07-22 14:03:14.307690</value>
                </Data>
                <Data name="book_id">
                    <value>2</value>
                </Data>
                <Data name="owners">
                    <value>काबेस  द  काझाल
सुरेंद्रनाथ  श्रीपाद  देसाई</value>
                </Data>
                <Data name="label_x">
                    <value>995166.0</value>
                </Data>
                <Data name="label_y">
                    <value>1033455.64998704</value>
                </Data>
            </ExtendedData>
            <Point id="26117">
                <coordinates>73.875909139,15.695198306,0.0</coordinates>
            </Point>
        </Placemark>
        <Placemark id="26151">
            <ExtendedData>
                <Data name="direction">
                    <value>https://maps.google.com?q=15.70726,73.86238&amp;t=h</value>
                </Data>
                <Data name="id">
                    <value>668</value>
                </Data>
                <Data name="name">
                    <value>मुगडा डोंगराळ ठिकाण,मुगडा डोंगरीळ. चिकाण</value>
                </Data>
                <Data name="taluka">
                    <value>Pernem</value>
                </Data>
                <Data name="syno">
                    <value>34</value>
                </Data>
                <Data name="subdiv">
                    <value>1-72</value>
                </Data>
                <Data name="village">
                    <value>Ozorim</value>
                </Data>
                <Data name="latitude">
                    <value>15.70726</value>
                </Data>
                <Data name="longitude">
                    <value>73.86238</value>
                </Data>
                <Data name="photo_1">
                    <value>DCIM/20230318071948255.jpg</value>
                </Data>
                <Data name="photo_2">
                    <value>DCIM/20230318071919742.jpg</value>
                </Data>
                <Data name="syno_pt_list">
                    <value>33/2-38,40,43-45,48,50-51,53-54-55,57-58,60,62,64,67,69-76-77-80; 34/1-50,52-54-55-61,61-65-66-76-77-87-88-98-99-100-110-111; 35/1</value>
                </Data>
                <Data name="constituency">
                    <value>02 - Pernem</value>
                </Data>
                <Data name="status">
                    <value>Completed</value>
                </Data>
                <Data name="panchayat">
                    <value>Ozarim</value>
                </Data>
                <Data name="wb_type">
                    <value>Pond</value>
                </Data>
                <Data name="owner_type">
                    <value>Private</value>
                </Data>
                <Data name="purpose">
                    <value>Irrigation</value>
                </Data>
                <Data name="construction">
                    <value>Natural</value>
                </Data>
                <Data name="condition">
                    <value>Needs Maintenance</value>
                </Data>
                <Data name="print_order">
                    <value>004</value>
                </Data>
                <Data name="wb_id">
                    <value>Pe/Ozor/04</value>
                </Data>
                <Data name="storage_capacity">
                    <value>830.0</value>
                </Data>
                <Data name="wb_surface_id">
                    <value>3392</value>
                </Data>
                <Data name="created_at">
                    <value>2020-02-28 15:24:34</value>
                </Data>
                <Data name="updated_at">
                    <value>2023-07-22 14:03:14.307690</value>
                </Data>
                <Data name="book_id">
                    <value>2</value>
                </Data>
                <Data name="owners">
                    <value>Balu  Narain  Sonar
Jagannath  Narain  Sonar
Laximi  Pandurang  Sonar
Pandurang  Narain  Sonar
Premavati  Jagannath  Sonar
शंकरजी  जसवंत  देसाई,कोर्टरिसिव्हर</value>
                </Data>
                <Data name="label_x">
                    <value>995166.0</value>
                </Data>
                <Data name="label_y">
                    <value>1036155.64998704</value>
                </Data>
            </ExtendedData>
            <Point id="26150">
                <coordinates>73.862376071,15.707257928,0.0</coordinates>
            </Point>
        </Placemark>
        <Placemark id="26184">
            <ExtendedData>
                <Data name="direction">
                    <value>https://maps.google.com?q=15.69586,73.88432&amp;t=h</value>
                </Data>
                <Data name="id">
                    <value>670</value>
                </Data>
                <Data name="name">
                    <value>रवळनाथ मळी</value>
                </Data>
                <Data name="taluka">
                    <value>Pernem</value>
                </Data>
                <Data name="syno">
                    <value>65</value>
                </Data>
                <Data name="subdiv">
                    <value>3</value>
                </Data>
                <Data name="village">
                    <value>Ozorim</value>
                </Data>
                <Data name="latitude">
                    <value>15.69586</value>
                </Data>
                <Data name="longitude">
                    <value>73.88432</value>
                </Data>
                <Data name="photo_1">
                    <value>DCIM/20230318083127587.jpg</value>
                </Data>
                <Data name="photo_2">
                    <value>DCIM/20230318083146532.jpg</value>
                </Data>
                <Data name="syno_pt_list">
                    <value>65/2-3; 69/0</value>
                </Data>
                <Data name="constituency">
                    <value>02 - Pernem</value>
                </Data>
                <Data name="status">
                    <value>Completed</value>
                </Data>
                <Data name="panchayat">
                    <value>Ozarim</value>
                </Data>
                <Data name="wb_type">
                    <value>Tank</value>
                </Data>
                <Data name="owner_type">
                    <value>Public</value>
                </Data>
                <Data name="purpose">
                    <value>Irrigation</value>
                </Data>
                <Data name="construction">
                    <value>Man Made</value>
                </Data>
                <Data name="condition">
                    <value>Needs Maintenance</value>
                </Data>
                <Data name="print_order">
                    <value>059</value>
                </Data>
                <Data name="wb_id">
                    <value>Pe/Ozor/02</value>
                </Data>
                <Data name="storage_capacity">
                    <value>4371.0</value>
                </Data>
                <Data name="wb_surface_id">
                    <value>3440</value>
                </Data>
                <Data name="created_at">
                    <value>2020-02-28 15:24:34</value>
                </Data>
                <Data name="updated_at">
                    <value>2023-07-22 14:03:14.307690</value>
                </Data>
                <Data name="book_id">
                    <value>2</value>
                </Data>
                <Data name="owners">
                    <value>सरकारी</value>
                </Data>
                <Data name="label_x">
                    <value>995166.0</value>
                </Data>
                <Data name="label_y">
                    <value>1034355.64998704</value>
                </Data>
            </ExtendedData>
            <Point id="26183">
                <coordinates>73.884316152,15.695857367,0.0</coordinates>
            </Point>
        </Placemark>
        <Placemark id="26217">
            <ExtendedData>
                <Data name="direction">
                    <value>https://maps.google.com?q=15.70926,73.86076&amp;t=h</value>
                </Data>
                <Data name="id">
                    <value>5997</value>
                </Data>
                <Data name="name">
                    <value>डोंगराळ ठिकाण</value>
                </Data>
                <Data name="taluka">
                    <value>Pernem</value>
                </Data>
                <Data name="syno">
                    <value>31</value>
                </Data>
                <Data name="subdiv">
                    <value>55</value>
                </Data>
                <Data name="village">
                    <value>Ozorim</value>
                </Data>
                <Data name="latitude">
                    <value>15.70926</value>
                </Data>
                <Data name="longitude">
                    <value>73.86076</value>
                </Data>
                <Data name="photo_1">
                    <value>DCIM/20230318074414616.jpg</value>
                </Data>
                <Data name="photo_2">
                    <value>DCIM/20230318074425256.jpg</value>
                </Data>
                <Data name="constituency">
                    <value>02 - Pernem</value>
                </Data>
                <Data name="status">
                    <value>Completed</value>
                </Data>
                <Data name="panchayat">
                    <value>Ozarim</value>
                </Data>
                <Data name="wb_type">
                    <value>Tank</value>
                </Data>
                <Data name="owner_type">
                    <value>Private</value>
                </Data>
                <Data name="purpose">
                    <value>Storage</value>
                </Data>
                <Data name="construction">
                    <value>Natural/Man Made</value>
                </Data>
                <Data name="condition">
                    <value>Good</value>
                </Data>
                <Data name="print_order">
                    <value>061</value>
                </Data>
                <Data name="wb_id">
                    <value>Pe/Ozor/05</value>
                </Data>
                <Data name="storage_capacity">
                    <value>640.0</value>
                </Data>
                <Data name="wb_surface_id">
                    <value>5521</value>
                </Data>
                <Data name="created_at">
                    <value>2023-03-18 00:00:00</value>
                </Data>
                <Data name="updated_at">
                    <value>2023-07-22 14:03:14.307690</value>
                </Data>
                <Data name="book_id">
                    <value>2</value>
                </Data>
                <Data name="owners">
                    <value>शंकरजी  जशवंत  देसाई  कोर्टरिसीव्हर</value>
                </Data>
                <Data name="label_x">
                    <value>995166.0</value>
                </Data>
                <Data name="label_y">
                    <value>1036755.64998704</value>
                </Data>
            </ExtendedData>
            <Point id="26216">
                <coordinates>73.860758139,15.709257672,0.0</coordinates>
            </Point>
        </Placemark>
    </Document>
</kml>
