<?xml version="1.0" encoding="UTF-8"?>
<kml xmlns="http://www.opengis.net/kml/2.2" xmlns:gx="http://www.google.com/kml/ext/2.2">
    <Document id="28569">
        <Placemark id="28571">
            <ExtendedData>
                <Data name="direction">
                    <value>https://maps.google.com?q=15.67409,73.81936&amp;t=h</value>
                </Data>
                <Data name="id">
                    <value>691</value>
                </Data>
                <Data name="name">
                    <value>--</value>
                </Data>
                <Data name="taluka">
                    <value>Pernem</value>
                </Data>
                <Data name="syno">
                    <value>0</value>
                </Data>
                <Data name="subdiv">
                    <value>South of 36</value>
                </Data>
                <Data name="village">
                    <value>Virnora</value>
                </Data>
                <Data name="latitude">
                    <value>15.67409</value>
                </Data>
                <Data name="longitude">
                    <value>73.81936</value>
                </Data>
                <Data name="photo_1">
                    <value>DCIM/20230323083948387.jpg</value>
                </Data>
                <Data name="photo_2">
                    <value>DCIM/20230323084005994.jpg</value>
                </Data>
                <Data name="syno_pt_list">
                    <value/>
                </Data>
                <Data name="constituency">
                    <value>02 - Pernem</value>
                </Data>
                <Data name="status">
                    <value>Completed</value>
                </Data>
                <Data name="panchayat">
                    <value>Virnoda</value>
                </Data>
                <Data name="wb_type">
                    <value>Pond</value>
                </Data>
                <Data name="owner_type">
                    <value>Public</value>
                </Data>
                <Data name="purpose">
                    <value>Storage</value>
                </Data>
                <Data name="construction">
                    <value>Natural/Man Made</value>
                </Data>
                <Data name="condition">
                    <value>Good</value>
                </Data>
                <Data name="print_order">
                    <value>022</value>
                </Data>
                <Data name="wb_id">
                    <value>Pe/Virn/01</value>
                </Data>
                <Data name="storage_capacity">
                    <value>10320.0</value>
                </Data>
                <Data name="wb_surface_id">
                    <value>5051</value>
                </Data>
                <Data name="created_at">
                    <value>2020-02-28 15:24:34</value>
                </Data>
                <Data name="updated_at">
                    <value>2023-07-22 14:03:14.307690</value>
                </Data>
                <Data name="book_id">
                    <value>2</value>
                </Data>
                <Data name="owners">
                    <value>Govt. of Goa</value>
                </Data>
                <Data name="label_x">
                    <value>995166.0</value>
                </Data>
                <Data name="label_y">
                    <value>1028355.64998704</value>
                </Data>
            </ExtendedData>
            <Point id="28570">
                <coordinates>73.819361149,15.67408542,0.0</coordinates>
            </Point>
        </Placemark>
        <Placemark id="28604">
            <ExtendedData>
                <Data name="direction">
                    <value>https://maps.google.com?q=15.68955,73.8212&amp;t=h</value>
                </Data>
                <Data name="id">
                    <value>692</value>
                </Data>
                <Data name="name">
                    <value>--</value>
                </Data>
                <Data name="taluka">
                    <value>Pernem</value>
                </Data>
                <Data name="syno">
                    <value>0</value>
                </Data>
                <Data name="subdiv">
                    <value>North of 11</value>
                </Data>
                <Data name="village">
                    <value>Virnora</value>
                </Data>
                <Data name="latitude">
                    <value>15.68955</value>
                </Data>
                <Data name="longitude">
                    <value>73.8212</value>
                </Data>
                <Data name="photo_1">
                    <value>DCIM/20230323142018117.jpg</value>
                </Data>
                <Data name="photo_2">
                    <value>DCIM/20230323142024089.jpg</value>
                </Data>
                <Data name="syno_pt_list">
                    <value>9/14,18-20,23; 11/1-2</value>
                </Data>
                <Data name="constituency">
                    <value>02 - Pernem</value>
                </Data>
                <Data name="status">
                    <value>Completed</value>
                </Data>
                <Data name="panchayat">
                    <value>Virnoda</value>
                </Data>
                <Data name="wb_type">
                    <value>Pond</value>
                </Data>
                <Data name="owner_type">
                    <value>Public</value>
                </Data>
                <Data name="purpose">
                    <value>Irrigation</value>
                </Data>
                <Data name="construction">
                    <value>Natural/Man Made</value>
                </Data>
                <Data name="condition">
                    <value>Good</value>
                </Data>
                <Data name="print_order">
                    <value>023</value>
                </Data>
                <Data name="wb_id">
                    <value>Pe/Virn/02</value>
                </Data>
                <Data name="storage_capacity">
                    <value>3323.0</value>
                </Data>
                <Data name="wb_surface_id">
                    <value>3379</value>
                </Data>
                <Data name="created_at">
                    <value>2020-02-28 15:24:34</value>
                </Data>
                <Data name="updated_at">
                    <value>2023-07-22 14:03:14.307690</value>
                </Data>
                <Data name="book_id">
                    <value>2</value>
                </Data>
                <Data name="owners">
                    <value>Govt. of Goa</value>
                </Data>
                <Data name="label_x">
                    <value>995166.0</value>
                </Data>
                <Data name="label_y">
                    <value>1028955.64998704</value>
                </Data>
            </ExtendedData>
            <Point id="28603">
                <coordinates>73.821196203,15.689553913,0.0</coordinates>
            </Point>
        </Placemark>
        <Placemark id="28637">
            <ExtendedData>
                <Data name="direction">
                    <value>https://maps.google.com?q=15.69992,73.82179&amp;t=h</value>
                </Data>
                <Data name="id">
                    <value>6067</value>
                </Data>
                <Data name="name">
                    <value>ब्राम्हणाचाकुणगा,मळीओळपें</value>
                </Data>
                <Data name="taluka">
                    <value>Pernem</value>
                </Data>
                <Data name="syno">
                    <value>81</value>
                </Data>
                <Data name="subdiv">
                    <value>3,4</value>
                </Data>
                <Data name="village">
                    <value>Virnora</value>
                </Data>
                <Data name="latitude">
                    <value>15.69992</value>
                </Data>
                <Data name="longitude">
                    <value>73.82179</value>
                </Data>
                <Data name="photo_1">
                    <value>DCIM/20230413154516779.jpg</value>
                </Data>
                <Data name="photo_2">
                    <value>DCIM/20230413154531233.jpg</value>
                </Data>
                <Data name="constituency">
                    <value>02 - Pernem</value>
                </Data>
                <Data name="status">
                    <value>Completed</value>
                </Data>
                <Data name="panchayat">
                    <value>Virnoda</value>
                </Data>
                <Data name="wb_type">
                    <value>Tank</value>
                </Data>
                <Data name="owner_type">
                    <value>Private</value>
                </Data>
                <Data name="purpose">
                    <value>Irrigation</value>
                </Data>
                <Data name="construction">
                    <value>Man Made</value>
                </Data>
                <Data name="condition">
                    <value>Good</value>
                </Data>
                <Data name="print_order">
                    <value>105</value>
                </Data>
                <Data name="wb_id">
                    <value>Pe/Virn/04</value>
                </Data>
                <Data name="storage_capacity">
                    <value>69.0</value>
                </Data>
                <Data name="wb_surface_id">
                    <value>5533</value>
                </Data>
                <Data name="created_at">
                    <value>2023-04-13 00:00:00</value>
                </Data>
                <Data name="updated_at">
                    <value>2023-07-22 14:03:14.307690</value>
                </Data>
                <Data name="book_id">
                    <value>2</value>
                </Data>
                <Data name="owners">
                    <value>राजेंद्र  वासुदेव  देशप्रभू
श्री  देव  ब्राम्हण  वहिवाट  देवस्तान  मोटि</value>
                </Data>
                <Data name="label_x">
                    <value>995166.0</value>
                </Data>
                <Data name="label_y">
                    <value>1029555.64998704</value>
                </Data>
            </ExtendedData>
            <Point id="28636">
                <coordinates>73.821791667,15.699915,0.0</coordinates>
            </Point>
        </Placemark>
        <Placemark id="28669">
            <ExtendedData>
                <Data name="direction">
                    <value>https://maps.google.com?q=15.69014,73.81879&amp;t=h</value>
                </Data>
                <Data name="id">
                    <value>5168</value>
                </Data>
                <Data name="name">
                    <value>Ravalnath Temple Tank; देवभाटले</value>
                </Data>
                <Data name="taluka">
                    <value>Pernem</value>
                </Data>
                <Data name="syno">
                    <value>48</value>
                </Data>
                <Data name="subdiv">
                    <value>1</value>
                </Data>
                <Data name="village">
                    <value>Virnora</value>
                </Data>
                <Data name="latitude">
                    <value>15.69014</value>
                </Data>
                <Data name="longitude">
                    <value>73.81879</value>
                </Data>
                <Data name="photo_1">
                    <value>DCIM/20230323141430731.jpg</value>
                </Data>
                <Data name="photo_2">
                    <value>DCIM/20230323141454189.jpg</value>
                </Data>
                <Data name="syno_pt_list">
                    <value>48/1; 50/1</value>
                </Data>
                <Data name="constituency">
                    <value>02 - Pernem</value>
                </Data>
                <Data name="status">
                    <value>Completed</value>
                </Data>
                <Data name="panchayat">
                    <value>Virnoda</value>
                </Data>
                <Data name="wb_type">
                    <value>Temple Tank</value>
                </Data>
                <Data name="owner_type">
                    <value>Private</value>
                </Data>
                <Data name="purpose">
                    <value>Storage</value>
                </Data>
                <Data name="construction">
                    <value>Man Made</value>
                </Data>
                <Data name="condition">
                    <value>Good</value>
                </Data>
                <Data name="print_order">
                    <value>058</value>
                </Data>
                <Data name="wb_id">
                    <value>Pe/Virn/03</value>
                </Data>
                <Data name="storage_capacity">
                    <value>1853.0</value>
                </Data>
                <Data name="wb_surface_id">
                    <value>4053</value>
                </Data>
                <Data name="created_at">
                    <value>2022-07-23 11:17:31.629604</value>
                </Data>
                <Data name="updated_at">
                    <value>2023-07-22 14:03:14.307690</value>
                </Data>
                <Data name="book_id">
                    <value>2</value>
                </Data>
                <Data name="owners">
                    <value>श्री-देवी  भगवती</value>
                </Data>
                <Data name="label_x">
                    <value>995166.0</value>
                </Data>
                <Data name="label_y">
                    <value>1028655.64998704</value>
                </Data>
            </ExtendedData>
            <Point id="28668">
                <coordinates>73.818787628,15.69014023,0.0</coordinates>
            </Point>
        </Placemark>
    </Document>
</kml>
