<?xml version="1.0" encoding="UTF-8"?>
<kml xmlns="http://www.opengis.net/kml/2.2" xmlns:gx="http://www.google.com/kml/ext/2.2">
    <Document id="4055">
        <Placemark id="4057">
            <ExtendedData>
                <Data name="id">
                    <value>295</value>
                </Data>
                <Data name="taluka">
                    <value>Sanguem</value>
                </Data>
                <Data name="village">
                    <value>Cotarli</value>
                </Data>
                <Data name="lg_code">
                    <value>627000</value>
                </Data>
                <Data name="dslr_code">
                    <value>00033100</value>
                </Data>
            </ExtendedData>
            <Polygon id="4056">
                <outerBoundaryIs>
                    <LinearRing id="4060">
                        <coordinates>74.159252562,15.196186825,0.0 74.159357357,15.196773065,0.0 74.159104362,15.197359559,0.0 74.159165139,15.19888683,0.0 74.160082728,15.199870608,0.0 74.160277113,15.200637746,0.0 74.160918878,15.201578286,0.0 74.162245951,15.201888587,0.0 74.163085203,15.202749355,0.0 74.163880187,15.204192848,0.0 74.163810222,15.205293143,0.0 74.162521107,15.205909346,0.0 74.161530363,15.206796769,0.0 74.162124395,15.208645765,0.0 74.162020951,15.209847421,0.0 74.162282532,15.210730323,0.0 74.162581081,15.211215083,0.0 74.162832624,15.213581872,0.0 74.163296239,15.215441815,0.0 74.163415769,15.215774696,0.0 74.163438401,15.216122125,0.0 74.163118447,15.21689687,0.0 74.162835509,15.21733862,0.0 74.162657664,15.218728529,0.0 74.163248087,15.220675241,0.0 74.163159165,15.221370195,0.0 74.162853812,15.221754054,0.0 74.162741928,15.221674512,0.0 74.162585355,15.221645672,0.0 74.161676053,15.221892435,0.0 74.161340729,15.222080875,0.0 74.15980497,15.222002349,0.0 74.159409738,15.221836146,0.0 74.159178654,15.221858025,0.0 74.158761183,15.22185832,0.0 74.158358779,15.222068519,0.0 74.157658314,15.222459887,0.0 74.157270721,15.222539782,0.0 74.156934893,15.222055041,0.0 74.156666448,15.221961129,0.0 74.156218747,15.22140408,0.0 74.156069395,15.221056739,0.0 74.15586796,15.220846964,0.0 74.155681638,15.220912239,0.0 74.155734199,15.221426132,0.0 74.155600315,15.221838816,0.0 74.155429268,15.222403532,0.0 74.15467647,15.22259949,0.0 74.154050509,15.222940126,0.0 74.153901543,15.223121189,0.0 74.15396185,15.224040429,0.0 74.153925443,15.225234797,0.0 74.152755813,15.226343076,0.0 74.152398165,15.226611141,0.0 74.151831616,15.226654955,0.0 74.151495892,15.226307736,0.0 74.151189912,15.225851921,0.0 74.1513236,15.225149703,0.0 74.150644478,15.224136778,0.0 74.149808948,15.223319392,0.0 74.149458267,15.222892558,0.0 74.149159955,15.222726272,0.0 74.148839207,15.222458662,0.0 74.14851067,15.22171332,0.0 74.148622107,15.221163125,0.0 74.148486345,15.218915679,0.0 74.148456009,15.218177378,0.0 74.148637487,15.216519654,0.0 74.148971334,15.214224846,0.0 74.148947658,15.212357343,0.0 74.14926675,15.210294174,0.0 74.149132535,15.210243594,0.0 74.147747215,15.211974497,0.0 74.145967131,15.21421234,0.0 74.145557586,15.214878542,0.0 74.144946735,15.215501443,0.0 74.144924821,15.216160156,0.0 74.143226605,15.218296585,0.0 74.14274237,15.218774631,0.0 74.141960123,15.219520686,0.0 74.142012514,15.219831906,0.0 74.140940096,15.221439515,0.0 74.139240504,15.221607059,0.0 74.13915861,15.221773594,0.0 74.139315342,15.222048558,0.0 74.139337802,15.222193313,0.0 74.139121787,15.222461269,0.0 74.13885345,15.222519342,0.0 74.138641173,15.222805392,0.0 74.138853834,15.223105656,0.0 74.139107284,15.223080165,0.0 74.139413051,15.223257317,0.0 74.139379628,15.223445537,0.0 74.139513899,15.223572127,0.0 74.139622189,15.223865216,0.0 74.139461958,15.223941319,0.0 74.139361417,15.224093389,0.0 74.139525461,15.224147576,0.0 74.139555459,15.224418999,0.0 74.139399072,15.224672441,0.0 74.139529674,15.224885894,0.0 74.139410571,15.22515379,0.0 74.138937255,15.225266279,0.0 74.138877905,15.225707861,0.0 74.138568644,15.225892632,0.0 74.13845321,15.226073664,0.0 74.13847943,15.226269086,0.0 74.138382673,15.226511633,0.0 74.138677303,15.22675032,0.0 74.138133641,15.227601172,0.0 74.137861635,15.227760585,0.0 74.137053106,15.228293105,0.0 74.137560286,15.228654717,0.0 74.137690818,15.228759594,0.0 74.137854967,15.228969408,0.0 74.138000372,15.229016369,0.0 74.138753408,15.229124481,0.0 74.139969001,15.229746233,0.0 74.140211451,15.22998495,0.0 74.140602977,15.230183763,0.0 74.141609929,15.230943166,0.0 74.141792763,15.231214492,0.0 74.141960557,15.231294009,0.0 74.142158132,15.23131198,0.0 74.143116283,15.23155024,0.0 74.143604564,15.231499259,0.0 74.14390269,15.231379634,0.0 74.144219355,15.231115228,0.0 74.144711337,15.231028051,0.0 74.145665835,15.231371259,0.0 74.145602608,15.231577596,0.0 74.145681051,15.231816413,0.0 74.14564011,15.23190692,0.0 74.145539467,15.231910605,0.0 74.145271113,15.231957828,0.0 74.145241602,15.232410249,0.0 74.144820551,15.232656628,0.0 74.144936263,15.232884564,0.0 74.145328261,15.233756542,0.0 74.145231844,15.234487686,0.0 74.14493024,15.234976475,0.0 74.143973133,15.234735988,0.0 74.142341974,15.233592953,0.0 74.137477259,15.232792341,0.0 74.134330529,15.232603301,0.0 74.133342799,15.231056363,0.0 74.131996917,15.231145922,0.0 74.130901815,15.230217002,0.0 74.130342494,15.229633775,0.0 74.129717065,15.229389336,0.0 74.128728,15.228200175,0.0 74.128218579,15.227994834,0.0 74.127325401,15.226913324,0.0 74.126733756,15.224728324,0.0 74.126737682,15.22280016,0.0 74.127128333,15.222104617,0.0 74.128016443,15.221254762,0.0 74.128793264,15.220527567,0.0 74.129087186,15.218640642,0.0 74.129288342,15.218060523,0.0 74.13183415,15.215084491,0.0 74.133775834,15.21283787,0.0 74.134293428,15.211952416,0.0 74.134485002,15.211425873,0.0 74.134671345,15.210761566,0.0 74.1348672,15.210868818,0.0 74.135125924,15.210936631,0.0 74.135358219,15.21091876,0.0 74.13560778,15.2109324,0.0 74.135877569,15.210853434,0.0 74.136249775,15.210708408,0.0 74.136505212,15.21039698,0.0 74.140683977,15.20933056,0.0 74.141515339,15.208624749,0.0 74.143502923,15.207602986,0.0 74.144922437,15.206613095,0.0 74.146422884,15.205323689,0.0 74.147838284,15.204294379,0.0 74.149821742,15.203276504,0.0 74.150694277,15.203488691,0.0 74.151880507,15.202623026,0.0 74.153451875,15.201311855,0.0 74.15539816,15.199474401,0.0 74.15648499,15.198677735,0.0 74.157715012,15.197911844,0.0 74.158032983,15.197402442,0.0 74.158737796,15.196668487,0.0 74.159155554,15.196049903,0.0 74.159252562,15.196186825,0.0</coordinates>
                    </LinearRing>
                </outerBoundaryIs>
            </Polygon>
        </Placemark>
    </Document>
</kml>
