<?xml version="1.0" encoding="UTF-8"?>
<kml xmlns="http://www.opengis.net/kml/2.2" xmlns:gx="http://www.google.com/kml/ext/2.2">
    <Document id="4083">
        <Placemark id="4085">
            <ExtendedData>
                <Data name="id">
                    <value>297</value>
                </Data>
                <Data name="taluka">
                    <value>Sanguem</value>
                </Data>
                <Data name="village">
                    <value>Curdem</value>
                </Data>
                <Data name="lg_code">
                    <value>627012</value>
                </Data>
                <Data name="dslr_code">
                    <value>00038500</value>
                </Data>
            </ExtendedData>
            <Polygon id="4084">
                <outerBoundaryIs>
                    <LinearRing id="4088">
                        <coordinates>74.156731817,15.148609931,0.0 74.158166037,15.148446264,0.0 74.158762563,15.148909108,0.0 74.15921955,15.148792971,0.0 74.159736038,15.148522369,0.0 74.159894513,15.147846665,0.0 74.161086419,15.147247436,0.0 74.16130436,15.146378662,0.0 74.161740558,15.145065771,0.0 74.161620796,15.144370962,0.0 74.162037895,15.144081124,0.0 74.16269284,15.142980403,0.0 74.16332844,15.142574589,0.0 74.163725497,15.142072433,0.0 74.166964165,15.141452377,0.0 74.167957341,15.140911167,0.0 74.172249472,15.140637698,0.0 74.176400986,15.138549809,0.0 74.179262081,15.138026386,0.0 74.179818,15.137446865,0.0 74.183393154,15.135417215,0.0 74.185439259,15.134662742,0.0 74.187030173,15.136031917,0.0 74.187745751,15.136262955,0.0 74.188699226,15.135856805,0.0 74.189509324,15.136232528,0.0 74.189476347,15.138254505,0.0 74.188935484,15.138978806,0.0 74.188458659,15.139090195,0.0 74.186843855,15.138840602,0.0 74.185761214,15.139266153,0.0 74.185523021,15.139575191,0.0 74.185498492,15.139932309,0.0 74.185846688,15.140433891,0.0 74.187745485,15.141600129,0.0 74.188272162,15.141676901,0.0 74.189354906,15.141357502,0.0 74.189771986,15.141096567,0.0 74.191362351,15.141770816,0.0 74.191432389,15.14231123,0.0 74.192128587,15.143058615,0.0 74.191890681,15.143681326,0.0 74.190446491,15.145376352,0.0 74.190715974,15.146722481,0.0 74.190672803,15.148445275,0.0 74.190628479,15.14887962,0.0 74.190509437,15.149096875,0.0 74.189734232,15.148909328,0.0 74.188824491,15.148273105,0.0 74.188810203,15.14896801,0.0 74.188974564,15.149431135,0.0 74.190301575,15.149994621,0.0 74.190704661,15.150732605,0.0 74.191390262,15.150717548,0.0 74.192492121,15.149515024,0.0 74.193117798,15.149167043,0.0 74.193848173,15.149224325,0.0 74.193953547,15.150367913,0.0 74.194028664,15.151019311,0.0 74.19556455,15.151785263,0.0 74.197680659,15.151392542,0.0 74.198216447,15.15055241,0.0 74.199348115,15.149393258,0.0 74.201122099,15.149753608,0.0 74.202911284,15.150417945,0.0 74.203717131,15.151459559,0.0 74.205431996,15.152312143,0.0 74.207877238,15.153192997,0.0 74.208920732,15.15335128,0.0 74.209383579,15.154161558,0.0 74.209801486,15.154740247,0.0 74.210711833,15.155897553,0.0 74.212277811,15.156851562,0.0 74.213724708,15.157950442,0.0 74.214336446,15.158572369,0.0 74.214292153,15.158992242,0.0 74.214903574,15.159295675,0.0 74.215679057,15.159700289,0.0 74.215888039,15.160004104,0.0 74.215672155,15.160243179,0.0 74.215769237,15.160438525,0.0 74.215992957,15.160575842,0.0 74.216351126,15.161009806,0.0 74.216880768,15.161501512,0.0 74.217567363,15.162427373,0.0 74.217481704,15.163044138,0.0 74.217180392,15.163889669,0.0 74.217398943,15.164852094,0.0 74.21704898,15.165404185,0.0 74.217282864,15.165599617,0.0 74.217323327,15.165767844,0.0 74.217484841,15.166112045,0.0 74.21700575,15.166472516,0.0 74.21620446,15.166958517,0.0 74.21617665,15.167345945,0.0 74.215971139,15.16731875,0.0 74.215846019,15.167103646,0.0 74.215225822,15.167382073,0.0 74.214738264,15.167343406,0.0 74.214585159,15.167343552,0.0 74.214303454,15.167672525,0.0 74.213925161,15.168111157,0.0 74.21365167,15.168596646,0.0 74.213426055,15.168612513,0.0 74.213337737,15.168933475,0.0 74.213305787,15.169215252,0.0 74.213088254,15.169254589,0.0 74.213080391,15.169450254,0.0 74.213064534,15.169708536,0.0 74.212758884,15.170272319,0.0 74.212469107,15.17059347,0.0 74.212195101,15.170570249,0.0 74.211832666,15.170758421,0.0 74.211526699,15.17100915,0.0 74.211051089,15.170837417,0.0 74.210438766,15.170947558,0.0 74.210334419,15.171362449,0.0 74.210262792,15.172270367,0.0 74.213408558,15.175264881,0.0 74.213599676,15.181009199,0.0 74.212191783,15.183389721,0.0 74.212991476,15.185259449,0.0 74.214486662,15.18951553,0.0 74.215063354,15.193960308,0.0 74.215458412,15.194116456,0.0 74.214156749,15.198007359,0.0 74.211749744,15.200748834,0.0 74.210316442,15.200674958,0.0 74.208496823,15.199836993,0.0 74.206588546,15.199795322,0.0 74.206140656,15.199129797,0.0 74.205407458,15.196336431,0.0 74.204541255,15.194730286,0.0 74.204764242,15.194078624,0.0 74.203390876,15.192139967,0.0 74.20334535,15.191300348,0.0 74.201645455,15.190838617,0.0 74.198604861,15.191405918,0.0 74.197338046,15.191754477,0.0 74.196405953,15.191353559,0.0 74.195954634,15.190955837,0.0 74.196082917,15.190637234,0.0 74.195767993,15.190633889,0.0 74.195635563,15.190496474,0.0 74.195734158,15.190315427,0.0 74.195570153,15.190290235,0.0 74.195515869,15.190024269,0.0 74.195409528,15.18988864,0.0 74.195347659,15.189479722,0.0 74.195280403,15.189291581,0.0 74.195570613,15.188766542,0.0 74.195514451,15.188484291,0.0 74.195186387,15.18837238,0.0 74.195052039,15.188173439,0.0 74.195100324,15.187996055,0.0 74.195320127,15.187909003,0.0 74.195420371,15.187496324,0.0 74.195259669,15.187007869,0.0 74.195207301,15.186797999,0.0 74.195475447,15.186598709,0.0 74.195336827,15.185806219,0.0 74.195142961,15.185726765,0.0 74.195012368,15.185556774,0.0 74.194628354,15.185387003,0.0 74.194776585,15.184471211,0.0 74.194422315,15.18422179,0.0 74.194384759,15.18390695,0.0 74.194209262,15.183534321,0.0 74.194242607,15.183320758,0.0 74.193847352,15.183078611,0.0 74.193459775,15.183082563,0.0 74.193217699,15.183260113,0.0 74.193150381,15.182999586,0.0 74.192714288,15.182927575,0.0 74.192524119,15.182811923,0.0 74.192535096,15.182587521,0.0 74.192195817,15.182424946,0.0 74.191781945,15.182197287,0.0 74.191524567,15.181936922,0.0 74.191368045,15.181937055,0.0 74.191263492,15.181709133,0.0 74.191419942,15.181629377,0.0 74.191307632,15.181064873,0.0 74.190960968,15.180974686,0.0 74.190621923,15.181069073,0.0 74.190700311,15.181210157,0.0 74.190506782,15.181499859,0.0 74.190137965,15.18164132,0.0 74.190137832,15.181492932,0.0 74.189899015,15.181149307,0.0 74.189578555,15.181189388,0.0 74.189541414,15.181330569,0.0 74.189474414,15.181421106,0.0 74.189108769,15.180940056,0.0 74.188918543,15.180755635,0.0 74.189756948,15.180642735,0.0 74.190095964,15.180515776,0.0 74.190248648,15.180392593,0.0 74.189987185,15.179726876,0.0 74.190131508,15.178590317,0.0 74.190284012,15.178268077,0.0 74.189397273,15.178496836,0.0 74.189464986,15.179206147,0.0 74.189085465,15.179879642,0.0 74.188414997,15.180256604,0.0 74.187975306,15.180322117,0.0 74.187215139,15.180409612,0.0 74.186745424,15.180236278,0.0 74.185764591,15.179419144,0.0 74.185675129,15.179393883,0.0 74.185343083,15.178967087,0.0 74.184940537,15.178891414,0.0 74.184724583,15.179112364,0.0 74.184296111,15.179221292,0.0 74.183994194,15.179156393,0.0 74.183718656,15.17942806,0.0 74.18368189,15.180007166,0.0 74.183879426,15.18003234,0.0 74.183820162,15.180452219,0.0 74.183093929,15.180999313,0.0 74.182322872,15.181430627,0.0 74.181413673,15.181568891,0.0 74.181283529,15.181909204,0.0 74.181493517,15.183421872,0.0 74.18152039,15.184341134,0.0 74.18070893,15.185485462,0.0 74.180000867,15.185514983,0.0 74.179285179,15.185341831,0.0 74.177996279,15.186016029,0.0 74.177437134,15.185864463,0.0 74.177116682,15.185926242,0.0 74.176382575,15.18601006,0.0 74.176397611,15.186165675,0.0 74.175564267,15.186363309,0.0 74.174133019,15.184079176,0.0 74.173564149,15.183012764,0.0 74.173463618,15.18220058,0.0 74.173837004,15.180836419,0.0 74.173804963,15.179818086,0.0 74.173303953,15.177757508,0.0 74.170168837,15.175444343,0.0 74.168951679,15.175360396,0.0 74.168227494,15.175142718,0.0 74.167877368,15.17437921,0.0 74.167478029,15.174524986,0.0 74.167234474,15.174349379,0.0 74.165817407,15.174023096,0.0 74.165305335,15.173671896,0.0 74.164600128,15.173769399,0.0 74.164275493,15.173666587,0.0 74.162983162,15.173206839,0.0 74.162458836,15.173146601,0.0 74.16089847,15.173135597,0.0 74.160442727,15.172978319,0.0 74.159600168,15.173021348,0.0 74.158339328,15.172925251,0.0 74.157690077,15.172731733,0.0 74.157140747,15.172616945,0.0 74.15692215,15.172417062,0.0 74.15634778,15.172199241,0.0 74.155273706,15.171442276,0.0 74.154636275,15.170327367,0.0 74.155035682,15.169998584,0.0 74.155599695,15.169342686,0.0 74.155856795,15.168520143,0.0 74.15543851,15.167078313,0.0 74.155658776,15.166231958,0.0 74.155461955,15.165576585,0.0 74.155449344,15.165111778,0.0 74.155449292,15.165040268,0.0 74.155755516,15.164277283,0.0 74.155914187,15.163109175,0.0 74.15610987,15.162215164,0.0 74.156354636,15.161321118,0.0 74.156648581,15.16055814,0.0 74.156930323,15.159890517,0.0 74.157543221,15.159008132,0.0 74.156904401,15.158019354,0.0 74.156560009,15.156923105,0.0 74.155675301,15.155273025,0.0 74.155208192,15.154147062,0.0 74.155250526,15.153306789,0.0 74.155943333,15.152644842,0.0 74.156446182,15.15231078,0.0 74.156458317,15.152126037,0.0 74.156347777,15.151983093,0.0 74.156419964,15.150028432,0.0 74.15668941,15.14934294,0.0 74.156731817,15.148609931,0.0</coordinates>
                    </LinearRing>
                </outerBoundaryIs>
            </Polygon>
        </Placemark>
    </Document>
</kml>
