<?xml version="1.0" encoding="UTF-8"?>
<kml xmlns="http://www.opengis.net/kml/2.2" xmlns:gx="http://www.google.com/kml/ext/2.2">
    <Document id="4097">
        <Placemark id="4099">
            <ExtendedData>
                <Data name="id">
                    <value>298</value>
                </Data>
                <Data name="taluka">
                    <value>Sanguem</value>
                </Data>
                <Data name="village">
                    <value>Curpem</value>
                </Data>
                <Data name="lg_code">
                    <value>627015</value>
                </Data>
                <Data name="dslr_code">
                    <value>00034600</value>
                </Data>
            </ExtendedData>
            <Polygon id="4098">
                <outerBoundaryIs>
                    <LinearRing id="4102">
                        <coordinates>74.153719268,15.122850432,0.0 74.153989079,15.122711479,0.0 74.154327943,15.122472377,0.0 74.155483098,15.12273941,0.0 74.15550564,15.122996361,0.0 74.15565105,15.123144651,0.0 74.155845132,15.123618639,0.0 74.156359767,15.124284226,0.0 74.156740018,15.124595218,0.0 74.156814239,15.124197049,0.0 74.157022658,15.123896506,0.0 74.157432277,15.12361392,0.0 74.158140055,15.123472275,0.0 74.15825939,15.1236242,0.0 74.158386348,15.124007752,0.0 74.158665752,15.123974982,0.0 74.158844492,15.123848183,0.0 74.159496443,15.123786197,0.0 74.160334544,15.123543114,0.0 74.161042582,15.123748908,0.0 74.161634935,15.123705054,0.0 74.162800742,15.123262669,0.0 74.165017091,15.12269646,0.0 74.16551611,15.122410174,0.0 74.165504332,15.121635663,0.0 74.165533607,15.120951604,0.0 74.166289564,15.120502262,0.0 74.166826464,15.121023038,0.0 74.168145473,15.121184928,0.0 74.168461985,15.120971156,0.0 74.168547263,15.120449921,0.0 74.170080706,15.118541428,0.0 74.170318276,15.117451855,0.0 74.170206191,15.117053821,0.0 74.169594269,15.115888882,0.0 74.169720236,15.115005691,0.0 74.170539937,15.115106413,0.0 74.171188322,15.115279647,0.0 74.171680083,15.115264797,0.0 74.17191116,15.115380438,0.0 74.172335867,15.115372876,0.0 74.172641251,15.115235112,0.0 74.172685548,15.114728383,0.0 74.172789705,15.114532864,0.0 74.172587905,15.113765737,0.0 74.17286319,15.11326607,0.0 74.173116489,15.113222445,0.0 74.173295373,15.113294693,0.0 74.173995297,15.112715076,0.0 74.174218202,15.111947623,0.0 74.174411791,15.111780988,0.0 74.174858429,15.111266709,0.0 74.17517125,15.111121697,0.0 74.175454214,15.110911561,0.0 74.17569975,15.110491538,0.0 74.175871038,15.110390066,0.0 74.17663798,15.109781434,0.0 74.177151985,15.109650739,0.0 74.177903977,15.108991445,0.0 74.181190084,15.109307331,0.0 74.182591692,15.110290641,0.0 74.186079442,15.111112988,0.0 74.19100182,15.116421942,0.0 74.196499515,15.115070873,0.0 74.19699146,15.115258646,0.0 74.197989973,15.115330159,0.0 74.198169283,15.115851173,0.0 74.197916657,15.116618674,0.0 74.197097419,15.117039222,0.0 74.196144298,15.117720469,0.0 74.195297434,15.120529737,0.0 74.193985865,15.120371619,0.0 74.193419831,15.120661644,0.0 74.193375294,15.120849882,0.0 74.192675605,15.121661191,0.0 74.192587,15.122558839,0.0 74.192736249,15.12280482,0.0 74.192825875,15.123036376,0.0 74.194688662,15.122976871,0.0 74.195225518,15.123367287,0.0 74.19529319,15.124033169,0.0 74.194541708,15.125249883,0.0 74.193156232,15.125793958,0.0 74.192246945,15.125563101,0.0 74.191598298,15.125151058,0.0 74.190235008,15.125514134,0.0 74.190102211,15.127005375,0.0 74.190781004,15.127793798,0.0 74.191646044,15.128531392,0.0 74.191944589,15.129066786,0.0 74.191706366,15.129320335,0.0 74.19062555,15.128944848,0.0 74.189827865,15.128532926,0.0 74.188829889,15.129134557,0.0 74.188733793,15.130010494,0.0 74.18907694,15.130430039,0.0 74.190754817,15.131840134,0.0 74.190770698,15.132933131,0.0 74.190562555,15.133497909,0.0 74.18962394,15.133838907,0.0 74.189505781,15.135040595,0.0 74.189509324,15.136232528,0.0 74.188699226,15.135856805,0.0 74.187745751,15.136262955,0.0 74.187030173,15.136031917,0.0 74.185439259,15.134662742,0.0 74.183393154,15.135417215,0.0 74.179818,15.137446865,0.0 74.179262081,15.138026386,0.0 74.176400986,15.138549809,0.0 74.172249472,15.140637698,0.0 74.167957341,15.140911167,0.0 74.166964165,15.141452377,0.0 74.163725497,15.142072433,0.0 74.16332844,15.142574589,0.0 74.16269284,15.142980403,0.0 74.162037895,15.144081124,0.0 74.161620796,15.144370962,0.0 74.161740558,15.145065771,0.0 74.16130436,15.146378662,0.0 74.161086419,15.147247436,0.0 74.159894513,15.147846665,0.0 74.159736038,15.148522369,0.0 74.15921955,15.148792971,0.0 74.158762563,15.148909108,0.0 74.158166037,15.148446264,0.0 74.156731817,15.148609931,0.0 74.156319368,15.146715197,0.0 74.156343292,15.145874936,0.0 74.157704513,15.144831133,0.0 74.15721785,15.142131962,0.0 74.157480496,15.140564513,0.0 74.155417319,15.138051166,0.0 74.155134546,15.137270707,0.0 74.155223432,15.132962153,0.0 74.154456098,15.132283331,0.0 74.154045004,15.132188265,0.0 74.153204304,15.131849162,0.0 74.152989175,15.131271267,0.0 74.152485713,15.130687606,0.0 74.153417471,15.12969775,0.0 74.153711564,15.129185059,0.0 74.154901092,15.128373797,0.0 74.155213515,15.127765745,0.0 74.155360241,15.127074378,0.0 74.155242904,15.126001804,0.0 74.153831931,15.125961054,0.0 74.153719268,15.122850432,0.0</coordinates>
                    </LinearRing>
                </outerBoundaryIs>
            </Polygon>
        </Placemark>
    </Document>
</kml>
