<?xml version="1.0" encoding="UTF-8"?>
<kml xmlns="http://www.opengis.net/kml/2.2" xmlns:gx="http://www.google.com/kml/ext/2.2">
    <Document id="4237">
        <Placemark id="4239">
            <ExtendedData>
                <Data name="id">
                    <value>304</value>
                </Data>
                <Data name="taluka">
                    <value>Sanguem</value>
                </Data>
                <Data name="village">
                    <value>Patiem</value>
                </Data>
                <Data name="lg_code">
                    <value>626993</value>
                </Data>
                <Data name="dslr_code">
                    <value>00032400</value>
                </Data>
            </ExtendedData>
            <Polygon id="4238">
                <outerBoundaryIs>
                    <LinearRing id="4242">
                        <coordinates>74.197439757,15.242431511,0.0 74.19861052,15.241175369,0.0 74.200868646,15.239941711,0.0 74.201538572,15.239301826,0.0 74.201996602,15.238175335,0.0 74.203167595,15.237212419,0.0 74.204411668,15.23687112,0.0 74.204568081,15.236202368,0.0 74.206416654,15.236306247,0.0 74.206633721,15.235895497,0.0 74.208301173,15.236105096,0.0 74.21071829,15.23692394,0.0 74.211698279,15.238307157,0.0 74.212471467,15.238271237,0.0 74.213111556,15.23803603,0.0 74.213280368,15.237707431,0.0 74.213823944,15.237613074,0.0 74.214742061,15.237530088,0.0 74.215297634,15.237353606,0.0 74.215635189,15.236637753,0.0 74.217989551,15.235145772,0.0 74.218100895,15.23767934,0.0 74.217268578,15.238958715,0.0 74.217848618,15.239075453,0.0 74.219843005,15.239953257,0.0 74.22396422,15.241227751,0.0 74.224809757,15.241050956,0.0 74.225655481,15.241050108,0.0 74.22697267,15.241306839,0.0 74.22779423,15.241306007,0.0 74.228289431,15.241164744,0.0 74.228771979,15.240495645,0.0 74.229412692,15.24084689,0.0 74.229002294,15.241199208,0.0 74.228785355,15.241692088,0.0 74.228809937,15.242079152,0.0 74.229269237,15.242254633,0.0 74.229643417,15.241925811,0.0 74.229812091,15.24149163,0.0 74.229944315,15.240869806,0.0 74.230669284,15.240927712,0.0 74.230935159,15.240997819,0.0 74.231720024,15.240586461,0.0 74.231616976,15.240263993,0.0 74.231973129,15.240029026,0.0 74.232486846,15.240251364,0.0 74.233387471,15.240737223,0.0 74.233466591,15.241270854,0.0 74.233575541,15.241464286,0.0 74.23462674,15.241539434,0.0 74.235478728,15.241737951,0.0 74.235726365,15.241702502,0.0 74.23585954,15.241948691,0.0 74.235600532,15.242623436,0.0 74.235812748,15.243327011,0.0 74.236145674,15.243930754,0.0 74.236659333,15.244088568,0.0 74.236979504,15.24408823,0.0 74.237649656,15.243735622,0.0 74.238326448,15.243916719,0.0 74.23880887,15.243159624,0.0 74.239442618,15.242672155,0.0 74.240046051,15.242090878,0.0 74.241093406,15.241438742,0.0 74.242562162,15.242152688,0.0 74.243709752,15.24199309,0.0 74.244676296,15.241992039,0.0 74.24549811,15.242208146,0.0 74.246362533,15.242699857,0.0 74.24655013,15.24298117,0.0 74.247813089,15.243325813,0.0 74.248544194,15.243454034,0.0 74.249323745,15.243681903,0.0 74.249927923,15.243751611,0.0 74.251033256,15.243615483,0.0 74.251232767,15.243750155,0.0 74.252592057,15.243813144,0.0 74.252864342,15.244182331,0.0 74.253874252,15.245072667,0.0 74.254188291,15.244996066,0.0 74.254453354,15.244379944,0.0 74.254924146,15.244045106,0.0 74.255443697,15.244067975,0.0 74.256000742,15.245123036,0.0 74.255447875,15.247528305,0.0 74.252479373,15.25062837,0.0 74.251976139,15.254171378,0.0 74.253428541,15.256257671,0.0 74.250931372,15.259662802,0.0 74.247665816,15.258718074,0.0 74.246181139,15.258872145,0.0 74.244140876,15.259661171,0.0 74.243608633,15.25958647,0.0 74.241040796,15.260683637,0.0 74.241344268,15.262056263,0.0 74.238963182,15.266967835,0.0 74.238337564,15.267584116,0.0 74.237609232,15.267472065,0.0 74.234901331,15.268135034,0.0 74.233323278,15.269180844,0.0 74.2330058,15.269152831,0.0 74.231530461,15.268676614,0.0 74.230951531,15.268695289,0.0 74.230764779,15.267686829,0.0 74.229737644,15.267332001,0.0 74.228747859,15.266491618,0.0 74.228234292,15.267014523,0.0 74.227104444,15.267556103,0.0 74.225339639,15.266893134,0.0 74.223873638,15.266930485,0.0 74.223957676,15.265492496,0.0 74.222234891,15.260692975,0.0 74.220810908,15.259955305,0.0 74.219106798,15.259413725,0.0 74.21855588,15.258255864,0.0 74.217673478,15.257219391,0.0 74.217262624,15.257182041,0.0 74.21685177,15.256491059,0.0 74.216884452,15.256094212,0.0 74.216482936,15.255678689,0.0 74.214904883,15.25559932,0.0 74.214269927,15.25516979,0.0 74.2128226,15.254992376,0.0 74.212271683,15.254002592,0.0 74.209993311,15.253367636,0.0 74.208891475,15.252714004,0.0 74.208107118,15.252788705,0.0 74.207124801,15.252819408,0.0 74.205286374,15.251192633,0.0 74.203913251,15.249352278,0.0 74.200889879,15.24639905,0.0 74.199347368,15.244230378,0.0 74.197439757,15.242431511,0.0</coordinates>
                    </LinearRing>
                </outerBoundaryIs>
            </Polygon>
        </Placemark>
    </Document>
</kml>
