<?xml version="1.0" encoding="UTF-8"?>
<kml xmlns="http://www.opengis.net/kml/2.2" xmlns:gx="http://www.google.com/kml/ext/2.2">
    <Document id="4265">
        <Placemark id="4267">
            <ExtendedData>
                <Data name="id">
                    <value>306</value>
                </Data>
                <Data name="taluka">
                    <value>Sanguem</value>
                </Data>
                <Data name="village">
                    <value>Potrem</value>
                </Data>
                <Data name="lg_code">
                    <value>627005</value>
                </Data>
                <Data name="dslr_code">
                    <value>00033600</value>
                </Data>
            </ExtendedData>
            <Polygon id="4266">
                <outerBoundaryIs>
                    <LinearRing id="4270">
                        <coordinates>74.235110373,15.204709208,0.0 74.235472706,15.204395778,0.0 74.23588216,15.202970969,0.0 74.236203869,15.202368009,0.0 74.23728348,15.202045997,0.0 74.238129118,15.201505091,0.0 74.240135752,15.201354259,0.0 74.241175918,15.201791418,0.0 74.241523152,15.202385841,0.0 74.242635583,15.202580301,0.0 74.243005656,15.202000758,0.0 74.243229096,15.200059604,0.0 74.243735435,15.198838159,0.0 74.244814475,15.198046535,0.0 74.246055246,15.197732131,0.0 74.24737771,15.198364609,0.0 74.24897576,15.200327238,0.0 74.250039563,15.200294754,0.0 74.251289057,15.200535976,0.0 74.252603689,15.201332782,0.0 74.2531862,15.203202603,0.0 74.253988477,15.203499096,0.0 74.254620923,15.203310551,0.0 74.256545957,15.20232617,0.0 74.257734757,15.20234829,0.0 74.258194494,15.202633421,0.0 74.258673842,15.202476345,0.0 74.258846796,15.202210054,0.0 74.259403056,15.202338546,0.0 74.25987937,15.202995402,0.0 74.260331009,15.20324532,0.0 74.260774618,15.203518725,0.0 74.261009152,15.204175858,0.0 74.261444367,15.204175353,0.0 74.261629379,15.203885566,0.0 74.261604033,15.20293862,0.0 74.261748119,15.202140174,0.0 74.262908399,15.20191186,0.0 74.263416106,15.201879962,0.0 74.264359324,15.202090164,0.0 74.264398831,15.201456191,0.0 74.264615772,15.200923751,0.0 74.264663026,15.200039329,0.0 74.265265248,15.198254235,0.0 74.265538325,15.197502593,0.0 74.265730924,15.19684496,0.0 74.266753957,15.196452437,0.0 74.267294143,15.196623974,0.0 74.267270389,15.196960531,0.0 74.267069636,15.197539912,0.0 74.267915702,15.197413686,0.0 74.269221146,15.197286909,0.0 74.270873944,15.197793632,0.0 74.271350643,15.198732207,0.0 74.272552195,15.199286419,0.0 74.273244664,15.198792526,0.0 74.273615322,15.198737292,0.0 74.274357113,15.198994655,0.0 74.275478061,15.199533296,0.0 74.27614019,15.200502939,0.0 74.276374891,15.201253971,0.0 74.278188453,15.201400435,0.0 74.278624021,15.201673814,0.0 74.278844228,15.203653581,0.0 74.279118498,15.20384107,0.0 74.279779657,15.204051558,0.0 74.280150674,15.204262404,0.0 74.280505924,15.204739362,0.0 74.280627593,15.205326179,0.0 74.280885655,15.20544325,0.0 74.281562638,15.205426751,0.0 74.282094288,15.205214777,0.0 74.28476155,15.204874888,0.0 74.288902706,15.20380524,0.0 74.291305543,15.204608244,0.0 74.295193318,15.206818,0.0 74.295509159,15.207905431,0.0 74.300034021,15.210302092,0.0 74.301122153,15.210347595,0.0 74.301138717,15.210660621,0.0 74.302139899,15.211903648,0.0 74.301513405,15.213430602,0.0 74.301860447,15.213758837,0.0 74.301975749,15.215488277,0.0 74.301340816,15.216756977,0.0 74.301494602,15.217210691,0.0 74.300086622,15.217983768,0.0 74.300166578,15.218462634,0.0 74.29940083,15.21889131,0.0 74.299269486,15.219447436,0.0 74.299481486,15.219866255,0.0 74.299455483,15.220165648,0.0 74.299641627,15.220986496,0.0 74.300073801,15.221370808,0.0 74.300135729,15.221558894,0.0 74.300039619,15.222114973,0.0 74.300269218,15.222516661,0.0 74.300040613,15.222816324,0.0 74.300579625,15.22399593,0.0 74.300580123,15.224346606,0.0 74.300334323,15.22494565,0.0 74.299797282,15.225160195,0.0 74.299093353,15.225717083,0.0 74.299076376,15.226170419,0.0 74.298345533,15.226385218,0.0 74.298213844,15.226701857,0.0 74.297914435,15.226770679,0.0 74.297544902,15.227087633,0.0 74.297254793,15.227507118,0.0 74.296805917,15.22778141,0.0 74.296471605,15.228089763,0.0 74.296049799,15.228825884,0.0 74.295258163,15.229673682,0.0 74.294915418,15.230255742,0.0 74.294237887,15.230812581,0.0 74.293595233,15.231112779,0.0 74.292856529,15.232028924,0.0 74.29243384,15.232140665,0.0 74.291379313,15.234015161,0.0 74.28658532,15.232738366,0.0 74.280890254,15.236149691,0.0 74.259595257,15.241170329,0.0 74.258149082,15.240025882,0.0 74.25772539,15.23934212,0.0 74.257565527,15.238281719,0.0 74.256506024,15.236332825,0.0 74.25662861,15.235716861,0.0 74.25572999,15.235666568,0.0 74.255182591,15.234657924,0.0 74.253630855,15.23358199,0.0 74.252801821,15.232778933,0.0 74.252114087,15.232266519,0.0 74.252113659,15.231907289,0.0 74.25153166,15.231411861,0.0 74.251354826,15.23086466,0.0 74.249573837,15.229566573,0.0 74.249308657,15.228797087,0.0 74.24853203,15.227583405,0.0 74.248434323,15.226894988,0.0 74.248566007,15.226509952,0.0 74.248464402,15.226253471,0.0 74.248683824,15.225568979,0.0 74.249259715,15.224636051,0.0 74.249068985,15.223498698,0.0 74.24714792,15.222876441,0.0 74.246477501,15.222064631,0.0 74.246291263,15.220987142,0.0 74.245929726,15.220662519,0.0 74.245638233,15.219970035,0.0 74.244915412,15.219534614,0.0 74.244025593,15.219415838,0.0 74.243303376,15.219502153,0.0 74.242448607,15.219220823,0.0 74.241891794,15.217587776,0.0 74.241477115,15.216998056,0.0 74.239969359,15.215691042,0.0 74.240055856,15.214288236,0.0 74.23975569,15.213689837,0.0 74.23966688,15.213048447,0.0 74.238104277,15.209928214,0.0 74.237346206,15.209432933,0.0 74.235900967,15.208827181,0.0 74.235952732,15.207852069,0.0 74.235476365,15.20720253,0.0 74.235721322,15.205696921,0.0 74.235110373,15.204709208,0.0</coordinates>
                    </LinearRing>
                </outerBoundaryIs>
            </Polygon>
        </Placemark>
    </Document>
</kml>
