<?xml version="1.0" encoding="UTF-8"?>
<kml xmlns="http://www.opengis.net/kml/2.2" xmlns:gx="http://www.google.com/kml/ext/2.2">
    <Document id="4279">
        <Placemark id="4281">
            <ExtendedData>
                <Data name="id">
                    <value>307</value>
                </Data>
                <Data name="taluka">
                    <value>Sanguem</value>
                </Data>
                <Data name="village">
                    <value>Rivona</value>
                </Data>
                <Data name="lg_code">
                    <value>627014</value>
                </Data>
                <Data name="dslr_code">
                    <value>00034500</value>
                </Data>
            </ExtendedData>
            <Polygon id="4280">
                <outerBoundaryIs>
                    <LinearRing id="4284">
                        <coordinates>74.081599092,15.181686049,0.0 74.080437859,15.181905765,0.0 74.079070039,15.181780936,0.0 74.079289331,15.181599155,0.0 74.079166554,15.181079147,0.0 74.078424272,15.180177149,0.0 74.077566035,15.179738849,0.0 74.074256017,15.178887832,0.0 74.0730489,15.17698346,0.0 74.070603706,15.176883988,0.0 74.068507305,15.17803752,0.0 74.066416714,15.177211077,0.0 74.067038852,15.170899103,0.0 74.067030681,15.169623978,0.0 74.067123673,15.168884526,0.0 74.06699117,15.167503805,0.0 74.066765501,15.166304195,0.0 74.06573969,15.165172725,0.0 74.064053038,15.162298511,0.0 74.066174778,15.160702299,0.0 74.071080857,15.157191627,0.0 74.073793452,15.157683089,0.0 74.074462042,15.157452416,0.0 74.076780806,15.157420213,0.0 74.07750293,15.156126284,0.0 74.078424808,15.155492218,0.0 74.078565024,15.155523594,0.0 74.078791491,15.155481615,0.0 74.078924982,15.151920012,0.0 74.079318421,15.151375165,0.0 74.079867788,15.149636094,0.0 74.080180378,15.149201263,0.0 74.079997015,15.14913324,0.0 74.079479146,15.148573001,0.0 74.079220262,15.14842644,0.0 74.079074537,15.148065098,0.0 74.079527375,15.147766396,0.0 74.079376099,15.146980812,0.0 74.079510471,15.14581802,0.0 74.079623357,15.144880453,0.0 74.079828079,15.144398522,0.0 74.079838699,15.143958561,0.0 74.079876332,15.143660006,0.0 74.080091862,15.14324616,0.0 74.080037829,15.142947637,0.0 74.080404468,15.142879418,0.0 74.080404448,15.142827042,0.0 74.08057159,15.142790319,0.0 74.080620074,15.142669837,0.0 74.08071173,15.142643617,0.0 74.080905831,15.142601646,0.0 74.080911201,15.142544031,0.0 74.081024272,15.142114508,0.0 74.081250263,15.140862644,0.0 74.081600552,15.140349234,0.0 74.081853786,15.139846334,0.0 74.081967019,15.139846293,0.0 74.082398238,15.139469029,0.0 74.083034015,15.138227488,0.0 74.084570186,15.136833719,0.0 74.08490397,15.135369285,0.0 74.087298097,15.135753273,0.0 74.087364262,15.13605796,0.0 74.088833789,15.136346062,0.0 74.08886695,15.136682837,0.0 74.092235168,15.136986199,0.0 74.096098032,15.135797813,0.0 74.095586015,15.13534898,0.0 74.096361418,15.134081688,0.0 74.097020688,15.131595592,0.0 74.09781302,15.131290538,0.0 74.097796275,15.130777344,0.0 74.097350211,15.130119999,0.0 74.097729508,15.12918966,0.0 74.099165736,15.128948471,0.0 74.099793161,15.129076495,0.0 74.100700919,15.128498742,0.0 74.100948039,15.127392043,0.0 74.101360708,15.127247521,0.0 74.101393559,15.126894681,0.0 74.10180628,15.12686242,0.0 74.101938126,15.126381235,0.0 74.102433239,15.126028186,0.0 74.102433124,15.125787624,0.0 74.101921126,15.125354842,0.0 74.101755811,15.124889828,0.0 74.100946513,15.124168503,0.0 74.100946885,15.124954341,0.0 74.100748819,15.125050655,0.0 74.100468077,15.124874367,0.0 74.100517446,15.124537557,0.0 74.09997246,15.124152898,0.0 74.09898183,15.123992959,0.0 74.099047599,15.123415579,0.0 74.099327087,15.123233998,0.0 74.098713371,15.122591329,0.0 74.098769725,15.122277676,0.0 74.098713164,15.122144409,0.0 74.09888253,15.12186207,0.0 74.09924563,15.121634531,0.0 74.099245323,15.120975912,0.0 74.099689027,15.120520956,0.0 74.09997124,15.119924938,0.0 74.100221074,15.119132917,0.0 74.100963237,15.118324994,0.0 74.101479504,15.11772887,0.0 74.101568297,15.117752352,0.0 74.102060386,15.117234644,0.0 74.10223769,15.116693556,0.0 74.102188975,15.116089843,0.0 74.102446781,15.11511748,0.0 74.102325686,15.115054809,0.0 74.101970443,15.114804067,0.0 74.101671754,15.114670909,0.0 74.101566659,15.114310284,0.0 74.101897273,15.113690719,0.0 74.102365342,15.11359642,0.0 74.102606742,15.112083054,0.0 74.102960696,15.109667956,0.0 74.102604772,15.107982365,0.0 74.103145392,15.107739057,0.0 74.103605423,15.107738847,0.0 74.104081529,15.107605336,0.0 74.104880536,15.107620649,0.0 74.105461786,15.107941848,0.0 74.106018723,15.108059198,0.0 74.106680546,15.108105931,0.0 74.107342869,15.109148432,0.0 74.107319027,15.10988547,0.0 74.107585651,15.110457715,0.0 74.107448874,15.111304576,0.0 74.107134367,15.111814371,0.0 74.107909411,15.112292286,0.0 74.108401647,15.112119555,0.0 74.108547142,15.112550724,0.0 74.108450546,15.113052575,0.0 74.108854195,15.11325624,0.0 74.109104746,15.113946101,0.0 74.109452211,15.114753526,0.0 74.109395995,15.115302402,0.0 74.109654605,15.115960896,0.0 74.110679945,15.116579812,0.0 74.112512187,15.116798447,0.0 74.113166245,15.117370492,0.0 74.114505689,15.116711199,0.0 74.115361338,15.116930304,0.0 74.115780939,15.116757594,0.0 74.116345904,15.116741623,0.0 74.117749876,15.116035233,0.0 74.11942834,15.115485504,0.0 74.120171013,15.115736013,0.0 74.121365539,15.115766738,0.0 74.121736913,15.115954715,0.0 74.122318079,15.11604849,0.0 74.122366559,15.116142552,0.0 74.122915208,15.115828627,0.0 74.123400094,15.116910379,0.0 74.123868106,15.116721946,0.0 74.124384698,15.11680007,0.0 74.12480442,15.116846883,0.0 74.125499793,15.118994849,0.0 74.127017538,15.119621257,0.0 74.127348572,15.119817088,0.0 74.127703698,15.119809047,0.0 74.127784724,15.120334328,0.0 74.1278978,15.120467556,0.0 74.127849608,15.120859618,0.0 74.128075945,15.12143186,0.0 74.128310128,15.121627745,0.0 74.128173271,15.122215875,0.0 74.128982331,15.12252858,0.0 74.128709139,15.122872013,0.0 74.128414942,15.123296773,0.0 74.128406044,15.123801821,0.0 74.128295938,15.124324803,0.0 74.128034093,15.124999831,0.0 74.128177115,15.125656751,0.0 74.128656226,15.126679972,0.0 74.128808434,15.127305601,0.0 74.129186436,15.128503184,0.0 74.129665191,15.128923033,0.0 74.130327608,15.128721529,0.0 74.131063589,15.128439532,0.0 74.131542182,15.128591213,0.0 74.132002543,15.129020007,0.0 74.132306559,15.129587442,0.0 74.132790018,15.130159242,0.0 74.13292833,15.130610569,0.0 74.132693851,15.13088781,0.0 74.13246861,15.131223147,0.0 74.132395324,15.131755048,0.0 74.13204579,15.131987661,0.0 74.131107212,15.13204184,0.0 74.13083591,15.132301223,0.0 74.13091894,15.132645318,0.0 74.131140027,15.133029558,0.0 74.131443829,15.133243912,0.0 74.13154991,15.133659504,0.0 74.131435591,15.134808206,0.0 74.131647741,15.135617043,0.0 74.132135946,15.136403371,0.0 74.132637912,15.137113711,0.0 74.132624478,15.137708148,0.0 74.13253799,15.139209915,0.0 74.132317299,15.139478208,0.0 74.131889477,15.139621479,0.0 74.131443081,15.139492127,0.0 74.130485909,15.139291559,0.0 74.13004429,15.139448243,0.0 74.129510804,15.139864203,0.0 74.129483558,15.140458648,0.0 74.129516069,15.140954732,0.0 74.129709886,15.141884254,0.0 74.129816003,15.142357949,0.0 74.12967842,15.143104416,0.0 74.129310592,15.143556036,0.0 74.128698783,15.143824549,0.0 74.128022432,15.143887505,0.0 74.127405803,15.143793997,0.0 74.127056011,15.143637765,0.0 74.126554248,15.143262618,0.0 74.126181516,15.143213663,0.0 74.125960818,15.143490889,0.0 74.125758623,15.143933471,0.0 74.125588386,15.143951444,0.0 74.125045777,15.144537235,0.0 74.124586219,15.145516286,0.0 74.124342936,15.146522033,0.0 74.123952136,15.147063045,0.0 74.123634943,15.147581668,0.0 74.123488166,15.148386239,0.0 74.123203195,15.14893166,0.0 74.123442774,15.149458918,0.0 74.123645594,15.150075582,0.0 74.123112113,15.150567507,0.0 74.122385156,15.150688576,0.0 74.121547546,15.150429804,0.0 74.121207119,15.150568538,0.0 74.120576866,15.150823631,0.0 74.12000633,15.150899915,0.0 74.119168908,15.150971869,0.0 74.119003393,15.151217772,0.0 74.118828755,15.151606701,0.0 74.118907237,15.152067007,0.0 74.119013365,15.152594339,0.0 74.118847957,15.153032427,0.0 74.118636487,15.153390089,0.0 74.118374254,15.153484084,0.0 74.11783147,15.153832981,0.0 74.117353111,15.154190781,0.0 74.116699647,15.154101732,0.0 74.116175138,15.154218207,0.0 74.116000509,15.15463842,0.0 74.117215695,15.155335016,0.0 74.118642282,15.155530924,0.0 74.120768692,15.156405796,0.0 74.122941584,15.158058296,0.0 74.12276899,15.161986981,0.0 74.123910681,15.162799785,0.0 74.123915866,15.163800924,0.0 74.125149645,15.164680712,0.0 74.125770891,15.164698243,0.0 74.126681865,15.164411693,0.0 74.126829291,15.164697651,0.0 74.127579895,15.165564288,0.0 74.127870246,15.166297102,0.0 74.128031811,15.167132785,0.0 74.128418783,15.167829789,0.0 74.129049605,15.168446204,0.0 74.129528591,15.169098459,0.0 74.129188821,15.170359019,0.0 74.128694522,15.171082133,0.0 74.128322771,15.17058475,0.0 74.127906397,15.170429488,0.0 74.126574371,15.170548419,0.0 74.126119856,15.17087211,0.0 74.125504961,15.170735615,0.0 74.125267825,15.17043719,0.0 74.124659306,15.170250929,0.0 74.124242587,15.169498546,0.0 74.123829539,15.169548533,0.0 74.123253132,15.169511529,0.0 74.12278553,15.169356286,0.0 74.122266837,15.169449867,0.0 74.121857362,15.170146722,0.0 74.121466923,15.170538789,0.0 74.121242982,15.170905886,0.0 74.120615333,15.170862683,0.0 74.120244009,15.171086799,0.0 74.118323987,15.173382972,0.0 74.118426873,15.17412931,0.0 74.118670456,15.174514818,0.0 74.117626888,15.175156019,0.0 74.116858288,15.17503824,0.0 74.116179525,15.175237629,0.0 74.115785784,15.175311084,0.0 74.116000299,15.175418099,0.0 74.115834027,15.17586602,0.0 74.115309005,15.176133747,0.0 74.114259208,15.177135691,0.0 74.11387502,15.177291384,0.0 74.113830325,15.177546424,0.0 74.113619062,15.177708249,0.0 74.113453099,15.178747062,0.0 74.113517314,15.179064246,0.0 74.11226281,15.180563879,0.0 74.111648127,15.180868961,0.0 74.110828298,15.180800947,0.0 74.109983142,15.181292736,0.0 74.109631124,15.181753183,0.0 74.108997954,15.183488851,0.0 74.10782665,15.184982199,0.0 74.107352953,15.18548624,0.0 74.106847158,15.185847237,0.0 74.106411938,15.186456996,0.0 74.105875515,15.189626304,0.0 74.106625589,15.191022324,0.0 74.104277755,15.19043219,0.0 74.100519484,15.18878665,0.0 74.097713806,15.188558521,0.0 74.096343721,15.189646852,0.0 74.096104058,15.189865893,0.0 74.096057679,15.190182156,0.0 74.096125817,15.190501846,0.0 74.096114852,15.190450403,0.0 74.094519176,15.189945419,0.0 74.092247867,15.189476436,0.0 74.091383018,15.188818893,0.0 74.089879367,15.188011227,0.0 74.08926573,15.186338537,0.0 74.08756227,15.185950734,0.0 74.086955598,15.185474778,0.0 74.086060519,15.182381666,0.0 74.08439963,15.182888027,0.0 74.082676688,15.182080394,0.0 74.082102454,15.182011681,0.0 74.081599092,15.181686049,0.0</coordinates>
                    </LinearRing>
                </outerBoundaryIs>
            </Polygon>
        </Placemark>
    </Document>
</kml>
