<?xml version="1.0" encoding="UTF-8"?>
<kml xmlns="http://www.opengis.net/kml/2.2" xmlns:gx="http://www.google.com/kml/ext/2.2">
    <Document id="4307">
        <Placemark id="4309">
            <ExtendedData>
                <Data name="id">
                    <value>308</value>
                </Data>
                <Data name="taluka">
                    <value>Sanguem</value>
                </Data>
                <Data name="village">
                    <value>Salauli</value>
                </Data>
                <Data name="lg_code">
                    <value>627002</value>
                </Data>
                <Data name="dslr_code">
                    <value>00038900</value>
                </Data>
            </ExtendedData>
            <Polygon id="4308">
                <outerBoundaryIs>
                    <LinearRing id="4312">
                        <coordinates>74.172933012,15.189790178,0.0 74.172851749,15.189644761,0.0 74.172745414,15.189372068,0.0 74.172851226,15.189002226,0.0 74.173799323,15.188183174,0.0 74.174385948,15.188049364,0.0 74.174779315,15.188206662,0.0 74.175339712,15.186545333,0.0 74.175564267,15.186363309,0.0 74.176397611,15.186165675,0.0 74.176382575,15.18601006,0.0 74.177116682,15.185926242,0.0 74.177437134,15.185864463,0.0 74.177996279,15.186016029,0.0 74.179285179,15.185341831,0.0 74.180000867,15.185514983,0.0 74.18070893,15.185485462,0.0 74.18152039,15.184341134,0.0 74.181493517,15.183421872,0.0 74.181283529,15.181909204,0.0 74.181413673,15.181568891,0.0 74.182322872,15.181430627,0.0 74.183093929,15.180999313,0.0 74.183820162,15.180452219,0.0 74.183879426,15.18003234,0.0 74.18368189,15.180007166,0.0 74.183718656,15.17942806,0.0 74.183994194,15.179156393,0.0 74.184296111,15.179221292,0.0 74.184724583,15.179112364,0.0 74.184940537,15.178891414,0.0 74.185343083,15.178967087,0.0 74.185675129,15.179393883,0.0 74.185764591,15.179419144,0.0 74.186745424,15.180236278,0.0 74.187215139,15.180409612,0.0 74.187975306,15.180322117,0.0 74.188414997,15.180256604,0.0 74.189085465,15.179879642,0.0 74.189464986,15.179206147,0.0 74.189397273,15.178496836,0.0 74.190284012,15.178268077,0.0 74.190131508,15.178590317,0.0 74.189987185,15.179726876,0.0 74.190248648,15.180392593,0.0 74.190095964,15.180515776,0.0 74.189756948,15.180642735,0.0 74.188918543,15.180755635,0.0 74.189108769,15.180940056,0.0 74.189474414,15.181421106,0.0 74.189541414,15.181330569,0.0 74.189578555,15.181189388,0.0 74.189899015,15.181149307,0.0 74.190137832,15.181492932,0.0 74.190137965,15.18164132,0.0 74.190506782,15.181499859,0.0 74.190700311,15.181210157,0.0 74.190621923,15.181069073,0.0 74.190960968,15.180974686,0.0 74.191307632,15.181064873,0.0 74.191419942,15.181629377,0.0 74.191263492,15.181709133,0.0 74.191368045,15.181937055,0.0 74.191524567,15.181936922,0.0 74.191781945,15.182197287,0.0 74.192195817,15.182424946,0.0 74.192535096,15.182587521,0.0 74.192524119,15.182811923,0.0 74.192714288,15.182927575,0.0 74.193150381,15.182999586,0.0 74.193217699,15.183260113,0.0 74.193459775,15.183082563,0.0 74.193847352,15.183078611,0.0 74.194242607,15.183320758,0.0 74.194209262,15.183534321,0.0 74.194384759,15.18390695,0.0 74.194422315,15.18422179,0.0 74.194776585,15.184471211,0.0 74.194628354,15.185387003,0.0 74.195012368,15.185556774,0.0 74.195142961,15.185726765,0.0 74.195336827,15.185806219,0.0 74.195475447,15.186598709,0.0 74.195207301,15.186797999,0.0 74.195259669,15.187007869,0.0 74.195420371,15.187496324,0.0 74.195320127,15.187909003,0.0 74.195100324,15.187996055,0.0 74.195052039,15.188173439,0.0 74.195186387,15.18837238,0.0 74.195514451,15.188484291,0.0 74.195570613,15.188766542,0.0 74.195280403,15.189291581,0.0 74.195347659,15.189479722,0.0 74.195409528,15.18988864,0.0 74.195515869,15.190024269,0.0 74.195570153,15.190290235,0.0 74.195734158,15.190315427,0.0 74.195635563,15.190496474,0.0 74.195767993,15.190633889,0.0 74.196082917,15.190637234,0.0 74.195954634,15.190955837,0.0 74.196405953,15.191353559,0.0 74.197338046,15.191754477,0.0 74.198604861,15.191405918,0.0 74.201645455,15.190838617,0.0 74.20334535,15.191300348,0.0 74.203390876,15.192139967,0.0 74.204764242,15.194078624,0.0 74.204541255,15.194730286,0.0 74.205407458,15.196336431,0.0 74.206140656,15.199129797,0.0 74.206588546,15.199795322,0.0 74.208496823,15.199836993,0.0 74.210316442,15.200674958,0.0 74.211749744,15.200748834,0.0 74.211952801,15.202321724,0.0 74.211550966,15.203464739,0.0 74.211406635,15.20420837,0.0 74.210947528,15.204498373,0.0 74.210013872,15.205767103,0.0 74.208869868,15.206237745,0.0 74.208233694,15.206786174,0.0 74.207556613,15.206716363,0.0 74.20716195,15.206982821,0.0 74.206493485,15.207484317,0.0 74.20611582,15.208658604,0.0 74.205914821,15.209167496,0.0 74.205592916,15.209668672,0.0 74.20498085,15.210162286,0.0 74.204578366,15.210687013,0.0 74.204707965,15.211352128,0.0 74.203918801,15.212080689,0.0 74.203105264,15.212613611,0.0 74.202333991,15.21361535,0.0 74.201657755,15.213737827,0.0 74.201518764,15.214225433,0.0 74.200988959,15.214354548,0.0 74.200465895,15.214239915,0.0 74.199733969,15.214463996,0.0 74.19903662,15.214383367,0.0 74.198786166,15.214986169,0.0 74.197830861,15.214946389,0.0 74.197314947,15.215021318,0.0 74.196554785,15.214879802,0.0 74.196240748,15.214595712,0.0 74.195613058,15.214440536,0.0 74.195083286,15.214610261,0.0 74.194491149,15.215206584,0.0 74.193138057,15.214794746,0.0 74.192817391,15.214883038,0.0 74.191130083,15.214992808,0.0 74.188935077,15.216578977,0.0 74.188405312,15.216768998,0.0 74.187903185,15.21667463,0.0 74.187554209,15.21629577,0.0 74.186793864,15.215944333,0.0 74.186305816,15.215998902,0.0 74.185866192,15.215613344,0.0 74.185935528,15.215166428,0.0 74.185970184,15.214929429,0.0 74.185795711,15.214753539,0.0 74.185969798,15.214489342,0.0 74.185453187,15.213772088,0.0 74.183555037,15.211959131,0.0 74.181017827,15.212942922,0.0 74.179540276,15.213722723,0.0 74.178919475,15.213452394,0.0 74.178647271,15.213134394,0.0 74.178786508,15.212877001,0.0 74.179616075,15.212659681,0.0 74.179671518,15.212260173,0.0 74.179105868,15.211238267,0.0 74.178205943,15.210697335,0.0 74.179355675,15.209809475,0.0 74.179292458,15.209261109,0.0 74.178315404,15.208198904,0.0 74.177770473,15.206919696,0.0 74.177706995,15.206053111,0.0 74.178416558,15.204116163,0.0 74.178158363,15.203859085,0.0 74.178158164,15.203622115,0.0 74.17790705,15.203493673,0.0 74.178067284,15.203337822,0.0 74.178067165,15.20319564,0.0 74.177049029,15.202993326,0.0 74.175646036,15.201125744,0.0 74.17506686,15.200550696,0.0 74.174397381,15.200381951,0.0 74.174229708,15.199969075,0.0 74.174249991,15.199197212,0.0 74.174465468,15.198391345,0.0 74.174359805,15.197077933,0.0 74.174505709,15.196454926,0.0 74.172964433,15.195928009,0.0 74.172803225,15.194885462,0.0 74.173430272,15.194343333,0.0 74.173820365,15.193923255,0.0 74.174329164,15.193726514,0.0 74.174215989,15.191749589,0.0 74.17370582,15.190267224,0.0 74.172933012,15.189790178,0.0</coordinates>
                    </LinearRing>
                </outerBoundaryIs>
            </Polygon>
        </Placemark>
    </Document>
</kml>
