<?xml version="1.0" encoding="UTF-8"?>
<kml xmlns="http://www.opengis.net/kml/2.2" xmlns:gx="http://www.google.com/kml/ext/2.2">
    <Document id="4321">
        <Placemark id="4323">
            <ExtendedData>
                <Data name="id">
                    <value>309</value>
                </Data>
                <Data name="taluka">
                    <value>Sanguem</value>
                </Data>
                <Data name="village">
                    <value>Sanguem</value>
                </Data>
                <Data name="lg_code">
                    <value>252099</value>
                </Data>
                <Data name="dslr_code">
                    <value>40213000</value>
                </Data>
            </ExtendedData>
            <Polygon id="4322">
                <outerBoundaryIs>
                    <LinearRing id="4326">
                        <coordinates>74.163084821,15.221954955,0.0 74.164008814,15.22148363,0.0 74.167583328,15.222860116,0.0 74.167493744,15.223615417,0.0 74.167889678,15.225366389,0.0 74.167533506,15.226121017,0.0 74.166660888,15.227053056,0.0 74.1666041,15.227664757,0.0 74.166905805,15.22898516,0.0 74.165932285,15.229069289,0.0 74.165675811,15.230654231,0.0 74.164431945,15.232921063,0.0 74.166522361,15.232961227,0.0 74.166007632,15.233865194,0.0 74.165049069,15.23479729,0.0 74.163703979,15.235813072,0.0 74.161070196,15.236746366,0.0 74.160797922,15.236440731,0.0 74.15965233,15.236233029,0.0 74.158492392,15.235983627,0.0 74.158665217,15.237331934,0.0 74.158364758,15.237624074,0.0 74.157691883,15.237721857,0.0 74.15776394,15.238347366,0.0 74.157678373,15.23880617,0.0 74.156647728,15.239154425,0.0 74.155860641,15.239711026,0.0 74.155774537,15.23944696,0.0 74.153326105,15.239406942,0.0 74.151707747,15.238838087,0.0 74.149229705,15.23740791,0.0 74.14793345,15.238268286,0.0 74.148282887,15.238559912,0.0 74.147479908,15.237889777,0.0 74.146423277,15.237653764,0.0 74.145194041,15.237541141,0.0 74.14434541,15.236940063,0.0 74.143658912,15.235742185,0.0 74.143973133,15.234735988,0.0 74.14493024,15.234976475,0.0 74.145231844,15.234487686,0.0 74.145328261,15.233756542,0.0 74.144936263,15.232884564,0.0 74.144820551,15.232656628,0.0 74.145241602,15.232410249,0.0 74.145271113,15.231957828,0.0 74.145539467,15.231910605,0.0 74.14564011,15.23190692,0.0 74.145681051,15.231816413,0.0 74.145602608,15.231577596,0.0 74.145665835,15.231371259,0.0 74.144711337,15.231028051,0.0 74.144219355,15.231115228,0.0 74.14390269,15.231379634,0.0 74.143604564,15.231499259,0.0 74.143116283,15.23155024,0.0 74.142158132,15.23131198,0.0 74.141960557,15.231294009,0.0 74.141792763,15.231214492,0.0 74.141609929,15.230943166,0.0 74.140602977,15.230183763,0.0 74.140211451,15.22998495,0.0 74.139969001,15.229746233,0.0 74.138753408,15.229124481,0.0 74.138000372,15.229016369,0.0 74.137854967,15.228969408,0.0 74.137690818,15.228759594,0.0 74.137560286,15.228654717,0.0 74.137053106,15.228293105,0.0 74.137861635,15.227760585,0.0 74.138133641,15.227601172,0.0 74.138677303,15.22675032,0.0 74.138382673,15.226511633,0.0 74.13847943,15.226269086,0.0 74.13845321,15.226073664,0.0 74.138568644,15.225892632,0.0 74.138877905,15.225707861,0.0 74.138937255,15.225266279,0.0 74.139410571,15.22515379,0.0 74.139529674,15.224885894,0.0 74.139399072,15.224672441,0.0 74.139555459,15.224418999,0.0 74.139525461,15.224147576,0.0 74.139361417,15.224093389,0.0 74.139461958,15.223941319,0.0 74.139622189,15.223865216,0.0 74.139513899,15.223572127,0.0 74.139379628,15.223445537,0.0 74.139413051,15.223257317,0.0 74.139107284,15.223080165,0.0 74.138853834,15.223105656,0.0 74.138641173,15.222805392,0.0 74.13885345,15.222519342,0.0 74.139121787,15.222461269,0.0 74.139337802,15.222193313,0.0 74.139315342,15.222048558,0.0 74.13915861,15.221773594,0.0 74.139240504,15.221607059,0.0 74.140940096,15.221439515,0.0 74.142012514,15.219831906,0.0 74.141960123,15.219520686,0.0 74.14274237,15.218774631,0.0 74.143226605,15.218296585,0.0 74.144924821,15.216160156,0.0 74.144946735,15.215501443,0.0 74.145557586,15.214878542,0.0 74.145967131,15.21421234,0.0 74.147747215,15.211974497,0.0 74.149132535,15.210243594,0.0 74.14926675,15.210294174,0.0 74.148947658,15.212357343,0.0 74.148971334,15.214224846,0.0 74.148637487,15.216519654,0.0 74.148456009,15.218177378,0.0 74.148486345,15.218915679,0.0 74.148622107,15.221163125,0.0 74.14851067,15.22171332,0.0 74.148839207,15.222458662,0.0 74.149159955,15.222726272,0.0 74.149458267,15.222892558,0.0 74.149808948,15.223319392,0.0 74.150644478,15.224136778,0.0 74.1513236,15.225149703,0.0 74.151189912,15.225851921,0.0 74.151495892,15.226307736,0.0 74.151831616,15.226654955,0.0 74.152398165,15.226611141,0.0 74.152755813,15.226343076,0.0 74.153925443,15.225234797,0.0 74.15396185,15.224040429,0.0 74.153901543,15.223121189,0.0 74.154050509,15.222940126,0.0 74.15467647,15.22259949,0.0 74.155429268,15.222403532,0.0 74.155600315,15.221838816,0.0 74.155734199,15.221426132,0.0 74.155681638,15.220912239,0.0 74.15586796,15.220846964,0.0 74.156069395,15.221056739,0.0 74.156218747,15.22140408,0.0 74.156666448,15.221961129,0.0 74.156934893,15.222055041,0.0 74.157270721,15.222539782,0.0 74.157658314,15.222459887,0.0 74.158358779,15.222068519,0.0 74.158761183,15.22185832,0.0 74.159178654,15.221858025,0.0 74.159409738,15.221836146,0.0 74.15980497,15.222002349,0.0 74.161340729,15.222080875,0.0 74.161676053,15.221892435,0.0 74.162585355,15.221645672,0.0 74.162741928,15.221674512,0.0 74.162853812,15.221754054,0.0 74.163084821,15.221954955,0.0</coordinates>
                    </LinearRing>
                </outerBoundaryIs>
            </Polygon>
        </Placemark>
    </Document>
</kml>
