<?xml version="1.0" encoding="UTF-8"?>
<kml xmlns="http://www.opengis.net/kml/2.2" xmlns:gx="http://www.google.com/kml/ext/2.2">
    <Document id="4391">
        <Placemark id="4393">
            <ExtendedData>
                <Data name="id">
                    <value>314</value>
                </Data>
                <Data name="taluka">
                    <value>Sanguem</value>
                </Data>
                <Data name="village">
                    <value>Uguem</value>
                </Data>
                <Data name="lg_code">
                    <value>627003</value>
                </Data>
                <Data name="dslr_code">
                    <value>00033400</value>
                </Data>
            </ExtendedData>
            <Polygon id="4392">
                <outerBoundaryIs>
                    <LinearRing id="4396">
                        <coordinates>74.178786508,15.212877001,0.0 74.178647271,15.213134394,0.0 74.178919475,15.213452394,0.0 74.179540276,15.213722723,0.0 74.181017827,15.212942922,0.0 74.183555037,15.211959131,0.0 74.185453187,15.213772088,0.0 74.185969798,15.214489342,0.0 74.185795711,15.214753539,0.0 74.185970184,15.214929429,0.0 74.185935528,15.215166428,0.0 74.185866192,15.215613344,0.0 74.186305816,15.215998902,0.0 74.186793864,15.215944333,0.0 74.187554209,15.21629577,0.0 74.187903185,15.21667463,0.0 74.188405312,15.216768998,0.0 74.188935077,15.216578977,0.0 74.191130083,15.214992808,0.0 74.192817391,15.214883038,0.0 74.193138057,15.214794746,0.0 74.194491149,15.215206584,0.0 74.195083286,15.214610261,0.0 74.195613058,15.214440536,0.0 74.196240748,15.214595712,0.0 74.196554785,15.214879802,0.0 74.197314947,15.215021318,0.0 74.197830861,15.214946389,0.0 74.198786166,15.214986169,0.0 74.19903662,15.214383367,0.0 74.199733969,15.214463996,0.0 74.200465895,15.214239915,0.0 74.200988959,15.214354548,0.0 74.201518764,15.214225433,0.0 74.201657755,15.213737827,0.0 74.202333991,15.21361535,0.0 74.203105264,15.212613611,0.0 74.204249942,15.212792579,0.0 74.205289547,15.212666412,0.0 74.205893917,15.212540639,0.0 74.207038405,15.212523936,0.0 74.208174825,15.212499408,0.0 74.210335696,15.213326981,0.0 74.211173841,15.213240107,0.0 74.212503341,15.212855367,0.0 74.213243899,15.211907688,0.0 74.214525091,15.211585592,0.0 74.21581457,15.211490443,0.0 74.216621457,15.212374035,0.0 74.217242797,15.213085626,0.0 74.217960651,15.213593639,0.0 74.218565839,15.21426611,0.0 74.219034391,15.215306547,0.0 74.220911934,15.214889919,0.0 74.22289578,15.215928853,0.0 74.222548636,15.217316516,0.0 74.222657903,15.218366675,0.0 74.222071792,15.219387515,0.0 74.221686774,15.220618208,0.0 74.220883678,15.221024102,0.0 74.220575663,15.222014657,0.0 74.220762139,15.22301973,0.0 74.22059263,15.223470011,0.0 74.219944078,15.223905757,0.0 74.21903255,15.224071689,0.0 74.218414696,15.224312352,0.0 74.217967143,15.224867928,0.0 74.21790649,15.225993273,0.0 74.217582678,15.226668758,0.0 74.216702026,15.226819648,0.0 74.215712394,15.226175436,0.0 74.214675011,15.224150913,0.0 74.212989402,15.222877192,0.0 74.212464064,15.222922701,0.0 74.211074808,15.224394385,0.0 74.210240354,15.224380164,0.0 74.209715338,15.22475575,0.0 74.209128614,15.225236419,0.0 74.208340323,15.225027098,0.0 74.206701761,15.224428458,0.0 74.206299994,15.224428827,0.0 74.206300724,15.225179018,0.0 74.207741218,15.228643574,0.0 74.20733981,15.22901904,0.0 74.206537547,15.230340116,0.0 74.206058971,15.230820677,0.0 74.204376429,15.2327277,0.0 74.205150207,15.233882288,0.0 74.205598993,15.234542046,0.0 74.206294889,15.235051537,0.0 74.206633721,15.235895497,0.0 74.206416654,15.236306247,0.0 74.204568081,15.236202368,0.0 74.204411668,15.23687112,0.0 74.203167595,15.237212419,0.0 74.201996602,15.238175335,0.0 74.201538572,15.239301826,0.0 74.200868646,15.239941711,0.0 74.19861052,15.241175369,0.0 74.197439757,15.242431511,0.0 74.199347368,15.244230378,0.0 74.200889879,15.24639905,0.0 74.203913251,15.249352278,0.0 74.205286374,15.251192633,0.0 74.207124801,15.252819408,0.0 74.204820286,15.252891419,0.0 74.203298259,15.253629088,0.0 74.201720206,15.254656223,0.0 74.198834891,15.255655345,0.0 74.198031859,15.256290301,0.0 74.195576072,15.256308976,0.0 74.194278148,15.255748721,0.0 74.191336807,15.25590746,0.0 74.187846883,15.258027093,0.0 74.186432238,15.257662927,0.0 74.185619868,15.256878569,0.0 74.184695446,15.256094212,0.0 74.184569389,15.255463925,0.0 74.183630961,15.254175337,0.0 74.181642054,15.251626175,0.0 74.180605582,15.251177971,0.0 74.17886879,15.251163965,0.0 74.178280522,15.250981882,0.0 74.177496165,15.251107939,0.0 74.177103986,15.250729767,0.0 74.176725814,15.249455186,0.0 74.176711807,15.247746407,0.0 74.175717354,15.24626173,0.0 74.175452216,15.244937366,0.0 74.175379667,15.243783614,0.0 74.175178564,15.243005297,0.0 74.175606765,15.241378509,0.0 74.175277192,15.241072937,0.0 74.175448746,15.240753073,0.0 74.175147684,15.240294564,0.0 74.175304562,15.239543771,0.0 74.174645549,15.239085541,0.0 74.173957618,15.238279798,0.0 74.173985682,15.23758471,0.0 74.173842114,15.237112177,0.0 74.172738564,15.235806304,0.0 74.172380176,15.235264427,0.0 74.17214979,15.233665952,0.0 74.172176447,15.231233198,0.0 74.170315029,15.231067801,0.0 74.170256786,15.22985843,0.0 74.168221959,15.227663551,0.0 74.167577404,15.227316499,0.0 74.167533506,15.226121017,0.0 74.167889678,15.225366389,0.0 74.167493744,15.223615417,0.0 74.167583328,15.222860116,0.0 74.164008814,15.22148363,0.0 74.163084821,15.221954955,0.0 74.162853812,15.221754054,0.0 74.163159165,15.221370195,0.0 74.163248087,15.220675241,0.0 74.162657664,15.218728529,0.0 74.162835509,15.21733862,0.0 74.162978327,15.217115639,0.0 74.164383234,15.217769958,0.0 74.166529341,15.217548117,0.0 74.167716142,15.217852213,0.0 74.169077846,15.218664468,0.0 74.170002683,15.218680713,0.0 74.170717676,15.218137988,0.0 74.169494426,15.215902407,0.0 74.170296548,15.215224072,0.0 74.171517883,15.215087597,0.0 74.172843097,15.213951386,0.0 74.174239164,15.214119741,0.0 74.175654045,15.215931565,0.0 74.177554,15.213524135,0.0 74.178786508,15.212877001,0.0</coordinates>
                    </LinearRing>
                </outerBoundaryIs>
            </Polygon>
        </Placemark>
    </Document>
</kml>
