<?xml version="1.0" encoding="UTF-8"?>
<kml xmlns="http://www.opengis.net/kml/2.2" xmlns:gx="http://www.google.com/kml/ext/2.2">
    <Document id="4447">
        <Placemark id="4449">
            <ExtendedData>
                <Data name="id">
                    <value>318</value>
                </Data>
                <Data name="taluka">
                    <value>Sanguem</value>
                </Data>
                <Data name="village">
                    <value>Xelpem</value>
                </Data>
                <Data name="lg_code">
                    <value>627001</value>
                </Data>
                <Data name="dslr_code">
                    <value>00033200</value>
                </Data>
            </ExtendedData>
            <Polygon id="4448">
                <outerBoundaryIs>
                    <LinearRing id="4452">
                        <coordinates>74.165125686,15.191475117,0.0 74.166305541,15.191631852,0.0 74.167060747,15.191540368,0.0 74.167685173,15.191830863,0.0 74.169895064,15.192120165,0.0 74.170969075,15.192604285,0.0 74.171217948,15.191603923,0.0 74.172140378,15.189899895,0.0 74.172933244,15.190075076,0.0 74.172933012,15.189790178,0.0 74.17370582,15.190267224,0.0 74.174215989,15.191749589,0.0 74.174329164,15.193726514,0.0 74.173820365,15.193923255,0.0 74.173430272,15.194343333,0.0 74.172803225,15.194885462,0.0 74.172964433,15.195928009,0.0 74.174505709,15.196454926,0.0 74.174359805,15.197077933,0.0 74.174465468,15.198391345,0.0 74.174249991,15.199197212,0.0 74.174229708,15.199969075,0.0 74.174397381,15.200381951,0.0 74.17506686,15.200550696,0.0 74.175646036,15.201125744,0.0 74.177049029,15.202993326,0.0 74.178067165,15.20319564,0.0 74.178067284,15.203337822,0.0 74.17790705,15.203493673,0.0 74.178158164,15.203622115,0.0 74.178158363,15.203859085,0.0 74.178416558,15.204116163,0.0 74.177706995,15.206053111,0.0 74.177770473,15.206919696,0.0 74.178315404,15.208198904,0.0 74.179292458,15.209261109,0.0 74.179355675,15.209809475,0.0 74.178205943,15.210697335,0.0 74.179105868,15.211238267,0.0 74.179671518,15.212260173,0.0 74.179616075,15.212659681,0.0 74.178786508,15.212877001,0.0 74.177554,15.213524135,0.0 74.175654045,15.215931565,0.0 74.174239164,15.214119741,0.0 74.172843097,15.213951386,0.0 74.171517883,15.215087597,0.0 74.170296548,15.215224072,0.0 74.169494426,15.215902407,0.0 74.170717676,15.218137988,0.0 74.170002683,15.218680713,0.0 74.169077846,15.218664468,0.0 74.167716142,15.217852213,0.0 74.166529341,15.217548117,0.0 74.164383234,15.217769958,0.0 74.162978327,15.217115639,0.0 74.162835509,15.21733862,0.0 74.163118447,15.21689687,0.0 74.163438401,15.216122125,0.0 74.163415769,15.215774696,0.0 74.163296239,15.215441815,0.0 74.162832624,15.213581872,0.0 74.162581081,15.211215083,0.0 74.162282532,15.210730323,0.0 74.162020951,15.209847421,0.0 74.162124395,15.208645765,0.0 74.161530363,15.206796769,0.0 74.162521107,15.205909346,0.0 74.163810222,15.205293143,0.0 74.163880187,15.204192848,0.0 74.163085203,15.202749355,0.0 74.162245951,15.201888587,0.0 74.160918878,15.201578286,0.0 74.160277113,15.200637746,0.0 74.160082728,15.199870608,0.0 74.159165139,15.19888683,0.0 74.159104362,15.197359559,0.0 74.159357357,15.196773065,0.0 74.159252562,15.196186825,0.0 74.159155554,15.196049903,0.0 74.159223881,15.195601293,0.0 74.159709947,15.194515912,0.0 74.160108776,15.193636689,0.0 74.160619379,15.191993618,0.0 74.161867858,15.192101833,0.0 74.163908841,15.191912445,0.0 74.164507593,15.191697258,0.0 74.165125686,15.191475117,0.0</coordinates>
                    </LinearRing>
                </outerBoundaryIs>
            </Polygon>
        </Placemark>
    </Document>
</kml>
