<?xml version="1.0" encoding="UTF-8"?>
<kml xmlns="http://www.opengis.net/kml/2.2" xmlns:gx="http://www.google.com/kml/ext/2.2">
    <Document id="4489">
        <Placemark id="4491">
            <ExtendedData>
                <Data name="id">
                    <value>222</value>
                </Data>
                <Data name="taluka">
                    <value>Sattari</value>
                </Data>
                <Data name="village">
                    <value>Ambeli</value>
                </Data>
                <Data name="lg_code">
                    <value>626839</value>
                </Data>
                <Data name="dslr_code">
                    <value>00018300</value>
                </Data>
            </ExtendedData>
            <Polygon id="4490">
                <outerBoundaryIs>
                    <LinearRing id="4494">
                        <coordinates>74.163380979,15.452813311,0.0 74.163965163,15.453627263,0.0 74.164472563,15.454169809,0.0 74.16476885,15.454868729,0.0 74.164933099,15.45554982,0.0 74.165263527,15.456010545,0.0 74.166293741,15.456529648,0.0 74.166806261,15.456854504,0.0 74.167107463,15.457082201,0.0 74.168403924,15.457037684,0.0 74.168852912,15.457158988,0.0 74.169317725,15.45725851,0.0 74.169299659,15.457773275,0.0 74.169471323,15.457808997,0.0 74.169703888,15.45805211,0.0 74.169962785,15.458205568,0.0 74.170459414,15.458458721,0.0 74.170760674,15.458750438,0.0 74.171888834,15.459535777,0.0 74.171847131,15.460197815,0.0 74.171987768,15.461030015,0.0 74.171565337,15.46110461,0.0 74.170989632,15.461030787,0.0 74.170395578,15.461123439,0.0 74.169909863,15.4613082,0.0 74.169366268,15.461756783,0.0 74.16932451,15.462361199,0.0 74.1691426,15.462719871,0.0 74.169531207,15.463259934,0.0 74.169705716,15.463541505,0.0 74.169750903,15.463905125,0.0 74.169806445,15.464015204,0.0 74.169571875,15.464560865,0.0 74.169532593,15.464962965,0.0 74.169545992,15.465203684,0.0 74.169678213,15.465436629,0.0 74.169699757,15.465951363,0.0 74.169850427,15.466140758,0.0 74.169776807,15.466530078,0.0 74.169677069,15.467275391,0.0 74.169297059,15.467575313,0.0 74.168898498,15.467795858,0.0 74.168531789,15.468218694,0.0 74.168286627,15.468738753,0.0 74.167727281,15.469330757,0.0 74.166793051,15.470043406,0.0 74.166151646,15.470397299,0.0 74.165845544,15.47067155,0.0 74.165227954,15.471092007,0.0 74.164506997,15.471033642,0.0 74.164174097,15.470816208,0.0 74.163590756,15.471139319,0.0 74.163059691,15.470776056,0.0 74.162523743,15.470922424,0.0 74.162299018,15.470581983,0.0 74.161704444,15.470044618,0.0 74.160959163,15.46925895,0.0 74.16062817,15.468081153,0.0 74.158417773,15.467870186,0.0 74.15791865,15.467819324,0.0 74.157736343,15.467686284,0.0 74.156724759,15.467405298,0.0 74.155488812,15.467244829,0.0 74.155309269,15.467273125,0.0 74.15559419,15.466911831,0.0 74.155826289,15.46654033,0.0 74.155992299,15.466071559,0.0 74.156135948,15.465716767,0.0 74.156386616,15.465460495,0.0 74.156563292,15.465132568,0.0 74.157168681,15.464290867,0.0 74.157334856,15.464047459,0.0 74.157796541,15.463488844,0.0 74.158068171,15.463025118,0.0 74.158127313,15.462666542,0.0 74.158187706,15.462218333,0.0 74.158369559,15.461759793,0.0 74.158454904,15.46113614,0.0 74.158879368,15.46025871,0.0 74.158754917,15.459806792,0.0 74.158738778,15.459418819,0.0 74.158960043,15.458707996,0.0 74.159484765,15.457731897,0.0 74.15966276,15.457418052,0.0 74.16006906,15.456972153,0.0 74.160072363,15.456115512,0.0 74.160394535,15.456153694,0.0 74.160593813,15.456049831,0.0 74.160722922,15.455691204,0.0 74.16079267,15.455399205,0.0 74.161177754,15.454843198,0.0 74.162048721,15.454331653,0.0 74.162104097,15.454236858,0.0 74.162515584,15.453685951,0.0 74.163146274,15.453193785,0.0 74.163380979,15.452813311,0.0</coordinates>
                    </LinearRing>
                </outerBoundaryIs>
            </Polygon>
        </Placemark>
    </Document>
</kml>
