<?xml version="1.0" encoding="UTF-8"?>
<kml xmlns="http://www.opengis.net/kml/2.2" xmlns:gx="http://www.google.com/kml/ext/2.2">
    <Document id="4475">
        <Placemark id="4477">
            <ExtendedData>
                <Data name="id">
                    <value>258</value>
                </Data>
                <Data name="taluka">
                    <value>Sattari</value>
                </Data>
                <Data name="village">
                    <value>Ambedem</value>
                </Data>
                <Data name="lg_code">
                    <value>626803</value>
                </Data>
                <Data name="dslr_code">
                    <value>00014700</value>
                </Data>
            </ExtendedData>
            <Polygon id="4476">
                <outerBoundaryIs>
                    <LinearRing id="4480">
                        <coordinates>74.167470808,15.553611518,0.0 74.167371503,15.553575157,0.0 74.166628105,15.553088081,0.0 74.166558776,15.552958394,0.0 74.166581693,15.552761531,0.0 74.166073506,15.552081904,0.0 74.165907315,15.552014922,0.0 74.165805834,15.552073157,0.0 74.165718286,15.552243226,0.0 74.165681539,15.552457994,0.0 74.165104855,15.552686589,0.0 74.16500342,15.552802982,0.0 74.164962056,15.553017754,0.0 74.164883695,15.55313413,0.0 74.164306683,15.552951137,0.0 74.163854253,15.552741207,0.0 74.163803329,15.552539926,0.0 74.163590884,15.552338764,0.0 74.163443178,15.552303084,0.0 74.163198729,15.552482215,0.0 74.162898783,15.552513753,0.0 74.162188022,15.55243375,0.0 74.161758744,15.552317747,0.0 74.161694058,15.552219372,0.0 74.161703134,15.55202252,0.0 74.161924217,15.551467611,0.0 74.161637688,15.550948866,0.0 74.161300432,15.550474894,0.0 74.160995912,15.550555644,0.0 74.160861956,15.550394687,0.0 74.16093505,15.549437248,0.0 74.160657823,15.549003496,0.0 74.160555741,15.548287768,0.0 74.160264699,15.547889815,0.0 74.159918332,15.547559008,0.0 74.159364534,15.547532567,0.0 74.159271859,15.54704052,0.0 74.159451702,15.546865913,0.0 74.15970543,15.546753885,0.0 74.159816102,15.546646435,0.0 74.159795741,15.546268553,0.0 74.159690089,15.546286556,0.0 74.159331079,15.546619737,0.0 74.158715968,15.547137489,0.0 74.158019089,15.547821758,0.0 74.157744642,15.548198411,0.0 74.156871115,15.549348893,0.0 74.156390791,15.549963857,0.0 74.156026946,15.550370147,0.0 74.156268047,15.55062576,0.0 74.156413502,15.550818421,0.0 74.156721917,15.55159482,0.0 74.156842779,15.55213225,0.0 74.156850525,15.55226199,0.0 74.156927249,15.552584444,0.0 74.157524956,15.554118718,0.0 74.157567119,15.554248433,0.0 74.157900226,15.554796832,0.0 74.158453778,15.556079058,0.0 74.158595592,15.556503408,0.0 74.159207822,15.556999705,0.0 74.160357522,15.557736565,0.0 74.161555095,15.558554938,0.0 74.161954976,15.558891982,0.0 74.162062154,15.559023502,0.0 74.162638545,15.560124057,0.0 74.163291192,15.560929847,0.0 74.16335245,15.561020623,0.0 74.16370882,15.561937842,0.0 74.163812198,15.562097166,0.0 74.164315527,15.56266767,0.0 74.164487839,15.562951127,0.0 74.164625845,15.563373622,0.0 74.164752177,15.563542196,0.0 74.165054454,15.563751415,0.0 74.166529272,15.564491705,0.0 74.166691822,15.564517531,0.0 74.166936521,15.56445618,0.0 74.167471689,15.564185163,0.0 74.167842518,15.564040308,0.0 74.168129063,15.563870196,0.0 74.168280176,15.563780484,0.0 74.169262785,15.563527655,0.0 74.17014247,15.563678964,0.0 74.170486507,15.56351003,0.0 74.170490254,15.563415499,0.0 74.170184921,15.562798015,0.0 74.167685992,15.559878486,0.0 74.167696549,15.55756205,0.0 74.167470808,15.553611518,0.0</coordinates>
                    </LinearRing>
                </outerBoundaryIs>
            </Polygon>
        </Placemark>
    </Document>
</kml>
