<?xml version="1.0" encoding="UTF-8"?>
<kml xmlns="http://www.opengis.net/kml/2.2" xmlns:gx="http://www.google.com/kml/ext/2.2">
    <Document id="4531">
        <Placemark id="4533">
            <ExtendedData>
                <Data name="id">
                    <value>238</value>
                </Data>
                <Data name="taluka">
                    <value>Sattari</value>
                </Data>
                <Data name="village">
                    <value>Assodem</value>
                </Data>
                <Data name="lg_code">
                    <value>626836</value>
                </Data>
                <Data name="dslr_code">
                    <value>00018000</value>
                </Data>
            </ExtendedData>
            <Polygon id="4532">
                <outerBoundaryIs>
                    <LinearRing id="4536">
                        <coordinates>74.201197348,15.468151263,0.0 74.201494253,15.468239166,0.0 74.201924699,15.468158381,0.0 74.202435642,15.468362788,0.0 74.202623127,15.468671223,0.0 74.203281191,15.468922174,0.0 74.203883358,15.4694351,0.0 74.204177613,15.469543749,0.0 74.204536216,15.469826092,0.0 74.204862775,15.47015255,0.0 74.206705996,15.470936617,0.0 74.207588203,15.470692019,0.0 74.20926271,15.47121689,0.0 74.210151313,15.472012201,0.0 74.211057865,15.472042459,0.0 74.211704843,15.471888835,0.0 74.212033911,15.472038933,0.0 74.212617643,15.472800813,0.0 74.213125863,15.472935178,0.0 74.213492092,15.472812938,0.0 74.214128941,15.473211697,0.0 74.214281542,15.473382709,0.0 74.214394173,15.473691206,0.0 74.214204374,15.47375363,0.0 74.213895209,15.474760141,0.0 74.213863354,15.474988385,0.0 74.213660625,15.475481313,0.0 74.213410041,15.476249181,0.0 74.212875682,15.476711308,0.0 74.21235154,15.476706625,0.0 74.212041855,15.477215214,0.0 74.211411409,15.47786415,0.0 74.210936362,15.478808575,0.0 74.210049258,15.479530365,0.0 74.209595197,15.480080581,0.0 74.208729467,15.480791971,0.0 74.208221614,15.481041409,0.0 74.207703344,15.481570936,0.0 74.20528772,15.483476694,0.0 74.204673611,15.484462728,0.0 74.204331982,15.485152869,0.0 74.204059176,15.485122001,0.0 74.203684387,15.484722973,0.0 74.202592897,15.484324602,0.0 74.201742134,15.4839675,0.0 74.201383778,15.48396264,0.0 74.200452467,15.483268473,0.0 74.199670919,15.482574166,0.0 74.199242797,15.482320406,0.0 74.198996123,15.481646362,0.0 74.198674923,15.481340637,0.0 74.198300324,15.481123133,0.0 74.198037949,15.480806982,0.0 74.197984238,15.480568443,0.0 74.19766313,15.480356077,0.0 74.197390385,15.480382254,0.0 74.197048169,15.480470732,0.0 74.196625854,15.480694134,0.0 74.196315938,15.481005609,0.0 74.195743762,15.481120222,0.0 74.195257102,15.481172519,0.0 74.194519123,15.481287275,0.0 74.193957434,15.481178848,0.0 74.193497294,15.480992531,0.0 74.193063859,15.480764696,0.0 74.19220807,15.480723947,0.0 74.191256287,15.480984105,0.0 74.190806999,15.480963746,0.0 74.188881982,15.481432197,0.0 74.187908404,15.481256679,0.0 74.18698868,15.481490858,0.0 74.186657127,15.481548191,0.0 74.186453746,15.481392762,0.0 74.185613802,15.481128948,0.0 74.185100619,15.481430205,0.0 74.184806541,15.481528997,0.0 74.184453419,15.481389252,0.0 74.183977406,15.481389648,0.0 74.183747569,15.481555812,0.0 74.183618899,15.481208412,0.0 74.183453029,15.48113075,0.0 74.183345772,15.480804079,0.0 74.183227864,15.480529283,0.0 74.182864034,15.480373984,0.0 74.182778368,15.480270321,0.0 74.18254311,15.480353502,0.0 74.182318603,15.480498914,0.0 74.182024444,15.480504343,0.0 74.181730013,15.480198571,0.0 74.181264415,15.479872193,0.0 74.180889949,15.479784326,0.0 74.180595408,15.479348886,0.0 74.180376052,15.479266078,0.0 74.180033772,15.479287103,0.0 74.179632731,15.479391163,0.0 74.179295746,15.479349942,0.0 74.179087292,15.479505711,0.0 74.178878784,15.47959924,0.0 74.178450649,15.479293572,0.0 74.178391638,15.479086153,0.0 74.178118821,15.479029319,0.0 74.177771379,15.479268185,0.0 74.177086986,15.47950732,0.0 74.176587686,15.479483505,0.0 74.176550652,15.479337604,0.0 74.176685876,15.478851832,0.0 74.176612644,15.478619176,0.0 74.17685252,15.478507686,0.0 74.176935618,15.478072545,0.0 74.177248182,15.477556276,0.0 74.177580741,15.476018072,0.0 74.177413238,15.475350417,0.0 74.176818195,15.474946172,0.0 74.176588379,15.474612461,0.0 74.176566603,15.473539969,0.0 74.176065201,15.472821989,0.0 74.176257996,15.472563826,0.0 74.17647684,15.47226517,0.0 74.176972025,15.471804405,0.0 74.177274138,15.471278026,0.0 74.178154941,15.470346462,0.0 74.178379252,15.470346281,0.0 74.178687045,15.470366269,0.0 74.179192875,15.4701635,0.0 74.179897045,15.470092103,0.0 74.180491541,15.469874082,0.0 74.18101322,15.46990401,0.0 74.18185274,15.469513779,0.0 74.182567226,15.469310831,0.0 74.183641831,15.469315002,0.0 74.184064145,15.469061701,0.0 74.184398077,15.469147426,0.0 74.185018958,15.469278442,0.0 74.186082963,15.469095427,0.0 74.187366427,15.469322,0.0 74.187867417,15.469549231,0.0 74.188832252,15.469305578,0.0 74.190193502,15.469021109,0.0 74.190965687,15.469177274,0.0 74.191231836,15.469293402,0.0 74.191758768,15.469363772,0.0 74.192201924,15.469095261,0.0 74.192697393,15.468988591,0.0 74.193275936,15.46846195,0.0 74.19392279,15.468471503,0.0 74.194673661,15.468147068,0.0 74.19637419,15.468100036,0.0 74.19745435,15.468468383,0.0 74.197756891,15.468452936,0.0 74.19864379,15.468553323,0.0 74.199410289,15.468213681,0.0 74.200479861,15.468415076,0.0 74.200803234,15.468364193,0.0 74.200966695,15.468242862,0.0 74.201178552,15.468085607,0.0 74.201197348,15.468151263,0.0</coordinates>
                    </LinearRing>
                </outerBoundaryIs>
            </Polygon>
        </Placemark>
    </Document>
</kml>
