<?xml version="1.0" encoding="UTF-8"?>
<kml xmlns="http://www.opengis.net/kml/2.2" xmlns:gx="http://www.google.com/kml/ext/2.2">
    <Document id="4559">
        <Placemark id="4561">
            <ExtendedData>
                <Data name="id">
                    <value>223</value>
                </Data>
                <Data name="taluka">
                    <value>Sattari</value>
                </Data>
                <Data name="village">
                    <value>Bombedem</value>
                </Data>
                <Data name="lg_code">
                    <value>626802</value>
                </Data>
                <Data name="dslr_code">
                    <value>00014600</value>
                </Data>
            </ExtendedData>
            <Polygon id="4560">
                <outerBoundaryIs>
                    <LinearRing id="4564">
                        <coordinates>74.159795741,15.546268553,0.0 74.159816102,15.546646435,0.0 74.15970543,15.546753885,0.0 74.159451702,15.546865913,0.0 74.159271859,15.54704052,0.0 74.159364534,15.547532567,0.0 74.159918332,15.547559008,0.0 74.160264699,15.547889815,0.0 74.160555741,15.548287768,0.0 74.160657823,15.549003496,0.0 74.16093505,15.549437248,0.0 74.160861956,15.550394687,0.0 74.160995912,15.550555644,0.0 74.161300432,15.550474894,0.0 74.161637688,15.550948866,0.0 74.161924217,15.551467611,0.0 74.161703134,15.55202252,0.0 74.161694058,15.552219372,0.0 74.161758744,15.552317747,0.0 74.162188022,15.55243375,0.0 74.162898783,15.552513753,0.0 74.163198729,15.552482215,0.0 74.163443178,15.552303084,0.0 74.163590884,15.552338764,0.0 74.163803329,15.552539926,0.0 74.163854253,15.552741207,0.0 74.164306683,15.552951137,0.0 74.164883695,15.55313413,0.0 74.164962056,15.553017754,0.0 74.16500342,15.552802982,0.0 74.165104855,15.552686589,0.0 74.165681539,15.552457994,0.0 74.165718286,15.552243226,0.0 74.165805834,15.552073157,0.0 74.165907315,15.552014922,0.0 74.166073506,15.552081904,0.0 74.166581693,15.552761531,0.0 74.166558776,15.552958394,0.0 74.166628105,15.553088081,0.0 74.167371503,15.553575157,0.0 74.167470808,15.553611518,0.0 74.168305912,15.553166157,0.0 74.16856298,15.552815242,0.0 74.169300299,15.551382878,0.0 74.168695355,15.55048666,0.0 74.16754199,15.549391996,0.0 74.167444466,15.548708711,0.0 74.167371279,15.548626672,0.0 74.167157098,15.548373302,0.0 74.166472495,15.547866756,0.0 74.166142105,15.547641643,0.0 74.166025902,15.547680145,0.0 74.165904463,15.547777552,0.0 74.165740857,15.548000476,0.0 74.165571878,15.548110723,0.0 74.165426577,15.548100588,0.0 74.165307618,15.547995679,0.0 74.165064471,15.54785501,0.0 74.164969387,15.547875569,0.0 74.164763298,15.547827065,0.0 74.16442774,15.547745366,0.0 74.164121326,15.547771203,0.0 74.164010306,15.547684214,0.0 74.163936198,15.547505004,0.0 74.163827752,15.547330942,0.0 74.163740396,15.547103084,0.0 74.163539539,15.546987991,0.0 74.163330827,15.546962536,0.0 74.163016465,15.546957647,0.0 74.16279181,15.546814401,0.0 74.162421843,15.546643091,0.0 74.162044019,15.546558858,0.0 74.161898668,15.546482137,0.0 74.161729574,15.546446408,0.0 74.161549993,15.546513124,0.0 74.161362585,15.546705331,0.0 74.161211928,15.546600443,0.0 74.160722977,15.546285806,0.0 74.160484944,15.545919766,0.0 74.160149134,15.545505139,0.0 74.160017075,15.545535966,0.0 74.159800442,15.545513075,0.0 74.159679068,15.54569755,0.0 74.159523284,15.545792417,0.0 74.159795741,15.546268553,0.0</coordinates>
                    </LinearRing>
                </outerBoundaryIs>
            </Polygon>
        </Placemark>
    </Document>
</kml>
