<?xml version="1.0" encoding="UTF-8"?>
<kml xmlns="http://www.opengis.net/kml/2.2" xmlns:gx="http://www.google.com/kml/ext/2.2">
    <Document id="4587">
        <Placemark id="4589">
            <ExtendedData>
                <Data name="id">
                    <value>215</value>
                </Data>
                <Data name="taluka">
                    <value>Sattari</value>
                </Data>
                <Data name="village">
                    <value>Carambolim-Brama</value>
                </Data>
                <Data name="lg_code">
                    <value>626793</value>
                </Data>
                <Data name="dslr_code">
                    <value>00013700</value>
                </Data>
            </ExtendedData>
            <Polygon id="4588">
                <outerBoundaryIs>
                    <LinearRing id="4592">
                        <coordinates>74.152710311,15.568197891,0.0 74.153097957,15.568360181,0.0 74.153512595,15.568247858,0.0 74.153761955,15.568348734,0.0 74.154118004,15.568684587,0.0 74.154260658,15.568524125,0.0 74.154752256,15.568290926,0.0 74.154876998,15.568422642,0.0 74.154931463,15.568523654,0.0 74.155164935,15.568589392,0.0 74.15540278,15.568444239,0.0 74.155588607,15.568437518,0.0 74.15580623,15.568523037,0.0 74.156723745,15.568113792,0.0 74.156821203,15.568126903,0.0 74.156970838,15.568210273,0.0 74.157231456,15.568212284,0.0 74.15729483,15.568106795,0.0 74.157553189,15.568117594,0.0 74.157752666,15.568181157,0.0 74.157852499,15.568337054,0.0 74.157886589,15.56846444,0.0 74.157968298,15.56862694,0.0 74.158276684,15.568859573,0.0 74.158779937,15.569052524,0.0 74.158897959,15.569283097,0.0 74.159034038,15.569419197,0.0 74.159306067,15.569522247,0.0 74.159992698,15.569469027,0.0 74.160122071,15.569723755,0.0 74.160335288,15.569967438,0.0 74.160532506,15.57003759,0.0 74.160718318,15.570011094,0.0 74.160827023,15.569914358,0.0 74.160965102,15.569705567,0.0 74.160835726,15.569448643,0.0 74.160386388,15.56864716,0.0 74.160669147,15.567976948,0.0 74.16104463,15.56706283,0.0 74.16092632,15.566463206,0.0 74.161365191,15.565469958,0.0 74.161997497,15.565515625,0.0 74.162600163,15.565332852,0.0 74.163275234,15.565007235,0.0 74.16386903,15.565072696,0.0 74.165573791,15.565798542,0.0 74.166104241,15.56599585,0.0 74.166609647,15.56604819,0.0 74.167325958,15.566282698,0.0 74.168318554,15.566277548,0.0 74.168766907,15.565840054,0.0 74.169473545,15.565329867,0.0 74.169813436,15.565281277,0.0 74.170187196,15.565083282,0.0 74.170595067,15.565030245,0.0 74.170699162,15.564847835,0.0 74.170676319,15.564628178,0.0 74.171072804,15.564509247,0.0 74.170951649,15.563241822,0.0 74.171080487,15.562837521,0.0 74.171164277,15.562767161,0.0 74.172544175,15.562526639,0.0 74.172768458,15.562445184,0.0 74.173094764,15.562418567,0.0 74.173695399,15.562538915,0.0 74.173965298,15.562806705,0.0 74.174026544,15.562876952,0.0 74.17490621,15.563339767,0.0 74.175563255,15.563167899,0.0 74.176048306,15.563272956,0.0 74.176624109,15.563500956,0.0 74.177480917,15.563724334,0.0 74.178747802,15.563828754,0.0 74.17926897,15.563766821,0.0 74.179554408,15.563650162,0.0 74.179792175,15.563441278,0.0 74.180131918,15.563230113,0.0 74.180437865,15.56324524,0.0 74.180810819,15.563220052,0.0 74.180799388,15.5640697,0.0 74.180891705,15.565231977,0.0 74.181217503,15.565405767,0.0 74.181212529,15.566677279,0.0 74.18112522,15.567763,0.0 74.18091558,15.56817324,0.0 74.18074264,15.56878701,0.0 74.180600058,15.569315201,0.0 74.180521154,15.569574877,0.0 74.180423938,15.569775566,0.0 74.18025403,15.570380482,0.0 74.180190592,15.570926308,0.0 74.180023777,15.571590225,0.0 74.18018243,15.572038515,0.0 74.180158357,15.572354199,0.0 74.179936421,15.572631693,0.0 74.179717624,15.573018339,0.0 74.179507789,15.573213219,0.0 74.17930408,15.573452345,0.0 74.178801902,15.573458654,0.0 74.178181553,15.574075734,0.0 74.177969226,15.574913743,0.0 74.177875124,15.575202932,0.0 74.177872337,15.575500898,0.0 74.177796532,15.575831374,0.0 74.17761113,15.576129487,0.0 74.177708859,15.576518825,0.0 74.177323101,15.577424826,0.0 74.177636835,15.577707786,0.0 74.177908085,15.578138286,0.0 74.178356128,15.578872506,0.0 74.178064475,15.57949227,0.0 74.177699729,15.580061939,0.0 74.177094724,15.580853062,0.0 74.176873099,15.581508169,0.0 74.176897981,15.582130626,0.0 74.176816029,15.582396204,0.0 74.176606374,15.582815291,0.0 74.176634251,15.583381693,0.0 74.1766498,15.583768148,0.0 74.176726126,15.584042448,0.0 74.1768206,15.584313566,0.0 74.176136429,15.58433859,0.0 74.175728926,15.584488097,0.0 74.1749938,15.583979367,0.0 74.174473026,15.583843419,0.0 74.173802256,15.584074716,0.0 74.173281557,15.584026176,0.0 74.173019299,15.583877201,0.0 74.172597479,15.584163075,0.0 74.17178175,15.583597289,0.0 74.171449754,15.583449531,0.0 74.171202002,15.58339145,0.0 74.170745022,15.583327703,0.0 74.169490005,15.583733097,0.0 74.169319056,15.583486146,0.0 74.169149438,15.583396534,0.0 74.169053271,15.583431572,0.0 74.168695249,15.583805967,0.0 74.167820296,15.584332269,0.0 74.167740917,15.584310186,0.0 74.16750627,15.584100577,0.0 74.16701075,15.583962262,0.0 74.16663052,15.583643207,0.0 74.166461048,15.583733078,0.0 74.166138625,15.5835247,0.0 74.166025361,15.583232249,0.0 74.16590623,15.583121618,0.0 74.165713805,15.58307864,0.0 74.165259278,15.583073154,0.0 74.164861226,15.58301751,0.0 74.164639859,15.582869659,0.0 74.164099709,15.582548389,0.0 74.163717299,15.582504385,0.0 74.163621023,15.582727915,0.0 74.163359696,15.582457255,0.0 74.161605076,15.5820046,0.0 74.161105755,15.581183288,0.0 74.160905094,15.581173955,0.0 74.159547129,15.581803939,0.0 74.159085141,15.581500613,0.0 74.158133166,15.581425949,0.0 74.157092527,15.580982627,0.0 74.156607206,15.580361977,0.0 74.156303881,15.579839323,0.0 74.156084553,15.579246672,0.0 74.156037887,15.578355362,0.0 74.155431237,15.577272724,0.0 74.154787253,15.576638074,0.0 74.154348598,15.576442079,0.0 74.153275293,15.575331441,0.0 74.153611284,15.574547461,0.0 74.152229987,15.573399491,0.0 74.151190468,15.571678159,0.0 74.150876112,15.570185009,0.0 74.150689828,15.569565656,0.0 74.150857104,15.568981208,0.0 74.151226158,15.568510852,0.0 74.151445923,15.568429422,0.0 74.152354662,15.568400238,0.0 74.152601265,15.568286966,0.0 74.152710311,15.568197891,0.0</coordinates>
                    </LinearRing>
                </outerBoundaryIs>
            </Polygon>
        </Placemark>
    </Document>
</kml>
