<?xml version="1.0" encoding="UTF-8"?>
<kml xmlns="http://www.opengis.net/kml/2.2" xmlns:gx="http://www.google.com/kml/ext/2.2">
    <Document id="4727">
        <Placemark id="4729">
            <ExtendedData>
                <Data name="id">
                    <value>87</value>
                </Data>
                <Data name="taluka">
                    <value>Sattari</value>
                </Data>
                <Data name="village">
                    <value>Cotorem</value>
                </Data>
                <Data name="lg_code">
                    <value>626832</value>
                </Data>
                <Data name="dslr_code">
                    <value>00017600</value>
                </Data>
            </ExtendedData>
            <Polygon id="4728">
                <outerBoundaryIs>
                    <LinearRing id="4732">
                        <coordinates>74.133833592,15.471649562,0.0 74.134961371,15.47088028,0.0 74.136093979,15.470657804,0.0 74.137024335,15.471264558,0.0 74.139208649,15.471345458,0.0 74.140219906,15.471042081,0.0 74.143445815,15.471254445,0.0 74.145559341,15.472306152,0.0 74.146782962,15.472751105,0.0 74.14795602,15.473448872,0.0 74.148714462,15.473287071,0.0 74.150190897,15.473357859,0.0 74.151192041,15.473610673,0.0 74.153649395,15.472953357,0.0 74.154923578,15.473883713,0.0 74.156753953,15.475774763,0.0 74.158452864,15.477402886,0.0 74.15898883,15.4775748,0.0 74.160232676,15.477665813,0.0 74.161557422,15.478181554,0.0 74.161365283,15.479344499,0.0 74.16158776,15.480487219,0.0 74.160981006,15.481559151,0.0 74.159797835,15.482985023,0.0 74.158513539,15.484208643,0.0 74.157573071,15.485240125,0.0 74.156956204,15.486059243,0.0 74.156582039,15.486908699,0.0 74.156025848,15.48719185,0.0 74.155975285,15.487808717,0.0 74.155570782,15.488385133,0.0 74.15489324,15.489224476,0.0 74.154256149,15.490033482,0.0 74.153619057,15.490063819,0.0 74.153548269,15.489922244,0.0 74.153295455,15.490003144,0.0 74.153325793,15.490336859,0.0 74.152648251,15.491277327,0.0 74.152375211,15.49172228,0.0 74.151910033,15.491732393,0.0 74.15173812,15.491216652,0.0 74.151525756,15.491166089,0.0 74.151202153,15.49124699,0.0 74.15098979,15.491691943,0.0 74.150160559,15.492318922,0.0 74.149503242,15.492571736,0.0 74.148188609,15.493744794,0.0 74.147773993,15.493704343,0.0 74.146884087,15.49424031,0.0 74.146226771,15.494432448,0.0 74.146004294,15.494968414,0.0 74.144932362,15.495848208,0.0 74.144325608,15.496181922,0.0 74.143870543,15.496272935,0.0 74.143435702,15.495838095,0.0 74.142980637,15.495686407,0.0 74.14267726,15.495251566,0.0 74.142232307,15.495008865,0.0 74.142242419,15.494766163,0.0 74.141939042,15.494574024,0.0 74.141757016,15.4946347,0.0 74.141170487,15.493876257,0.0 74.140998574,15.493522317,0.0 74.139886191,15.493340291,0.0 74.139497615,15.492831568,0.0 74.139180516,15.488999791,0.0 74.138441921,15.485903032,0.0 74.135549833,15.484755095,0.0 74.13335729,15.48418388,0.0 74.1335011,15.483094263,0.0 74.1335046,15.481540304,0.0 74.134085585,15.480721325,0.0 74.134124084,15.48016484,0.0 74.134495074,15.479681852,0.0 74.134414576,15.479195365,0.0 74.134502074,15.47821539,0.0 74.134859065,15.477707904,0.0 74.135202056,15.477434911,0.0 74.135552047,15.476850426,0.0 74.135604545,15.476468936,0.0 74.135506548,15.475821453,0.0 74.13502356,15.474687482,0.0 74.13464907,15.473987501,0.0 74.134302579,15.473728507,0.0 74.133788093,15.473592011,0.0 74.133599098,15.473091524,0.0 74.133676096,15.472265546,0.0 74.133833592,15.471649562,0.0</coordinates>
                    </LinearRing>
                </outerBoundaryIs>
            </Polygon>
        </Placemark>
    </Document>
</kml>
