<?xml version="1.0" encoding="UTF-8"?>
<kml xmlns="http://www.opengis.net/kml/2.2" xmlns:gx="http://www.google.com/kml/ext/2.2">
    <Document id="4741">
        <Placemark id="4743">
            <ExtendedData>
                <Data name="id">
                    <value>233</value>
                </Data>
                <Data name="taluka">
                    <value>Sattari</value>
                </Data>
                <Data name="village">
                    <value>Cudcem</value>
                </Data>
                <Data name="lg_code">
                    <value>626815</value>
                </Data>
                <Data name="dslr_code">
                    <value>00015900</value>
                </Data>
            </ExtendedData>
            <Polygon id="4742">
                <outerBoundaryIs>
                    <LinearRing id="4746">
                        <coordinates>74.153564114,15.528736306,0.0 74.154076027,15.529006573,0.0 74.155147591,15.529181201,0.0 74.156093614,15.528944448,0.0 74.157081333,15.528646953,0.0 74.157436229,15.528741135,0.0 74.157624011,15.528653312,0.0 74.157943684,15.528174166,0.0 74.157866835,15.527756011,0.0 74.158040044,15.526804797,0.0 74.158067549,15.526379823,0.0 74.157001812,15.524694253,0.0 74.156931663,15.523932082,0.0 74.156297803,15.522927479,0.0 74.155991263,15.522361089,0.0 74.156011673,15.52174725,0.0 74.156427874,15.520121333,0.0 74.156831052,15.519682601,0.0 74.157519405,15.519162721,0.0 74.157762778,15.51900066,0.0 74.158360989,15.518878816,0.0 74.159056359,15.518446615,0.0 74.160106804,15.518364913,0.0 74.160357344,15.518479401,0.0 74.16060122,15.518971633,0.0 74.160740731,15.519450449,0.0 74.160707543,15.521514542,0.0 74.160951769,15.522451963,0.0 74.161014875,15.523085977,0.0 74.161203289,15.52382108,0.0 74.161579202,15.524110854,0.0 74.162344604,15.524251944,0.0 74.163666539,15.524338657,0.0 74.164097976,15.524453007,0.0 74.165280662,15.524404908,0.0 74.165906658,15.524215569,0.0 74.166630206,15.524215025,0.0 74.167228584,15.524288771,0.0 74.167576389,15.524221054,0.0 74.167896452,15.524261283,0.0 74.168084793,15.524874963,0.0 74.168106364,15.525738347,0.0 74.167953873,15.526439976,0.0 74.167488341,15.52718906,0.0 74.167350762,15.529131815,0.0 74.167288461,15.52952309,0.0 74.167073304,15.530170803,0.0 74.167303425,15.530824924,0.0 74.166803403,15.531958515,0.0 74.166769066,15.532518402,0.0 74.166791375,15.532731716,0.0 74.166726851,15.532908831,0.0 74.167010619,15.533324417,0.0 74.16729524,15.534795775,0.0 74.168871391,15.537661792,0.0 74.168938766,15.53796184,0.0 74.168714663,15.542134481,0.0 74.168407416,15.544973006,0.0 74.168099727,15.547276413,0.0 74.167548576,15.54831091,0.0 74.167444466,15.548708711,0.0 74.167371279,15.548626672,0.0 74.167157098,15.548373302,0.0 74.166472495,15.547866756,0.0 74.166142105,15.547641643,0.0 74.166025902,15.547680145,0.0 74.165904463,15.547777552,0.0 74.165740857,15.548000476,0.0 74.165571878,15.548110723,0.0 74.165426577,15.548100588,0.0 74.165307618,15.547995679,0.0 74.165064471,15.54785501,0.0 74.164969387,15.547875569,0.0 74.164763298,15.547827065,0.0 74.16442774,15.547745366,0.0 74.164121326,15.547771203,0.0 74.164010306,15.547684214,0.0 74.163936198,15.547505004,0.0 74.163827752,15.547330942,0.0 74.163740396,15.547103084,0.0 74.163539539,15.546987991,0.0 74.163330827,15.546962536,0.0 74.163016465,15.546957647,0.0 74.16279181,15.546814401,0.0 74.162421843,15.546643091,0.0 74.162044019,15.546558858,0.0 74.161898668,15.546482137,0.0 74.161729574,15.546446408,0.0 74.161549993,15.546513124,0.0 74.161362585,15.546705331,0.0 74.161211928,15.546600443,0.0 74.160722977,15.546285806,0.0 74.160484944,15.545919766,0.0 74.160149134,15.545505139,0.0 74.160017075,15.545535966,0.0 74.159800442,15.545513075,0.0 74.159679068,15.54569755,0.0 74.159523284,15.545792417,0.0 74.159795741,15.546268553,0.0 74.159618071,15.545958064,0.0 74.159570647,15.545875187,0.0 74.159186208,15.545626393,0.0 74.158821238,15.545539716,0.0 74.158762409,15.545443826,0.0 74.15903703,15.544658174,0.0 74.159021469,15.544529275,0.0 74.158501531,15.543985528,0.0 74.158135144,15.544063737,0.0 74.157955654,15.543891485,0.0 74.15714351,15.543370428,0.0 74.15668108,15.543211868,0.0 74.156767351,15.542795096,0.0 74.156700775,15.542675227,0.0 74.156292532,15.542608064,0.0 74.155884349,15.542618845,0.0 74.155601258,15.542433174,0.0 74.155440246,15.542152983,0.0 74.155540691,15.542077964,0.0 74.155724615,15.5419834,0.0 74.155897702,15.541870856,0.0 74.156026672,15.54169014,0.0 74.156093042,15.5415372,0.0 74.156282941,15.541165324,0.0 74.156459109,15.541039286,0.0 74.156498445,15.540917843,0.0 74.156736443,15.540770776,0.0 74.156629568,15.540519027,0.0 74.156681911,15.540219198,0.0 74.156582738,15.53992997,0.0 74.156649028,15.539672102,0.0 74.156741597,15.539406721,0.0 74.156747647,15.53922834,0.0 74.156727399,15.53903349,0.0 74.156751929,15.538757664,0.0 74.156838287,15.538457811,0.0 74.156992679,15.538163906,0.0 74.157295447,15.537797944,0.0 74.157690562,15.5368803,0.0 74.157585238,15.536634546,0.0 74.157387182,15.536436825,0.0 74.15450334,15.533956588,0.0 74.151941005,15.531272232,0.0 74.151668375,15.53056491,0.0 74.151865453,15.529871256,0.0 74.151823266,15.52932283,0.0 74.152055293,15.528932604,0.0 74.153564114,15.528736306,0.0</coordinates>
                    </LinearRing>
                </outerBoundaryIs>
            </Polygon>
        </Placemark>
    </Document>
</kml>
