<?xml version="1.0" encoding="UTF-8"?>
<kml xmlns="http://www.opengis.net/kml/2.2" xmlns:gx="http://www.google.com/kml/ext/2.2">
    <Document id="4755">
        <Placemark id="4757">
            <ExtendedData>
                <Data name="id">
                    <value>39</value>
                </Data>
                <Data name="taluka">
                    <value>Sattari</value>
                </Data>
                <Data name="village">
                    <value>Cumarconda</value>
                </Data>
                <Data name="lg_code">
                    <value>626808</value>
                </Data>
                <Data name="dslr_code">
                    <value>00015200</value>
                </Data>
            </ExtendedData>
            <Polygon id="4756">
                <outerBoundaryIs>
                    <LinearRing id="4760">
                        <coordinates>74.094266639,15.516165384,0.0 74.097087057,15.518356196,0.0 74.098565901,15.519586126,0.0 74.098924631,15.520252338,0.0 74.100784167,15.521584761,0.0 74.105359798,15.525501501,0.0 74.107285223,15.526811962,0.0 74.107204692,15.527661199,0.0 74.107233976,15.52846651,0.0 74.107050951,15.529945354,0.0 74.107160766,15.531292419,0.0 74.105264624,15.533876735,0.0 74.10443735,15.533927982,0.0 74.102943865,15.535516641,0.0 74.103134211,15.536929596,0.0 74.10175054,15.538935553,0.0 74.101560194,15.541490585,0.0 74.101128254,15.542559452,0.0 74.100527932,15.542940145,0.0 74.100074029,15.543386726,0.0 74.099642089,15.544375062,0.0 74.098104678,15.542940145,0.0 74.095754634,15.541270955,0.0 74.095330015,15.541087929,0.0 74.093060502,15.539074652,0.0 74.090842237,15.537295647,0.0 74.086178754,15.537163868,0.0 74.08448028,15.535802161,0.0 74.083557833,15.535487357,0.0 74.082466416,15.534737149,0.0 74.081365537,15.533344201,0.0 74.08134307,15.532310723,0.0 74.081680074,15.531075043,0.0 74.081545272,15.52891822,0.0 74.081410471,15.526693996,0.0 74.081612673,15.523346427,0.0 74.082466416,15.521459206,0.0 74.084218834,15.518268905,0.0 74.084258819,15.51816402,0.0 74.084976278,15.517600302,0.0 74.08803646,15.515975038,0.0 74.089061401,15.514986702,0.0 74.089434773,15.51519169,0.0 74.090730591,15.516736423,0.0 74.093007425,15.517761364,0.0 74.094032366,15.517190326,0.0 74.094266639,15.516165384,0.0</coordinates>
                    </LinearRing>
                </outerBoundaryIs>
            </Polygon>
        </Placemark>
    </Document>
</kml>
