<?xml version="1.0" encoding="UTF-8"?>
<kml xmlns="http://www.opengis.net/kml/2.2" xmlns:gx="http://www.google.com/kml/ext/2.2">
    <Document id="4769">
        <Placemark id="4771">
            <ExtendedData>
                <Data name="id">
                    <value>42</value>
                </Data>
                <Data name="taluka">
                    <value>Sattari</value>
                </Data>
                <Data name="village">
                    <value>Dabem</value>
                </Data>
                <Data name="lg_code">
                    <value>626789</value>
                </Data>
                <Data name="dslr_code">
                    <value>00013300</value>
                </Data>
            </ExtendedData>
            <Polygon id="4770">
                <outerBoundaryIs>
                    <LinearRing id="4774">
                        <coordinates>74.09503613,15.550215653,0.0 74.096099529,15.550885282,0.0 74.097992734,15.551272377,0.0 74.098224101,15.551263479,0.0 74.098540006,15.551561586,0.0 74.099501069,15.551828548,0.0 74.099799177,15.552527098,0.0 74.100270809,15.55279406,0.0 74.100742442,15.552669478,0.0 74.101765796,15.553123314,0.0 74.102508841,15.553020978,0.0 74.102855891,15.553283491,0.0 74.104635638,15.554071029,0.0 74.104973789,15.553870807,0.0 74.105503264,15.553835212,0.0 74.105819169,15.553617193,0.0 74.106103928,15.553581598,0.0 74.107047194,15.553866358,0.0 74.107202922,15.554164465,0.0 74.107945966,15.553661687,0.0 74.108230725,15.553617193,0.0 74.108435396,15.553897503,0.0 74.108769099,15.553995389,0.0 74.108964871,15.553955345,0.0 74.109819149,15.554373585,0.0 74.111839161,15.555250111,0.0 74.112964851,15.555303503,0.0 74.114068294,15.555726193,0.0 74.114709002,15.555735091,0.0 74.11634192,15.556260117,0.0 74.116746812,15.556228971,0.0 74.118326337,15.557185585,0.0 74.118708983,15.55749704,0.0 74.120066039,15.558053211,0.0 74.11921621,15.55925454,0.0 74.118842464,15.560220053,0.0 74.118468717,15.562026495,0.0 74.117698977,15.563334609,0.0 74.11690254,15.564291223,0.0 74.116608882,15.564954178,0.0 74.115959274,15.56557264,0.0 74.115821344,15.566035374,0.0 74.113868072,15.56802869,0.0 74.113356395,15.568727241,0.0 74.111799117,15.569790639,0.0 74.111257056,15.57060276,0.0 74.110606218,15.570368963,0.0 74.110214451,15.570394239,0.0 74.110088075,15.5702805,0.0 74.109645758,15.570078298,0.0 74.109114977,15.569459054,0.0 74.108407269,15.56921262,0.0 74.108205067,15.568852447,0.0 74.107250926,15.568144739,0.0 74.106631682,15.56851755,0.0 74.106075626,15.568650245,0.0 74.105437425,15.568422767,0.0 74.105241542,15.567854074,0.0 74.104641254,15.567721379,0.0 74.104375864,15.567437032,0.0 74.104641254,15.567026309,0.0 74.104262125,15.566141674,0.0 74.103516504,15.565560343,0.0 74.102435987,15.564833679,0.0 74.101747235,15.56408174,0.0 74.100938427,15.563639422,0.0 74.099402954,15.563032816,0.0 74.098530957,15.562394615,0.0 74.098328755,15.562066037,0.0 74.096979687,15.561241431,0.0 74.09600343,15.560938128,0.0 74.095336795,15.56055268,0.0 74.093346367,15.558764454,0.0 74.09418677,15.557898776,0.0 74.093709699,15.557222663,0.0 74.093444309,15.55659394,0.0 74.093637033,15.555968377,0.0 74.093033585,15.555244873,0.0 74.092111038,15.554761483,0.0 74.090676225,15.55417644,0.0 74.092664618,15.553098842,0.0 74.093643479,15.552351349,0.0 74.094212997,15.551764032,0.0 74.09503613,15.550215653,0.0</coordinates>
                    </LinearRing>
                </outerBoundaryIs>
            </Polygon>
        </Placemark>
    </Document>
</kml>
