<?xml version="1.0" encoding="UTF-8"?>
<kml xmlns="http://www.opengis.net/kml/2.2" xmlns:gx="http://www.google.com/kml/ext/2.2">
    <Document id="4797">
        <Placemark id="4799">
            <ExtendedData>
                <Data name="id">
                    <value>219</value>
                </Data>
                <Data name="taluka">
                    <value>Sattari</value>
                </Data>
                <Data name="village">
                    <value>Davem</value>
                </Data>
                <Data name="lg_code">
                    <value>626801</value>
                </Data>
                <Data name="dslr_code">
                    <value>00014500</value>
                </Data>
            </ExtendedData>
            <Polygon id="4798">
                <outerBoundaryIs>
                    <LinearRing id="4802">
                        <coordinates>74.166791375,15.532731716,0.0 74.167405915,15.532589044,0.0 74.167577046,15.532595686,0.0 74.167716789,15.532656525,0.0 74.167912361,15.532656377,0.0 74.168987788,15.532388073,0.0 74.170189086,15.532302503,0.0 74.170426613,15.53235988,0.0 74.170615372,15.532569657,0.0 74.171017054,15.532643835,0.0 74.171827322,15.532693994,0.0 74.17223255,15.532832498,0.0 74.172637706,15.532882969,0.0 74.17284369,15.532804933,0.0 74.173702792,15.532783944,0.0 74.174097252,15.53257371,0.0 74.174251018,15.532695479,0.0 74.174481499,15.532678368,0.0 74.174977198,15.532424036,0.0 74.175239144,15.532447529,0.0 74.175532645,15.532616589,0.0 74.178215806,15.533819803,0.0 74.178400826,15.533731621,0.0 74.179120307,15.533791984,0.0 74.179993699,15.534136631,0.0 74.181006718,15.534399899,0.0 74.18094573,15.534547233,0.0 74.180649753,15.535553075,0.0 74.179611882,15.536843933,0.0 74.179415011,15.537365515,0.0 74.179268923,15.538052962,0.0 74.178988178,15.538511974,0.0 74.17888772,15.539466866,0.0 74.179429688,15.540201156,0.0 74.180011265,15.542303298,0.0 74.179833608,15.542835022,0.0 74.179509335,15.543448125,0.0 74.179496238,15.54445712,0.0 74.180251674,15.545658482,0.0 74.181376957,15.546429533,0.0 74.182456988,15.547363137,0.0 74.18318373,15.547680805,0.0 74.184734759,15.548031639,0.0 74.186439469,15.548382333,0.0 74.186991718,15.548842341,0.0 74.187236538,15.549214577,0.0 74.187760764,15.549579803,0.0 74.188201082,15.549850295,0.0 74.188704163,15.550005614,0.0 74.188830077,15.550201886,0.0 74.189102547,15.550249054,0.0 74.189305337,15.55048589,0.0 74.18963372,15.550566868,0.0 74.189703821,15.550837675,0.0 74.189990343,15.550972863,0.0 74.190339678,15.55104705,0.0 74.190675534,15.551656213,0.0 74.191179797,15.553084604,0.0 74.191424623,15.553450063,0.0 74.192263097,15.553693114,0.0 74.192661404,15.553841744,0.0 74.193555293,15.55358025,0.0 74.193346721,15.554290615,0.0 74.192628652,15.55535969,0.0 74.192370012,15.5561084,0.0 74.191916613,15.556583025,0.0 74.191804997,15.556983076,0.0 74.191044715,15.557035159,0.0 74.190579549,15.55753836,0.0 74.190303101,15.558161383,0.0 74.189567301,15.559207609,0.0 74.189125625,15.559625083,0.0 74.189061421,15.560316485,0.0 74.188330773,15.560562796,0.0 74.188095236,15.560814397,0.0 74.187930443,15.561083077,0.0 74.187023225,15.561615216,0.0 74.186952634,15.561769543,0.0 74.186469667,15.562164192,0.0 74.186210524,15.562387242,0.0 74.185898527,15.562827454,0.0 74.184816488,15.563865757,0.0 74.184049459,15.563760195,0.0 74.183312781,15.5635602,0.0 74.182984085,15.563548673,0.0 74.182764946,15.563531154,0.0 74.182314499,15.563502026,0.0 74.181888451,15.563531879,0.0 74.181109076,15.563225707,0.0 74.180810819,15.563220052,0.0 74.180437865,15.56324524,0.0 74.180131918,15.563230113,0.0 74.179792175,15.563441278,0.0 74.179554408,15.563650162,0.0 74.17926897,15.563766821,0.0 74.178747802,15.563828754,0.0 74.177480917,15.563724334,0.0 74.176624109,15.563500956,0.0 74.176048306,15.563272956,0.0 74.175563255,15.563167899,0.0 74.17490621,15.563339767,0.0 74.174026544,15.562876952,0.0 74.173965298,15.562806705,0.0 74.173695399,15.562538915,0.0 74.173094764,15.562418567,0.0 74.172768458,15.562445184,0.0 74.172544175,15.562526639,0.0 74.171164277,15.562767161,0.0 74.171080487,15.562837521,0.0 74.170951649,15.563241822,0.0 74.171004298,15.563076607,0.0 74.170895422,15.56317979,0.0 74.170490254,15.563415499,0.0 74.170184921,15.562798015,0.0 74.167685992,15.559878486,0.0 74.167696549,15.55756205,0.0 74.167470808,15.553611518,0.0 74.168305912,15.553166157,0.0 74.16856298,15.552815242,0.0 74.169300299,15.551382878,0.0 74.168695355,15.55048666,0.0 74.16754199,15.549391996,0.0 74.167444466,15.548708711,0.0 74.167548576,15.54831091,0.0 74.168099727,15.547276413,0.0 74.168407416,15.544973006,0.0 74.168714663,15.542134481,0.0 74.168938766,15.53796184,0.0 74.168871391,15.537661792,0.0 74.16729524,15.534795775,0.0 74.167010619,15.533324417,0.0 74.166726851,15.532908831,0.0 74.166791375,15.532731716,0.0</coordinates>
                    </LinearRing>
                </outerBoundaryIs>
            </Polygon>
        </Placemark>
    </Document>
</kml>
