<?xml version="1.0" encoding="UTF-8"?>
<kml xmlns="http://www.opengis.net/kml/2.2" xmlns:gx="http://www.google.com/kml/ext/2.2">
    <Document id="4867">
        <Placemark id="4869">
            <ExtendedData>
                <Data name="id">
                    <value>5</value>
                </Data>
                <Data name="taluka">
                    <value>Sattari</value>
                </Data>
                <Data name="village">
                    <value>Gonteli</value>
                </Data>
                <Data name="lg_code">
                    <value>626768</value>
                </Data>
                <Data name="dslr_code">
                    <value>00011100</value>
                </Data>
            </ExtendedData>
            <Polygon id="4868">
                <outerBoundaryIs>
                    <LinearRing id="4872">
                        <coordinates>74.049865616,15.604260179,0.0 74.050429354,15.603829825,0.0 74.051137802,15.603488814,0.0 74.051726707,15.60346113,0.0 74.051578223,15.602691024,0.0 74.052343296,15.602592873,0.0 74.05246913,15.602119735,0.0 74.053385205,15.601908334,0.0 74.053417922,15.601785016,0.0 74.054472414,15.602187686,0.0 74.054866096,15.600895011,0.0 74.05537346,15.600498633,0.0 74.056249457,15.599769296,0.0 74.056475698,15.599638281,0.0 74.056907458,15.599438615,0.0 74.057321558,15.599247116,0.0 74.057681144,15.599080827,0.0 74.058092315,15.598890683,0.0 74.058564424,15.598672359,0.0 74.059048067,15.5984487,0.0 74.059404159,15.598284027,0.0 74.059751272,15.598123506,0.0 74.060065154,15.597978352,0.0 74.06028013,15.597878938,0.0 74.060530084,15.597763348,0.0 74.06089368,15.597943328,0.0 74.061271756,15.598130476,0.0 74.061496051,15.598241502,0.0 74.0616322,15.598308895,0.0 74.061741242,15.598362871,0.0 74.061834284,15.598408927,0.0 74.062046285,15.598513868,0.0 74.062383662,15.598797519,0.0 74.062504737,15.599577543,0.0 74.062546884,15.599900666,0.0 74.06260761,15.600366233,0.0 74.062777486,15.60294458,0.0 74.061939429,15.603797737,0.0 74.061841278,15.60403934,0.0 74.061929086,15.604685955,0.0 74.061903714,15.605162945,0.0 74.061863929,15.605617303,0.0 74.062248771,15.606735997,0.0 74.062679336,15.607346268,0.0 74.062664236,15.607380244,0.0 74.063540043,15.608206976,0.0 74.063943972,15.608992183,0.0 74.063951522,15.609192259,0.0 74.063913771,15.609286635,0.0 74.063936422,15.609339486,0.0 74.063876021,15.609388561,0.0 74.06371747,15.609456512,0.0 74.063370167,15.610219068,0.0 74.062905838,15.610872149,0.0 74.062953026,15.611106201,0.0 74.062951138,15.611710206,0.0 74.062377333,15.612782315,0.0 74.061890354,15.613314595,0.0 74.061354299,15.613476921,0.0 74.061014546,15.613763824,0.0 74.06090507,15.614513168,0.0 74.061050409,15.614851033,0.0 74.060895633,15.614973722,0.0 74.060963583,15.615185124,0.0 74.060935271,15.6153701,0.0 74.060772944,15.615453151,0.0 74.060635155,15.616077919,0.0 74.060718206,15.616361046,0.0 74.060450179,15.617127378,0.0 74.060359578,15.617255729,0.0 74.060246327,15.617504881,0.0 74.060193477,15.617644558,0.0 74.060129301,15.618384464,0.0 74.059989625,15.619165896,0.0 74.058377761,15.61949222,0.0 74.05802102,15.619551677,0.0 74.05758104,15.619765721,0.0 74.056835849,15.620003549,0.0 74.055876613,15.619952019,0.0 74.055222589,15.62004715,0.0 74.05461613,15.620399927,0.0 74.054330737,15.620431637,0.0 74.053985888,15.620415782,0.0 74.053450777,15.620459384,0.0 74.053240696,15.621089625,0.0 74.05291963,15.621014314,0.0 74.052816572,15.62097864,0.0 74.0516314,15.620158136,0.0 74.050898447,15.620289683,0.0 74.050333476,15.619471331,0.0 74.050278691,15.619115228,0.0 74.050061741,15.618378397,0.0 74.05002531,15.618139369,0.0 74.050617674,15.61723884,0.0 74.05042935,15.616930674,0.0 74.050549192,15.616714958,0.0 74.050511528,15.616475273,0.0 74.05075806,15.615930847,0.0 74.050785453,15.615674042,0.0 74.050374565,15.615547351,0.0 74.050275267,15.61317105,0.0 74.050128032,15.613054631,0.0 74.049217231,15.610144175,0.0 74.049836987,15.606025024,0.0 74.049865616,15.604260179,0.0</coordinates>
                    </LinearRing>
                </outerBoundaryIs>
            </Polygon>
        </Placemark>
    </Document>
</kml>
