<?xml version="1.0" encoding="UTF-8"?>
<kml xmlns="http://www.opengis.net/kml/2.2" xmlns:gx="http://www.google.com/kml/ext/2.2">
    <Document id="4881">
        <Placemark id="4883">
            <ExtendedData>
                <Data name="id">
                    <value>237</value>
                </Data>
                <Data name="taluka">
                    <value>Sattari</value>
                </Data>
                <Data name="village">
                    <value>Govanem</value>
                </Data>
                <Data name="lg_code">
                    <value>626837</value>
                </Data>
                <Data name="dslr_code">
                    <value>00018100</value>
                </Data>
            </ExtendedData>
            <Polygon id="4882">
                <outerBoundaryIs>
                    <LinearRing id="4886">
                        <coordinates>74.187947565,15.455366321,0.0 74.188757636,15.456035857,0.0 74.189331553,15.456187138,0.0 74.190031083,15.456803739,0.0 74.191377548,15.457551314,0.0 74.19212942,15.458349988,0.0 74.192630262,15.458440615,0.0 74.192891289,15.458673103,0.0 74.193691367,15.460817425,0.0 74.193895419,15.461479977,0.0 74.194104533,15.461975577,0.0 74.194417828,15.462314256,0.0 74.194971232,15.462819671,0.0 74.195649974,15.463476744,0.0 74.195697468,15.464058488,0.0 74.196240357,15.464467787,0.0 74.197539745,15.465002888,0.0 74.198239223,15.465508163,0.0 74.198803116,15.466054031,0.0 74.199111456,15.466650717,0.0 74.199758789,15.467166153,0.0 74.201266924,15.467766809,0.0 74.201178552,15.468085607,0.0 74.200803234,15.468364193,0.0 74.200479861,15.468415076,0.0 74.199410289,15.468213681,0.0 74.19864379,15.468553323,0.0 74.197756891,15.468452936,0.0 74.19745435,15.468468383,0.0 74.19637419,15.468100036,0.0 74.194673661,15.468147068,0.0 74.19392279,15.468471503,0.0 74.193275936,15.46846195,0.0 74.192697393,15.468988591,0.0 74.192201924,15.469095261,0.0 74.191758768,15.469363772,0.0 74.191231836,15.469293402,0.0 74.190965687,15.469177274,0.0 74.190193502,15.469021109,0.0 74.188832252,15.469305578,0.0 74.187867417,15.469549231,0.0 74.187366427,15.469322,0.0 74.186082963,15.469095427,0.0 74.185018958,15.469278442,0.0 74.184398077,15.469147426,0.0 74.184064145,15.469061701,0.0 74.183641831,15.469315002,0.0 74.182567226,15.469310831,0.0 74.18185274,15.469513779,0.0 74.18101322,15.46990401,0.0 74.180491541,15.469874082,0.0 74.179897045,15.470092103,0.0 74.179192875,15.4701635,0.0 74.178687045,15.470366269,0.0 74.178379252,15.470346281,0.0 74.178154941,15.470346462,0.0 74.177274138,15.471278026,0.0 74.176972025,15.471804405,0.0 74.17647684,15.47226517,0.0 74.176257996,15.472563826,0.0 74.176065201,15.472821989,0.0 74.175178098,15.472488797,0.0 74.174489245,15.472175683,0.0 74.174019389,15.471740977,0.0 74.172579297,15.471357619,0.0 74.1705337,15.470499172,0.0 74.169751045,15.470287295,0.0 74.168905383,15.469569562,0.0 74.168295476,15.468719983,0.0 74.168531789,15.468218694,0.0 74.168898498,15.467795858,0.0 74.169297059,15.467575313,0.0 74.169677069,15.467275391,0.0 74.169776807,15.466530078,0.0 74.169850427,15.466140758,0.0 74.169699757,15.465951363,0.0 74.169678213,15.465436629,0.0 74.169545992,15.465203684,0.0 74.169532593,15.464962965,0.0 74.169571875,15.464560865,0.0 74.169806445,15.464015204,0.0 74.169750903,15.463905125,0.0 74.169705716,15.463541505,0.0 74.169531207,15.463259934,0.0 74.1691426,15.462719871,0.0 74.16932451,15.462361199,0.0 74.169366268,15.461756783,0.0 74.169909863,15.4613082,0.0 74.170395578,15.461123439,0.0 74.170989632,15.461030787,0.0 74.171565337,15.46110461,0.0 74.171987768,15.461030015,0.0 74.171847131,15.460197815,0.0 74.171888834,15.459535777,0.0 74.171962531,15.459246333,0.0 74.172255321,15.458869646,0.0 74.1723686,15.458549439,0.0 74.173919813,15.456840073,0.0 74.174149273,15.456522335,0.0 74.174296983,15.456332709,0.0 74.175233586,15.455404906,0.0 74.17603861,15.455015004,0.0 74.176500629,15.454935247,0.0 74.177765022,15.454460461,0.0 74.178324706,15.454343488,0.0 74.178971743,15.454479977,0.0 74.17950243,15.454420646,0.0 74.179822121,15.45464319,0.0 74.180395263,15.454821991,0.0 74.18101841,15.454811239,0.0 74.182367932,15.455073911,0.0 74.182893375,15.455055551,0.0 74.183318344,15.454883617,0.0 74.184120592,15.454360518,0.0 74.184450353,15.454020918,0.0 74.185038838,15.453635005,0.0 74.185618361,15.453565375,0.0 74.185973667,15.453746904,0.0 74.186266957,15.4539669,0.0 74.186631454,15.454089519,0.0 74.186980176,15.454288979,0.0 74.187469294,15.454987705,0.0 74.187490479,15.455004476,0.0 74.187947565,15.455366321,0.0</coordinates>
                    </LinearRing>
                </outerBoundaryIs>
            </Polygon>
        </Placemark>
    </Document>
</kml>
