<?xml version="1.0" encoding="UTF-8"?>
<kml xmlns="http://www.opengis.net/kml/2.2" xmlns:gx="http://www.google.com/kml/ext/2.2">
    <Document id="5019">
        <Placemark id="5021">
            <ExtendedData>
                <Data name="id">
                    <value>235</value>
                </Data>
                <Data name="taluka">
                    <value>Sattari</value>
                </Data>
                <Data name="village">
                    <value>Melauli</value>
                </Data>
                <Data name="lg_code">
                    <value>626840</value>
                </Data>
                <Data name="dslr_code">
                    <value>00018400</value>
                </Data>
            </ExtendedData>
            <Polygon id="5020">
                <outerBoundaryIs>
                    <LinearRing id="5024">
                        <coordinates>74.164780569,15.47140909,0.0 74.164447563,15.472491966,0.0 74.16455275,15.473574517,0.0 74.163792373,15.47516361,0.0 74.163677949,15.47559877,0.0 74.162614933,15.477117256,0.0 74.161557422,15.478181554,0.0 74.160232676,15.477665813,0.0 74.15898883,15.4775748,0.0 74.158452864,15.477402886,0.0 74.156753953,15.475774763,0.0 74.154923578,15.473883713,0.0 74.153649395,15.472953357,0.0 74.151192041,15.473610673,0.0 74.150190897,15.473357859,0.0 74.148714462,15.473287071,0.0 74.14795602,15.473448872,0.0 74.146782962,15.472751105,0.0 74.145559341,15.472306152,0.0 74.143445815,15.471254445,0.0 74.140219906,15.471042081,0.0 74.139208649,15.471345458,0.0 74.137024335,15.471264558,0.0 74.136093979,15.470657804,0.0 74.134961371,15.47088028,0.0 74.133833592,15.471649562,0.0 74.133235107,15.47095308,0.0 74.132416128,15.470218099,0.0 74.131635649,15.470004605,0.0 74.129612702,15.469122628,0.0 74.128835722,15.468902133,0.0 74.127890746,15.468814636,0.0 74.126826774,15.468804136,0.0 74.124572833,15.469175126,0.0 74.124114345,15.469917107,0.0 74.124155323,15.469679047,0.0 74.124600726,15.468977412,0.0 74.12686264,15.468627037,0.0 74.126251306,15.467974041,0.0 74.125970278,15.46743295,0.0 74.125596802,15.466917531,0.0 74.124998774,15.466411847,0.0 74.12404092,15.466114537,0.0 74.123291086,15.465769067,0.0 74.12155055,15.465408127,0.0 74.120995791,15.465459673,0.0 74.120756375,15.465464608,0.0 74.120716617,15.465238841,0.0 74.120516708,15.465033979,0.0 74.119317897,15.464909724,0.0 74.119156025,15.464807325,0.0 74.118654061,15.464785176,0.0 74.11864585,15.464863646,0.0 74.118068055,15.465057716,0.0 74.11773779,15.464997041,0.0 74.117367932,15.46500044,0.0 74.117249039,15.464982888,0.0 74.115864597,15.465077295,0.0 74.115397976,15.464771683,0.0 74.11520293,15.464393869,0.0 74.115277833,15.463987891,0.0 74.115560631,15.463313581,0.0 74.115776712,15.462919539,0.0 74.116062147,15.462538271,0.0 74.116228705,15.462166674,0.0 74.116207144,15.461993741,0.0 74.1162564,15.461495699,0.0 74.116092747,15.461153099,0.0 74.116287436,15.460895181,0.0 74.116295491,15.460534876,0.0 74.116514877,15.460153642,0.0 74.117059349,15.459445564,0.0 74.117333216,15.459059497,0.0 74.117418959,15.458856082,0.0 74.117615415,15.458809539,0.0 74.118059498,15.458695608,0.0 74.118323654,15.458658636,0.0 74.118947336,15.457892863,0.0 74.118894397,15.457710339,0.0 74.118914037,15.457407675,0.0 74.119396082,15.457276107,0.0 74.119465315,15.457079105,0.0 74.119519521,15.456590667,0.0 74.119558844,15.456062205,0.0 74.119543807,15.455751553,0.0 74.119802622,15.455046825,0.0 74.119880025,15.454704097,0.0 74.120015357,15.454606342,0.0 74.120026916,15.454607937,0.0 74.120144143,15.454609475,0.0 74.120292625,15.454410828,0.0 74.120517159,15.454389889,0.0 74.120303979,15.454058528,0.0 74.12144615,15.453423775,0.0 74.12205347,15.452959053,0.0 74.122152339,15.452625921,0.0 74.122680476,15.452282943,0.0 74.123419555,15.451280095,0.0 74.123627358,15.450892455,0.0 74.12344162,15.449505799,0.0 74.123332311,15.448929378,0.0 74.123199937,15.448436239,0.0 74.122713575,15.446803143,0.0 74.122939294,15.446005551,0.0 74.122914244,15.44552196,0.0 74.122861164,15.445100838,0.0 74.123009431,15.444553097,0.0 74.122830877,15.444133645,0.0 74.122573085,15.44373025,0.0 74.122103961,15.443314161,0.0 74.121942004,15.443038819,0.0 74.122284881,15.442138678,0.0 74.122317681,15.441763946,0.0 74.122158835,15.44116193,0.0 74.122115621,15.440668741,0.0 74.122627234,15.440351393,0.0 74.122821798,15.439928532,0.0 74.12309897,15.43960811,0.0 74.123194571,15.439345437,0.0 74.12425062,15.438403261,0.0 74.124504547,15.437868271,0.0 74.125500608,15.438136312,0.0 74.126240864,15.437508571,0.0 74.128743627,15.436232257,0.0 74.130662902,15.436069246,0.0 74.131038082,15.435512531,0.0 74.131778517,15.43520855,0.0 74.132456432,15.435015903,0.0 74.133446916,15.434246337,0.0 74.133613927,15.434418243,0.0 74.133812349,15.434772256,0.0 74.134396633,15.434974265,0.0 74.135075062,15.435580937,0.0 74.135815958,15.435995326,0.0 74.136713268,15.436318553,0.0 74.137203982,15.436986043,0.0 74.137673523,15.437177995,0.0 74.13798652,15.437258745,0.0 74.138311047,15.438998851,0.0 74.139161186,15.438952788,0.0 74.139395676,15.438623803,0.0 74.139963921,15.438218723,0.0 74.140464718,15.438344882,0.0 74.141095819,15.438339423,0.0 74.141424353,15.43825321,0.0 74.14171138,15.438490802,0.0 74.142139127,15.438571473,0.0 74.142248585,15.438465163,0.0 74.143015442,15.43867209,0.0 74.143463962,15.43862121,0.0 74.143808272,15.438722168,0.0 74.144225766,15.439060852,0.0 74.144429202,15.439091074,0.0 74.144856719,15.438837844,0.0 74.145127914,15.438802254,0.0 74.145560949,15.438984095,0.0 74.146014744,15.43901921,0.0 74.146489219,15.438791241,0.0 74.146849038,15.438694882,0.0 74.147339291,15.438654084,0.0 74.147725478,15.438967487,0.0 74.147866286,15.438942099,0.0 74.147839949,15.438577866,0.0 74.147813759,15.438421053,0.0 74.147954484,15.438279307,0.0 74.148298727,15.438284136,0.0 74.14876309,15.438511481,0.0 74.14904495,15.438804716,0.0 74.149128507,15.438951372,0.0 74.14928499,15.438966444,0.0 74.149556304,15.439097796,0.0 74.150062226,15.439087336,0.0 74.150651705,15.439223531,0.0 74.151053495,15.439466091,0.0 74.151314562,15.439850399,0.0 74.151424486,15.44039164,0.0 74.151372464,15.44057886,0.0 74.151596843,15.440715301,0.0 74.151868131,15.440806178,0.0 74.151712109,15.441428545,0.0 74.151999248,15.441797657,0.0 74.15233305,15.441782251,0.0 74.152781459,15.441574523,0.0 74.153318682,15.441564034,0.0 74.153678052,15.440855522,0.0 74.153881196,15.440486072,0.0 74.154121123,15.440485905,0.0 74.154267176,15.440500981,0.0 74.154386919,15.440202415,0.0 74.154386821,15.44007088,0.0 74.15451713,15.439954432,0.0 74.15484049,15.439928911,0.0 74.155190086,15.440115851,0.0 74.155351941,15.440338335,0.0 74.155487552,15.44033824,0.0 74.155638648,15.440120596,0.0 74.155769031,15.440105327,0.0 74.156212441,15.440196078,0.0 74.156379187,15.439983481,0.0 74.156900735,15.439942641,0.0 74.156895736,15.440231009,0.0 74.157078482,15.44048889,0.0 74.157109968,15.440741819,0.0 74.157329012,15.440716369,0.0 74.157511519,15.440655531,0.0 74.157537675,15.440756693,0.0 74.157475165,15.440862977,0.0 74.157339669,15.441014844,0.0 74.157339848,15.441252618,0.0 74.15726174,15.441424681,0.0 74.157439204,15.441591503,0.0 74.157694779,15.441591321,0.0 74.15807545,15.441479752,0.0 74.158142976,15.441110394,0.0 74.158231591,15.441039505,0.0 74.158492447,15.441125322,0.0 74.158706176,15.44096834,0.0 74.158742844,15.441175733,0.0 74.158654375,15.441438866,0.0 74.158873351,15.441322352,0.0 74.1591862,15.441190593,0.0 74.15939513,15.441579988,0.0 74.159530722,15.441554595,0.0 74.159723444,15.441210443,0.0 74.159926702,15.441002876,0.0 74.160344001,15.441048106,0.0 74.16067777,15.440992216,0.0 74.161116007,15.441133551,0.0 74.161382291,15.441492548,0.0 74.16186199,15.441289837,0.0 74.162227427,15.441714529,0.0 74.162263761,15.441486846,0.0 74.162388901,15.441436164,0.0 74.162618488,15.441552354,0.0 74.162670843,15.441805267,0.0 74.162942279,15.442078255,0.0 74.163427328,15.442047544,0.0 74.163583799,15.442042369,0.0 74.163953742,15.44155643,0.0 74.164470391,15.441915238,0.0 74.164882677,15.442213415,0.0 74.165195619,15.442203064,0.0 74.165545221,15.442379869,0.0 74.1662494,15.442429933,0.0 74.166833958,15.442910102,0.0 74.168189604,15.443811953,0.0 74.168155645,15.443848966,0.0 74.168100816,15.444617294,0.0 74.167718252,15.444976117,0.0 74.167119634,15.445908756,0.0 74.16702768,15.446482479,0.0 74.166676787,15.446831032,0.0 74.166471171,15.447251183,0.0 74.165911857,15.447817573,0.0 74.1656509,15.448376056,0.0 74.165464081,15.449195701,0.0 74.164847252,15.450499685,0.0 74.164847715,15.451086143,0.0 74.164649948,15.451424336,0.0 74.163942505,15.451675833,0.0 74.163736831,15.452034519,0.0 74.163380979,15.452813311,0.0 74.163146274,15.453193785,0.0 74.162515584,15.453685951,0.0 74.162104097,15.454236858,0.0 74.162048721,15.454331653,0.0 74.161177754,15.454843198,0.0 74.16079267,15.455399205,0.0 74.160722922,15.455691204,0.0 74.160593813,15.456049831,0.0 74.160394535,15.456153694,0.0 74.160072363,15.456115512,0.0 74.16006906,15.456972153,0.0 74.15966276,15.457418052,0.0 74.159484765,15.457731897,0.0 74.158960043,15.458707996,0.0 74.158738778,15.459418819,0.0 74.158754917,15.459806792,0.0 74.158879368,15.46025871,0.0 74.158454904,15.46113614,0.0 74.158369559,15.461759793,0.0 74.158187706,15.462218333,0.0 74.158127313,15.462666542,0.0 74.158068171,15.463025118,0.0 74.157796541,15.463488844,0.0 74.157334856,15.464047459,0.0 74.157168681,15.464290867,0.0 74.156563292,15.465132568,0.0 74.156386616,15.465460495,0.0 74.156135948,15.465716767,0.0 74.155992299,15.466071559,0.0 74.155826289,15.46654033,0.0 74.15559419,15.466911831,0.0 74.155309269,15.467273125,0.0 74.155488812,15.467244829,0.0 74.156724759,15.467405298,0.0 74.157736343,15.467686284,0.0 74.15791865,15.467819324,0.0 74.158417773,15.467870186,0.0 74.16062817,15.468081153,0.0 74.160959163,15.46925895,0.0 74.161704444,15.470044618,0.0 74.162299018,15.470581983,0.0 74.162523743,15.470922424,0.0 74.163059691,15.470776056,0.0 74.163590756,15.471139319,0.0 74.164174097,15.470816208,0.0 74.164506997,15.471033642,0.0 74.164780569,15.47140909,0.0</coordinates>
                    </LinearRing>
                </outerBoundaryIs>
            </Polygon>
        </Placemark>
    </Document>
</kml>
