<?xml version="1.0" encoding="UTF-8"?>
<kml xmlns="http://www.opengis.net/kml/2.2" xmlns:gx="http://www.google.com/kml/ext/2.2">
    <Document id="5075">
        <Placemark id="5077">
            <ExtendedData>
                <Data name="id">
                    <value>84</value>
                </Data>
                <Data name="taluka">
                    <value>Sattari</value>
                </Data>
                <Data name="village">
                    <value>Naneli</value>
                </Data>
                <Data name="lg_code">
                    <value>626792</value>
                </Data>
                <Data name="dslr_code">
                    <value>00013600</value>
                </Data>
            </ExtendedData>
            <Polygon id="5076">
                <outerBoundaryIs>
                    <LinearRing id="5080">
                        <coordinates>74.151190468,15.571678159,0.0 74.152229987,15.573399491,0.0 74.153611284,15.574547461,0.0 74.153275293,15.575331441,0.0 74.154348598,15.576442079,0.0 74.154787253,15.576638074,0.0 74.155431237,15.577272724,0.0 74.156037887,15.578355362,0.0 74.156084553,15.579246672,0.0 74.156303881,15.579839323,0.0 74.156607206,15.580361977,0.0 74.157092527,15.580982627,0.0 74.158133166,15.581425949,0.0 74.159085141,15.581500613,0.0 74.159547129,15.581803939,0.0 74.160905094,15.581173955,0.0 74.161105755,15.581183288,0.0 74.161605076,15.5820046,0.0 74.163359696,15.582457255,0.0 74.163621023,15.582727915,0.0 74.163509026,15.583329899,0.0 74.163126369,15.58381522,0.0 74.162785711,15.584953857,0.0 74.162496386,15.585261849,0.0 74.162333057,15.585933831,0.0 74.162459053,15.586307155,0.0 74.162669048,15.586563815,0.0 74.162813711,15.587058469,0.0 74.162099729,15.587385127,0.0 74.161833736,15.587688452,0.0 74.161343749,15.587889114,0.0 74.160877095,15.587898447,0.0 74.160214445,15.588589095,0.0 74.159841122,15.588757091,0.0 74.159528463,15.588715092,0.0 74.15901981,15.589125748,0.0 74.159197138,15.589522404,0.0 74.159211138,15.58981173,0.0 74.159131807,15.590091723,0.0 74.158945145,15.590502379,0.0 74.159001143,15.59083837,0.0 74.156658538,15.591421688,0.0 74.1555619,15.591967674,0.0 74.155109245,15.592443661,0.0 74.154199269,15.592788986,0.0 74.153550619,15.592588324,0.0 74.151935994,15.59275632,0.0 74.150582696,15.591389022,0.0 74.150419367,15.591029698,0.0 74.149719386,15.590749706,0.0 74.148940073,15.590675041,0.0 74.14866008,15.590469713,0.0 74.147157452,15.590371715,0.0 74.145384165,15.590978366,0.0 74.14469585,15.590915368,0.0 74.143701876,15.59123036,0.0 74.142962228,15.591321357,0.0 74.142427909,15.591239693,0.0 74.139942974,15.591249026,0.0 74.139914975,15.590329717,0.0 74.139438987,15.589835063,0.0 74.138781004,15.588873755,0.0 74.138706339,15.588047776,0.0 74.138981666,15.58701647,0.0 74.139004998,15.586008496,0.0 74.137829029,15.584916524,0.0 74.138076356,15.584132545,0.0 74.138776338,15.583754555,0.0 74.141226274,15.582746581,0.0 74.140708287,15.582167929,0.0 74.140302298,15.582233261,0.0 74.140087637,15.582368591,0.0 74.140054971,15.582699916,0.0 74.139849643,15.582741914,0.0 74.139658315,15.582601918,0.0 74.13944832,15.582709249,0.0 74.139028331,15.582690582,0.0 74.139074996,15.582237928,0.0 74.138925667,15.582233261,0.0 74.138529011,15.582536586,0.0 74.138393681,15.582363924,0.0 74.13778703,15.58239659,0.0 74.136550396,15.582695249,0.0 74.136116407,15.58266725,0.0 74.135817748,15.582214595,0.0 74.135603087,15.582149263,0.0 74.135313761,15.581878604,0.0 74.135005769,15.581901936,0.0 74.134254456,15.581495947,0.0 74.133610472,15.581439948,0.0 74.133171817,15.581122623,0.0 74.131589858,15.580763299,0.0 74.130880544,15.580688635,0.0 74.129928568,15.581089958,0.0 74.129555245,15.581421282,0.0 74.129415248,15.581887937,0.0 74.129018592,15.58226126,0.0 74.1274413,15.58289591,0.0 74.126591989,15.58265325,0.0 74.125612014,15.582569252,0.0 74.123866726,15.582765247,0.0 74.12218677,15.583222569,0.0 74.120049493,15.583175903,0.0 74.119489507,15.582195929,0.0 74.11952684,15.581673276,0.0 74.119188429,15.580200728,0.0 74.138987999,15.570080342,0.0 74.140440855,15.569950057,0.0 74.140882324,15.569777529,0.0 74.141298422,15.569873942,0.0 74.141881973,15.570132734,0.0 74.142455376,15.571061342,0.0 74.143142392,15.572460299,0.0 74.143992382,15.572569351,0.0 74.144229682,15.57283829,0.0 74.144382608,15.573144143,0.0 74.144709554,15.573202149,0.0 74.144904667,15.573355076,0.0 74.145236886,15.573439449,0.0 74.145400359,15.573244336,0.0 74.145758945,15.573096683,0.0 74.146048978,15.573239063,0.0 74.146681777,15.573328709,0.0 74.14824268,15.572922663,0.0 74.151190468,15.571678159,0.0</coordinates>
                    </LinearRing>
                </outerBoundaryIs>
            </Polygon>
        </Placemark>
    </Document>
</kml>
