<?xml version="1.0" encoding="UTF-8"?>
<kml xmlns="http://www.opengis.net/kml/2.2" xmlns:gx="http://www.google.com/kml/ext/2.2">
    <Document id="5117">
        <Placemark id="5119">
            <ExtendedData>
                <Data name="id">
                    <value>12</value>
                </Data>
                <Data name="taluka">
                    <value>Sattari</value>
                </Data>
                <Data name="village">
                    <value>Onda</value>
                </Data>
                <Data name="lg_code">
                    <value>626842</value>
                </Data>
                <Data name="dslr_code">
                    <value>00013000</value>
                </Data>
            </ExtendedData>
            <Polygon id="5118">
                <outerBoundaryIs>
                    <LinearRing id="5122">
                        <coordinates>74.054638868,15.567658717,0.0 74.054649212,15.567735479,0.0 74.055441969,15.567941218,0.0 74.055745859,15.568058244,0.0 74.057276635,15.568481048,0.0 74.060300436,15.569171879,0.0 74.061349895,15.56934553,0.0 74.061969,15.569715483,0.0 74.06252393,15.570059011,0.0 74.063014684,15.570262863,0.0 74.064951276,15.571123571,0.0 74.066231012,15.571750226,0.0 74.068318605,15.573475416,0.0 74.068270314,15.568231272,0.0 74.068056878,15.566692289,0.0 74.068202913,15.566057599,0.0 74.06796701,15.565304957,0.0 74.06762439,15.55999715,0.0 74.067644048,15.559396161,0.0 74.067621582,15.556691706,0.0 74.067399721,15.555189232,0.0 74.067492397,15.553316054,0.0 74.06793331,15.551774262,0.0 74.066860515,15.54968484,0.0 74.067382871,15.548572728,0.0 74.067012167,15.547817278,0.0 74.066925107,15.547154504,0.0 74.06638871,15.547005661,0.0 74.066335351,15.546407479,0.0 74.06559956,15.545185841,0.0 74.065077204,15.54474212,0.0 74.065327149,15.544320865,0.0 74.065164264,15.544051262,0.0 74.065161455,15.543717067,0.0 74.065400166,15.543205945,0.0 74.065264917,15.542915961,0.0 74.065105288,15.542801541,0.0 74.064686842,15.542972851,0.0 74.06345397,15.542377478,0.0 74.06285298,15.542293227,0.0 74.062437343,15.541908481,0.0 74.061979579,15.541900056,0.0 74.061898137,15.541700662,0.0 74.061325231,15.540577317,0.0 74.059898582,15.539830292,0.0 74.054854761,15.538763114,0.0 74.054309938,15.538431727,0.0 74.053866217,15.538465427,0.0 74.052276683,15.538077873,0.0 74.051574592,15.53719043,0.0 74.050743317,15.536533273,0.0 74.049384069,15.535634597,0.0 74.048861713,15.53471907,0.0 74.048457309,15.533629425,0.0 74.048631427,15.530748044,0.0 74.0475811,15.529411263,0.0 74.04665434,15.529984169,0.0 74.046294869,15.530613243,0.0 74.043671857,15.532494846,0.0 74.043728025,15.53286555,0.0 74.042761948,15.53344969,0.0 74.043812276,15.534398917,0.0 74.042969767,15.535735698,0.0 74.042846199,15.536067085,0.0 74.040666909,15.535511029,0.0 74.03922341,15.536544507,0.0 74.03858872,15.537145496,0.0 74.039091417,15.537837056,0.0 74.038853408,15.538140359,0.0 74.038741775,15.538306755,0.0 74.038618032,15.538546694,0.0 74.038676481,15.538789091,0.0 74.039649579,15.538824898,0.0 74.039603241,15.538957593,0.0 74.039617985,15.539111351,0.0 74.040357286,15.539779039,0.0 74.039005059,15.540440409,0.0 74.039053504,15.540583635,0.0 74.038990315,15.540764775,0.0 74.039086151,15.54096803,0.0 74.039297831,15.541133373,0.0 74.039514777,15.541153382,0.0 74.039700129,15.541088088,0.0 74.039616932,15.542947926,0.0 74.041011284,15.545159513,0.0 74.041381988,15.545884071,0.0 74.041710567,15.546090485,0.0 74.042232922,15.547202597,0.0 74.042612051,15.547581726,0.0 74.042574138,15.547910305,0.0 74.043201808,15.55069901,0.0 74.044419233,15.55278422,0.0 74.044415021,15.553260237,0.0 74.045426032,15.553774168,0.0 74.046567631,15.555155883,0.0 74.047662893,15.555509736,0.0 74.048804493,15.556356458,0.0 74.049061458,15.556626061,0.0 74.049992431,15.557877187,0.0 74.052065003,15.559726494,0.0 74.052284055,15.560665892,0.0 74.052924362,15.561820129,0.0 74.053872185,15.562363548,0.0 74.054188126,15.563593611,0.0 74.054567255,15.564457183,0.0 74.054714694,15.566411804,0.0 74.054638868,15.567658717,0.0</coordinates>
                    </LinearRing>
                </outerBoundaryIs>
            </Polygon>
        </Placemark>
    </Document>
</kml>
