<?xml version="1.0" encoding="UTF-8"?>
<kml xmlns="http://www.opengis.net/kml/2.2" xmlns:gx="http://www.google.com/kml/ext/2.2">
    <Document id="5159">
        <Placemark id="5161">
            <ExtendedData>
                <Data name="id">
                    <value>243</value>
                </Data>
                <Data name="taluka">
                    <value>Sattari</value>
                </Data>
                <Data name="village">
                    <value>Pendral</value>
                </Data>
                <Data name="lg_code">
                    <value>626819</value>
                </Data>
                <Data name="dslr_code">
                    <value>00037300</value>
                </Data>
            </ExtendedData>
            <Polygon id="5160">
                <outerBoundaryIs>
                    <LinearRing id="5164">
                        <coordinates>74.254581552,15.502631608,0.0 74.257714976,15.504635205,0.0 74.261493307,15.506155638,0.0 74.264500564,15.507002667,0.0 74.269939156,15.510014708,0.0 74.274790064,15.513463021,0.0 74.27876412,15.517119796,0.0 74.278342375,15.521746792,0.0 74.262548053,15.53653763,0.0 74.26241988,15.536714127,0.0 74.2622917,15.536885438,0.0 74.262179648,15.537118969,0.0 74.26209428,15.537300602,0.0 74.262094654,15.537596239,0.0 74.261768724,15.537923382,0.0 74.261479928,15.538001524,0.0 74.261234121,15.538230026,0.0 74.261003749,15.537970968,0.0 74.260784423,15.537986788,0.0 74.26069369,15.538158053,0.0 74.26045301,15.538210204,0.0 74.260335293,15.538194783,0.0 74.260094197,15.53791499,0.0 74.259746604,15.538034691,0.0 74.259569999,15.53798822,0.0 74.259318548,15.537983329,0.0 74.259179373,15.537921253,0.0 74.258933298,15.537937102,0.0 74.258431094,15.538487472,0.0 74.258159147,15.53920873,0.0 74.25741066,15.539614161,0.0 74.257303925,15.539826937,0.0 74.256571986,15.540636902,0.0 74.254267013,15.541339764,0.0 74.254063523,15.5411844,0.0 74.253079116,15.541175158,0.0 74.252726448,15.541528253,0.0 74.252394749,15.541528632,0.0 74.252191626,15.54167409,0.0 74.252041726,15.541591276,0.0 74.251817102,15.541653772,0.0 74.251282544,15.542017444,0.0 74.250822306,15.541903863,0.0 74.250308858,15.542028925,0.0 74.249934521,15.542164201,0.0 74.24942112,15.542330754,0.0 74.248929256,15.542611387,0.0 74.248779643,15.542767155,0.0 74.248790617,15.542995354,0.0 74.248534102,15.543234227,0.0 74.248341551,15.543275937,0.0 74.247977774,15.543297093,0.0 74.247752874,15.543131374,0.0 74.247538601,15.542903403,0.0 74.247324303,15.542654686,0.0 74.247035291,15.542561651,0.0 74.246767988,15.542727922,0.0 74.246586223,15.542842231,0.0 74.246318648,15.54278029,0.0 74.246219843,15.542923032,0.0 74.246024622,15.54296993,0.0 74.245840188,15.543089428,0.0 74.245495373,15.543310243,0.0 74.24531099,15.543473827,0.0 74.245407935,15.544018314,0.0 74.245509783,15.544184173,0.0 74.245547802,15.544663892,0.0 74.245459968,15.545037427,0.0 74.245243455,15.545177706,0.0 74.245058957,15.545245338,0.0 74.245022234,15.545859993,0.0 74.244931613,15.546140171,0.0 74.244426359,15.546420809,0.0 74.243774301,15.546979092,0.0 74.243467129,15.547371021,0.0 74.243087945,15.547947154,0.0 74.242992001,15.54825327,0.0 74.242778796,15.548938139,0.0 74.242693795,15.549451707,0.0 74.242428203,15.551090971,0.0 74.243004257,15.551727546,0.0 74.240552604,15.55263277,0.0 74.239595317,15.553716254,0.0 74.238662905,15.554270842,0.0 74.237883055,15.55448422,0.0 74.236695085,15.554500326,0.0 74.234782808,15.554255239,0.0 74.233936231,15.554078204,0.0 74.232850218,15.554079354,0.0 74.23161807,15.55562276,0.0 74.230466806,15.556558129,0.0 74.228617911,15.558314697,0.0 74.227416049,15.559630686,0.0 74.226306885,15.561801653,0.0 74.225833081,15.56215801,0.0 74.225532765,15.562632813,0.0 74.224293881,15.562762586,0.0 74.223488484,15.562970996,0.0 74.222835584,15.562744296,0.0 74.219826933,15.562445816,0.0 74.218065937,15.56186071,0.0 74.218045424,15.561310741,0.0 74.218237315,15.560620731,0.0 74.218558086,15.560376642,0.0 74.218493388,15.55990991,0.0 74.218711716,15.558924236,0.0 74.218615025,15.558561268,0.0 74.219426313,15.556693278,0.0 74.219356016,15.555993154,0.0 74.219655235,15.555614233,0.0 74.219595798,15.55506451,0.0 74.21979888,15.55484647,0.0 74.219921547,15.554478097,0.0 74.220659726,15.554321761,0.0 74.221172975,15.553963369,0.0 74.221386489,15.553496359,0.0 74.221803401,15.55311213,0.0 74.222032852,15.55254137,0.0 74.222069987,15.552245695,0.0 74.222470205,15.55126502,0.0 74.223331052,15.550761047,0.0 74.223448421,15.550449731,0.0 74.223860192,15.550267781,0.0 74.224196807,15.549852509,0.0 74.224656677,15.54962383,0.0 74.225089829,15.549426296,0.0 74.225656628,15.54913008,0.0 74.226100456,15.548911787,0.0 74.226678292,15.548926753,0.0 74.227031109,15.548656686,0.0 74.227282106,15.548236311,0.0 74.226515825,15.547132349,0.0 74.226547569,15.546805559,0.0 74.226065028,15.545862088,0.0 74.225454512,15.545307744,0.0 74.225550515,15.545032755,0.0 74.225539594,15.544830488,0.0 74.225394302,15.544057829,0.0 74.22518512,15.5435705,0.0 74.225500304,15.543139688,0.0 74.22571943,15.542931999,0.0 74.226141697,15.542578876,0.0 74.226478085,15.541971695,0.0 74.226846747,15.541525267,0.0 74.227103127,15.541141193,0.0 74.22713484,15.540788469,0.0 74.22726283,15.5404149,0.0 74.227615677,15.540186325,0.0 74.227679626,15.539958047,0.0 74.228149953,15.539532258,0.0 74.228609591,15.539116852,0.0 74.228812487,15.538753578,0.0 74.229154618,15.538514638,0.0 74.229293418,15.538244789,0.0 74.228971175,15.537114439,0.0 74.229067112,15.536787582,0.0 74.22898648,15.536440161,0.0 74.229077032,15.53608219,0.0 74.229012697,15.535957778,0.0 74.22899104,15.535724402,0.0 74.229220773,15.535444086,0.0 74.229974996,15.535349941,0.0 74.230033654,15.535178722,0.0 74.230258266,15.535105874,0.0 74.230659186,15.534820191,0.0 74.230894428,15.534685093,0.0 74.231428772,15.534114004,0.0 74.231219876,15.533886011,0.0 74.23126235,15.533595516,0.0 74.23133708,15.533445025,0.0 74.231454613,15.533299676,0.0 74.231352377,15.532770747,0.0 74.231293391,15.53264633,0.0 74.23137868,15.532371349,0.0 74.231619274,15.532241431,0.0 74.231832627,15.531670678,0.0 74.232009,15.53152008,0.0 74.232126427,15.531281372,0.0 74.232147582,15.531063511,0.0 74.232356122,15.530975119,0.0 74.232537286,15.5303266,0.0 74.232558266,15.52995314,0.0 74.232654363,15.529776693,0.0 74.232793187,15.529537962,0.0 74.232937523,15.52944445,0.0 74.233210421,15.529501215,0.0 74.23324235,15.529350769,0.0 74.233129739,15.529112303,0.0 74.233011336,15.528479659,0.0 74.232973183,15.527852117,0.0 74.233352558,15.527452346,0.0 74.233517918,15.527026867,0.0 74.233940123,15.52665817,0.0 74.234244898,15.526522994,0.0 74.234490575,15.526164856,0.0 74.23488069,15.525806563,0.0 74.235099559,15.525396587,0.0 74.235511076,15.525043457,0.0 74.235933432,15.524814794,0.0 74.236045466,15.52454497,0.0 74.236354635,15.523574739,0.0 74.23650957,15.523398228,0.0 74.236792272,15.522676983,0.0 74.236796829,15.521981969,0.0 74.236641576,15.521878403,0.0 74.236614615,15.521691713,0.0 74.236796131,15.521369947,0.0 74.240108849,15.517880101,0.0 74.254581552,15.502631608,0.0</coordinates>
                    </LinearRing>
                </outerBoundaryIs>
            </Polygon>
        </Placemark>
    </Document>
</kml>
