<?xml version="1.0" encoding="UTF-8"?>
<kml xmlns="http://www.opengis.net/kml/2.2" xmlns:gx="http://www.google.com/kml/ext/2.2">
    <Document id="5215">
        <Placemark id="5217">
            <ExtendedData>
                <Data name="id">
                    <value>9</value>
                </Data>
                <Data name="taluka">
                    <value>Sattari</value>
                </Data>
                <Data name="village">
                    <value>Ponsuli</value>
                </Data>
                <Data name="lg_code">
                    <value>626772</value>
                </Data>
                <Data name="dslr_code">
                    <value>00011500</value>
                </Data>
            </ExtendedData>
            <Polygon id="5216">
                <outerBoundaryIs>
                    <LinearRing id="5220">
                        <coordinates>74.100848249,15.62487572,0.0 74.101450325,15.624281041,0.0 74.102388203,15.62336979,0.0 74.102456251,15.623183398,0.0 74.103414839,15.622562091,0.0 74.104358634,15.622215934,0.0 74.104663371,15.622144928,0.0 74.105021362,15.621979246,0.0 74.106178176,15.621748475,0.0 74.106610133,15.621763268,0.0 74.106920786,15.621925991,0.0 74.107012503,15.622408244,0.0 74.107287653,15.622707063,0.0 74.107589431,15.622579843,0.0 74.108065767,15.622292858,0.0 74.108385296,15.622162679,0.0 74.108941514,15.622005873,0.0 74.109228498,15.621988122,0.0 74.109382346,15.621831316,0.0 74.11026401,15.621650841,0.0 74.110595374,15.62146149,0.0 74.111237391,15.620781011,0.0 74.112610184,15.620059111,0.0 74.113036223,15.619729227,0.0 74.113592441,15.619575379,0.0 74.114553988,15.619820943,0.0 74.115642754,15.619590172,0.0 74.116181221,15.618442233,0.0 74.117447504,15.618572412,0.0 74.118417926,15.618353475,0.0 74.119187163,15.618371227,0.0 74.119548113,15.619377153,0.0 74.119775926,15.619936329,0.0 74.119781843,15.620291362,0.0 74.11959841,15.620767697,0.0 74.119527403,15.620983675,0.0 74.11959841,15.621335749,0.0 74.11959841,15.621646403,0.0 74.119879477,15.622332799,0.0 74.120571791,15.622460019,0.0 74.121139843,15.622421557,0.0 74.122299616,15.622513274,0.0 74.122669442,15.622377178,0.0 74.122820331,15.622211496,0.0 74.123062936,15.622412681,0.0 74.12261027,15.623060616,0.0 74.121752274,15.624249975,0.0 74.121592509,15.624891993,0.0 74.121169429,15.625492589,0.0 74.120542205,15.62570265,0.0 74.120261137,15.626350585,0.0 74.12048895,15.627859474,0.0 74.120341019,15.628181962,0.0 74.120006697,15.628605042,0.0 74.119713795,15.629258894,0.0 74.11985285,15.629696767,0.0 74.119586575,15.630190854,0.0 74.11974634,15.631057726,0.0 74.119699002,15.632048859,0.0 74.120610253,15.633229342,0.0 74.120048118,15.633992662,0.0 74.120210841,15.634939416,0.0 74.119403142,15.635815163,0.0 74.118778876,15.636948309,0.0 74.118480057,15.637912814,0.0 74.117287739,15.639264897,0.0 74.117145726,15.639711646,0.0 74.115497783,15.641995689,0.0 74.114693042,15.642261964,0.0 74.114105759,15.642813744,0.0 74.113295101,15.641896576,0.0 74.107650083,15.636997126,0.0 74.106975521,15.635618416,0.0 74.105022841,15.632352116,0.0 74.104546506,15.631639092,0.0 74.10307312,15.630754469,0.0 74.103144127,15.629056229,0.0 74.102259504,15.628130186,0.0 74.101283164,15.626482243,0.0 74.100617478,15.625692295,0.0 74.100848249,15.62487572,0.0</coordinates>
                    </LinearRing>
                </outerBoundaryIs>
            </Polygon>
        </Placemark>
    </Document>
</kml>
