<?xml version="1.0" encoding="UTF-8"?>
<kml xmlns="http://www.opengis.net/kml/2.2" xmlns:gx="http://www.google.com/kml/ext/2.2">
    <Document id="5299">
        <Placemark id="5301">
            <ExtendedData>
                <Data name="id">
                    <value>14</value>
                </Data>
                <Data name="taluka">
                    <value>Sattari</value>
                </Data>
                <Data name="village">
                    <value>Saleli</value>
                </Data>
                <Data name="lg_code">
                    <value>626787</value>
                </Data>
                <Data name="dslr_code">
                    <value>00013100</value>
                </Data>
            </ExtendedData>
            <Polygon id="5300">
                <outerBoundaryIs>
                    <LinearRing id="5304">
                        <coordinates>74.079995411,15.580564298,0.0 74.082665458,15.579359588,0.0 74.083697532,15.578689793,0.0 74.08417355,15.576545608,0.0 74.08488547,15.5758379,0.0 74.086140808,15.572943882,0.0 74.086793753,15.572606878,0.0 74.087189732,15.572038184,0.0 74.087408784,15.571465278,0.0 74.088491409,15.570584856,0.0 74.088348182,15.57024364,0.0 74.088466133,15.569535933,0.0 74.088866325,15.569337943,0.0 74.089637221,15.568617598,0.0 74.089662496,15.568310082,0.0 74.089932099,15.568150005,0.0 74.090816734,15.567219033,0.0 74.091553929,15.565555077,0.0 74.09186987,15.565373938,0.0 74.092371163,15.565314962,0.0 74.092733442,15.564771544,0.0 74.093108358,15.564139662,0.0 74.093087295,15.562998062,0.0 74.093297923,15.562328268,0.0 74.093959292,15.560980253,0.0 74.093424299,15.559960817,0.0 74.093346367,15.558764454,0.0 74.09418677,15.557898776,0.0 74.093709699,15.557222663,0.0 74.093444309,15.55659394,0.0 74.093637033,15.555968377,0.0 74.093033585,15.555244873,0.0 74.092111038,15.554761483,0.0 74.090398638,15.554063254,0.0 74.089514004,15.553627255,0.0 74.087596243,15.552088623,0.0 74.086882216,15.551671581,0.0 74.085991263,15.551469379,0.0 74.083934488,15.550350948,0.0 74.081501743,15.549374691,0.0 74.079302794,15.549134576,0.0 74.077704133,15.548407912,0.0 74.07563472,15.546790294,0.0 74.074096088,15.5459025,0.0 74.072882875,15.545295894,0.0 74.071110447,15.544000536,0.0 74.068195892,15.54392629,0.0 74.068202211,15.543844145,0.0 74.067737778,15.54381887,0.0 74.066774158,15.543964203,0.0 74.06665726,15.543763581,0.0 74.06649455,15.543758841,0.0 74.066214943,15.543578755,0.0 74.066053813,15.543297568,0.0 74.065688901,15.543308626,0.0 74.065400166,15.543205945,0.0 74.065161455,15.543717067,0.0 74.065164264,15.544051262,0.0 74.065327149,15.544320865,0.0 74.065077204,15.54474212,0.0 74.06559956,15.545185841,0.0 74.066335351,15.546407479,0.0 74.06638871,15.547005661,0.0 74.066925107,15.547154504,0.0 74.067012167,15.547817278,0.0 74.067382871,15.548572728,0.0 74.066860515,15.54968484,0.0 74.06793331,15.551774262,0.0 74.067492397,15.553316054,0.0 74.067399721,15.555189232,0.0 74.067621582,15.556691706,0.0 74.067644048,15.559396161,0.0 74.06762439,15.55999715,0.0 74.06796701,15.565304957,0.0 74.068202913,15.566057599,0.0 74.068056878,15.566692289,0.0 74.068270314,15.568231272,0.0 74.068318605,15.573475416,0.0 74.072924145,15.582399594,0.0 74.073314861,15.583911494,0.0 74.079995411,15.580564298,0.0</coordinates>
                    </LinearRing>
                </outerBoundaryIs>
            </Polygon>
        </Placemark>
    </Document>
</kml>
