<?xml version="1.0" encoding="UTF-8"?>
<kml xmlns="http://www.opengis.net/kml/2.2" xmlns:gx="http://www.google.com/kml/ext/2.2">
    <Document id="5327">
        <Placemark id="5329">
            <ExtendedData>
                <Data name="id">
                    <value>224</value>
                </Data>
                <Data name="taluka">
                    <value>Sattari</value>
                </Data>
                <Data name="village">
                    <value>Sanvordem</value>
                </Data>
                <Data name="lg_code">
                    <value>626816</value>
                </Data>
                <Data name="dslr_code">
                    <value>00016000</value>
                </Data>
            </ExtendedData>
            <Polygon id="5328">
                <outerBoundaryIs>
                    <LinearRing id="5332">
                        <coordinates>74.164307984,15.513281676,0.0 74.164873445,15.513578324,0.0 74.165206269,15.513613928,0.0 74.165724161,15.513874756,0.0 74.165967315,15.514074327,0.0 74.166247504,15.514345575,0.0 74.166802623,15.514913685,0.0 74.167072279,15.515220794,0.0 74.167580108,15.51609625,0.0 74.168119126,15.516341691,0.0 74.168732314,15.516848289,0.0 74.168959518,15.516914699,0.0 74.169308288,15.517062967,0.0 74.169540897,15.517277907,0.0 74.170053814,15.517897259,0.0 74.170386563,15.517830419,0.0 74.171616817,15.517117526,0.0 74.172144611,15.516558831,0.0 74.172619764,15.516225538,0.0 74.173713606,15.516649796,0.0 74.174183531,15.516383089,0.0 74.174642949,15.516188095,0.0 74.175276819,15.516146618,0.0 74.175551555,15.516197618,0.0 74.175995501,15.516448237,0.0 74.176275746,15.516765569,0.0 74.177755384,15.517373887,0.0 74.17808311,15.517614351,0.0 74.178871021,15.518551017,0.0 74.179484463,15.519313678,0.0 74.179896858,15.51971797,0.0 74.180356509,15.519789301,0.0 74.180847763,15.519753046,0.0 74.181233395,15.51975273,0.0 74.181597539,15.519342682,0.0 74.181924864,15.51911705,0.0 74.182062041,15.518922306,0.0 74.182365083,15.518867636,0.0 74.18306274,15.519266565,0.0 74.183539701,15.520992239,0.0 74.183101895,15.521735273,0.0 74.183186848,15.52222178,0.0 74.183478211,15.523143475,0.0 74.183494494,15.523635161,0.0 74.183595459,15.524306042,0.0 74.183627523,15.524720886,0.0 74.183590965,15.52519725,0.0 74.183649864,15.526088406,0.0 74.183846262,15.527143347,0.0 74.184232131,15.527393997,0.0 74.182600769,15.52856826,0.0 74.181993582,15.528958023,0.0 74.180938818,15.531033246,0.0 74.180854894,15.531724766,0.0 74.180702157,15.532262687,0.0 74.178769136,15.532889129,0.0 74.178172134,15.532858881,0.0 74.177807438,15.532659422,0.0 74.176628792,15.532020135,0.0 74.175112115,15.531463061,0.0 74.174504535,15.531412323,0.0 74.173939742,15.531986418,0.0 74.172640368,15.532264019,0.0 74.172397313,15.532218112,0.0 74.171969182,15.531962353,0.0 74.171546174,15.531511958,0.0 74.170515997,15.531507634,0.0 74.170013887,15.531226319,0.0 74.169585472,15.530617146,0.0 74.169151668,15.529874808,0.0 74.168422175,15.529317082,0.0 74.168337209,15.528774229,0.0 74.168737015,15.526694445,0.0 74.168858003,15.52605924,0.0 74.169084892,15.525726145,0.0 74.16923796,15.525562128,0.0 74.168963176,15.525465023,0.0 74.168999846,15.525085976,0.0 74.169364299,15.525013991,0.0 74.169416792,15.524604201,0.0 74.169416684,15.524471032,0.0 74.169246976,15.523661907,0.0 74.168998499,15.523431613,0.0 74.16814273,15.523473241,0.0 74.167989432,15.523350433,0.0 74.167424204,15.523381593,0.0 74.166478563,15.523341333,0.0 74.165781157,15.523234299,0.0 74.165511824,15.52334206,0.0 74.164930691,15.52330152,0.0 74.16442372,15.523517017,0.0 74.163831924,15.523353557,0.0 74.163530974,15.523563777,0.0 74.163309228,15.523727841,0.0 74.162833798,15.523748679,0.0 74.161977726,15.523406143,0.0 74.1618402,15.523180882,0.0 74.161580266,15.521793044,0.0 74.161537629,15.521311619,0.0 74.161874447,15.519677495,0.0 74.162032346,15.518934707,0.0 74.161804563,15.518125618,0.0 74.161439729,15.517695647,0.0 74.160921615,15.517153106,0.0 74.161079866,15.516861044,0.0 74.16124285,15.515862159,0.0 74.161960788,15.515236765,0.0 74.163666873,15.515020389,0.0 74.164062694,15.514554004,0.0 74.164199784,15.514231224,0.0 74.163776926,15.513903738,0.0 74.163771215,15.513360823,0.0 74.164056372,15.513237687,0.0 74.164307984,15.513281676,0.0</coordinates>
                    </LinearRing>
                </outerBoundaryIs>
            </Polygon>
        </Placemark>
        <Placemark id="5341">
            <ExtendedData>
                <Data name="id">
                    <value>224</value>
                </Data>
                <Data name="taluka">
                    <value>Sattari</value>
                </Data>
                <Data name="village">
                    <value>Sanvordem</value>
                </Data>
                <Data name="lg_code">
                    <value>626816</value>
                </Data>
                <Data name="dslr_code">
                    <value>00016000</value>
                </Data>
            </ExtendedData>
            <Polygon id="5340">
                <outerBoundaryIs>
                    <LinearRing id="5344">
                        <coordinates>74.167967789,15.529245722,0.0 74.168073472,15.529276373,0.0 74.168903634,15.530197676,0.0 74.169051856,15.530566337,0.0 74.169696895,15.531206075,0.0 74.170288928,15.531625613,0.0 74.169359314,15.53185169,0.0 74.168910377,15.531990325,0.0 74.167758549,15.531811938,0.0 74.167895089,15.530802826,0.0 74.168068882,15.530131729,0.0 74.167914923,15.529199666,0.0 74.167967789,15.529245722,0.0</coordinates>
                    </LinearRing>
                </outerBoundaryIs>
            </Polygon>
        </Placemark>
    </Document>
</kml>
