<?xml version="1.0" encoding="UTF-8"?>
<kml xmlns="http://www.opengis.net/kml/2.2" xmlns:gx="http://www.google.com/kml/ext/2.2">
    <Document id="5353">
        <Placemark id="5355">
            <ExtendedData>
                <Data name="id">
                    <value>230</value>
                </Data>
                <Data name="taluka">
                    <value>Sattari</value>
                </Data>
                <Data name="village">
                    <value>Satorem</value>
                </Data>
                <Data name="lg_code">
                    <value>626805</value>
                </Data>
                <Data name="dslr_code">
                    <value>00014900</value>
                </Data>
            </ExtendedData>
            <Polygon id="5354">
                <outerBoundaryIs>
                    <LinearRing id="5358">
                        <coordinates>74.135579392,15.549286347,0.0 74.136227818,15.549784141,0.0 74.139039973,15.549886313,0.0 74.140293736,15.55030123,0.0 74.142520148,15.550051974,0.0 74.143179859,15.550027563,0.0 74.144367452,15.550146705,0.0 74.147534543,15.550704219,0.0 74.149752773,15.550550829,0.0 74.15114617,15.550166146,0.0 74.152565014,15.550748762,0.0 74.15360426,15.550979879,0.0 74.156026946,15.550370147,0.0 74.155929599,15.550587076,0.0 74.155870342,15.550605653,0.0 74.155845571,15.550718734,0.0 74.155412256,15.551655059,0.0 74.155267111,15.551875728,0.0 74.15518926,15.552596796,0.0 74.15522199,15.552898894,0.0 74.15488594,15.553514493,0.0 74.154865157,15.553848138,0.0 74.15468195,15.554309789,0.0 74.154538854,15.55471766,0.0 74.154564103,15.555244037,0.0 74.154361809,15.555753892,0.0 74.154039009,15.556198959,0.0 74.153980191,15.556810656,0.0 74.154035978,15.557264725,0.0 74.154024897,15.557791127,0.0 74.154233887,15.558567598,0.0 74.154001349,15.559550117,0.0 74.153674612,15.559852466,0.0 74.153286799,15.560304991,0.0 74.152620739,15.561998627,0.0 74.152828748,15.562742664,0.0 74.152588743,15.563986529,0.0 74.152489624,15.564407343,0.0 74.152403622,15.564464861,0.0 74.152100827,15.564355604,0.0 74.151849368,15.564463703,0.0 74.151486724,15.564779732,0.0 74.151099191,15.564895917,0.0 74.15074456,15.564892163,0.0 74.150344235,15.56442876,0.0 74.149345789,15.56368196,0.0 74.148599297,15.563506588,0.0 74.148104083,15.562967297,0.0 74.147493766,15.562923737,0.0 74.147262782,15.562831956,0.0 74.146648395,15.562864343,0.0 74.14678008,15.56248452,0.0 74.146631536,15.562348714,0.0 74.146606517,15.561957004,0.0 74.146664218,15.561916993,0.0 74.146701239,15.561789058,0.0 74.146626874,15.561589246,0.0 74.146383394,15.561317598,0.0 74.146626342,15.56083777,0.0 74.146564156,15.56036614,0.0 74.146308388,15.560210419,0.0 74.145302459,15.560502881,0.0 74.14499692,15.559931481,0.0 74.14470007,15.559991634,0.0 74.144431979,15.559899874,0.0 74.144183112,15.560255671,0.0 74.144091857,15.559976402,0.0 74.144052766,15.559780946,0.0 74.143767098,15.558352607,0.0 74.141326331,15.556941935,0.0 74.139677164,15.556079294,0.0 74.138971828,15.555759609,0.0 74.138307086,15.554891894,0.0 74.138023773,15.554011502,0.0 74.137052689,15.552124678,0.0 74.136131846,15.550127626,0.0 74.135579392,15.549286347,0.0</coordinates>
                    </LinearRing>
                </outerBoundaryIs>
            </Polygon>
        </Placemark>
    </Document>
</kml>
