<?xml version="1.0" encoding="UTF-8"?>
<kml xmlns="http://www.opengis.net/kml/2.2" xmlns:gx="http://www.google.com/kml/ext/2.2">
    <Document id="5367">
        <Placemark id="5369">
            <ExtendedData>
                <Data name="id">
                    <value>204</value>
                </Data>
                <Data name="taluka">
                    <value>Sattari</value>
                </Data>
                <Data name="village">
                    <value>Satrem</value>
                </Data>
                <Data name="lg_code">
                    <value>626778</value>
                </Data>
                <Data name="dslr_code">
                    <value>00012100</value>
                </Data>
            </ExtendedData>
            <Polygon id="5368">
                <outerBoundaryIs>
                    <LinearRing id="5372">
                        <coordinates>74.204650677,15.625299798,0.0 74.205267035,15.624748372,0.0 74.205949707,15.624418931,0.0 74.207042246,15.624157424,0.0 74.207711557,15.623691345,0.0 74.208468324,15.622563307,0.0 74.208550832,15.621363315,0.0 74.209933146,15.620093762,0.0 74.21139435,15.618427,0.0 74.211966154,15.617435773,0.0 74.211780111,15.616483708,0.0 74.212550185,15.615488017,0.0 74.212879992,15.61484504,0.0 74.213068955,15.614355924,0.0 74.213079334,15.613738876,0.0 74.21361316,15.612260883,0.0 74.214158692,15.611455428,0.0 74.215327323,15.610297073,0.0 74.21549217,15.609929678,0.0 74.216118072,15.610148976,0.0 74.216554641,15.610492294,0.0 74.217178923,15.611262441,0.0 74.217613314,15.611624974,0.0 74.217930723,15.61178052,0.0 74.218788046,15.612082849,0.0 74.219147311,15.612234081,0.0 74.219374407,15.612400391,0.0 74.219786566,15.61256865,0.0 74.220676603,15.612554947,0.0 74.221425578,15.612481601,0.0 74.221892802,15.61263699,0.0 74.222280628,15.612711326,0.0 74.222556115,15.612802855,0.0 74.222814011,15.612926428,0.0 74.223102765,15.61306278,0.0 74.22331902,15.613387092,0.0 74.223671999,15.613830829,0.0 74.224414584,15.613956041,0.0 74.225007056,15.613803844,0.0 74.225236193,15.61381642,0.0 74.225918881,15.61356378,0.0 74.2261393,15.613661767,0.0 74.226838471,15.614376296,0.0 74.227215141,15.61431826,0.0 74.227724063,15.614319868,0.0 74.228120588,15.61428743,0.0 74.228347459,15.614242358,0.0 74.228644709,15.614088323,0.0 74.229063087,15.613895731,0.0 74.229274728,15.614023614,0.0 74.229858974,15.614400912,0.0 74.230086123,15.614605642,0.0 74.230496073,15.614756802,0.0 74.23078032,15.61479707,0.0 74.231234508,15.615104043,0.0 74.231662364,15.615504987,0.0 74.232985109,15.616272215,0.0 74.233113253,15.61659234,0.0 74.233267591,15.616696795,0.0 74.233459559,15.61695707,0.0 74.233743793,15.616982388,0.0 74.234661068,15.617656094,0.0 74.235062676,15.618212919,0.0 74.235558793,15.618568945,0.0 74.235750644,15.618722464,0.0 74.236015145,15.618828934,0.0 74.236371997,15.618775173,0.0 74.237041716,15.618738155,0.0 74.237508584,15.618562574,0.0 74.237802208,15.61908535,0.0 74.2382256,15.619417962,0.0 74.238342773,15.619767987,0.0 74.238673478,15.61996619,0.0 74.23916057,15.620130061,0.0 74.239396493,15.620287799,0.0 74.239755688,15.620353594,0.0 74.240200588,15.620231409,0.0 74.241113305,15.620744961,0.0 74.242214743,15.62061351,0.0 74.242917665,15.620704541,0.0 74.243182349,15.620960457,0.0 74.243460096,15.621083983,0.0 74.24409951,15.621497477,0.0 74.244341886,15.621518559,0.0 74.244939306,15.621816803,0.0 74.245717618,15.622307,0.0 74.243603203,15.626592311,0.0 74.246391268,15.636606949,0.0 74.251498801,15.654774843,0.0 74.250345916,15.656232278,0.0 74.250761721,15.657491491,0.0 74.24504619,15.657950591,0.0 74.243103027,15.66201365,0.0 74.238269885,15.663406753,0.0 74.239333381,15.664558529,0.0 74.236274581,15.668281133,0.0 74.233096359,15.667844716,0.0 74.232200408,15.666735434,0.0 74.229970169,15.666631034,0.0 74.229056159,15.665116095,0.0 74.228112112,15.664322836,0.0 74.226575606,15.665814707,0.0 74.224328188,15.66611166,0.0 74.224514705,15.667401049,0.0 74.224026604,15.668426381,0.0 74.223268695,15.66857661,0.0 74.22205946,15.667087563,0.0 74.22170647,15.666716419,0.0 74.220462754,15.66593197,0.0 74.219126889,15.665519107,0.0 74.217618064,15.664085846,0.0 74.217435391,15.662219978,0.0 74.215033989,15.662751846,0.0 74.215893614,15.658749882,0.0 74.217140703,15.658612005,0.0 74.218950854,15.657482887,0.0 74.219774643,15.657155397,0.0 74.22212558,15.656896818,0.0 74.222283462,15.656179274,0.0 74.222252252,15.655846235,0.0 74.220029506,15.654392361,0.0 74.217259951,15.652593125,0.0 74.2159027,15.65270976,0.0 74.214698968,15.652130204,0.0 74.207664658,15.651475109,0.0 74.205198811,15.651364273,0.0 74.205295316,15.650913683,0.0 74.205121629,15.649094764,0.0 74.204117881,15.647925681,0.0 74.204102044,15.647509357,0.0 74.204484339,15.646392357,0.0 74.204640031,15.645634261,0.0 74.205328543,15.644461462,0.0 74.205376503,15.64394473,0.0 74.205204239,15.643547767,0.0 74.205203941,15.643248857,0.0 74.204520148,15.63585787,0.0 74.204660876,15.635569503,0.0 74.204153305,15.634760783,0.0 74.20417715,15.634365772,0.0 74.20402031,15.633958118,0.0 74.203654146,15.633542119,0.0 74.203266135,15.633314025,0.0 74.202997061,15.633040985,0.0 74.202913059,15.632761368,0.0 74.202842107,15.632308797,0.0 74.20291882,15.631898792,0.0 74.203057344,15.631610428,0.0 74.20326412,15.63127076,0.0 74.20319559,15.631040235,0.0 74.203019206,15.630918699,0.0 74.202869153,15.630686114,0.0 74.202773369,15.629627205,0.0 74.202687294,15.629477829,0.0 74.203131989,15.62910378,0.0 74.204210249,15.627744871,0.0 74.204227659,15.627527077,0.0 74.20387229,15.626876209,0.0 74.204371482,15.625921365,0.0 74.204650677,15.625299798,0.0</coordinates>
                    </LinearRing>
                </outerBoundaryIs>
            </Polygon>
        </Placemark>
    </Document>
</kml>
