<?xml version="1.0" encoding="UTF-8"?>
<kml xmlns="http://www.opengis.net/kml/2.2" xmlns:gx="http://www.google.com/kml/ext/2.2">
    <Document id="5423">
        <Placemark id="5425">
            <ExtendedData>
                <Data name="id">
                    <value>239</value>
                </Data>
                <Data name="taluka">
                    <value>Sattari</value>
                </Data>
                <Data name="village">
                    <value>Sirsodem</value>
                </Data>
                <Data name="lg_code">
                    <value>626835</value>
                </Data>
                <Data name="dslr_code">
                    <value>00017900</value>
                </Data>
            </ExtendedData>
            <Polygon id="5424">
                <outerBoundaryIs>
                    <LinearRing id="5428">
                        <coordinates>74.204284365,15.485681952,0.0 74.204568445,15.486298902,0.0 74.204900537,15.486786141,0.0 74.204906432,15.487341108,0.0 74.204484464,15.487922404,0.0 74.204314805,15.489447438,0.0 74.203214674,15.491180795,0.0 74.2026167,15.492291288,0.0 74.202167861,15.492758498,0.0 74.202147,15.493308302,0.0 74.202126291,15.494013706,0.0 74.201869882,15.49435626,0.0 74.201988351,15.495175643,0.0 74.201540248,15.496410476,0.0 74.201776502,15.497343858,0.0 74.201637452,15.497364732,0.0 74.20135894,15.496981173,0.0 74.201208851,15.496649364,0.0 74.20093048,15.496411031,0.0 74.200106919,15.49657775,0.0 74.199497191,15.496619795,0.0 74.199165135,15.496174042,0.0 74.198672825,15.495946271,0.0 74.19789157,15.495604653,0.0 74.197291996,15.495070963,0.0 74.195178249,15.494040693,0.0 74.194963554,15.493247324,0.0 74.194578148,15.492931277,0.0 74.194203614,15.49280194,0.0 74.193454881,15.492901142,0.0 74.1927271,15.492523152,0.0 74.192705508,15.492310517,0.0 74.192464767,15.49225886,0.0 74.192250631,15.492056767,0.0 74.191640694,15.491860203,0.0 74.190351567,15.491767956,0.0 74.189768556,15.491768457,0.0 74.188944401,15.491271243,0.0 74.187911805,15.490945363,0.0 74.187307434,15.490982182,0.0 74.186558551,15.490910202,0.0 74.186349724,15.490656231,0.0 74.185760904,15.49013806,0.0 74.185536033,15.489884103,0.0 74.185097257,15.489677004,0.0 74.184669202,15.489495828,0.0 74.184401774,15.489501238,0.0 74.184144634,15.489045026,0.0 74.18387694,15.488749609,0.0 74.183497108,15.488661751,0.0 74.18333637,15.488345498,0.0 74.183303995,15.488023951,0.0 74.183175267,15.487614311,0.0 74.183131999,15.487069748,0.0 74.182939239,15.48683132,0.0 74.182751888,15.486660315,0.0 74.1825004,15.48654123,0.0 74.182350471,15.486349447,0.0 74.18215755,15.485924299,0.0 74.181745252,15.485400785,0.0 74.181284603,15.48462835,0.0 74.181038434,15.484472951,0.0 74.180738556,15.484058263,0.0 74.180363916,15.483778489,0.0 74.180122856,15.483343005,0.0 74.179807285,15.483332888,0.0 74.178993705,15.482628161,0.0 74.17863541,15.48269069,0.0 74.178308947,15.482452367,0.0 74.177944004,15.480995207,0.0 74.177799406,15.480772297,0.0 74.177424842,15.480570317,0.0 74.17702863,15.480067527,0.0 74.176715452,15.479986851,0.0 74.176587686,15.479483505,0.0 74.177086986,15.47950732,0.0 74.177771379,15.479268185,0.0 74.178118821,15.479029319,0.0 74.178391638,15.479086153,0.0 74.178450649,15.479293572,0.0 74.178878784,15.47959924,0.0 74.179087292,15.479505711,0.0 74.179295746,15.479349942,0.0 74.179632731,15.479391163,0.0 74.180033772,15.479287103,0.0 74.180376052,15.479266078,0.0 74.180595408,15.479348886,0.0 74.180889949,15.479784326,0.0 74.181264415,15.479872193,0.0 74.181730013,15.480198571,0.0 74.182024444,15.480504343,0.0 74.182318603,15.480498914,0.0 74.18254311,15.480353502,0.0 74.182778368,15.480270321,0.0 74.182864034,15.480373984,0.0 74.183227864,15.480529283,0.0 74.183345772,15.480804079,0.0 74.183453029,15.48113075,0.0 74.183618899,15.481208412,0.0 74.183747569,15.481555812,0.0 74.183977406,15.481389648,0.0 74.184453419,15.481389252,0.0 74.184806541,15.481528997,0.0 74.185100619,15.481430205,0.0 74.185613802,15.481128948,0.0 74.186453746,15.481392762,0.0 74.186657127,15.481548191,0.0 74.18698868,15.481490858,0.0 74.187908404,15.481256679,0.0 74.188881982,15.481432197,0.0 74.190806999,15.480963746,0.0 74.191256287,15.480984105,0.0 74.19220807,15.480723947,0.0 74.193063859,15.480764696,0.0 74.193497294,15.480992531,0.0 74.193957434,15.481178848,0.0 74.194519123,15.481287275,0.0 74.195257102,15.481172519,0.0 74.195743762,15.481120222,0.0 74.196315938,15.481005609,0.0 74.196625854,15.480694134,0.0 74.197048169,15.480470732,0.0 74.197390385,15.480382254,0.0 74.19766313,15.480356077,0.0 74.197984238,15.480568443,0.0 74.198037949,15.480806982,0.0 74.198300324,15.481123133,0.0 74.198674923,15.481340637,0.0 74.198996123,15.481646362,0.0 74.199242797,15.482320406,0.0 74.199670919,15.482574166,0.0 74.200452467,15.483268473,0.0 74.201383778,15.48396264,0.0 74.201742134,15.4839675,0.0 74.202592897,15.484324602,0.0 74.203684387,15.484722973,0.0 74.204059176,15.485122001,0.0 74.204331982,15.485152869,0.0 74.204284365,15.485681952,0.0</coordinates>
                    </LinearRing>
                </outerBoundaryIs>
            </Polygon>
        </Placemark>
    </Document>
</kml>
