<?xml version="1.0" encoding="UTF-8"?>
<kml xmlns="http://www.opengis.net/kml/2.2" xmlns:gx="http://www.google.com/kml/ext/2.2">
    <Document id="5507">
        <Placemark id="5509">
            <ExtendedData>
                <Data name="id">
                    <value>212</value>
                </Data>
                <Data name="taluka">
                    <value>Sattari</value>
                </Data>
                <Data name="village">
                    <value>Vainguinim</value>
                </Data>
                <Data name="lg_code">
                    <value>626798</value>
                </Data>
                <Data name="dslr_code">
                    <value>00014200</value>
                </Data>
            </ExtendedData>
            <Polygon id="5508">
                <outerBoundaryIs>
                    <LinearRing id="5512">
                        <coordinates>74.217098224,15.588202318,0.0 74.218161073,15.586954735,0.0 74.219218218,15.585993328,0.0 74.219361255,15.584809057,0.0 74.218734543,15.5834484,0.0 74.218079561,15.582637875,0.0 74.218471185,15.582287843,0.0 74.218988067,15.582133485,0.0 74.219235392,15.581778933,0.0 74.219995039,15.581507783,0.0 74.220386745,15.581239331,0.0 74.221086349,15.581045159,0.0 74.221603172,15.580839515,0.0 74.221794957,15.58027756,0.0 74.222128288,15.579400782,0.0 74.222616202,15.579153207,0.0 74.222728827,15.578780139,0.0 74.222798195,15.578435087,0.0 74.222836097,15.577901258,0.0 74.223097643,15.577364872,0.0 74.223575388,15.576613818,0.0 74.223794028,15.57643178,0.0 74.224056059,15.576347599,0.0 74.224298954,15.576356676,0.0 74.225489598,15.576604872,0.0 74.225877162,15.576963443,0.0 74.226820005,15.577109324,0.0 74.227236261,15.577314019,0.0 74.227859102,15.577311044,0.0 74.228265473,15.577273328,0.0 74.2287054,15.577135345,0.0 74.228979635,15.577214312,0.0 74.229619377,15.57727192,0.0 74.230182399,15.577539392,0.0 74.230730604,15.577457235,0.0 74.231026083,15.57717721,0.0 74.232011599,15.576772917,0.0 74.23248504,15.576502026,0.0 74.234073548,15.575563296,0.0 74.234204916,15.574772961,0.0 74.234573699,15.573404294,0.0 74.234977042,15.572825785,0.0 74.235178341,15.572210197,0.0 74.235158245,15.571454987,0.0 74.235820878,15.570512569,0.0 74.236998845,15.57020828,0.0 74.238196176,15.570015849,0.0 74.238672396,15.570089924,0.0 74.2391336,15.569655865,0.0 74.239868999,15.569272788,0.0 74.24025828,15.569029943,0.0 74.240642529,15.568595965,0.0 74.242285881,15.567344768,0.0 74.242708827,15.567106544,0.0 74.243968622,15.566886042,0.0 74.244502251,15.566708297,0.0 74.244978085,15.566460686,0.0 74.250799294,15.575955125,0.0 74.250877184,15.580691543,0.0 74.260184578,15.592675828,0.0 74.259537137,15.598019137,0.0 74.260696148,15.599919238,0.0 74.259516262,15.598882988,0.0 74.258782591,15.59881126,0.0 74.257868091,15.598590287,0.0 74.257291099,15.598734013,0.0 74.256989338,15.598768527,0.0 74.256577393,15.598773278,0.0 74.256271009,15.598632721,0.0 74.25601082,15.598438732,0.0 74.255323363,15.598326372,0.0 74.255078597,15.598132364,0.0 74.254715217,15.598218189,0.0 74.254338544,15.598242111,0.0 74.254034304,15.598052441,0.0 74.253575868,15.597869353,0.0 74.252967779,15.597806002,0.0 74.252174412,15.597552839,0.0 74.251708951,15.597026008,0.0 74.251629315,15.596754945,0.0 74.251291655,15.596251453,0.0 74.250716221,15.595863526,0.0 74.250242222,15.595556615,0.0 74.249535031,15.595510447,0.0 74.248966894,15.595688302,0.0 74.248288638,15.595889766,0.0 74.247735755,15.595930956,0.0 74.247442654,15.595837343,0.0 74.246783536,15.595464445,0.0 74.246499282,15.595398577,0.0 74.246160067,15.595426713,0.0 74.245417351,15.595145713,0.0 74.244512388,15.595511819,0.0 74.243875364,15.595187995,0.0 74.243494253,15.595182012,0.0 74.243119846,15.595257154,0.0 74.242822682,15.595451774,0.0 74.242443869,15.59552692,0.0 74.241758913,15.595655779,0.0 74.240920111,15.596092255,0.0 74.240554218,15.595913309,0.0 74.240362112,15.595524935,0.0 74.240258118,15.595132195,0.0 74.239680805,15.595002585,0.0 74.239339471,15.595103305,0.0 74.238976025,15.595133592,0.0 74.238308372,15.594984861,0.0 74.23788113,15.595092077,0.0 74.237685263,15.595258825,0.0 74.237228869,15.594917705,0.0 74.236224184,15.594780007,0.0 74.235863515,15.595312029,0.0 74.235597175,15.595498066,0.0 74.234892327,15.595573548,0.0 74.234169636,15.595454754,0.0 74.233422639,15.595269797,0.0 74.232902422,15.594977842,0.0 74.232424022,15.594650614,0.0 74.23122067,15.594145869,0.0 74.230751095,15.5938261,0.0 74.230277322,15.593692086,0.0 74.229761792,15.593645654,0.0 74.229501431,15.593268017,0.0 74.229067114,15.592954613,0.0 74.228701295,15.592829024,0.0 74.228304452,15.59253693,0.0 74.227795245,15.592227871,0.0 74.22708805,15.59216455,0.0 74.226241444,15.591524899,0.0 74.225706211,15.591585231,0.0 74.225329662,15.591715857,0.0 74.2249311,15.59186145,0.0 74.224153248,15.591644466,0.0 74.223721147,15.591333184,0.0 74.222995661,15.590646425,0.0 74.221937369,15.589793463,0.0 74.221567354,15.589853618,0.0 74.220960863,15.589194488,0.0 74.219960554,15.588992657,0.0 74.219205143,15.589149272,0.0 74.218753263,15.588870027,0.0 74.217977472,15.588501427,0.0 74.217501367,15.588224338,0.0 74.217098224,15.588202318,0.0</coordinates>
                    </LinearRing>
                </outerBoundaryIs>
            </Polygon>
        </Placemark>
    </Document>
</kml>
