<?xml version="1.0" encoding="UTF-8"?>
<kml xmlns="http://www.opengis.net/kml/2.2" xmlns:gx="http://www.google.com/kml/ext/2.2">
    <Document id="85">
        <Placemark id="87">
            <ExtendedData>
                <Data name="id">
                    <value>160</value>
                </Data>
                <Data name="taluka">
                    <value>Bardez</value>
                </Data>
                <Data name="village">
                    <value>Calangute</value>
                </Data>
                <Data name="lg_code">
                    <value>626695</value>
                </Data>
                <Data name="dslr_code">
                    <value>40108000</value>
                </Data>
            </ExtendedData>
            <Polygon id="86">
                <outerBoundaryIs>
                    <LinearRing id="90">
                        <coordinates>73.760284721,15.528995324,0.0 73.760877118,15.529055478,0.0 73.761573479,15.529219239,0.0 73.762499144,15.529566953,0.0 73.763022138,15.529642551,0.0 73.763570403,15.529790623,0.0 73.763956034,15.529797504,0.0 73.764544513,15.529785195,0.0 73.764712755,15.52968964,0.0 73.765155909,15.529568502,0.0 73.765425449,15.529573964,0.0 73.766842486,15.529647913,0.0 73.768086115,15.529667335,0.0 73.769143027,15.529598583,0.0 73.76912185,15.529443314,0.0 73.769185906,15.529438207,0.0 73.770192881,15.528673377,0.0 73.77019305,15.528520719,0.0 73.770975166,15.528368873,0.0 73.771853529,15.52805929,0.0 73.771672224,15.527903857,0.0 73.771637676,15.527771862,0.0 73.771691193,15.527642546,0.0 73.77192068,15.52766607,0.0 73.772164005,15.527239394,0.0 73.772076024,15.527159093,0.0 73.77213215,15.527084115,0.0 73.772703426,15.526934633,0.0 73.773475304,15.526373953,0.0 73.773680808,15.526363814,0.0 73.773950488,15.526237306,0.0 73.774137319,15.526219385,0.0 73.775191611,15.526088502,0.0 73.775941519,15.526094439,0.0 73.776620448,15.525098965,0.0 73.77671232,15.524043384,0.0 73.777043835,15.523490008,0.0 73.77746414,15.522258812,0.0 73.777268504,15.520537969,0.0 73.777885094,15.520416981,0.0 73.777967061,15.518634319,0.0 73.778166823,15.517745735,0.0 73.778052217,15.517611073,0.0 73.778205962,15.517330491,0.0 73.778506416,15.51711086,0.0 73.778253442,15.516600881,0.0 73.778208261,15.516427477,0.0 73.778472757,15.516143124,0.0 73.778689109,15.515959633,0.0 73.778943359,15.515271629,0.0 73.779236956,15.515222761,0.0 73.77966904,15.51543795,0.0 73.779911923,15.515399381,0.0 73.780002696,15.51536066,0.0 73.780571183,15.515288777,0.0 73.781091057,15.515765381,0.0 73.781434824,15.516223698,0.0 73.782050291,15.517158372,0.0 73.782369869,15.517784847,0.0 73.782971231,15.519456923,0.0 73.783487718,15.520637302,0.0 73.783599521,15.520906505,0.0 73.78403666,15.521408896,0.0 73.784116769,15.5213624,0.0 73.784537801,15.521957922,0.0 73.785802226,15.522471465,0.0 73.786677443,15.522580984,0.0 73.787366054,15.522493676,0.0 73.788209507,15.52234959,0.0 73.788252354,15.522204734,0.0 73.788630632,15.522867481,0.0 73.788934579,15.523147215,0.0 73.788875362,15.523643946,0.0 73.78900845,15.523985615,0.0 73.789322948,15.524389556,0.0 73.789381381,15.52466388,0.0 73.788728076,15.526764255,0.0 73.788743846,15.527002314,0.0 73.787740134,15.527260095,0.0 73.787617249,15.527378999,0.0 73.786901934,15.527466283,0.0 73.786619371,15.527150342,0.0 73.786331392,15.52691202,0.0 73.785558489,15.52591252,0.0 73.785510751,15.52562268,0.0 73.785201533,15.525280838,0.0 73.784688966,15.525445935,0.0 73.783669368,15.52558466,0.0 73.784665243,15.527733205,0.0 73.784669958,15.528333495,0.0 73.784290509,15.528798863,0.0 73.784055529,15.52892283,0.0 73.784028135,15.529600712,0.0 73.783835202,15.530350879,0.0 73.78362634,15.531018233,0.0 73.783176933,15.532021717,0.0 73.783575802,15.533414148,0.0 73.782517889,15.534422207,0.0 73.780547421,15.535237886,0.0 73.780241577,15.536743468,0.0 73.780117701,15.537788667,0.0 73.780265716,15.539149805,0.0 73.780521086,15.539946988,0.0 73.780243366,15.540091608,0.0 73.78062205,15.540376602,0.0 73.780931601,15.540418309,0.0 73.781153725,15.542374628,0.0 73.781402903,15.543989433,0.0 73.781427611,15.545867933,0.0 73.781160199,15.546354105,0.0 73.781154238,15.546944033,0.0 73.78127652,15.547409892,0.0 73.78119091,15.547601277,0.0 73.781073326,15.547740882,0.0 73.780932847,15.549339774,0.0 73.780500492,15.54931347,0.0 73.780078906,15.549199203,0.0 73.779603791,15.549224603,0.0 73.779603577,15.549426422,0.0 73.779255963,15.550026358,0.0 73.779234252,15.550362702,0.0 73.779490167,15.550657926,0.0 73.779521936,15.550901176,0.0 73.780397116,15.551155617,0.0 73.780396891,15.551367787,0.0 73.779980524,15.551362196,0.0 73.779414921,15.551139112,0.0 73.779062655,15.551092186,0.0 73.778806559,15.550967732,0.0 73.778454156,15.551050176,0.0 73.778202808,15.551476849,0.0 73.778221175,15.551771835,0.0 73.778784206,15.55190436,0.0 73.77909368,15.552034041,0.0 73.779517755,15.552321671,0.0 73.779643025,15.552487391,0.0 73.779938866,15.552888738,0.0 73.7797839,15.553038655,0.0 73.779495946,15.552751162,0.0 73.779255983,15.552512878,0.0 73.779079915,15.552427317,0.0 73.778823809,15.552310626,0.0 73.778626281,15.552325952,0.0 73.778505935,15.55254835,0.0 73.778479031,15.552747555,0.0 73.77868416,15.553112589,0.0 73.778900104,15.553348261,0.0 73.778777227,15.553441286,0.0 73.77843598,15.55307094,0.0 73.77823642,15.552491156,0.0 73.778137914,15.552258188,0.0 73.777820386,15.552172483,0.0 73.777713349,15.55242853,0.0 73.777723764,15.552671759,0.0 73.77761141,15.552907102,0.0 73.777232399,15.552909307,0.0 73.776244561,15.553167049,0.0 73.776244318,15.553392155,0.0 73.77550489,15.553476789,0.0 73.775248582,15.553546388,0.0 73.774730929,15.553408726,0.0 73.774568132,15.553393035,0.0 73.774285083,15.553509179,0.0 73.774015409,15.553596876,0.0 73.774217577,15.554223241,0.0 73.773937162,15.554370437,0.0 73.773624685,15.554546061,0.0 73.773282979,15.554602633,0.0 73.772831921,15.554584057,0.0 73.772482273,15.554581109,0.0 73.772514117,15.554749324,0.0 73.771374306,15.55484388,0.0 73.770341256,15.554941128,0.0 73.770354452,15.555075688,0.0 73.770175154,15.555497252,0.0 73.770062658,15.555851612,0.0 73.77000311,15.556596729,0.0 73.769335755,15.556663305,0.0 73.769067925,15.557485826,0.0 73.768987724,15.557599589,0.0 73.768814179,15.55764598,0.0 73.768648762,15.557583708,0.0 73.768451408,15.557438605,0.0 73.768144527,15.557376184,0.0 73.767920276,15.55741476,0.0 73.767832175,15.557432779,0.0 73.767666442,15.557652536,0.0 73.767615545,15.55781549,0.0 73.767322001,15.557760844,0.0 73.767295368,15.557709067,0.0 73.767084489,15.557724369,0.0 73.76679084,15.55776287,0.0 73.76657992,15.557814395,0.0 73.766521115,15.557889368,0.0 73.766272897,15.557878755,0.0 73.766174223,15.557803615,0.0 73.766249447,15.557371595,0.0 73.765851726,15.557389285,0.0 73.765630229,15.557352825,0.0 73.765422031,15.557357779,0.0 73.765421975,15.55740694,0.0 73.76461322,15.55741384,0.0 73.764633817,15.55807883,0.0 73.763824799,15.55831342,0.0 73.763408448,15.558281925,0.0 73.762765389,15.558102701,0.0 73.76268807,15.558027582,0.0 73.762274455,15.557939164,0.0 73.762007556,15.557925939,0.0 73.761863348,15.557990469,0.0 73.761288636,15.558724676,0.0 73.76116576,15.55880734,0.0 73.760957444,15.558913199,0.0 73.760140972,15.558663919,0.0 73.759913987,15.558756819,0.0 73.759881846,15.558852518,0.0 73.759859934,15.559333756,0.0 73.759715767,15.55936206,0.0 73.75996877,15.559851359,0.0 73.760125327,15.560648456,0.0 73.760122349,15.560914958,0.0 73.760012421,15.561339176,0.0 73.759841221,15.56165983,0.0 73.759744857,15.56189518,0.0 73.759581782,15.562114934,0.0 73.759528347,15.562158862,0.0 73.759298354,15.562538962,0.0 73.759284891,15.562639857,0.0 73.759207255,15.562836416,0.0 73.75912435,15.562973459,0.0 73.759012163,15.563043197,0.0 73.758880859,15.563482915,0.0 73.758559746,15.564175993,0.0 73.758374525,15.565071038,0.0 73.758341666,15.565779956,0.0 73.758008057,15.565740779,0.0 73.757911365,15.566252982,0.0 73.757585881,15.566112903,0.0 73.757318999,15.566076385,0.0 73.75689711,15.566202704,0.0 73.756774316,15.566210331,0.0 73.756365623,15.566463446,0.0 73.756322461,15.566848925,0.0 73.756276858,15.567040343,0.0 73.755992889,15.56791199,0.0 73.755928784,15.567948143,0.0 73.755907134,15.568199099,0.0 73.755813713,15.568196408,0.0 73.755824057,15.568478449,0.0 73.755906103,15.569073647,0.0 73.755871329,15.569135706,0.0 73.755105554,15.568873526,0.0 73.755086811,15.568922667,0.0 73.754956014,15.568925109,0.0 73.753560964,15.568098164,0.0 73.753064953,15.567701733,0.0 73.75215573,15.56687015,0.0 73.751990422,15.566714718,0.0 73.751834427,15.566584524,0.0 73.751558551,15.566258198,0.0 73.750634919,15.565211189,0.0 73.750689036,15.565156915,0.0 73.750321198,15.564729573,0.0 73.750426203,15.563978693,0.0 73.748720127,15.56269792,0.0 73.74858031,15.562437725,0.0 73.74854445,15.562294082,0.0 73.748925582,15.561658011,0.0 73.749073909,15.561502934,0.0 73.749959563,15.560824743,0.0 73.75022087,15.559944021,0.0 73.750277007,15.559874225,0.0 73.750801941,15.559506111,0.0 73.750866112,15.559413036,0.0 73.750922561,15.559083204,0.0 73.751480626,15.557795297,0.0 73.751842391,15.556600315,0.0 73.752252136,15.55545584,0.0 73.75277002,15.554272675,0.0 73.752974446,15.554071085,0.0 73.753400088,15.553015892,0.0 73.753401067,15.552193092,0.0 73.753863445,15.550540244,0.0 73.753863537,15.550462621,0.0 73.754301692,15.548972752,0.0 73.754286488,15.548289655,0.0 73.754346716,15.548142238,0.0 73.75488843,15.547094933,0.0 73.755551542,15.544945517,0.0 73.75615753,15.543700342,0.0 73.756081501,15.543669208,0.0 73.756145711,15.543537321,0.0 73.756241802,15.543529665,0.0 73.756161935,15.543358806,0.0 73.757134896,15.539831921,0.0 73.757781313,15.538225838,0.0 73.75793853,15.537294536,0.0 73.758142645,15.537341333,0.0 73.758256067,15.536200401,0.0 73.758232401,15.535897646,0.0 73.75839687,15.535610621,0.0 73.75846667,15.534112575,0.0 73.758515075,15.533798255,0.0 73.758515527,15.533410141,0.0 73.758567546,15.533429604,0.0 73.759013046,15.532448161,0.0 73.758921067,15.532366556,0.0 73.759202274,15.531520773,0.0 73.759646462,15.53166486,0.0 73.759610721,15.531416428,0.0 73.759703325,15.530958553,0.0 73.759975896,15.530652239,0.0 73.760144851,15.529942173,0.0 73.760089165,15.52963162,0.0 73.760321698,15.529329143,0.0 73.760397955,15.529158456,0.0 73.760378079,15.529038118,0.0 73.760284721,15.528995324,0.0</coordinates>
                    </LinearRing>
                </outerBoundaryIs>
            </Polygon>
        </Placemark>
        <Placemark id="99">
            <ExtendedData>
                <Data name="id">
                    <value>160</value>
                </Data>
                <Data name="taluka">
                    <value>Bardez</value>
                </Data>
                <Data name="village">
                    <value>Calangute</value>
                </Data>
                <Data name="lg_code">
                    <value>626695</value>
                </Data>
                <Data name="dslr_code">
                    <value>40108000</value>
                </Data>
            </ExtendedData>
            <Polygon id="98">
                <outerBoundaryIs>
                    <LinearRing id="102">
                        <coordinates>73.744786628,15.562985388,0.0 73.747372234,15.56223362,0.0 73.748373826,15.563259246,0.0 73.748337764,15.563494257,0.0 73.74981582,15.564062377,0.0 73.749703692,15.564744286,0.0 73.750378498,15.56554654,0.0 73.751037557,15.566225469,0.0 73.751200233,15.566479971,0.0 73.751247657,15.566711224,0.0 73.751529436,15.567093019,0.0 73.752613748,15.567857196,0.0 73.753435878,15.568474647,0.0 73.753860909,15.568741001,0.0 73.754039583,15.568918453,0.0 73.754349462,15.569076785,0.0 73.754857988,15.56933167,0.0 73.755593273,15.569444233,0.0 73.756181515,15.569521951,0.0 73.756020807,15.570962912,0.0 73.755601684,15.572418998,0.0 73.755314133,15.573543845,0.0 73.753828411,15.572667488,0.0 73.752195339,15.572022153,0.0 73.750117137,15.571303089,0.0 73.749319828,15.569884165,0.0 73.748856335,15.568558099,0.0 73.747760089,15.567809304,0.0 73.746428759,15.567514923,0.0 73.744720813,15.566391637,0.0 73.743949469,15.566521755,0.0 73.743551335,15.565415392,0.0 73.741815442,15.564415357,0.0 73.742157663,15.564126759,0.0 73.743084196,15.563861964,0.0 73.743303023,15.563704233,0.0 73.743585623,15.563407857,0.0 73.744500245,15.563127628,0.0 73.744786628,15.562985388,0.0</coordinates>
                    </LinearRing>
                </outerBoundaryIs>
            </Polygon>
        </Placemark>
    </Document>
</kml>
