<?xml version="1.0" encoding="UTF-8"?>
<kml xmlns="http://www.opengis.net/kml/2.2" xmlns:gx="http://www.google.com/kml/ext/2.2">
    <Document id="111">
        <Placemark id="113">
            <ExtendedData>
                <Data name="id">
                    <value>199</value>
                </Data>
                <Data name="taluka">
                    <value>Bardez</value>
                </Data>
                <Data name="village">
                    <value>Calvim</value>
                </Data>
                <Data name="lg_code">
                    <value>626685</value>
                </Data>
                <Data name="dslr_code">
                    <value>00005200</value>
                </Data>
            </ExtendedData>
            <Polygon id="112">
                <outerBoundaryIs>
                    <LinearRing id="116">
                        <coordinates>73.885470078,15.568759971,0.0 73.885672382,15.568417222,0.0 73.886041139,15.568063035,0.0 73.886073815,15.568097625,0.0 73.886261199,15.567858589,0.0 73.886445566,15.567700222,0.0 73.886671669,15.567314268,0.0 73.886900783,15.566856286,0.0 73.887094273,15.566317615,0.0 73.887222271,15.565966183,0.0 73.887266986,15.565724191,0.0 73.887371213,15.565358341,0.0 73.887757793,15.565007041,0.0 73.888114538,15.564863166,0.0 73.888483119,15.564814374,0.0 73.888631702,15.564866309,0.0 73.88911624,15.564742665,0.0 73.889404534,15.564762978,0.0 73.889636367,15.564763094,0.0 73.889770095,15.564803497,0.0 73.89013571,15.564743176,0.0 73.890207076,15.564682708,0.0 73.890328937,15.564682769,0.0 73.890418138,15.564616547,0.0 73.890688652,15.56453601,0.0 73.890777855,15.564466907,0.0 73.890968112,15.564400736,0.0 73.891663789,15.564058225,0.0 73.892056117,15.56406418,0.0 73.892142298,15.564090152,0.0 73.892374391,15.563588949,0.0 73.892508292,15.563295139,0.0 73.892570915,15.562897574,0.0 73.892565126,15.562597934,0.0 73.89240187,15.562185853,0.0 73.892205898,15.561816973,0.0 73.892164344,15.56170747,0.0 73.891920743,15.561482622,0.0 73.89170078,15.561525731,0.0 73.891510607,15.561439204,0.0 73.891185299,15.561163896,0.0 73.890909105,15.560750317,0.0 73.890741301,15.560516863,0.0 73.890690919,15.56024313,0.0 73.890765425,15.559859977,0.0 73.890931975,15.559652618,0.0 73.891703464,15.559235235,0.0 73.891895212,15.559150336,0.0 73.892260855,15.559015102,0.0 73.892657741,15.558810736,0.0 73.89298036,15.558534304,0.0 73.893325354,15.558093659,0.0 73.893584066,15.557825839,0.0 73.893752046,15.557719318,0.0 73.893839734,15.557697752,0.0 73.893887313,15.557650236,0.0 73.893908216,15.55745721,0.0 73.894132736,15.557212422,0.0 73.894551917,15.556989336,0.0 73.894858091,15.556897286,0.0 73.895296451,15.556947914,0.0 73.895446453,15.557123734,0.0 73.895862513,15.557194519,0.0 73.895969514,15.557184486,0.0 73.896159703,15.557236436,0.0 73.896410785,15.557359002,0.0 73.896482058,15.557474281,0.0 73.896481996,15.557598169,0.0 73.896446236,15.557788307,0.0 73.896532307,15.558028922,0.0 73.896793645,15.558448249,0.0 73.896843996,15.55879977,0.0 73.89724786,15.559497192,0.0 73.897400717,15.559916468,0.0 73.897474875,15.560211818,0.0 73.897442071,15.56043365,0.0 73.897343876,15.560664094,0.0 73.897380777,15.561169749,0.0 73.897462445,15.56130376,0.0 73.897520372,15.561365731,0.0 73.897575183,15.561717254,0.0 73.897566165,15.561923251,0.0 73.897447081,15.562319351,0.0 73.897383132,15.562415839,0.0 73.897170512,15.562634705,0.0 73.896974215,15.562899678,0.0 73.896877529,15.563081143,0.0 73.896612789,15.563510307,0.0 73.896486324,15.563804123,0.0 73.896331495,15.564351465,0.0 73.896248134,15.564629454,0.0 73.896176713,15.564803729,0.0 73.89616774,15.564916089,0.0 73.896185507,15.565048629,0.0 73.896449836,15.565446349,0.0 73.896553835,15.56550402,0.0 73.896752862,15.565728842,0.0 73.897094329,15.566411829,0.0 73.897052657,15.566533537,0.0 73.896647705,15.566502375,0.0 73.896468624,15.566508774,0.0 73.896372,15.566559868,0.0 73.896100607,15.566910518,0.0 73.895789783,15.567355505,0.0 73.89576745,15.567436166,0.0 73.895548892,15.567629098,0.0 73.895505785,15.567647805,0.0 73.895413587,15.567761566,0.0 73.89535412,15.567804754,0.0 73.895104298,15.568105713,0.0 73.894954135,15.56822953,0.0 73.894591452,15.568360448,0.0 73.894158915,15.568499975,0.0 73.894091971,15.568632475,0.0 73.893907619,15.568772121,0.0 73.893561262,15.5689405,0.0 73.893423024,15.568993734,0.0 73.893367998,15.569068616,0.0 73.893501476,15.569601689,0.0 73.893556412,15.569701115,0.0 73.893580036,15.570000763,0.0 73.893502628,15.570251384,0.0 73.893367274,15.570473165,0.0 73.893533552,15.570806015,0.0 73.893537954,15.57091406,0.0 73.893684933,15.571206565,0.0 73.893802144,15.57158693,0.0 73.893910637,15.57158122,0.0 73.894112581,15.57191985,0.0 73.89406342,15.572150316,0.0 73.894085579,15.572409628,0.0 73.894086906,15.572720791,0.0 73.894219047,15.572971512,0.0 73.894068897,15.573062195,0.0 73.893774587,15.573157131,0.0 73.893722549,15.573200322,0.0 73.893599176,15.573242039,0.0 73.89341491,15.573204495,0.0 73.893033051,15.573037205,0.0 73.892985505,15.573015573,0.0 73.892930551,15.57294784,0.0 73.892958829,15.572870064,0.0 73.892770132,15.572780657,0.0 73.892609726,15.572587543,0.0 73.892450791,15.572424682,0.0 73.892361697,15.572279142,0.0 73.892058726,15.571882839,0.0 73.892024557,15.571859773,0.0 73.891751048,15.5719648,0.0 73.89164255,15.571980592,0.0 73.891632122,15.572029566,0.0 73.891438857,15.572150479,0.0 73.891346643,15.572288727,0.0 73.891226182,15.572444248,0.0 73.89101642,15.572847502,0.0 73.891047608,15.572887853,0.0 73.8908258,15.573587857,0.0 73.890812394,15.573645473,0.0 73.890732086,15.573749153,0.0 73.890686004,15.573769298,0.0 73.890635472,15.573772155,0.0 73.890323423,15.573684125,0.0 73.890317495,15.57365243,0.0 73.890228327,15.573646623,0.0 73.889259587,15.57319092,0.0 73.889119891,15.573182206,0.0 73.888908818,15.573251247,0.0 73.888810691,15.573326107,0.0 73.88865608,15.573418225,0.0 73.88856686,15.573510375,0.0 73.888244269,15.573678758,0.0 73.888214523,15.573720519,0.0 73.888348223,15.573824307,0.0 73.888148868,15.574207396,0.0 73.887906456,15.574512672,0.0 73.887759319,15.574522681,0.0 73.88763603,15.574404492,0.0 73.887637558,15.574328143,0.0 73.88756624,15.574293533,0.0 73.887285583,15.573871304,0.0 73.887141584,15.573578796,0.0 73.887150542,15.573502451,0.0 73.887224867,15.573473678,0.0 73.886915912,15.573163799,0.0 73.886595125,15.572753073,0.0 73.886483754,15.572585911,0.0 73.886436291,15.572414459,0.0 73.886426176,15.571890089,0.0 73.886442837,15.571319635,0.0 73.88619609,15.571400179,0.0 73.88617828,15.571356953,0.0 73.886378956,15.571276385,0.0 73.886215639,15.570985307,0.0 73.885981452,15.569850023,0.0 73.885919096,15.569737626,0.0 73.885844774,15.569763518,0.0 73.885718757,15.569211717,0.0 73.885565874,15.568868784,0.0 73.885484167,15.568814,0.0 73.885454463,15.568779411,0.0 73.885470078,15.568759971,0.0</coordinates>
                    </LinearRing>
                </outerBoundaryIs>
            </Polygon>
        </Placemark>
    </Document>
</kml>
