<?xml version="1.0" encoding="UTF-8"?>
<kml xmlns="http://www.opengis.net/kml/2.2" xmlns:gx="http://www.google.com/kml/ext/2.2">
    <Document id="125">
        <Placemark id="127">
            <ExtendedData>
                <Data name="id">
                    <value>194</value>
                </Data>
                <Data name="taluka">
                    <value>Bardez</value>
                </Data>
                <Data name="village">
                    <value>Camurlim</value>
                </Data>
                <Data name="lg_code">
                    <value>626663</value>
                </Data>
                <Data name="dslr_code">
                    <value>00002800</value>
                </Data>
            </ExtendedData>
            <Polygon id="126">
                <outerBoundaryIs>
                    <LinearRing id="130">
                        <coordinates>73.77625841,15.645180971,0.0 73.776850218,15.644913285,0.0 73.776791298,15.64453344,0.0 73.776774112,15.643801726,0.0 73.776898633,15.643373288,0.0 73.777003032,15.643261898,0.0 73.777251272,15.643143685,0.0 73.777292692,15.64308101,0.0 73.77724432,15.642922427,0.0 73.777113197,15.642807313,0.0 73.776799053,15.64235578,0.0 73.776694845,15.642291215,0.0 73.776731318,15.64181565,0.0 73.776533761,15.64162033,0.0 73.777864568,15.641283707,0.0 73.777941652,15.641492842,0.0 73.778013515,15.641541694,0.0 73.778036908,15.641522554,0.0 73.778013599,15.641463298,0.0 73.778159814,15.6409199,0.0 73.778316583,15.640592537,0.0 73.778583048,15.640240895,0.0 73.778516587,15.64018508,0.0 73.778617416,15.640047553,0.0 73.778818925,15.63991187,0.0 73.778865802,15.639788226,0.0 73.778864315,15.63949903,0.0 73.778835642,15.639411894,0.0 73.778763776,15.639366526,0.0 73.778762021,15.639326455,0.0 73.778659642,15.639234019,0.0 73.778607486,15.639249645,0.0 73.778377771,15.638866144,0.0 73.778309416,15.638899175,0.0 73.778109954,15.638804898,0.0 73.778047179,15.638665464,0.0 73.778029365,15.638512138,0.0 73.778241553,15.638475768,0.0 73.778453685,15.638491661,0.0 73.779032586,15.638502698,0.0 73.77931313,15.638431553,0.0 73.779388863,15.638224315,0.0 73.779279934,15.637532578,0.0 73.779334051,15.637363645,0.0 73.779496004,15.637227921,0.0 73.779717218,15.637154974,0.0 73.779783521,15.63735887,0.0 73.779745216,15.637872762,0.0 73.779820369,15.638207327,0.0 73.780025271,15.638258055,0.0 73.780183474,15.638266924,0.0 73.780480129,15.638260252,0.0 73.780710291,15.638227382,0.0 73.781242391,15.638292372,0.0 73.781826607,15.638378319,0.0 73.781911116,15.638369692,0.0 73.782017232,15.638329729,0.0 73.782085673,15.638214816,0.0 73.782145168,15.638058083,0.0 73.782096749,15.637941311,0.0 73.781848936,15.637665808,0.0 73.781250408,15.637515388,0.0 73.781313988,15.636898735,0.0 73.782045773,15.636843715,0.0 73.782056636,15.636772299,0.0 73.782173518,15.636751509,0.0 73.782204137,15.636699275,0.0 73.782391086,15.636725593,0.0 73.782633695,15.636821651,0.0 73.782730823,15.636779936,0.0 73.7830544,15.636815099,0.0 73.784453315,15.63663878,0.0 73.789708021,15.638811098,0.0 73.791056047,15.637411708,0.0 73.79177236,15.636656302,0.0 73.792754068,15.636577094,0.0 73.792923927,15.635720123,0.0 73.795444903,15.635321796,0.0 73.797770718,15.635926732,0.0 73.798939873,15.63535987,0.0 73.799360877,15.635043186,0.0 73.800163501,15.634232083,0.0 73.801729301,15.632480912,0.0 73.802773183,15.631283262,0.0 73.803453482,15.630520815,0.0 73.804679215,15.630908665,0.0 73.804726288,15.630560279,0.0 73.806798413,15.629433207,0.0 73.807359994,15.628715939,0.0 73.807669539,15.628367783,0.0 73.808342492,15.627741201,0.0 73.809194358,15.628045076,0.0 73.809306004,15.627846569,0.0 73.810432044,15.627161141,0.0 73.810773876,15.626882694,0.0 73.811270319,15.626600894,0.0 73.811550761,15.626611588,0.0 73.811798853,15.626611801,0.0 73.811888652,15.626709438,0.0 73.812747245,15.627525494,0.0 73.813099906,15.627198272,0.0 73.813376775,15.62718457,0.0 73.813566864,15.627295789,0.0 73.813734072,15.627282044,0.0 73.813619056,15.627689314,0.0 73.813881566,15.627939513,0.0 73.813764299,15.630837283,0.0 73.813868592,15.631726175,0.0 73.814063815,15.632434605,0.0 73.814277534,15.633823541,0.0 73.8138081,15.635230415,0.0 73.813654541,15.635991785,0.0 73.813740137,15.636427001,0.0 73.813725127,15.637176915,0.0 73.8134615,15.638146505,0.0 73.813167128,15.638775823,0.0 73.813030576,15.639215479,0.0 73.813001458,15.639715405,0.0 73.81266686,15.639921118,0.0 73.81268111,15.640011399,0.0 73.812361786,15.641802619,0.0 73.812213659,15.641834896,0.0 73.812131914,15.642415788,0.0 73.812404085,15.642568784,0.0 73.81279102,15.642603834,0.0 73.81333988,15.643196836,0.0 73.813411293,15.643470019,0.0 73.813611725,15.643710906,0.0 73.813649961,15.643692422,0.0 73.813690535,15.64372949,0.0 73.813637936,15.643782681,0.0 73.813984034,15.644074613,0.0 73.814017494,15.64405381,0.0 73.814377954,15.64431335,0.0 73.814590361,15.644521842,0.0 73.81493172,15.644774421,0.0 73.815220411,15.645156572,0.0 73.815542675,15.645392931,0.0 73.815798038,15.645650065,0.0 73.815845686,15.645791295,0.0 73.815912421,15.645958001,0.0 73.815783155,15.646265733,0.0 73.815847632,15.646286619,0.0 73.815708665,15.646756363,0.0 73.815488638,15.647050131,0.0 73.81522309,15.647494309,0.0 73.814895549,15.647808816,0.0 73.814816614,15.647926794,0.0 73.814697129,15.647979928,0.0 73.814467761,15.64803297,0.0 73.81404008,15.648139078,0.0 73.813877659,15.648122738,0.0 73.813555208,15.64809006,0.0 73.813133426,15.648274868,0.0 73.812915936,15.64839967,0.0 73.812796335,15.648578949,0.0 73.812651071,15.648740846,0.0 73.812581157,15.648787657,0.0 73.812542219,15.648920712,0.0 73.812598802,15.649085096,0.0 73.81265552,15.649101347,0.0 73.812664429,15.649155169,0.0 73.812494769,15.649218675,0.0 73.812469001,15.649316444,0.0 73.812540042,15.649343123,0.0 73.812566356,15.64930264,0.0 73.812669591,15.649389525,0.0 73.812705828,15.649600184,0.0 73.812794049,15.649779639,0.0 73.812851356,15.649805149,0.0 73.812912289,15.649783212,0.0 73.812975559,15.649819142,0.0 73.813034011,15.649899046,0.0 73.812787669,15.650227507,0.0 73.812649121,15.650227388,0.0 73.812510475,15.650333741,0.0 73.812464936,15.650500352,0.0 73.812211751,15.65047236,0.0 73.812015937,15.65040044,0.0 73.811715191,15.650138634,0.0 73.81158404,15.649886231,0.0 73.811426559,15.64969167,0.0 73.811273702,15.649666078,0.0 73.811123148,15.649733072,0.0 73.811056043,15.649971416,0.0 73.810938828,15.650151853,0.0 73.810659256,15.650244195,0.0 73.810114172,15.650725158,0.0 73.809114711,15.65046332,0.0 73.808412614,15.650245136,0.0 73.807815732,15.649911313,0.0 73.806335119,15.64946098,0.0 73.804868695,15.649168042,0.0 73.803650804,15.648773475,0.0 73.802710136,15.648249533,0.0 73.802132375,15.647920341,0.0 73.801444547,15.647785473,0.0 73.800637282,15.647650495,0.0 73.799265996,15.647802006,0.0 73.798024023,15.647624957,0.0 73.796887033,15.647572986,0.0 73.79606532,15.647558335,0.0 73.795267169,15.647872375,0.0 73.794244074,15.64858431,0.0 73.794148089,15.649019362,0.0 73.793684323,15.649366114,0.0 73.793197113,15.649268442,0.0 73.79300584,15.649439541,0.0 73.79152893,15.650086225,0.0 73.790640022,15.650367757,0.0 73.790267114,15.650622005,0.0 73.789903746,15.650890149,0.0 73.789507039,15.651056418,0.0 73.788775982,15.651143669,0.0 73.787375952,15.65134137,0.0 73.786138506,15.651395716,0.0 73.7853503,15.651306991,0.0 73.784289992,15.651009684,0.0 73.782752035,15.650614685,0.0 73.781639275,15.650229359,0.0 73.77999156,15.649727761,0.0 73.778706869,15.649295955,0.0 73.778061935,15.649267528,0.0 73.777412824,15.648683595,0.0 73.776802268,15.647794174,0.0 73.776545395,15.646770867,0.0 73.77625841,15.645180971,0.0</coordinates>
                    </LinearRing>
                </outerBoundaryIs>
            </Polygon>
        </Placemark>
    </Document>
</kml>
