<?xml version="1.0" encoding="UTF-8"?>
<kml xmlns="http://www.opengis.net/kml/2.2" xmlns:gx="http://www.google.com/kml/ext/2.2">
    <Document id="243">
        <Placemark id="245">
            <ExtendedData>
                <Data name="id">
                    <value>442</value>
                </Data>
                <Data name="taluka">
                    <value>Bardez</value>
                </Data>
                <Data name="village">
                    <value>Cunchelim</value>
                </Data>
            </ExtendedData>
            <Polygon id="244">
                <outerBoundaryIs>
                    <LinearRing id="248">
                        <coordinates>73.822416616,15.615823316,0.0 73.822416616,15.615823316,0.0 73.821910881,15.615461708,0.0 73.821851203,15.614940593,0.0 73.821417538,15.614411814,0.0 73.821202695,15.614266208,0.0 73.82102366,15.614300693,0.0 73.820426874,15.614024808,0.0 73.820231924,15.613649296,0.0 73.819877831,15.6133964,0.0 73.819774388,15.613086027,0.0 73.81974256,15.612446121,0.0 73.819655031,15.612043784,0.0 73.819448146,15.611549483,0.0 73.81940836,15.611323407,0.0 73.819340724,15.610832936,0.0 73.819579438,15.610687327,0.0 73.819205453,15.609426658,0.0 73.818194896,15.609698718,0.0 73.817976074,15.609173756,0.0 73.816515939,15.609618249,0.0 73.816448303,15.609357685,0.0 73.815298496,15.609737036,0.0 73.815266668,15.609848159,0.0 73.814844939,15.610047414,0.0 73.813882125,15.610028255,0.0 73.813746853,15.609867318,0.0 73.811566596,15.610373119,0.0 73.810993682,15.609085624,0.0 73.808813425,15.60945348,0.0 73.808447397,15.609177588,0.0 73.807858568,15.609192916,0.0 73.806967368,15.608625803,0.0 73.805184969,15.608687112,0.0 73.803079703,15.608228051,0.0 73.803079703,15.608228051,0.0 73.803079703,15.608228051,0.0 73.802932743,15.608704395,0.0 73.802767093,15.608986473,0.0 73.802759063,15.609864506,0.0 73.802693739,15.610502071,0.0 73.802524246,15.611041983,0.0 73.802689455,15.611223314,0.0 73.802685659,15.611432368,0.0 73.802832699,15.611815771,0.0 73.802817952,15.612199029,0.0 73.802896592,15.612676446,0.0 73.802806387,15.61301434,0.0 73.802784369,15.613481215,0.0 73.803136106,15.614112185,0.0 73.803193389,15.614366589,0.0 73.803351224,15.614743033,0.0 73.803767814,15.61523469,0.0 73.803943887,15.615339375,0.0 73.804007558,15.615019749,0.0 73.804313459,15.614706436,0.0 73.804960851,15.614459628,0.0 73.806042685,15.614840373,0.0 73.806258248,15.615007809,0.0 73.806819018,15.615116316,0.0 73.807013219,15.615060738,0.0 73.807419768,15.614764931,0.0 73.807973594,15.614608623,0.0 73.808142684,15.614490305,0.0 73.808649524,15.61459876,0.0 73.808750103,15.614696407,0.0 73.808782503,15.61465114,0.0 73.8091743,15.614752525,0.0 73.809982478,15.615589453,0.0 73.810014486,15.615969268,0.0 73.809985332,15.616394325,0.0 73.810049878,15.616579048,0.0 73.810681622,15.617711986,0.0 73.8106812,15.618171911,0.0 73.810490251,15.618600313,0.0 73.810972094,15.618534526,0.0 73.811130042,15.618806436,0.0 73.81107137,15.620057243,0.0 73.811114228,15.620370866,0.0 73.811160968,15.620370906,0.0 73.811307986,15.620803083,0.0 73.811987545,15.620779276,0.0 73.812662226,15.622166597,0.0 73.813208505,15.622421415,0.0 73.813269195,15.622898813,0.0 73.813254413,15.623341304,0.0 73.813279278,15.623675817,0.0 73.813591575,15.624240536,0.0 73.81475693,15.623982878,0.0 73.815717479,15.623553172,0.0 73.815796596,15.623219937,0.0 73.816721547,15.622526333,0.0 73.817982999,15.622131587,0.0 73.817374382,15.621638073,0.0 73.817876653,15.620846899,0.0 73.819188633,15.620014729,0.0 73.820314409,15.619064355,0.0 73.82121865,15.617426359,0.0 73.822416616,15.615823316,0.0 73.822416616,15.615823316,0.0</coordinates>
                    </LinearRing>
                </outerBoundaryIs>
            </Polygon>
        </Placemark>
    </Document>
</kml>
