<?xml version="1.0" encoding="UTF-8"?>
<kml xmlns="http://www.opengis.net/kml/2.2" xmlns:gx="http://www.google.com/kml/ext/2.2">
    <Document id="255">
        <Placemark id="257">
            <ExtendedData>
                <Data name="id">
                    <value>186</value>
                </Data>
                <Data name="taluka">
                    <value>Bardez</value>
                </Data>
                <Data name="village">
                    <value>Guirim</value>
                </Data>
                <Data name="lg_code">
                    <value>626693</value>
                </Data>
                <Data name="dslr_code">
                    <value>40106000</value>
                </Data>
            </ExtendedData>
            <Polygon id="256">
                <outerBoundaryIs>
                    <LinearRing id="260">
                        <coordinates>73.795424744,15.5756264,0.0 73.795473109,15.575448687,0.0 73.795584332,15.575328122,0.0 73.795679396,15.575303558,0.0 73.795759702,15.575314013,0.0 73.796165116,15.575497337,0.0 73.796242751,15.575501301,0.0 73.796364617,15.575446919,0.0 73.796388831,15.575326273,0.0 73.796530943,15.575101936,0.0 73.796601937,15.575052696,0.0 73.797027598,15.575064767,0.0 73.797120021,15.575003869,0.0 73.797291529,15.574832756,0.0 73.79729026,15.574761392,0.0 73.797228821,15.574622503,0.0 73.797191484,15.57447585,0.0 73.797196897,15.57441617,0.0 73.797273329,15.5742813,0.0 73.797367093,15.574217808,0.0 73.797617537,15.57408699,0.0 73.797661723,15.574074056,0.0 73.797691448,15.573792524,0.0 73.797603256,15.573634148,0.0 73.797569909,15.573513449,0.0 73.797570001,15.573420029,0.0 73.797724132,15.573221652,0.0 73.797852725,15.573130945,0.0 73.797894288,15.573062215,0.0 73.797879599,15.573025871,0.0 73.797728806,15.572548251,0.0 73.797691349,15.572524861,0.0 73.797665994,15.572444392,0.0 73.797719687,15.572291336,0.0 73.797634277,15.572026566,0.0 73.79762381,15.571780031,0.0 73.797503618,15.571494469,0.0 73.797506368,15.571419216,0.0 73.797728617,15.57137271,0.0 73.797528497,15.570692633,0.0 73.797507306,15.570461657,0.0 73.797285831,15.56971928,0.0 73.797237633,15.569729615,0.0 73.797135287,15.56899124,0.0 73.797126085,15.568819961,0.0 73.797090335,15.568421593,0.0 73.797035828,15.568040076,0.0 73.796993098,15.567934939,0.0 73.796997231,15.567815572,0.0 73.796951853,15.56768059,0.0 73.79700285,15.567545696,0.0 73.796957601,15.567278368,0.0 73.796885468,15.567127791,0.0 73.796791948,15.566946053,0.0 73.796703704,15.566844766,0.0 73.796695779,15.566735768,0.0 73.796463695,15.56589996,0.0 73.796407727,15.565645597,0.0 73.796426972,15.565131802,0.0 73.796371147,15.564732118,0.0 73.796326127,15.564233834,0.0 73.796162077,15.562277042,0.0 73.796272447,15.56165434,0.0 73.796280596,15.561534977,0.0 73.796932426,15.561680622,0.0 73.796947403,15.561718477,0.0 73.797007462,15.561715621,0.0 73.797027279,15.561411455,0.0 73.797070952,15.561277595,0.0 73.797206515,15.560832359,0.0 73.797281868,15.560544253,0.0 73.797415831,15.560199439,0.0 73.797415937,15.560190592,0.0 73.797730826,15.560308458,0.0 73.797998932,15.56052449,0.0 73.798161744,15.560694186,0.0 73.798706244,15.560781384,0.0 73.799179365,15.560691262,0.0 73.799489434,15.560678058,0.0 73.799626523,15.560730203,0.0 73.800397525,15.560898522,0.0 73.801247862,15.561242237,0.0 73.801654102,15.560425698,0.0 73.801983014,15.560452004,0.0 73.80198277,15.560707286,0.0 73.802067031,15.560926038,0.0 73.802230757,15.561183395,0.0 73.802407462,15.561378146,0.0 73.803096797,15.561739049,0.0 73.803229764,15.561947247,0.0 73.803593573,15.561855092,0.0 73.803684893,15.561968847,0.0 73.804273409,15.561755511,0.0 73.804641275,15.561574731,0.0 73.804639357,15.561501516,0.0 73.804931542,15.561484435,0.0 73.805047081,15.562261946,0.0 73.805273545,15.562386416,0.0 73.805385943,15.562278622,0.0 73.805628481,15.562218146,0.0 73.806405765,15.562056991,0.0 73.807232805,15.561820736,0.0 73.807715587,15.561677231,0.0 73.808466503,15.561630335,0.0 73.809213684,15.5615432,0.0 73.809515434,15.561660506,0.0 73.810021117,15.561584132,0.0 73.810274054,15.561441702,0.0 73.811296872,15.561142653,0.0 73.811640228,15.561150262,0.0 73.812342163,15.561022843,0.0 73.81233098,15.56087287,0.0 73.81303672,15.560708876,0.0 73.813553505,15.56087025,0.0 73.813908247,15.560804712,0.0 73.814625066,15.560907731,0.0 73.815537884,15.561245001,0.0 73.816111336,15.561333264,0.0 73.816850617,15.561641122,0.0 73.816774951,15.561867833,0.0 73.81684274,15.562014196,0.0 73.818079996,15.562432193,0.0 73.818147741,15.562629762,0.0 73.817913587,15.562870974,0.0 73.817732117,15.563273165,0.0 73.817890452,15.563434233,0.0 73.818154722,15.563273514,0.0 73.818524553,15.563215297,0.0 73.818326006,15.565877902,0.0 73.818324606,15.566675907,0.0 73.818165566,15.567025474,0.0 73.818060737,15.567263182,0.0 73.817941666,15.567287562,0.0 73.817822459,15.567465809,0.0 73.817746401,15.567804953,0.0 73.817771518,15.567958841,0.0 73.817775044,15.568051514,0.0 73.817731647,15.568172123,0.0 73.817729772,15.568252552,0.0 73.817682867,15.568259507,0.0 73.81771665,15.568815554,0.0 73.817922109,15.569013304,0.0 73.817974,15.569490684,0.0 73.817934222,15.569597309,0.0 73.817890931,15.569597273,0.0 73.817861956,15.569726637,0.0 73.81772997,15.570076225,0.0 73.817744229,15.570270319,0.0 73.817791118,15.570282597,0.0 73.817684239,15.570796564,0.0 73.817775569,15.571551987,0.0 73.817706626,15.572003039,0.0 73.817241074,15.572187993,0.0 73.817078632,15.572298013,0.0 73.816773695,15.572397423,0.0 73.816357048,15.572353364,0.0 73.815568994,15.57210442,0.0 73.815478845,15.572057135,0.0 73.815293063,15.572042992,0.0 73.815179482,15.571974705,0.0 73.815076684,15.571951889,0.0 73.815071323,15.571895933,0.0 73.814625796,15.571874576,0.0 73.814609447,15.572002202,0.0 73.81450293,15.572103525,0.0 73.814306309,15.572106856,0.0 73.814098966,15.571998275,0.0 73.813859232,15.571802241,0.0 73.813632251,15.571468088,0.0 73.813457674,15.571030819,0.0 73.813048367,15.570852126,0.0 73.812761549,15.570864122,0.0 73.81274111,15.571523284,0.0 73.812629118,15.57169454,0.0 73.81210044,15.571865442,0.0 73.811824488,15.571828488,0.0 73.811375312,15.571852582,0.0 73.811149837,15.571848892,0.0 73.810735065,15.571729639,0.0 73.810529633,15.571505656,0.0 73.810625687,15.571012665,0.0 73.810501437,15.570780009,0.0 73.810431133,15.570730991,0.0 73.810158743,15.570744744,0.0 73.809900709,15.570840689,0.0 73.809662402,15.571060792,0.0 73.809416953,15.571200459,0.0 73.809375347,15.571328062,0.0 73.809254338,15.571494064,0.0 73.809057598,15.571626778,0.0 73.808994364,15.57173513,0.0 73.808172927,15.572484516,0.0 73.807458433,15.572672729,0.0 73.807260063,15.572616604,0.0 73.807104871,15.572682911,0.0 73.807050329,15.573140966,0.0 73.807533508,15.573410656,0.0 73.807634324,15.57362406,0.0 73.808326349,15.574327555,0.0 73.809663967,15.575241425,0.0 73.809984501,15.575843181,0.0 73.810727226,15.576354379,0.0 73.812263766,15.576747356,0.0 73.813518687,15.577384872,0.0 73.813950806,15.578287456,0.0 73.814584168,15.58007844,0.0 73.813771824,15.580731688,0.0 73.813605732,15.58087842,0.0 73.813436127,15.58092024,0.0 73.813342377,15.580860712,0.0 73.813039359,15.580818491,0.0 73.812469229,15.580922915,0.0 73.812328594,15.580845862,0.0 73.812303447,15.580726944,0.0 73.812368476,15.580629084,0.0 73.812231595,15.580391173,0.0 73.812083717,15.580345586,0.0 73.812000807,15.580268582,0.0 73.812297072,15.579800241,0.0 73.812275607,15.579600895,0.0 73.811438554,15.579649137,0.0 73.811160604,15.579813257,0.0 73.810878546,15.5805229,0.0 73.810784641,15.580634722,0.0 73.809983742,15.580595565,0.0 73.809911547,15.580637467,0.0 73.809853706,15.580763308,0.0 73.809889633,15.580927696,0.0 73.810077095,15.581085222,0.0 73.810275503,15.581109872,0.0 73.810340325,15.581239315,0.0 73.810354609,15.581400188,0.0 73.809939535,15.581588667,0.0 73.809759015,15.58172839,0.0 73.809578417,15.58195204,0.0 73.809545692,15.582228272,0.0 73.809336289,15.582388951,0.0 73.80918111,15.582434277,0.0 73.808787943,15.582339518,0.0 73.808679714,15.58233243,0.0 73.808264589,15.582573359,0.0 73.807957935,15.582559104,0.0 73.807788425,15.582496011,0.0 73.807716134,15.582639323,0.0 73.807513932,15.582813995,0.0 73.807181854,15.582981559,0.0 73.806990611,15.583009367,0.0 73.806467338,15.583152283,0.0 73.806218433,15.583113597,0.0 73.806150074,15.582910713,0.0 73.805980577,15.58283363,0.0 73.805446951,15.582476468,0.0 73.805270173,15.582469318,0.0 73.805017555,15.582542531,0.0 73.80475781,15.582521318,0.0 73.804620798,15.582430276,0.0 73.804465803,15.582279768,0.0 73.8041862,15.582274274,0.0 73.804119604,15.582116851,0.0 73.803973588,15.582010064,0.0 73.80367603,15.581917129,0.0 73.803596739,15.581831382,0.0 73.803225261,15.581696417,0.0 73.80303768,15.581668273,0.0 73.802916941,15.581538778,0.0 73.802745606,15.581500157,0.0 73.802628819,15.581010477,0.0 73.802502815,15.580728858,0.0 73.802322641,15.580501393,0.0 73.802005429,15.580214356,0.0 73.801673786,15.579927306,0.0 73.801497253,15.579668371,0.0 73.801046861,15.579062989,0.0 73.800603732,15.578410403,0.0 73.800456085,15.578128763,0.0 73.800292032,15.578025454,0.0 73.799087139,15.577921197,0.0 73.799047542,15.577830239,0.0 73.798430598,15.57784716,0.0 73.797467446,15.577723882,0.0 73.797226302,15.577136169,0.0 73.796398135,15.577327738,0.0 73.796399699,15.577570779,0.0 73.796369019,15.577584738,0.0 73.796165407,15.577355498,0.0 73.796136673,15.577226084,0.0 73.79615841,15.577133434,0.0 73.795988915,15.577063338,0.0 73.795924217,15.57681849,0.0 73.795720585,15.576610231,0.0 73.795614358,15.576407308,0.0 73.795486516,15.576171144,0.0 73.79540009,15.576010203,0.0 73.795394959,15.575726944,0.0 73.795424744,15.5756264,0.0</coordinates>
                    </LinearRing>
                </outerBoundaryIs>
            </Polygon>
        </Placemark>
    </Document>
</kml>
