<?xml version="1.0" encoding="UTF-8"?>
<kml xmlns="http://www.opengis.net/kml/2.2" xmlns:gx="http://www.google.com/kml/ext/2.2">
    <Document id="269">
        <Placemark id="271">
            <ExtendedData>
                <Data name="id">
                    <value>192</value>
                </Data>
                <Data name="taluka">
                    <value>Bardez</value>
                </Data>
                <Data name="village">
                    <value>Mapusa</value>
                </Data>
                <Data name="lg_code">
                    <value>252061</value>
                </Data>
            </ExtendedData>
            <Polygon id="270">
                <outerBoundaryIs>
                    <LinearRing id="274">
                        <coordinates>73.803079703,15.608228051,0.0 73.803079703,15.608228051,0.0 73.805184969,15.608687112,0.0 73.806967368,15.608625803,0.0 73.807858568,15.609192916,0.0 73.808447397,15.609177588,0.0 73.808813425,15.60945348,0.0 73.810993682,15.609085624,0.0 73.811566596,15.610373119,0.0 73.813746853,15.609867318,0.0 73.813882125,15.610028255,0.0 73.814844939,15.610047414,0.0 73.815266668,15.609848159,0.0 73.815298496,15.609737036,0.0 73.816448303,15.609357685,0.0 73.816515939,15.609618249,0.0 73.817976074,15.609173756,0.0 73.818194896,15.609698718,0.0 73.819205453,15.609426658,0.0 73.819579438,15.610687327,0.0 73.819340724,15.610832936,0.0 73.81940836,15.611323407,0.0 73.819448146,15.611549483,0.0 73.819655031,15.612043784,0.0 73.81974256,15.612446121,0.0 73.819774388,15.613086027,0.0 73.819877831,15.6133964,0.0 73.820231924,15.613649296,0.0 73.820426874,15.614024808,0.0 73.82102366,15.614300693,0.0 73.821202695,15.614266208,0.0 73.821417538,15.614411814,0.0 73.821851203,15.614940593,0.0 73.821910881,15.615461708,0.0 73.822416616,15.615823316,0.0 73.822416616,15.615823316,0.0 73.823886515,15.614595449,0.0 73.825637607,15.615172258,0.0 73.826459649,15.614645181,0.0 73.826908708,15.614589985,0.0 73.827061796,15.614312354,0.0 73.827577774,15.614201659,0.0 73.82843809,15.613591279,0.0 73.829011778,15.613008448,0.0 73.82897381,15.61271215,0.0 73.829881959,15.612009218,0.0 73.830799253,15.611796983,0.0 73.832376054,15.61117788,0.0 73.833303635,15.610049061,0.0 73.83463178,15.609744538,0.0 73.835119512,15.609096817,0.0 73.835263202,15.60860623,0.0 73.835368793,15.607972109,0.0 73.835588356,15.60722026,0.0 73.834557299,15.607318782,0.0 73.834194322,15.607267588,0.0 73.834094181,15.607059198,0.0 73.833783844,15.606887683,0.0 73.833411744,15.606304122,0.0 73.833225519,15.606229914,0.0 73.833125313,15.60610485,0.0 73.833158823,15.606012291,0.0 73.833053848,15.605877965,0.0 73.833082601,15.605762256,0.0 73.832681936,15.605067572,0.0 73.831259454,15.603946218,0.0 73.831164039,15.603807269,0.0 73.83159539,15.602006841,0.0 73.831901229,15.601826537,0.0 73.831987856,15.601025751,0.0 73.832231859,15.600525984,0.0 73.832657795,15.599493997,0.0 73.832844497,15.598971039,0.0 73.832754575,15.597947917,0.0 73.832616316,15.597633026,0.0 73.83270247,15.59741089,0.0 73.832315738,15.597225427,0.0 73.831471462,15.595836021,0.0 73.830927564,15.59510419,0.0 73.831161681,15.595007156,0.0 73.831729978,15.595104805,0.0 73.832331871,15.595003423,0.0 73.83314405,15.594740176,0.0 73.833526404,15.59442568,0.0 73.83369864,15.594064732,0.0 73.834140755,15.593552478,0.0 73.83424917,15.59336122,0.0 73.834700716,15.592127105,0.0 73.83496216,15.591695242,0.0 73.83515966,15.591590462,0.0 73.835465321,15.591609207,0.0 73.835981248,15.591486147,0.0 73.836312529,15.591319743,0.0 73.836395524,15.591057483,0.0 73.836621816,15.590779899,0.0 73.836612391,15.590619412,0.0 73.836355008,15.589949529,0.0 73.83632653,15.58972422,0.0 73.836188054,15.589682454,0.0 73.83602271,15.589393777,0.0 73.83601162,15.589325874,0.0 73.835868484,15.589139056,0.0 73.83540229,15.58879306,0.0 73.835341844,15.588728206,0.0 73.835079231,15.588635425,0.0 73.834977426,15.588528877,0.0 73.834893166,15.588380679,0.0 73.834840864,15.588085914,0.0 73.834893545,15.587905414,0.0 73.834909616,15.587717172,0.0 73.834885853,15.587570563,0.0 73.834930599,15.587359196,0.0 73.834765309,15.587007252,0.0 73.834714665,15.586630705,0.0 73.834641604,15.58641462,0.0 73.834897111,15.585434964,0.0 73.83510105,15.585232974,0.0 73.835355812,15.585183787,0.0 73.83554363,15.585233306,0.0 73.836017818,15.585526843,0.0 73.836269181,15.585749232,0.0 73.836635294,15.585814313,0.0 73.836994959,15.585981231,0.0 73.837287872,15.586006137,0.0 73.837539214,15.5862563,0.0 73.837829016,15.586188619,0.0 73.838118532,15.586485101,0.0 73.838223726,15.586330872,0.0 73.838688968,15.585855948,0.0 73.838635182,15.585417677,0.0 73.838600314,15.585217052,0.0 73.838196205,15.584880366,0.0 73.837518236,15.58458977,0.0 73.837454626,15.584500225,0.0 73.837228906,15.584061826,0.0 73.836965124,15.583438231,0.0 73.836656769,15.582814602,0.0 73.836446884,15.582487315,0.0 73.836501354,15.582055296,0.0 73.836578023,15.581734395,0.0 73.836686463,15.581499929,0.0 73.83656546,15.581515269,0.0 73.836591225,15.581144952,0.0 73.836696583,15.580780865,0.0 73.836543755,15.580777666,0.0 73.836511598,15.581118687,0.0 73.836424659,15.581562738,0.0 73.836446057,15.581877481,0.0 73.836359178,15.582244599,0.0 73.836185608,15.58274104,0.0 73.835860512,15.583230375,0.0 73.835236034,15.583628563,0.0 73.834675931,15.584733187,0.0 73.834275111,15.585163013,0.0 73.834047398,15.585680393,0.0 73.834025436,15.586072038,0.0 73.834118835,15.586579169,0.0 73.833989409,15.587129845,0.0 73.834312076,15.587432576,0.0 73.83431164,15.587976355,0.0 73.834396134,15.588341852,0.0 73.834610393,15.588859566,0.0 73.834956299,15.589433329,0.0 73.835071813,15.589359979,0.0 73.835145886,15.589221904,0.0 73.83538942,15.589227332,0.0 73.835558947,15.589286907,0.0 73.835728416,15.589419919,0.0 73.835908599,15.589691069,0.0 73.836024,15.589759346,0.0 73.83632648,15.590504426,0.0 73.836272134,15.590789389,0.0 73.836143924,15.590948406,0.0 73.835719836,15.591135177,0.0 73.835348163,15.591196096,0.0 73.835086469,15.591339276,0.0 73.834860844,15.591494722,0.0 73.834178353,15.592214585,0.0 73.834308023,15.592487446,0.0 73.834100201,15.59293665,0.0 73.833831045,15.593380562,0.0 73.833406472,15.594160066,0.0 73.833294495,15.594317344,0.0 73.833092301,15.594493788,0.0 73.832749478,15.594565216,0.0 73.832574406,15.594664746,0.0 73.832171951,15.594856773,0.0 73.831989787,15.594804179,0.0 73.830970492,15.59482438,0.0 73.830690655,15.59508294,0.0 73.830427328,15.595007552,0.0 73.830144245,15.594823743,0.0 73.829742314,15.594377568,0.0 73.829636087,15.594122207,0.0 73.829325917,15.593973346,0.0 73.828817588,15.593483375,0.0 73.828588493,15.593463963,0.0 73.828364923,15.593309922,0.0 73.828053982,15.593007191,0.0 73.827138326,15.592069285,0.0 73.82645898,15.59115779,0.0 73.826341989,15.590837724,0.0 73.82642715,15.590393676,0.0 73.826324353,15.590356877,0.0 73.826172964,15.590183657,0.0 73.826106312,15.590069953,0.0 73.826070319,15.589966764,0.0 73.825931516,15.589842512,0.0 73.825457267,15.58960609,0.0 73.825325684,15.589478347,0.0 73.825295133,15.589340192,0.0 73.825271598,15.589438088,0.0 73.825183181,15.589464246,0.0 73.825024492,15.589390683,0.0 73.824424145,15.588944341,0.0 73.824124857,15.588741277,0.0 73.823915741,15.588569759,0.0 73.823922932,15.588599489,0.0 73.823728146,15.588548626,0.0 73.823482945,15.588384072,0.0 73.823405507,15.588228395,0.0 73.823263043,15.58817058,0.0 73.823106132,15.588130239,0.0 73.822996106,15.588110917,0.0 73.822923889,15.58817905,0.0 73.822711065,15.588126424,0.0 73.822505428,15.588107025,0.0 73.822240246,15.588105062,0.0 73.821967923,15.588015669,0.0 73.821641385,15.588038135,0.0 73.821639421,15.588223473,0.0 73.821696959,15.58844208,0.0 73.821686043,15.588548729,0.0 73.821545205,15.588697236,0.0 73.821382797,15.588754804,0.0 73.821012945,15.588796467,0.0 73.820475433,15.588712102,0.0 73.820334768,15.588659533,0.0 73.819844122,15.588618916,0.0 73.819550073,15.588618675,0.0 73.819169453,15.588597381,0.0 73.819050387,15.58860078,0.0 73.818882602,15.588618127,0.0 73.818808685,15.588565611,0.0 73.818796197,15.588406489,0.0 73.818886621,15.588149536,0.0 73.819005743,15.588081443,0.0 73.819197221,15.587787855,0.0 73.819202951,15.587424175,0.0 73.819086181,15.586866312,0.0 73.818745571,15.586479616,0.0 73.818228317,15.585931914,0.0 73.818163336,15.585975572,0.0 73.817927003,15.585992862,0.0 73.817425544,15.585946985,0.0 73.817124383,15.585834832,0.0 73.816489512,15.58569967,0.0 73.81610004,15.585494772,0.0 73.815954333,15.585031302,0.0 73.815950847,15.584894917,0.0 73.816071955,15.584620506,0.0 73.816128025,15.584454447,0.0 73.816213001,15.584239454,0.0 73.816130314,15.583908921,0.0 73.815830155,15.582675988,0.0 73.815624712,15.582446764,0.0 73.815376231,15.581930753,0.0 73.815192637,15.581477741,0.0 73.814989073,15.581166339,0.0 73.814845148,15.580732594,0.0 73.814787644,15.580486009,0.0 73.814728256,15.580328595,0.0 73.814584168,15.58007844,0.0 73.813771824,15.580731688,0.0 73.813605732,15.58087842,0.0 73.813436127,15.58092024,0.0 73.813342377,15.580860712,0.0 73.813039359,15.580818491,0.0 73.812469229,15.580922915,0.0 73.812328594,15.580845862,0.0 73.812303447,15.580726944,0.0 73.812368476,15.580629084,0.0 73.812231595,15.580391173,0.0 73.812083717,15.580345586,0.0 73.812000807,15.580268582,0.0 73.812297072,15.579800241,0.0 73.812275607,15.579600895,0.0 73.811438554,15.579649137,0.0 73.811160604,15.579813257,0.0 73.810878546,15.5805229,0.0 73.810784641,15.580634722,0.0 73.809983742,15.580595565,0.0 73.809911547,15.580637467,0.0 73.809853706,15.580763308,0.0 73.809889633,15.580927696,0.0 73.810077095,15.581085222,0.0 73.810275503,15.581109872,0.0 73.810340325,15.581239315,0.0 73.810354609,15.581400188,0.0 73.809939535,15.581588667,0.0 73.809759015,15.58172839,0.0 73.809578417,15.58195204,0.0 73.809545692,15.582228272,0.0 73.809336289,15.582388951,0.0 73.80918111,15.582434277,0.0 73.808787943,15.582339518,0.0 73.808679714,15.58233243,0.0 73.808264589,15.582573359,0.0 73.807957935,15.582559104,0.0 73.807788425,15.582496011,0.0 73.807716134,15.582639323,0.0 73.807513932,15.582813995,0.0 73.807181854,15.582981559,0.0 73.806990611,15.583009367,0.0 73.806467338,15.583152283,0.0 73.806218433,15.583113597,0.0 73.806150074,15.582910713,0.0 73.805980577,15.58283363,0.0 73.805446951,15.582476468,0.0 73.805270173,15.582469318,0.0 73.805017555,15.582542531,0.0 73.80475781,15.582521318,0.0 73.804620798,15.582430276,0.0 73.804465803,15.582279768,0.0 73.8041862,15.582274274,0.0 73.804119604,15.582116851,0.0 73.803973588,15.582010064,0.0 73.80367603,15.581917129,0.0 73.803596739,15.581831382,0.0 73.803225261,15.581696417,0.0 73.80303768,15.581668273,0.0 73.802916941,15.581538778,0.0 73.802745606,15.581500157,0.0 73.802478455,15.581680012,0.0 73.80258977,15.582232633,0.0 73.802632755,15.582556141,0.0 73.802792944,15.582933957,0.0 73.802803646,15.583061606,0.0 73.802906256,15.583285504,0.0 73.802915193,15.583372936,0.0 73.802880855,15.583439348,0.0 73.802979911,15.583607291,0.0 73.803010471,15.583719221,0.0 73.803030201,15.583838136,0.0 73.80297606,15.583862566,0.0 73.803049423,15.584490338,0.0 73.803016817,15.584631936,0.0 73.803020313,15.584749088,0.0 73.803041874,15.584840028,0.0 73.803041617,15.585109294,0.0 73.803032383,15.585334841,0.0 73.80305932,15.585462504,0.0 73.803068155,15.585656594,0.0 73.803073309,15.585927613,0.0 73.802977716,15.585910043,0.0 73.803017216,15.586105908,0.0 73.802999047,15.586242274,0.0 73.802997134,15.586355924,0.0 73.803015127,15.586404897,0.0 73.803013248,15.586483577,0.0 73.802966289,15.586542984,0.0 73.802942761,15.586623393,0.0 73.802957124,15.586695094,0.0 73.802994959,15.586745834,0.0 73.802996588,15.586929426,0.0 73.802985709,15.586987116,0.0 73.802999921,15.587217929,0.0 73.80303045,15.58736308,0.0 73.803069949,15.587560694,0.0 73.803064432,15.587670844,0.0 73.803044547,15.587714538,0.0 73.803047776,15.588111447,0.0 73.803038585,15.588291532,0.0 73.802995216,15.588368427,0.0 73.802996958,15.588433122,0.0 73.802984189,15.588581732,0.0 73.802949553,15.588959373,0.0 73.802942014,15.589298572,0.0 73.802874908,15.589674436,0.0 73.802892603,15.590036388,0.0 73.80280238,15.590060786,0.0 73.802778026,15.590060764,0.0 73.802774391,15.590089611,0.0 73.802712906,15.590246045,0.0 73.802655194,15.590229383,0.0 73.802596471,15.590326371,0.0 73.802554831,15.590481948,0.0 73.802506043,15.590565832,0.0 73.802401142,15.590847243,0.0 73.802373913,15.591023816,0.0 73.802321569,15.591053493,0.0 73.801468387,15.590940822,0.0 73.800990313,15.590956126,0.0 73.80087848,15.590940288,0.0 73.800806381,15.590877278,0.0 73.80063865,15.590835162,0.0 73.800449253,15.59081226,0.0 73.800249023,15.59079809,0.0 73.800030676,15.590864334,0.0 73.799415482,15.590896995,0.0 73.799012893,15.591202612,0.0 73.79835234,15.59149925,0.0 73.798134443,15.591566786,0.0 73.798090933,15.592103155,0.0 73.798019282,15.592111769,0.0 73.797272175,15.59394678,0.0 73.797244479,15.594694134,0.0 73.797360071,15.595047025,0.0 73.79822136,15.596589614,0.0 73.798066089,15.598209665,0.0 73.799568413,15.600476697,0.0 73.800085537,15.601062528,0.0 73.801621965,15.601555205,0.0 73.802803253,15.601242682,0.0 73.802626341,15.602969858,0.0 73.80264122,15.604328743,0.0 73.802381189,15.605561946,0.0 73.802697033,15.607997745,0.0 73.803079703,15.608228051,0.0</coordinates>
                    </LinearRing>
                </outerBoundaryIs>
            </Polygon>
        </Placemark>
    </Document>
</kml>
