<?xml version="1.0" encoding="UTF-8"?>
<kml xmlns="http://www.opengis.net/kml/2.2" xmlns:gx="http://www.google.com/kml/ext/2.2">
    <Document id="310">
        <Placemark id="312">
            <ExtendedData>
                <Data name="id">
                    <value>184</value>
                </Data>
                <Data name="taluka">
                    <value>Bardez</value>
                </Data>
                <Data name="village">
                    <value>Moira</value>
                </Data>
                <Data name="lg_code">
                    <value>626692</value>
                </Data>
                <Data name="dslr_code">
                    <value>00004800</value>
                </Data>
            </ExtendedData>
            <Polygon id="311">
                <outerBoundaryIs>
                    <LinearRing id="315">
                        <coordinates>73.834140755,15.593552478,0.0 73.834317324,15.593742409,0.0 73.834610151,15.593887677,0.0 73.83474062,15.593989618,0.0 73.8349221,15.594011357,0.0 73.835089319,15.593948217,0.0 73.8351674,15.593861864,0.0 73.835263042,15.593715344,0.0 73.835267905,15.59360579,0.0 73.835468596,15.593494839,0.0 73.835675672,15.59336229,0.0 73.835994271,15.593131068,0.0 73.83607715,15.593016942,0.0 73.836214185,15.59286891,0.0 73.836204701,15.592782491,0.0 73.836255689,15.592730065,0.0 73.83642453,15.592628348,0.0 73.836583783,15.59256983,0.0 73.836621974,15.592594547,0.0 73.836621905,15.592680959,0.0 73.83670138,15.592844583,0.0 73.83684146,15.592872462,0.0 73.837051816,15.592616469,0.0 73.837137866,15.592517776,0.0 73.837305128,15.592397541,0.0 73.837375248,15.592309638,0.0 73.837553589,15.592272736,0.0 73.837795784,15.592018308,0.0 73.83792956,15.5919644,0.0 73.838082492,15.591844153,0.0 73.838179755,15.591657513,0.0 73.838283379,15.591478594,0.0 73.838372852,15.591072832,0.0 73.838387445,15.590734911,0.0 73.838312858,15.590427785,0.0 73.838166543,15.590231708,0.0 73.838053572,15.590148299,0.0 73.837835512,15.59008333,0.0 73.837444094,15.589794487,0.0 73.836874407,15.589456133,0.0 73.836674012,15.589198292,0.0 73.836570776,15.588886515,0.0 73.836407207,15.58836638,0.0 73.836316727,15.588029923,0.0 73.836305781,15.587779938,0.0 73.836275634,15.587651841,0.0 73.836334679,15.587475975,0.0 73.836342798,15.587275382,0.0 73.836452825,15.587051719,0.0 73.836672709,15.586818879,0.0 73.837147292,15.586617089,0.0 73.837588317,15.586574209,0.0 73.837895514,15.586656218,0.0 73.838021221,15.58673655,0.0 73.838113678,15.586583854,0.0 73.838451154,15.586627308,0.0 73.838489232,15.586793988,0.0 73.838434985,15.586945169,0.0 73.838705582,15.58700709,0.0 73.838766115,15.586960842,0.0 73.839011199,15.587075209,0.0 73.839593752,15.587242286,0.0 73.839558624,15.587374964,0.0 73.839905551,15.587551127,0.0 73.839934157,15.587615957,0.0 73.840051808,15.587822813,0.0 73.840175977,15.587835248,0.0 73.840281004,15.587897047,0.0 73.840252218,15.588063678,0.0 73.840637329,15.588273815,0.0 73.840796543,15.588261585,0.0 73.841184955,15.588320503,0.0 73.841433292,15.588348457,0.0 73.841586104,15.588379428,0.0 73.841821702,15.588410459,0.0 73.841891695,15.588484577,0.0 73.841999952,15.588487741,0.0 73.842003086,15.588552552,0.0 73.842200448,15.588620589,0.0 73.842404229,15.588620735,0.0 73.842445565,15.588694832,0.0 73.842588795,15.588765916,0.0 73.84265559,15.588858548,0.0 73.84281467,15.589022227,0.0 73.842754098,15.58912094,0.0 73.842944854,15.589500671,0.0 73.843183439,15.589794024,0.0 73.843358307,15.590133624,0.0 73.843593586,15.59059054,0.0 73.84376535,15.590825209,0.0 73.843937237,15.590899398,0.0 73.844182081,15.591340889,0.0 73.844299819,15.591439729,0.0 73.844512375,15.592476822,0.0 73.844617383,15.59256948,0.0 73.845435541,15.592792258,0.0 73.845499176,15.592857112,0.0 73.845632892,15.592881895,0.0 73.84694443,15.593330302,0.0 73.847644623,15.593765933,0.0 73.847902615,15.593664269,0.0 73.848017388,15.593469922,0.0 73.848116138,15.59341444,0.0 73.848310295,15.593519502,0.0 73.84846315,15.593498005,0.0 73.848574614,15.593473393,0.0 73.848625617,15.593396274,0.0 73.848676638,15.593294467,0.0 73.849068004,15.593480969,0.0 73.849080904,15.593461396,0.0 73.849195475,15.593541714,0.0 73.849727039,15.5938044,0.0 73.850115449,15.593884904,0.0 73.850316076,15.593851094,0.0 73.850955815,15.594237295,0.0 73.851274118,15.594394904,0.0 73.852267194,15.594935647,0.0 73.852639587,15.595155013,0.0 73.853607227,15.595652528,0.0 73.854310708,15.595973953,0.0 73.854473193,15.595844443,0.0 73.8547662,15.595758225,0.0 73.855285438,15.59545304,0.0 73.85529504,15.595382065,0.0 73.855502082,15.595283444,0.0 73.855661306,15.595261946,0.0 73.85580772,15.595345368,0.0 73.856260004,15.595160496,0.0 73.856447968,15.595021742,0.0 73.856569078,15.594861342,0.0 73.856648832,15.594645364,0.0 73.856699805,15.594608364,0.0 73.856849588,15.594426379,0.0 73.856964237,15.594398679,0.0 73.857072467,15.594445041,0.0 73.85732089,15.594361877,0.0 73.857623342,15.594426882,0.0 73.857811128,15.594544276,0.0 73.858005369,15.594535143,0.0 73.859285904,15.593807638,0.0 73.85987829,15.593613589,0.0 73.860183481,15.59433594,0.0 73.860730751,15.594941171,0.0 73.86041212,15.595255755,0.0 73.85986426,15.595520814,0.0 73.858934071,15.596112758,0.0 73.858768294,15.596402749,0.0 73.858736178,15.596803926,0.0 73.85945505,15.597921569,0.0 73.860492637,15.598619697,0.0 73.860467017,15.59883571,0.0 73.861077997,15.599422463,0.0 73.861669793,15.600132648,0.0 73.861707739,15.600527697,0.0 73.860894976,15.600643204,0.0 73.859858524,15.600600883,0.0 73.859691429,15.600485046,0.0 73.859328315,15.600642207,0.0 73.857035403,15.600983289,0.0 73.856576819,15.601052428,0.0 73.85627117,15.600992049,0.0 73.856113768,15.60067716,0.0 73.855941824,15.600667789,0.0 73.855788885,15.600801936,0.0 73.855812657,15.600959344,0.0 73.8560369,15.60131594,0.0 73.855487521,15.601445197,0.0 73.855377608,15.601523821,0.0 73.854388829,15.601606494,0.0 73.85225366,15.601753204,0.0 73.851694768,15.601822266,0.0 73.851618418,15.601720372,0.0 73.8510452,15.601784793,0.0 73.851045123,15.601891265,0.0 73.848618366,15.602338639,0.0 73.84633015,15.602739792,0.0 73.845441636,15.602864158,0.0 73.844442956,15.603395811,0.0 73.843142997,15.604394795,0.0 73.842770301,15.604565809,0.0 73.842421281,15.605005333,0.0 73.841890667,15.605555827,0.0 73.841622937,15.605875049,0.0 73.840925012,15.606592071,0.0 73.840045755,15.607072869,0.0 73.839400809,15.607215904,0.0 73.83889939,15.607062773,0.0 73.838311875,15.607062342,0.0 73.837929674,15.607159274,0.0 73.837222734,15.607172639,0.0 73.836095467,15.607171801,0.0 73.834557299,15.607318782,0.0 73.834194322,15.607267588,0.0 73.834094181,15.607059198,0.0 73.833783844,15.606887683,0.0 73.833411744,15.606304122,0.0 73.833225519,15.606229914,0.0 73.833125313,15.60610485,0.0 73.833158823,15.606012291,0.0 73.833053848,15.605877965,0.0 73.833082601,15.605762256,0.0 73.832681936,15.605067572,0.0 73.831259454,15.603946218,0.0 73.831164039,15.603807269,0.0 73.83159539,15.602006841,0.0 73.831901229,15.601826537,0.0 73.831987856,15.601025751,0.0 73.832231859,15.600525984,0.0 73.832657795,15.599493997,0.0 73.832844497,15.598971039,0.0 73.832754575,15.597947917,0.0 73.832616316,15.597633026,0.0 73.83270247,15.59741089,0.0 73.832315738,15.597225427,0.0 73.831471462,15.595836021,0.0 73.830927564,15.59510419,0.0 73.831161681,15.595007156,0.0 73.831729978,15.595104805,0.0 73.832331871,15.595003423,0.0 73.83314405,15.594740176,0.0 73.833526404,15.59442568,0.0 73.83369864,15.594064732,0.0 73.834140755,15.593552478,0.0</coordinates>
                    </LinearRing>
                </outerBoundaryIs>
            </Polygon>
        </Placemark>
    </Document>
</kml>
