<?xml version="1.0" encoding="UTF-8"?>
<kml xmlns="http://www.opengis.net/kml/2.2" xmlns:gx="http://www.google.com/kml/ext/2.2">
    <Document id="352">
        <Placemark id="354">
            <ExtendedData>
                <Data name="id">
                    <value>196</value>
                </Data>
                <Data name="taluka">
                    <value>Bardez</value>
                </Data>
                <Data name="village">
                    <value>Nadora</value>
                </Data>
                <Data name="lg_code">
                    <value>626665</value>
                </Data>
                <Data name="dslr_code">
                    <value>00003000</value>
                </Data>
            </ExtendedData>
            <Polygon id="353">
                <outerBoundaryIs>
                    <LinearRing id="357">
                        <coordinates>73.852605316,15.669763524,0.0 73.852901837,15.669365614,0.0 73.853857559,15.669194975,0.0 73.8539962,15.669083967,0.0 73.854182535,15.669093349,0.0 73.854469273,15.669010215,0.0 73.854713088,15.668815952,0.0 73.854909185,15.668533702,0.0 73.855215126,15.668320962,0.0 73.855468433,15.668214659,0.0 73.856075576,15.667728995,0.0 73.85782048,15.666359898,0.0 73.858112371,15.66572589,0.0 73.858676429,15.665342033,0.0 73.859847862,15.664102166,0.0 73.860435846,15.663653511,0.0 73.860474232,15.663412818,0.0 73.860904293,15.663334396,0.0 73.861779015,15.662779448,0.0 73.862152518,15.661539063,0.0 73.862888753,15.660863665,0.0 73.863338027,15.660623228,0.0 73.863653552,15.660336415,0.0 73.865326385,15.659411614,0.0 73.866100612,15.65906027,0.0 73.866683583,15.658931009,0.0 73.869131292,15.65658086,0.0 73.87178821,15.655758435,0.0 73.872944107,15.656249802,0.0 73.873708459,15.656379861,0.0 73.874336573,15.660541859,0.0 73.874850603,15.66378258,0.0 73.875954941,15.670625137,0.0 73.876631148,15.674412187,0.0 73.876888556,15.675430751,0.0 73.87681169,15.676125084,0.0 73.875500487,15.679401799,0.0 73.874239214,15.67910481,0.0 73.872815411,15.678928079,0.0 73.871448839,15.67892728,0.0 73.870569424,15.679278579,0.0 73.869986479,15.679278233,0.0 73.869374789,15.679398228,0.0 73.868170406,15.679814131,0.0 73.866870562,15.68006332,0.0 73.864423988,15.680228468,0.0 73.862771046,15.679727487,0.0 73.860230238,15.677939018,0.0 73.857193022,15.675465079,0.0 73.854949008,15.673037916,0.0 73.854595941,15.67231553,0.0 73.854214142,15.671685709,0.0 73.853966111,15.671083751,0.0 73.853803875,15.670778117,0.0 73.853398076,15.670310299,0.0 73.853135473,15.67004626,0.0 73.852810737,15.669809954,0.0 73.852605316,15.669763524,0.0</coordinates>
                    </LinearRing>
                </outerBoundaryIs>
            </Polygon>
        </Placemark>
        <Placemark id="366">
            <ExtendedData>
                <Data name="id">
                    <value>196</value>
                </Data>
                <Data name="taluka">
                    <value>Bardez</value>
                </Data>
                <Data name="village">
                    <value>Nadora</value>
                </Data>
                <Data name="lg_code">
                    <value>626665</value>
                </Data>
                <Data name="dslr_code">
                    <value>00003000</value>
                </Data>
            </ExtendedData>
            <Polygon id="365">
                <outerBoundaryIs>
                    <LinearRing id="369">
                        <coordinates>73.851248208,15.669975548,0.0 73.851831095,15.670017606,0.0 73.852542826,15.670286579,0.0 73.852896194,15.670573825,0.0 73.853392574,15.671324084,0.0 73.853554932,15.671458439,0.0 73.853807783,15.672000222,0.0 73.854299188,15.673037484,0.0 73.854747906,15.673634946,0.0 73.855125111,15.674010159,0.0 73.855425855,15.674403838,0.0 73.855788713,15.674802186,0.0 73.855979734,15.674950445,0.0 73.856075222,15.675056979,0.0 73.856036951,15.675121762,0.0 73.855525753,15.675033471,0.0 73.855239095,15.674991619,0.0 73.854990756,15.674815546,0.0 73.854661285,15.674505173,0.0 73.853863932,15.673671391,0.0 73.853534513,15.673291579,0.0 73.853195504,15.67296268,0.0 73.853057148,15.672670949,0.0 73.852589245,15.672184572,0.0 73.852130964,15.671610245,0.0 73.851687097,15.670929456,0.0 73.851481922,15.670540466,0.0 73.851257516,15.670318113,0.0 73.851248208,15.669975548,0.0</coordinates>
                    </LinearRing>
                </outerBoundaryIs>
            </Polygon>
        </Placemark>
    </Document>
</kml>
