<?xml version="1.0" encoding="UTF-8"?>
<kml xmlns="http://www.opengis.net/kml/2.2" xmlns:gx="http://www.google.com/kml/ext/2.2">
    <Document id="406">
        <Placemark id="408">
            <ExtendedData>
                <Data name="id">
                    <value>182</value>
                </Data>
                <Data name="taluka">
                    <value>Bardez</value>
                </Data>
                <Data name="village">
                    <value>Olaulim</value>
                </Data>
                <Data name="lg_code">
                    <value>626686</value>
                </Data>
                <Data name="dslr_code">
                    <value>00005300</value>
                </Data>
            </ExtendedData>
            <Polygon id="407">
                <outerBoundaryIs>
                    <LinearRing id="411">
                        <coordinates>73.873167266,15.565284676,0.0 73.875535741,15.565650193,0.0 73.876516169,15.565922326,0.0 73.876484203,15.566138338,0.0 73.877570641,15.566490227,0.0 73.877384573,15.567200476,0.0 73.876995622,15.568095242,0.0 73.87697627,15.568514948,0.0 73.877434643,15.568669511,0.0 73.877491669,15.569144809,0.0 73.877217483,15.569786575,0.0 73.876650329,15.570520761,0.0 73.876286976,15.571187165,0.0 73.875535346,15.571600285,0.0 73.874439675,15.572315649,0.0 73.87405757,15.572389499,0.0 73.873809148,15.572525147,0.0 73.873751907,15.572414013,0.0 73.87293678,15.572518473,0.0 73.872414645,15.572493482,0.0 73.872433326,15.573178617,0.0 73.873146523,15.57315434,0.0 73.873184309,15.573839486,0.0 73.873075914,15.574073971,0.0 73.872228301,15.575215355,0.0 73.872018219,15.57512882,0.0 73.871222264,15.575103667,0.0 73.87122213,15.575319697,0.0 73.870642574,15.57546132,0.0 73.870133195,15.575393125,0.0 73.869305468,15.575263017,0.0 73.86881533,15.5749788,0.0 73.868738831,15.575114545,0.0 73.868312199,15.575101946,0.0 73.866866527,15.575397346,0.0 73.866363466,15.575409386,0.0 73.866280581,15.575569815,0.0 73.866013091,15.575637548,0.0 73.86586006,15.575952241,0.0 73.864573097,15.576976053,0.0 73.863458661,15.577080294,0.0 73.862904558,15.577234256,0.0 73.861567394,15.577116146,0.0 73.860154,15.575857249,0.0 73.858389155,15.574173601,0.0 73.860005585,15.572126349,0.0 73.86070033,15.571483042,0.0 73.861690188,15.569654839,0.0 73.861961823,15.569728163,0.0 73.863079176,15.569077798,0.0 73.864271846,15.568646933,0.0 73.865117366,15.568208533,0.0 73.865653231,15.568135708,0.0 73.866724732,15.568341188,0.0 73.868264003,15.568751771,0.0 73.868755094,15.567881542,0.0 73.869637893,15.568145418,0.0 73.869826662,15.567984593,0.0 73.870437845,15.56814589,0.0 73.870769631,15.568577688,0.0 73.87086777,15.568526539,0.0 73.871109457,15.568219437,0.0 73.871358835,15.56767825,0.0 73.871842273,15.566954315,0.0 73.871917857,15.566764161,0.0 73.87284687,15.565506466,0.0 73.873167266,15.565284676,0.0</coordinates>
                    </LinearRing>
                </outerBoundaryIs>
            </Polygon>
        </Placemark>
    </Document>
</kml>
