<?xml version="1.0" encoding="UTF-8"?>
<kml xmlns="http://www.opengis.net/kml/2.2" xmlns:gx="http://www.google.com/kml/ext/2.2">
    <Document id="434">
        <Placemark id="436">
            <ExtendedData>
                <Data name="id">
                    <value>187</value>
                </Data>
                <Data name="taluka">
                    <value>Bardez</value>
                </Data>
                <Data name="village">
                    <value>Paliem</value>
                </Data>
                <Data name="lg_code">
                    <value>626679</value>
                </Data>
                <Data name="dslr_code">
                    <value>00004500</value>
                </Data>
            </ExtendedData>
            <Polygon id="435">
                <outerBoundaryIs>
                    <LinearRing id="439">
                        <coordinates>73.815076684,15.571951889,0.0 73.815179482,15.571974705,0.0 73.815293063,15.572042992,0.0 73.815478845,15.572057135,0.0 73.815568994,15.57210442,0.0 73.816357048,15.572353364,0.0 73.816773695,15.572397423,0.0 73.817078632,15.572298013,0.0 73.817241074,15.572187993,0.0 73.817706626,15.572003039,0.0 73.817775569,15.571551987,0.0 73.817684239,15.570796564,0.0 73.817791118,15.570282597,0.0 73.817744229,15.570270319,0.0 73.81772997,15.570076225,0.0 73.817861956,15.569726637,0.0 73.817890931,15.569597273,0.0 73.817934222,15.569597309,0.0 73.817974,15.569490684,0.0 73.817922109,15.569013304,0.0 73.81771665,15.568815554,0.0 73.817682867,15.568259507,0.0 73.817729772,15.568252552,0.0 73.817731647,15.568172123,0.0 73.817775044,15.568051514,0.0 73.817771518,15.567958841,0.0 73.817746401,15.567804953,0.0 73.817822459,15.567465809,0.0 73.817941666,15.567287562,0.0 73.818060737,15.567263182,0.0 73.818165566,15.567025474,0.0 73.818324606,15.566675907,0.0 73.818326006,15.565877902,0.0 73.821073044,15.565799682,0.0 73.82123086,15.566567917,0.0 73.821366718,15.566546081,0.0 73.821441901,15.566875331,0.0 73.821555094,15.566882738,0.0 73.821630069,15.567453392,0.0 73.82217299,15.567965902,0.0 73.822474518,15.568361171,0.0 73.823085427,15.568800581,0.0 73.823824943,15.568874326,0.0 73.825605583,15.569336607,0.0 73.82583153,15.569878118,0.0 73.826103066,15.5700539,0.0 73.826367184,15.570076054,0.0 73.826751733,15.570478699,0.0 73.827151028,15.571298326,0.0 73.828788415,15.571628793,0.0 73.828803412,15.57174585,0.0 73.829867354,15.571944188,0.0 73.830086056,15.572134554,0.0 73.833556606,15.573380806,0.0 73.834816786,15.573571953,0.0 73.833659722,15.574251986,0.0 73.83236003,15.575384021,0.0 73.831987881,15.576065647,0.0 73.831893733,15.576492206,0.0 73.830835923,15.577397113,0.0 73.830164265,15.578144948,0.0 73.830225557,15.578193953,0.0 73.830070269,15.578380921,0.0 73.829568484,15.578749464,0.0 73.828992698,15.579166906,0.0 73.828601615,15.57872948,0.0 73.828567313,15.578762675,0.0 73.828464656,15.578564141,0.0 73.82832674,15.578466119,0.0 73.828372779,15.578418071,0.0 73.828318707,15.5783647,0.0 73.828297112,15.578301738,0.0 73.828222308,15.578232614,0.0 73.828145859,15.577972904,0.0 73.827601262,15.577760911,0.0 73.82755887,15.577761752,0.0 73.827195464,15.577670546,0.0 73.82653802,15.577585227,0.0 73.826214277,15.577521152,0.0 73.825967198,15.577458885,0.0 73.825414304,15.577463693,0.0 73.824584589,15.577380855,0.0 73.822238627,15.576350862,0.0 73.821541569,15.57514559,0.0 73.821263988,15.574898829,0.0 73.819813902,15.57465111,0.0 73.818651875,15.575043565,0.0 73.817535933,15.574310027,0.0 73.817103128,15.574175034,0.0 73.816782021,15.574199246,0.0 73.816251835,15.574034447,0.0 73.815705516,15.573755981,0.0 73.815312662,15.573325523,0.0 73.815242798,15.572780811,0.0 73.815149018,15.572758876,0.0 73.815105308,15.572217683,0.0 73.815057624,15.572086506,0.0 73.815076684,15.571951889,0.0</coordinates>
                    </LinearRing>
                </outerBoundaryIs>
            </Polygon>
        </Placemark>
    </Document>
</kml>
