<?xml version="1.0" encoding="UTF-8"?>
<kml xmlns="http://www.opengis.net/kml/2.2" xmlns:gx="http://www.google.com/kml/ext/2.2">
    <Document id="560">
        <Placemark id="562">
            <ExtendedData>
                <Data name="id">
                    <value>195</value>
                </Data>
                <Data name="taluka">
                    <value>Bardez</value>
                </Data>
                <Data name="village">
                    <value>Revora</value>
                </Data>
                <Data name="lg_code">
                    <value>626664</value>
                </Data>
                <Data name="dslr_code">
                    <value>00002900</value>
                </Data>
            </ExtendedData>
            <Polygon id="561">
                <outerBoundaryIs>
                    <LinearRing id="565">
                        <coordinates>73.842636047,15.650969648,0.0 73.842788926,15.650974387,0.0 73.842941854,15.650914317,0.0 73.843783138,15.650345529,0.0 73.844170194,15.650248591,0.0 73.844356707,15.649998748,0.0 73.844490696,15.649711834,0.0 73.844472086,15.649049848,0.0 73.844186289,15.647920124,0.0 73.84463637,15.646601126,0.0 73.84489971,15.645832868,0.0 73.845220495,15.644907258,0.0 73.84520649,15.644472105,0.0 73.845364659,15.643787097,0.0 73.84560889,15.643009566,0.0 73.846240338,15.641894376,0.0 73.846565657,15.641278922,0.0 73.847097211,15.639571123,0.0 73.847403215,15.639224147,0.0 73.84847396,15.63836849,0.0 73.848469268,15.638252757,0.0 73.849196237,15.637128365,0.0 73.84990885,15.636027107,0.0 73.850338465,15.635444507,0.0 73.851760292,15.636920877,0.0 73.854176418,15.63856123,0.0 73.855322251,15.63958041,0.0 73.856410631,15.640793973,0.0 73.856963979,15.641979406,0.0 73.859074097,15.644137974,0.0 73.86044939,15.645027657,0.0 73.862789525,15.646241981,0.0 73.863812159,15.645853767,0.0 73.864700376,15.646446853,0.0 73.866706757,15.6466888,0.0 73.868836638,15.648060324,0.0 73.869810506,15.649236718,0.0 73.87080403,15.649561349,0.0 73.87341193,15.650599808,0.0 73.873482221,15.651352435,0.0 73.873625042,15.652176513,0.0 73.873708459,15.656379861,0.0 73.872944107,15.656249802,0.0 73.87178821,15.655758435,0.0 73.869131292,15.65658086,0.0 73.866683583,15.658931009,0.0 73.866100612,15.65906027,0.0 73.865326385,15.659411614,0.0 73.863653552,15.660336415,0.0 73.863338027,15.660623228,0.0 73.862888753,15.660863665,0.0 73.862152518,15.661539063,0.0 73.861779015,15.662779448,0.0 73.860904293,15.663334396,0.0 73.860474232,15.663412818,0.0 73.860435846,15.663653511,0.0 73.859847862,15.664102166,0.0 73.858676429,15.665342033,0.0 73.858112371,15.66572589,0.0 73.85782048,15.666359898,0.0 73.856075576,15.667728995,0.0 73.855468433,15.668214659,0.0 73.855215126,15.668320962,0.0 73.854909185,15.668533702,0.0 73.854713088,15.668815952,0.0 73.854469273,15.669010215,0.0 73.854182535,15.669093349,0.0 73.8539962,15.669083967,0.0 73.853857559,15.669194975,0.0 73.852901837,15.669365614,0.0 73.852605316,15.669763524,0.0 73.851095744,15.669378281,0.0 73.850575093,15.669169613,0.0 73.849424157,15.668405011,0.0 73.849046877,15.668159405,0.0 73.848382889,15.667955263,0.0 73.84779061,15.667700247,0.0 73.847040743,15.66733402,0.0 73.846142828,15.666879731,0.0 73.845311766,15.666481037,0.0 73.844485433,15.66615178,0.0 73.84268003,15.665298722,0.0 73.842020993,15.664890881,0.0 73.841505298,15.664478511,0.0 73.840975426,15.663867076,0.0 73.84063204,15.663065979,0.0 73.840905455,15.661672796,0.0 73.841284996,15.658960373,0.0 73.841501454,15.657067196,0.0 73.841889651,15.655502814,0.0 73.842713726,15.652475923,0.0 73.842823943,15.652040859,0.0 73.842791179,15.651152033,0.0 73.842636047,15.650969648,0.0</coordinates>
                    </LinearRing>
                </outerBoundaryIs>
            </Polygon>
        </Placemark>
    </Document>
</kml>
