<?xml version="1.0" encoding="UTF-8"?>
<kml xmlns="http://www.opengis.net/kml/2.2" xmlns:gx="http://www.google.com/kml/ext/2.2">
    <Document id="638">
        <Placemark id="640">
            <ExtendedData>
                <Data name="id">
                    <value>174</value>
                </Data>
                <Data name="taluka">
                    <value>Bardez</value>
                </Data>
                <Data name="village">
                    <value>Sangolda</value>
                </Data>
                <Data name="lg_code">
                    <value>626688</value>
                </Data>
                <Data name="dslr_code">
                    <value>00005500</value>
                </Data>
            </ExtendedData>
            <Polygon id="639">
                <outerBoundaryIs>
                    <LinearRing id="643">
                        <coordinates>73.817474884,15.540114014,0.0 73.817657547,15.540310685,0.0 73.818244925,15.541309183,0.0 73.818844003,15.542569716,0.0 73.818823743,15.543012833,0.0 73.818461515,15.543613655,0.0 73.818031969,15.543925421,0.0 73.816782609,15.545380947,0.0 73.815851939,15.546023678,0.0 73.815481996,15.546347049,0.0 73.814643524,15.546111292,0.0 73.814607192,15.546735502,0.0 73.813199382,15.547543513,0.0 73.813774335,15.549096892,0.0 73.813909459,15.549120126,0.0 73.813140645,15.550969074,0.0 73.811990456,15.552563375,0.0 73.812097586,15.552775399,0.0 73.812037651,15.553118294,0.0 73.810340397,15.553074454,0.0 73.810383701,15.553533037,0.0 73.810522746,15.55361793,0.0 73.810621581,15.554207574,0.0 73.810478377,15.554323051,0.0 73.810076857,15.554376652,0.0 73.809901931,15.554407328,0.0 73.810036928,15.554573137,0.0 73.809960919,15.555100978,0.0 73.809984585,15.555301371,0.0 73.809916555,15.555798392,0.0 73.809908162,15.556280051,0.0 73.809792789,15.556387844,0.0 73.80965766,15.556364608,0.0 73.809560277,15.55636067,0.0 73.809401089,15.556564759,0.0 73.809398987,15.55668999,0.0 73.80940875,15.556878812,0.0 73.809037122,15.556841883,0.0 73.808414978,15.556902997,0.0 73.808353344,15.556926063,0.0 73.808315084,15.557463569,0.0 73.808364771,15.557463612,0.0 73.808397081,15.559060844,0.0 73.808255914,15.559118521,0.0 73.808255858,15.559178248,0.0 73.80809283,15.559233979,0.0 73.808084783,15.559338012,0.0 73.807961571,15.559322491,0.0 73.807564029,15.559362604,0.0 73.807476087,15.559890433,0.0 73.807394459,15.560040641,0.0 73.807231024,15.560531798,0.0 73.80712325,15.561011442,0.0 73.807148694,15.56143533,0.0 73.807232805,15.561820736,0.0 73.806405765,15.562056991,0.0 73.805628481,15.562218146,0.0 73.805385943,15.562278622,0.0 73.805273545,15.562386416,0.0 73.805047081,15.562261946,0.0 73.804931542,15.561484435,0.0 73.804639357,15.561501516,0.0 73.804641275,15.561574731,0.0 73.804273409,15.561755511,0.0 73.803684893,15.561968847,0.0 73.803593573,15.561855092,0.0 73.803229764,15.561947247,0.0 73.803096797,15.561739049,0.0 73.802407462,15.561378146,0.0 73.802230757,15.561183395,0.0 73.802067031,15.560926038,0.0 73.80198277,15.560707286,0.0 73.801983014,15.560452004,0.0 73.801654102,15.560425698,0.0 73.801247862,15.561242237,0.0 73.800397525,15.560898522,0.0 73.799626523,15.560730203,0.0 73.799489434,15.560678058,0.0 73.799179365,15.560691262,0.0 73.798706244,15.560781384,0.0 73.798161744,15.560694186,0.0 73.797998932,15.56052449,0.0 73.797730826,15.560308458,0.0 73.797415937,15.560190592,0.0 73.797419103,15.559924366,0.0 73.797357576,15.559893746,0.0 73.797321653,15.559780189,0.0 73.797202046,15.559263401,0.0 73.797232801,15.558521161,0.0 73.797353342,15.558083187,0.0 73.797398825,15.557632046,0.0 73.797440888,15.557607342,0.0 73.79744568,15.55731335,0.0 73.797376912,15.557010557,0.0 73.797440594,15.556373137,0.0 73.797488772,15.556236371,0.0 73.79750448,15.555526135,0.0 73.797459746,15.555211721,0.0 73.797439248,15.554679015,0.0 73.797502781,15.55419296,0.0 73.79749718,15.553779612,0.0 73.797681335,15.552766802,0.0 73.797693613,15.552493192,0.0 73.797805287,15.551905301,0.0 73.798055468,15.55092457,0.0 73.798227108,15.550424058,0.0 73.798284471,15.550103916,0.0 73.798534814,15.548951444,0.0 73.79855607,15.548706951,0.0 73.79855058,15.548177169,0.0 73.798583886,15.547891935,0.0 73.798806876,15.547074186,0.0 73.798996053,15.547062715,0.0 73.799056404,15.546754218,0.0 73.799185754,15.546509824,0.0 73.799170789,15.546460325,0.0 73.799555747,15.545817375,0.0 73.800168925,15.545148433,0.0 73.800277254,15.544904018,0.0 73.800607764,15.544671448,0.0 73.801070421,15.544404067,0.0 73.801064734,15.544072223,0.0 73.801822416,15.542995885,0.0 73.802964212,15.542135292,0.0 73.804040294,15.540902044,0.0 73.80673718,15.541062338,0.0 73.808047948,15.540893197,0.0 73.808772901,15.541068479,0.0 73.809430422,15.541108344,0.0 73.813173284,15.540901964,0.0 73.816126169,15.540188372,0.0 73.816817516,15.540173665,0.0 73.816986534,15.5400319,0.0 73.817474884,15.540114014,0.0</coordinates>
                    </LinearRing>
                </outerBoundaryIs>
            </Polygon>
        </Placemark>
    </Document>
</kml>
