<?xml version="1.0" encoding="UTF-8"?>
<kml xmlns="http://www.opengis.net/kml/2.2" xmlns:gx="http://www.google.com/kml/ext/2.2">
    <Document id="694">
        <Placemark id="696">
            <ExtendedData>
                <Data name="id">
                    <value>185</value>
                </Data>
                <Data name="taluka">
                    <value>Bardez</value>
                </Data>
                <Data name="village">
                    <value>Tivim</value>
                </Data>
                <Data name="lg_code">
                    <value>626670</value>
                </Data>
                <Data name="dslr_code">
                    <value>00003500</value>
                </Data>
            </ExtendedData>
            <Polygon id="695">
                <outerBoundaryIs>
                    <LinearRing id="699">
                        <coordinates>73.836434192,15.607690523,0.0 73.836572738,15.607658222,0.0 73.837489794,15.607714453,0.0 73.838091692,15.607650088,0.0 73.838531093,15.607705962,0.0 73.838679086,15.607807913,0.0 73.839390694,15.607938052,0.0 73.839438391,15.608026041,0.0 73.839013302,15.607993326,0.0 73.838540396,15.608025383,0.0 73.837532346,15.608269988,0.0 73.837221865,15.608274387,0.0 73.837040527,15.608056681,0.0 73.836429305,15.607829396,0.0 73.836434192,15.607690523,0.0</coordinates>
                    </LinearRing>
                </outerBoundaryIs>
            </Polygon>
        </Placemark>
        <Placemark id="708">
            <ExtendedData>
                <Data name="id">
                    <value>185</value>
                </Data>
                <Data name="taluka">
                    <value>Bardez</value>
                </Data>
                <Data name="village">
                    <value>Tivim</value>
                </Data>
                <Data name="lg_code">
                    <value>626670</value>
                </Data>
                <Data name="dslr_code">
                    <value>00003500</value>
                </Data>
            </ExtendedData>
            <Polygon id="707">
                <outerBoundaryIs>
                    <LinearRing id="711">
                        <coordinates>73.838196181,15.608409354,0.0 73.83849711,15.608404946,0.0 73.838860198,15.608317258,0.0 73.839127683,15.608322083,0.0 73.83912277,15.608497989,0.0 73.838931648,15.608571916,0.0 73.838262916,15.608585312,0.0 73.838196181,15.608409354,0.0</coordinates>
                    </LinearRing>
                </outerBoundaryIs>
            </Polygon>
        </Placemark>
        <Placemark id="720">
            <ExtendedData>
                <Data name="id">
                    <value>185</value>
                </Data>
                <Data name="taluka">
                    <value>Bardez</value>
                </Data>
                <Data name="village">
                    <value>Tivim</value>
                </Data>
                <Data name="lg_code">
                    <value>626670</value>
                </Data>
                <Data name="dslr_code">
                    <value>00003500</value>
                </Data>
            </ExtendedData>
            <Polygon id="719">
                <outerBoundaryIs>
                    <LinearRing id="723">
                        <coordinates>73.835368793,15.607972109,0.0 73.835975395,15.608000338,0.0 73.836419539,15.608097882,0.0 73.836944772,15.608338991,0.0 73.836920483,15.608852814,0.0 73.837594059,15.608756099,0.0 73.838167206,15.608812073,0.0 73.838879005,15.608701495,0.0 73.840030206,15.608646786,0.0 73.840268935,15.608776577,0.0 73.840378793,15.608781286,0.0 73.84099036,15.608568786,0.0 73.841358463,15.608170941,0.0 73.84214713,15.607477129,0.0 73.842295323,15.607319843,0.0 73.842142626,15.607120678,0.0 73.842171625,15.606676295,0.0 73.842520662,15.606218255,0.0 73.843753459,15.605621968,0.0 73.845335059,15.604859269,0.0 73.845980343,15.604248667,0.0 73.849510882,15.603269722,0.0 73.851034795,15.602965233,0.0 73.851951855,15.602993628,0.0 73.852668638,15.602554335,0.0 73.863048746,15.601232465,0.0 73.863793934,15.601131086,0.0 73.86582926,15.600252788,0.0 73.867280803,15.601003601,0.0 73.867939019,15.602457568,0.0 73.86830125,15.603679896,0.0 73.868377124,15.604540974,0.0 73.86877815,15.604856,0.0 73.868883063,15.605124556,0.0 73.868691643,15.605689205,0.0 73.867783267,15.606994096,0.0 73.867534001,15.608373449,0.0 73.867189902,15.608660252,0.0 73.86735189,15.609308438,0.0 73.867714508,15.609938228,0.0 73.86766654,15.610252985,0.0 73.867761942,15.610456727,0.0 73.868946324,15.610809257,0.0 73.86996803,15.611596828,0.0 73.871056721,15.612217783,0.0 73.873281629,15.613885591,0.0 73.873377001,15.61414951,0.0 73.873333826,15.614450383,0.0 73.873156945,15.614681741,0.0 73.873123439,15.614792823,0.0 73.872669578,15.61490829,0.0 73.871991117,15.61517176,0.0 73.871675717,15.615389149,0.0 73.871670741,15.615708561,0.0 73.871794782,15.61595861,0.0 73.871990626,15.615963354,0.0 73.872090752,15.61626431,0.0 73.871966297,15.616680866,0.0 73.871693724,15.617157514,0.0 73.871506982,15.617874931,0.0 73.870948095,15.617874603,0.0 73.870174203,15.617952844,0.0 73.869672703,15.617850704,0.0 73.869534125,15.617929318,0.0 73.86930485,15.617910665,0.0 73.868980004,15.617947505,0.0 73.869013236,15.618271569,0.0 73.868143737,15.618456217,0.0 73.867789908,15.618992991,0.0 73.867565337,15.61908544,0.0 73.867875443,15.619692052,0.0 73.867607324,15.620650134,0.0 73.867210379,15.62137205,0.0 73.866961324,15.622390322,0.0 73.866516364,15.623482543,0.0 73.865985573,15.624329363,0.0 73.866104621,15.624908085,0.0 73.867265204,15.62525135,0.0 73.867537489,15.625256144,0.0 73.868936772,15.625840263,0.0 73.870541304,15.626697616,0.0 73.87264296,15.627069181,0.0 73.873459584,15.627472394,0.0 73.87367432,15.627847482,0.0 73.873970395,15.628014304,0.0 73.873917697,15.628259621,0.0 73.874696077,15.628718357,0.0 73.875159348,15.628889901,0.0 73.87516883,15.629010266,0.0 73.875058881,15.629135192,0.0 73.876381605,15.630010859,0.0 73.879513968,15.632419783,0.0 73.881099388,15.633448329,0.0 73.886754957,15.634543811,0.0 73.888646277,15.635378034,0.0 73.889390901,15.63653571,0.0 73.885309125,15.640144385,0.0 73.88654865,15.643904041,0.0 73.885073289,15.644484672,0.0 73.88332386,15.643702386,0.0 73.880189447,15.645576318,0.0 73.880226029,15.648390886,0.0 73.879805256,15.64899245,0.0 73.879623536,15.649288618,0.0 73.878725027,15.649852884,0.0 73.877750335,15.649972701,0.0 73.876250406,15.649601525,0.0 73.87432038,15.649433776,0.0 73.873708542,15.649942635,0.0 73.87341193,15.650599808,0.0 73.87080403,15.649561349,0.0 73.869810506,15.649236718,0.0 73.868836638,15.648060324,0.0 73.866706757,15.6466888,0.0 73.864700376,15.646446853,0.0 73.863812159,15.645853767,0.0 73.862789525,15.646241981,0.0 73.86044939,15.645027657,0.0 73.859074097,15.644137974,0.0 73.856963979,15.641979406,0.0 73.856410631,15.640793973,0.0 73.855322251,15.63958041,0.0 73.854176418,15.63856123,0.0 73.851760292,15.636920877,0.0 73.850261368,15.635364452,0.0 73.849468588,15.635039866,0.0 73.849258296,15.635169339,0.0 73.845045221,15.634610901,0.0 73.84460588,15.634397647,0.0 73.843937039,15.634443465,0.0 73.843106056,15.634118829,0.0 73.843517392,15.633461778,0.0 73.843192764,15.633174536,0.0 73.842657779,15.633100086,0.0 73.841425081,15.633349175,0.0 73.840623062,15.632644957,0.0 73.838845132,15.633708372,0.0 73.838214502,15.633763458,0.0 73.836523032,15.634206606,0.0 73.835051624,15.634251797,0.0 73.834850834,15.634436813,0.0 73.833055686,15.633111507,0.0 73.832703597,15.631361406,0.0 73.832273914,15.631046293,0.0 73.832104276,15.628176067,0.0 73.831799377,15.627157412,0.0 73.831962527,15.626259474,0.0 73.829842735,15.624813534,0.0 73.828401981,15.622544109,0.0 73.828058538,15.621951304,0.0 73.82808747,15.621627283,0.0 73.827591154,15.621052875,0.0 73.827200746,15.619506418,0.0 73.82733542,15.618404776,0.0 73.826724657,15.617608074,0.0 73.826258122,15.615718995,0.0 73.825637607,15.615172258,0.0 73.826459649,15.614645181,0.0 73.826908708,15.614589985,0.0 73.827061796,15.614312354,0.0 73.827577774,15.614201659,0.0 73.82843809,15.613591279,0.0 73.829011778,15.613008448,0.0 73.82897381,15.61271215,0.0 73.829881959,15.612009218,0.0 73.830799253,15.611796983,0.0 73.832376054,15.61117788,0.0 73.833303635,15.610049061,0.0 73.83463178,15.609744538,0.0 73.835119512,15.609096817,0.0 73.835263202,15.60860623,0.0 73.835368793,15.607972109,0.0</coordinates>
                    </LinearRing>
                </outerBoundaryIs>
            </Polygon>
        </Placemark>
    </Document>
</kml>
