<?xml version="1.0" encoding="UTF-8"?>
<kml xmlns="http://www.opengis.net/kml/2.2" xmlns:gx="http://www.google.com/kml/ext/2.2">
    <Document id="32204">
        <Placemark id="32206">
            <ExtendedData>
                <Data name="direction">
                    <value>https://maps.google.com?q=15.52056,73.96755&amp;t=h</value>
                </Data>
                <Data name="id">
                    <value>4419</value>
                </Data>
                <Data name="name">
                    <value>Dhude</value>
                </Data>
                <Data name="taluka">
                    <value>Ponda</value>
                </Data>
                <Data name="syno">
                    <value>56</value>
                </Data>
                <Data name="subdiv">
                    <value>17</value>
                </Data>
                <Data name="village">
                    <value>Candola</value>
                </Data>
                <Data name="latitude">
                    <value>15.52056</value>
                </Data>
                <Data name="longitude">
                    <value>73.96755</value>
                </Data>
                <Data name="photo_1">
                    <value>DCIM/20220315092434983.jpg</value>
                </Data>
                <Data name="photo_2">
                    <value>DCIM/20220315092445929.jpg</value>
                </Data>
                <Data name="constituency">
                    <value>20 - Priol</value>
                </Data>
                <Data name="status">
                    <value>Completed</value>
                </Data>
                <Data name="panchayat">
                    <value>Betqui, Candola</value>
                </Data>
                <Data name="wb_type">
                    <value>Tank</value>
                </Data>
                <Data name="owner_type">
                    <value>Private</value>
                </Data>
                <Data name="purpose">
                    <value>Storage</value>
                </Data>
                <Data name="construction">
                    <value>Natural/Man Made</value>
                </Data>
                <Data name="condition">
                    <value>Good</value>
                </Data>
                <Data name="print_order">
                    <value>083</value>
                </Data>
                <Data name="wb_id">
                    <value>Po/Cala/13</value>
                </Data>
                <Data name="storage_capacity">
                    <value>237.0</value>
                </Data>
                <Data name="wb_surface_id">
                    <value>3506</value>
                </Data>
                <Data name="created_at">
                    <value>2022-02-17 15:14:53.178096</value>
                </Data>
                <Data name="updated_at">
                    <value>2023-07-22 14:03:14.307690</value>
                </Data>
                <Data name="book_id">
                    <value>2</value>
                </Data>
                <Data name="owners">
                    <value>Parvati Mahadeo Naik Gaonkar</value>
                </Data>
                <Data name="label_x">
                    <value>1004136.0</value>
                </Data>
                <Data name="label_y">
                    <value>1014422.58237607</value>
                </Data>
            </ExtendedData>
            <Point id="32205">
                <coordinates>73.967554036,15.520561026,0.0</coordinates>
            </Point>
        </Placemark>
        <Placemark id="32238">
            <ExtendedData>
                <Data name="direction">
                    <value>https://maps.google.com?q=15.51434,73.96774&amp;t=h</value>
                </Data>
                <Data name="id">
                    <value>261</value>
                </Data>
                <Data name="name">
                    <value>MahaGanapati Temple Tank; Ganpati Bhat</value>
                </Data>
                <Data name="taluka">
                    <value>Ponda</value>
                </Data>
                <Data name="syno">
                    <value>116</value>
                </Data>
                <Data name="subdiv">
                    <value>2</value>
                </Data>
                <Data name="village">
                    <value>Candola</value>
                </Data>
                <Data name="latitude">
                    <value>15.51434</value>
                </Data>
                <Data name="longitude">
                    <value>73.96774</value>
                </Data>
                <Data name="photo_1">
                    <value>DCIM/20220315094030088.jpg</value>
                </Data>
                <Data name="photo_2">
                    <value>DCIM/20220315094052042.jpg</value>
                </Data>
                <Data name="constituency">
                    <value>20 - Priol</value>
                </Data>
                <Data name="status">
                    <value>Completed</value>
                </Data>
                <Data name="panchayat">
                    <value>Betqui, Candola</value>
                </Data>
                <Data name="wb_type">
                    <value>Temple Tank</value>
                </Data>
                <Data name="owner_type">
                    <value>Private</value>
                </Data>
                <Data name="purpose">
                    <value>Storage</value>
                </Data>
                <Data name="construction">
                    <value>Man Made</value>
                </Data>
                <Data name="condition">
                    <value>Good</value>
                </Data>
                <Data name="print_order">
                    <value>063</value>
                </Data>
                <Data name="wb_id">
                    <value>Po/Cala/06</value>
                </Data>
                <Data name="storage_capacity">
                    <value>578.0</value>
                </Data>
                <Data name="wb_surface_id">
                    <value>2840</value>
                </Data>
                <Data name="created_at">
                    <value>2020-02-28 15:24:34</value>
                </Data>
                <Data name="updated_at">
                    <value>2023-07-22 14:03:14.307690</value>
                </Data>
                <Data name="book_id">
                    <value>2</value>
                </Data>
                <Data name="owners">
                    <value>Balchandra Mahadeo Shenvi Khandeparkar</value>
                </Data>
                <Data name="label_x">
                    <value>989975.0</value>
                </Data>
                <Data name="label_y">
                    <value>1014107.581436924</value>
                </Data>
            </ExtendedData>
            <Point id="32237">
                <coordinates>73.967737542,15.51433794,0.0</coordinates>
            </Point>
        </Placemark>
        <Placemark id="32270">
            <ExtendedData>
                <Data name="direction">
                    <value>https://maps.google.com?q=15.51663,73.96827&amp;t=h</value>
                </Data>
                <Data name="id">
                    <value>257</value>
                </Data>
                <Data name="name">
                    <value>Bhagwati Devi Haldonkarin Temple Tank; Dabo</value>
                </Data>
                <Data name="taluka">
                    <value>Ponda</value>
                </Data>
                <Data name="syno">
                    <value>122</value>
                </Data>
                <Data name="subdiv">
                    <value>28</value>
                </Data>
                <Data name="village">
                    <value>Candola</value>
                </Data>
                <Data name="latitude">
                    <value>15.51663</value>
                </Data>
                <Data name="longitude">
                    <value>73.96827</value>
                </Data>
                <Data name="photo_1">
                    <value>DCIM/20220315093017082.jpg</value>
                </Data>
                <Data name="photo_2">
                    <value>DCIM/20220315093030610.jpg</value>
                </Data>
                <Data name="constituency">
                    <value>20 - Priol</value>
                </Data>
                <Data name="status">
                    <value>Completed</value>
                </Data>
                <Data name="panchayat">
                    <value>Betqui, Candola</value>
                </Data>
                <Data name="wb_type">
                    <value>Temple Tank</value>
                </Data>
                <Data name="owner_type">
                    <value>Communidade</value>
                </Data>
                <Data name="purpose">
                    <value>Irrigation</value>
                </Data>
                <Data name="construction">
                    <value>Man Made</value>
                </Data>
                <Data name="condition">
                    <value>Needs Maintenance</value>
                </Data>
                <Data name="print_order">
                    <value>064</value>
                </Data>
                <Data name="wb_id">
                    <value>Po/Cala/07</value>
                </Data>
                <Data name="storage_capacity">
                    <value>517.0</value>
                </Data>
                <Data name="wb_surface_id">
                    <value>3171</value>
                </Data>
                <Data name="created_at">
                    <value>2020-02-28 15:24:34</value>
                </Data>
                <Data name="updated_at">
                    <value>2023-07-22 14:03:14.307690</value>
                </Data>
                <Data name="book_id">
                    <value>2</value>
                </Data>
                <Data name="owners">
                    <value>Communidade Khandole</value>
                </Data>
                <Data name="label_x">
                    <value>989975.0</value>
                </Data>
                <Data name="label_y">
                    <value>1014607.581436924</value>
                </Data>
            </ExtendedData>
            <Point id="32269">
                <coordinates>73.96827258,15.516633594,0.0</coordinates>
            </Point>
        </Placemark>
        <Placemark id="32302">
            <ExtendedData>
                <Data name="direction">
                    <value>https://maps.google.com?q=15.51754,73.97833&amp;t=h</value>
                </Data>
                <Data name="id">
                    <value>4435</value>
                </Data>
                <Data name="name">
                    <value>Adorna</value>
                </Data>
                <Data name="taluka">
                    <value>Ponda</value>
                </Data>
                <Data name="syno">
                    <value>78</value>
                </Data>
                <Data name="subdiv">
                    <value>0</value>
                </Data>
                <Data name="village">
                    <value>Candola</value>
                </Data>
                <Data name="latitude">
                    <value>15.51754</value>
                </Data>
                <Data name="longitude">
                    <value>73.97833</value>
                </Data>
                <Data name="photo_1">
                    <value>DCIM/20220315120834884.jpg</value>
                </Data>
                <Data name="photo_2">
                    <value>DCIM/20220315120858877.jpg</value>
                </Data>
                <Data name="constituency">
                    <value>20 - Priol</value>
                </Data>
                <Data name="status">
                    <value>Completed</value>
                </Data>
                <Data name="panchayat">
                    <value>Betqui, Candola</value>
                </Data>
                <Data name="wb_type">
                    <value>Tank</value>
                </Data>
                <Data name="owner_type">
                    <value>Private</value>
                </Data>
                <Data name="purpose">
                    <value>Irrigation</value>
                </Data>
                <Data name="construction">
                    <value>Man Made</value>
                </Data>
                <Data name="condition">
                    <value>Good</value>
                </Data>
                <Data name="print_order">
                    <value>084</value>
                </Data>
                <Data name="wb_id">
                    <value>Po/Cala/14</value>
                </Data>
                <Data name="storage_capacity">
                    <value>222.0</value>
                </Data>
                <Data name="wb_surface_id">
                    <value>3520</value>
                </Data>
                <Data name="created_at">
                    <value>2022-02-19 00:12:54.832040</value>
                </Data>
                <Data name="updated_at">
                    <value>2023-07-22 14:03:14.307690</value>
                </Data>
                <Data name="book_id">
                    <value>2</value>
                </Data>
                <Data name="owners">
                    <value>Anant V Gaude
Babuso R. Gaude
Dholo Chepo Gaude
Drowpadi Narayan Naik
Durga Sagun Gawde
Gajanan Narayan Naik
Ganesh Janu Gaude @ Ganesh J. Khandolkar
Kashinath R. Gaude
Keshav G. Naik
Laxmi G Naik
Laxmi Vinayak Gaude
Madhu Narayan Naik
Nilu Vishnu Naik
Rama Chepo Gaude
Sadanand G Naik
Saraswati R. Gaude alias Khandolkar
Shambhu Sagun Gawde
Shambu Sagun Gaude
Shankar Vithal Naik
Surya Vino Naik
Tukaram G. Naik
Uttam Sagun Gawde
Vithal Vishnu Dhempe</value>
                </Data>
                <Data name="label_x">
                    <value>1004136.0</value>
                </Data>
                <Data name="label_y">
                    <value>1014185.3936296126</value>
                </Data>
            </ExtendedData>
            <Point id="32301">
                <coordinates>73.978326307,15.51754421,0.0</coordinates>
            </Point>
        </Placemark>
        <Placemark id="32334">
            <ExtendedData>
                <Data name="direction">
                    <value>https://maps.google.com?q=15.52702,73.96283&amp;t=h</value>
                </Data>
                <Data name="id">
                    <value>268</value>
                </Data>
                <Data name="name">
                    <value>Devlache Bhat</value>
                </Data>
                <Data name="taluka">
                    <value>Ponda</value>
                </Data>
                <Data name="syno">
                    <value>2</value>
                </Data>
                <Data name="subdiv">
                    <value>1</value>
                </Data>
                <Data name="village">
                    <value>Candola</value>
                </Data>
                <Data name="latitude">
                    <value>15.52702</value>
                </Data>
                <Data name="longitude">
                    <value>73.96283</value>
                </Data>
                <Data name="photo_1">
                    <value>DCIM/20220315085039598.jpg</value>
                </Data>
                <Data name="photo_2">
                    <value>DCIM/20220315085103116.jpg</value>
                </Data>
                <Data name="constituency">
                    <value>20 - Priol</value>
                </Data>
                <Data name="status">
                    <value>Completed</value>
                </Data>
                <Data name="panchayat">
                    <value>Betqui, Candola</value>
                </Data>
                <Data name="wb_type">
                    <value>Temple Tank</value>
                </Data>
                <Data name="owner_type">
                    <value>Private</value>
                </Data>
                <Data name="purpose">
                    <value>Storage</value>
                </Data>
                <Data name="construction">
                    <value>Man Made</value>
                </Data>
                <Data name="condition">
                    <value>Needs Maintenance</value>
                </Data>
                <Data name="print_order">
                    <value>062</value>
                </Data>
                <Data name="wb_id">
                    <value>Po/Cala/01</value>
                </Data>
                <Data name="storage_capacity">
                    <value>2778.0</value>
                </Data>
                <Data name="wb_surface_id">
                    <value>3149</value>
                </Data>
                <Data name="created_at">
                    <value>2020-02-28 15:24:34</value>
                </Data>
                <Data name="updated_at">
                    <value>2023-07-22 14:03:14.307690</value>
                </Data>
                <Data name="book_id">
                    <value>2</value>
                </Data>
                <Data name="owners">
                    <value>AC Sarvatmanananda Avt.
Aarti Chandrakant Bhosle
Alex Dias Area:490m2+498m2+490m2+485m2
Anagha Tushar Gaunekar
Anandi Shivaji Surve Area:500m2
Anar Rajdatta Timble
And Vinayak Yeshwant Naik
Anil Gopal Amonkar
Anita Perpetua
Anthony Rodrigues Area:360m2
Antonio Mariano J. Pegado Braganza
Anup Ashok Bhosle
Arjun Shiva Naik
Aruna Soman
Arvind Roghuvir Narvekar
Atmaram Shridhar Surlakar and Indira Atmaram Surlakar - Area 389 sq. mts.
Audumbar R. Khorjuenkar
B Anthony Daniel
Babli Raghuvir Sawant
Bharati Ramnath Fulari
Bharati Saunlo Chodanker
Bhushan Nilkant Bhave
Bhushan Nilkhanth Bhave
Bimalkumar Prusty
Bridhi B. Gupta
Bridhichand Bagarangi Gupta
Caetano Francisco Socorro Matos Area:392m2
Chandrakant Atmaram Desai
Chandrakant Krishnarao Kunjalgo alais M. Dessai
Chandrakant Mangini  Koli
Chandrika Goraknath Fulari
Chudu Shanu Gaude alias Usgaokar
Clenie Gonsalves
Conceicao Monteiro
Daniel Crasto
Darlinda Ana Gomes
Das Dattaram Fadte
Datta Rama Borkar
Dattatray T. Naik Tuenkar
Deepak Prabhakar Desai
Deepti Dattatray Korde - Area 302 sq. mts
Deepti Dattatray Naik Tuenkar
Devidas Sada Akarkar
Dhananjay Nilkant Bhave
Dhananjay Nilkhanth Bhave
Dileep Vithal Raut Mulgaokar
Dilip Dattaram Prabhu Tendulkar
Dilip Vithal R.Mulgaonkar Area:428m2
Dinesh Jawahar Singh
Domnic Diago Francisco Leite
Dr. Prakash Shambhu Shetye
Dr. Rajan T. Lambor
Dr. Rajdatta Sitakant Timble
Dr. Vithal Shrikant Thakur
Dr:Motiram Pandurang Kedare Area:289m2
Edgar Bonaparte Fonseca
Edvina Afonso
Emilia Fatima Alvares
Ernest Hyacinth  Afonso
Esmeralda Dias
Esmeralda Salvador Dias
Fernando Claudio De Azevedo Ribeiro
Filomena Delilah Silveira
Flavia Aplona Fernandes
Gajanan Arjun Korgaonkar
Gajanan Khushali Porob Area:530 Sqmts
Ganesh Anant Kubal
Ganesh Krishna Shetkar alias Shetkar Ganesh Krishna
Ganesh Shripad Ajgaonkar
Ganesh Vaikunth Nayak - Area 408 sq. mts.
Gangaram Nagu Naik
Giren Datta Naik
Gokuldas J. Chodankar
Goraknath Atmaram Fulari
Govind Tanaji Volvoikar
Govind Vasant Parab
Hajrat Ali Imamsabh Hosmany
Hanuman Raghuvir Deusekar Area:485m2
Hareshwar Pandharinath Volvoikar - Area 327 sq. mts.
Hari Shankar Verenkar
Hazel Saldanha
Hemant Dattatreya Bakre
Herbert Rodrigues
Herman D'souza
Hirabai Maddu Tari Area:549m2
Hitesh Raghunath Lohia
Jaison Joseph
Jaya Chandrakant Desai
Joaquim Norberto Fernandes Area:500m2+ 550m2
John Mario Fernandes
Jose Felipe Pegado Braganza
Jose John Joaquim Ferrao
Kalidas Narayan Naik
Keshav Sakharam Shirodkar
Krishna Nanda Vernekar
Krishnanand Shamba Gaonkar Area:480m2
Lala Keshar Haladankar
Lavita Silveira
Laxman Malhari Torgoi Area:495m2
Lepoldina Dias Area:379m2
Luis Bonapart Alboi Fonseca
M/S Ann Engineering Works
M/S Nandita Developers
M/s Omkar Builder and Developers
M/s Patidar Traders
M/s. Nandita Developers
Madhura Rama Gaude
Madhusudan Radhakrishna Prabhu Shirodkar Area:450m2
Mahananda Varad Mhapne
Mahesh Pandurang Mahajan
Mahesh Pandurang Talekar
Mahesh Pandurang Talekar alias Mahesh Talekar
Mahesh Sacaram Shet
Mahesh Sadashiva Naik
Mahesh Shivputra Angadi
Maheshwar R Thakur
Maineger Gupta
Mamata Sameer Barekar
Manoj Narcinva Phadte
Mansi Mahesh Talekar
Maria Aquelia Gineta Menezes
Maria Fatima Alice Afonso Braganza
Maria Fatima Alphonso Area:500m2
Maria Palmira Fernandes
Maria Rosa Conceicao Leite Area:362m2
Maria Stibeiro
Maria Wanda De Lima Pereira E Ribeiro alias Maria Wanda Ribeiro
Mariquinha Marcelina Monserrate
Maruti Purushottam Patil
Mathew Frank Monteiro
Maya Prashant Chodankar
Maya Shripad Amonkar alias Sheetal Shamu Phadte
Meena Krishna Suryawanshi
Melba Lima Brito
Milagrina Ferrao
Mohan Anant Kubal
Mohan Saju Naik
Mohan Sonu Ajgaonkar
Mohandas Govind Tari Area:660m2
Molu S.Tari
Motiram Pandurang Kedare
Mr. Hemant Chodankar ,Miss Meeta Chodankar
Mr. Pramod Ramchandra Kamat Mrs. Preeti Pramod Kamat
Mr. Premanand Rane
Mr. Wrindavan Poma Kundaikar
Mr:Erasmo Ferrao Area:368m2
Mr:Vinayak Sagun Kamat Wagh Area:335m2
Mrs:Eufrasia Dulcia Gomes Area:410m2
Mrs:Loretta Ferrao Area:375m2
Mrs:Mabel Filomena Afonso Area:358m2
Mrs:Maria Bernadeta Auria Afonso Area:378m2
Myrtle Edgar Fonseca
Nagesh Bhima Tari
Nanda Deu Sawant
Nandita Nandakumar Bhagat
Narayan Babay Sawant
Narayan Kumar Swami
Narayan Prakash Nagvenkar
Narayan Ramray Parvatker
Narayan Shrikant Thakur
Narayan Vassu Naik Area:470m2
Naveen Yadav
Navin Afonso - Area 298 sq. mts
Nazario Alfredo Magalhaes
Neelesh Gokuldas Sawant
Nilesh Avinash Sakhardande
Nilima Yeshwant Gawas
Nilkhant Pandurang Sawant
Nisha Hitesh Lohia
Nitin Baburao Shet Verenkar
Nyaneshwar Harichandra Sawant
Pandurang Harichandra Naik
Pandurang Namdev Phadte
Pankaj Prakash Shirodker
Parekh Pandurang Phadte
Pedro A.Leite
Prabhakar Devapa Desai
Prabhakar Narayan Naik - Area 308 sq. mts.
Pradeep Anant Sutar
Prafulla Vithal Kamat
Prajyot Shashikant Fadte
Prakash Govind Shetkar
Prakash Vithal Raut Mulgaonkar - Area 380 sq. mts.
Prasad Shrikant Manerikar
Prashant Vinayak Chodankar
Pravin Pandit Thoravat
Prince Peter Rangel
Priti Siddharth Naik
Priya Yogesh Tamhankar
Pushkaraj Shrikant Manerikar
ROHAN SHRIDHAR SHIRODKAR
RUTU ROHAN SHIRODKAR
Radhakrishna Pundalik Sawant
Rajanikant Ramchandra Sinai
Rajdatta Sitakant Timble
Ramakant Dharma Tari
Ramakant Namdev Halarnkar
Ramchandra Rajanikant Sinari
Ramesh Keshav Dhuri
Ramesh Namdev Khandeparkar
Rao Saheb Dattajirao Dessai Area:1741 Sqmts
Ratnabai Shivaputra Angadi
Ratnakar Chodankar
Ravindra Kailash Gupta
Raymond Fantinho Crasto
Reena Anirudha Manerikar alias Reena Manerikar
Remedios Joao Francisco Dourado Area:500m2
Remnath alias Ramnath Raghuvir Naik
Reshmi Rohit Shirodkar
Riya Rajesh Narvekar
Roger Fernandes
Rohit Madhukar Jalmi
Rosalinda D'souza
Rudresh Avinash Sakhardande
Sadanand Govind Chodankar - Area 300 sq. mts.
Sadguru S Patil
Saeesh Mahadev Amonkar
Sagar S. Takkekar
Salvador Bernard Dias
Salvador Eufemio Alvares
Sameer Datta Barekar
Sandesh Krishna Vernekar
Sandra Deodita Alphonso e Fernandes
Sanjay V. Deshpande
Santosh Arjun Parab
Santosh Parab
Sasmita Bimalkumar Prusty
Satchit Sitaram Narvekar - Area 392 sq. mts
Satyavan B. Keluskar
Savlo Surya Naik - Area 463 sq. mts.
Sean Mcnally Gomes
Shamba Sagun Volvoikar
Shantagauri Hemant Bakre alias S. G. Bhandankar alias Shantagauri G. Bhandankar
Sharad Anant Naik
Sharad Manohar Malvekar
Sharda Bhairu Cumbar Area:495m2
Sharda Raosaheb Desai Area:537 Sqmts
Shardha Abhimanyu Sawant
Shashikant Ramchandra Sawant Area:520m2
Sheetal Dattatreya Bakre alias Bakre Sheetal Dattareya
Sheetal Sriram Phadte Area:440m2
Shekhar Purushottam Mandurkar
Shilpa Sanjay Deshpande
Shivaji Tukaram Naik
Shivanand Namdev Fadte alias Shivanand Namdeo Phadte
Shivaputra Mallappa Angadi
Shradha Kaushik Jawdekar
Shridhar Namdev Phadte
Shyam Mahadeo Phadte
Shyam Rohidas Naik
Siddharth Suryakant Naik
Sima Rodrigues
Simon Pascal Pereira
Sitaram Chandrakant Karapurkar
Smita Ramnath Malnekar
Smt. Leela Bhanudas Gauns
Sneha Pandurang Thakur
Soniya Santosh Parab
Sruti Shet Govenkar
Subhash Kunkolker
Subhash Purushottam Bhagat - Area 379 sq.mts.
Subhash Yalloji Dhamanekar
Sudarshan Vasudev Deshpande
Sudha Das alias Usgaokar
Sudhan P. Shirodkar
Suneeta Maria De Fatima Ribeiro
Surdas Vasudev Naik
Surendra Krishnanath Pai Kakode
Sushant Anant Sutar
Sushma Uday Tilve
Sushmita S. Shirodkar
Suvidha Shivdas Valwaikar
Swati Awdhut Sardesai
Tatva Realtors
Trevor Joseph Dias
Tulshidas Yeshwant Bhandari Area:350m2
Tushar Avyang Gaunekar
Udai Keshav Xete Verenkar and Surendra Keshav Xete Verenkar
Umesh Gurudas Shenvi Kerkar
Umesh Tukaram Sawant
Usha Narayan Swami
Uttara Umesh Sawant
Vaibhav T. Gaunkar
Vaishali V. Jalmi
Valeriano G. Gomes
Valeriano Godvin Gomes
Vaman Vishnu Barve
Varad Bhagwant Mhapne
Vasanti Ravindra Kakode Area:820m2
Vassudev Chandru Naik
Vibha Sadanand Naik alias Vibha Sadanand Usgaonkar
Vibha Vijay Shet Verenkar
Vijay Motiram Shet Verenkar
Vijaya Raghavan Nair &amp; Ravindran Nair
Vikram Prabhakar Desai
Vinayak Babal Palkar and Jyoti Vinayak Palkar - Area 375 sq. mts.
Vinayak Kashinath Bhosle - Area 307 sq. mts
Vinayak Laximan Gaonkar
Vinayak Suba Sawant Area:492m2
Vincy Nazareth Fernandes
Vinod Shanker Verenkar
Viraj Bakre and Sujata Bakre
Viraj Vishnu Bakre &amp; Sujata Viraj Bakre Area:537m2
Vishakha Narsinha Sane
Vishnu Krishna Ghadi Area:586m2
Vishnu Yeshwant Shet
Vishnudas Anant Bhonsle
Vithal Dattu Bhagat and Vimal Vithal Bhagat - Area 404 sq. mts.
Vithal Raghuvir Shenavi Navelkar
Vithu Saji Morajkar
Wellington Doloris Dias
Wilma Jacques Braganza
Yashodha Govind Parab
Yeshwant Keshav Gawas
Yoganand Pandurang Nagvenkar
Yogeeta Yogesh Dessai
Yogesh Madhusudan Tamhankar
Zeldon Francis Mattos
Zenito Xavier Mattos</value>
                </Data>
                <Data name="label_x">
                    <value>1004136.0</value>
                </Data>
                <Data name="label_y">
                    <value>1014672.58237607</value>
                </Data>
            </ExtendedData>
            <Point id="32333">
                <coordinates>73.962833908,15.527023342,0.0</coordinates>
            </Point>
        </Placemark>
        <Placemark id="32366">
            <ExtendedData>
                <Data name="direction">
                    <value>https://maps.google.com?q=15.5168,73.96629&amp;t=h</value>
                </Data>
                <Data name="id">
                    <value>4420</value>
                </Data>
                <Data name="name">
                    <value>Varange</value>
                </Data>
                <Data name="taluka">
                    <value>Ponda</value>
                </Data>
                <Data name="syno">
                    <value>123</value>
                </Data>
                <Data name="subdiv">
                    <value>28</value>
                </Data>
                <Data name="village">
                    <value>Candola</value>
                </Data>
                <Data name="latitude">
                    <value>15.5168</value>
                </Data>
                <Data name="longitude">
                    <value>73.96629</value>
                </Data>
                <Data name="photo_1">
                    <value>DCIM/20220315095619314.jpg</value>
                </Data>
                <Data name="photo_2">
                    <value>DCIM/20220315095646169.jpg</value>
                </Data>
                <Data name="constituency">
                    <value>20 - Priol</value>
                </Data>
                <Data name="status">
                    <value>Completed</value>
                </Data>
                <Data name="panchayat">
                    <value>Betqui, Candola</value>
                </Data>
                <Data name="wb_type">
                    <value>Pond</value>
                </Data>
                <Data name="owner_type">
                    <value>Private</value>
                </Data>
                <Data name="purpose">
                    <value>Irrigation</value>
                </Data>
                <Data name="construction">
                    <value>Natural</value>
                </Data>
                <Data name="condition">
                    <value>Needs Maintenance</value>
                </Data>
                <Data name="print_order">
                    <value>010</value>
                </Data>
                <Data name="wb_id">
                    <value>Po/Cala/16</value>
                </Data>
                <Data name="storage_capacity">
                    <value>196.0</value>
                </Data>
                <Data name="wb_surface_id">
                    <value>3528</value>
                </Data>
                <Data name="created_at">
                    <value>2022-02-17 15:25:25.460549</value>
                </Data>
                <Data name="updated_at">
                    <value>2023-07-22 14:03:14.307690</value>
                </Data>
                <Data name="book_id">
                    <value>2</value>
                </Data>
                <Data name="owners">
                    <value>Vaman Kundaikar
Venketesh Kust A. Gaonkar</value>
                </Data>
                <Data name="label_x">
                    <value>989975.0</value>
                </Data>
                <Data name="label_y">
                    <value>1015107.581436924</value>
                </Data>
            </ExtendedData>
            <Point id="32365">
                <coordinates>73.966288809,15.516795682,0.0</coordinates>
            </Point>
        </Placemark>
        <Placemark id="32398">
            <ExtendedData>
                <Data name="direction">
                    <value>https://maps.google.com?q=15.51193,73.97647&amp;t=h</value>
                </Data>
                <Data name="id">
                    <value>254</value>
                </Data>
                <Data name="name">
                    <value>Tamsul</value>
                </Data>
                <Data name="taluka">
                    <value>Ponda</value>
                </Data>
                <Data name="syno">
                    <value>93</value>
                </Data>
                <Data name="subdiv">
                    <value>0</value>
                </Data>
                <Data name="village">
                    <value>Candola</value>
                </Data>
                <Data name="latitude">
                    <value>15.51193</value>
                </Data>
                <Data name="longitude">
                    <value>73.97647</value>
                </Data>
                <Data name="photo_1">
                    <value>DCIM/20220315100952230.jpg</value>
                </Data>
                <Data name="photo_2">
                    <value>DCIM/20220315101013717.jpg</value>
                </Data>
                <Data name="constituency">
                    <value>20 - Priol</value>
                </Data>
                <Data name="status">
                    <value>Completed</value>
                </Data>
                <Data name="panchayat">
                    <value>Betqui, Candola</value>
                </Data>
                <Data name="wb_type">
                    <value>Tank</value>
                </Data>
                <Data name="owner_type">
                    <value>Private</value>
                </Data>
                <Data name="purpose">
                    <value>Irrigation</value>
                </Data>
                <Data name="construction">
                    <value>Man Made</value>
                </Data>
                <Data name="condition">
                    <value>Good</value>
                </Data>
                <Data name="print_order">
                    <value>075</value>
                </Data>
                <Data name="wb_id">
                    <value>Po/Cala/02</value>
                </Data>
                <Data name="storage_capacity">
                    <value>1262.0</value>
                </Data>
                <Data name="wb_surface_id">
                    <value>2810</value>
                </Data>
                <Data name="created_at">
                    <value>2020-02-28 15:24:34</value>
                </Data>
                <Data name="updated_at">
                    <value>2023-07-22 14:03:14.307690</value>
                </Data>
                <Data name="book_id">
                    <value>2</value>
                </Data>
                <Data name="owners">
                    <value>Kalidas Atmaram Savoikar</value>
                </Data>
                <Data name="label_x">
                    <value>1004136.0</value>
                </Data>
                <Data name="label_y">
                    <value>1013422.58237607</value>
                </Data>
            </ExtendedData>
            <Point id="32397">
                <coordinates>73.97646551,15.511931588,0.0</coordinates>
            </Point>
        </Placemark>
        <Placemark id="32430">
            <ExtendedData>
                <Data name="direction">
                    <value>https://maps.google.com?q=15.53496,73.96177&amp;t=h</value>
                </Data>
                <Data name="id">
                    <value>269</value>
                </Data>
                <Data name="name">
                    <value>Kurdem Shet</value>
                </Data>
                <Data name="taluka">
                    <value>Ponda</value>
                </Data>
                <Data name="syno">
                    <value>26</value>
                </Data>
                <Data name="subdiv">
                    <value>51</value>
                </Data>
                <Data name="village">
                    <value>Candola</value>
                </Data>
                <Data name="latitude">
                    <value>15.53496</value>
                </Data>
                <Data name="longitude">
                    <value>73.96177</value>
                </Data>
                <Data name="photo_1">
                    <value>DCIM/20220315085940043.jpg</value>
                </Data>
                <Data name="photo_2">
                    <value>DCIM/20220315085956341.jpg</value>
                </Data>
                <Data name="constituency">
                    <value>20 - Priol</value>
                </Data>
                <Data name="status">
                    <value>Completed</value>
                </Data>
                <Data name="panchayat">
                    <value>Betqui, Candola</value>
                </Data>
                <Data name="wb_type">
                    <value>Tank</value>
                </Data>
                <Data name="owner_type">
                    <value>Private</value>
                </Data>
                <Data name="purpose">
                    <value>Storage</value>
                </Data>
                <Data name="construction">
                    <value>Man Made</value>
                </Data>
                <Data name="condition">
                    <value>Needs Maintenance</value>
                </Data>
                <Data name="print_order">
                    <value>081</value>
                </Data>
                <Data name="wb_id">
                    <value>Po/Cala/11</value>
                </Data>
                <Data name="storage_capacity">
                    <value>273.0</value>
                </Data>
                <Data name="wb_surface_id">
                    <value>386</value>
                </Data>
                <Data name="created_at">
                    <value>2020-02-28 15:24:34</value>
                </Data>
                <Data name="updated_at">
                    <value>2023-07-22 14:03:14.307690</value>
                </Data>
                <Data name="book_id">
                    <value>2</value>
                </Data>
                <Data name="owners">
                    <value>Vassant Jairam Gaonkar</value>
                </Data>
                <Data name="label_x">
                    <value>1004136.0</value>
                </Data>
                <Data name="label_y">
                    <value>1014922.58237607</value>
                </Data>
            </ExtendedData>
            <Point id="32429">
                <coordinates>73.961768333,15.534956667,0.0</coordinates>
            </Point>
        </Placemark>
        <Placemark id="32462">
            <ExtendedData>
                <Data name="direction">
                    <value>https://maps.google.com?q=15.51696,73.96575&amp;t=h</value>
                </Data>
                <Data name="id">
                    <value>258</value>
                </Data>
                <Data name="name">
                    <value>Hodyo Bhat</value>
                </Data>
                <Data name="taluka">
                    <value>Ponda</value>
                </Data>
                <Data name="syno">
                    <value>114</value>
                </Data>
                <Data name="subdiv">
                    <value>4</value>
                </Data>
                <Data name="village">
                    <value>Candola</value>
                </Data>
                <Data name="latitude">
                    <value>15.51696</value>
                </Data>
                <Data name="longitude">
                    <value>73.96575</value>
                </Data>
                <Data name="photo_1">
                    <value>DCIM/20220315095343294.jpg</value>
                </Data>
                <Data name="photo_2">
                    <value>DCIM/20220315095404649.jpg</value>
                </Data>
                <Data name="constituency">
                    <value>20 - Priol</value>
                </Data>
                <Data name="status">
                    <value>Completed</value>
                </Data>
                <Data name="panchayat">
                    <value>Betqui, Candola</value>
                </Data>
                <Data name="wb_type">
                    <value>Tank</value>
                </Data>
                <Data name="owner_type">
                    <value>Communidade / Pvt</value>
                </Data>
                <Data name="purpose">
                    <value>Storage</value>
                </Data>
                <Data name="construction">
                    <value>Man Made</value>
                </Data>
                <Data name="condition">
                    <value>Good</value>
                </Data>
                <Data name="print_order">
                    <value>079</value>
                </Data>
                <Data name="wb_id">
                    <value>Po/Cala/08</value>
                </Data>
                <Data name="storage_capacity">
                    <value>492.0</value>
                </Data>
                <Data name="wb_surface_id">
                    <value>3169</value>
                </Data>
                <Data name="created_at">
                    <value>2020-02-28 15:24:34</value>
                </Data>
                <Data name="updated_at">
                    <value>2023-07-22 14:03:14.307690</value>
                </Data>
                <Data name="book_id">
                    <value>2</value>
                </Data>
                <Data name="owners">
                    <value>Gajanan Shrinivas Lavande
Jagdishchandra Mahadeo Sinai Khandeparkr
[Communidade Khandole]</value>
                </Data>
                <Data name="label_x">
                    <value>989975.0</value>
                </Data>
                <Data name="label_y">
                    <value>1015357.581436924</value>
                </Data>
            </ExtendedData>
            <Point id="32461">
                <coordinates>73.965748011,15.516962665,0.0</coordinates>
            </Point>
        </Placemark>
        <Placemark id="32494">
            <ExtendedData>
                <Data name="direction">
                    <value>https://maps.google.com?q=15.51768,73.97636&amp;t=h</value>
                </Data>
                <Data name="id">
                    <value>4434</value>
                </Data>
                <Data name="name">
                    <value>Adorna</value>
                </Data>
                <Data name="taluka">
                    <value>Ponda</value>
                </Data>
                <Data name="syno">
                    <value>74</value>
                </Data>
                <Data name="subdiv">
                    <value>38</value>
                </Data>
                <Data name="village">
                    <value>Candola</value>
                </Data>
                <Data name="latitude">
                    <value>15.51768</value>
                </Data>
                <Data name="longitude">
                    <value>73.97636</value>
                </Data>
                <Data name="photo_1">
                    <value>DCIM/20220315115854079.jpg</value>
                </Data>
                <Data name="photo_2">
                    <value>DCIM/20220315115908146.jpg</value>
                </Data>
                <Data name="constituency">
                    <value>20 - Priol</value>
                </Data>
                <Data name="status">
                    <value>Completed</value>
                </Data>
                <Data name="panchayat">
                    <value>Betqui, Candola</value>
                </Data>
                <Data name="wb_type">
                    <value>Tank</value>
                </Data>
                <Data name="owner_type">
                    <value>Private</value>
                </Data>
                <Data name="purpose">
                    <value>Irrigation</value>
                </Data>
                <Data name="construction">
                    <value>Man Made</value>
                </Data>
                <Data name="condition">
                    <value>Good</value>
                </Data>
                <Data name="print_order">
                    <value>078</value>
                </Data>
                <Data name="wb_id">
                    <value>Po/Cala/05</value>
                </Data>
                <Data name="storage_capacity">
                    <value>615.0</value>
                </Data>
                <Data name="wb_surface_id">
                    <value>3521</value>
                </Data>
                <Data name="created_at">
                    <value>2022-02-19 00:09:19.561338</value>
                </Data>
                <Data name="updated_at">
                    <value>2023-07-22 14:03:14.307690</value>
                </Data>
                <Data name="book_id">
                    <value>2</value>
                </Data>
                <Data name="owners">
                    <value>Vithal Vishnu Dhempe</value>
                </Data>
                <Data name="label_x">
                    <value>1004136.0</value>
                </Data>
                <Data name="label_y">
                    <value>1013892.2503722911</value>
                </Data>
            </ExtendedData>
            <Point id="32493">
                <coordinates>73.976358102,15.51767793,0.0</coordinates>
            </Point>
        </Placemark>
        <Placemark id="32526">
            <ExtendedData>
                <Data name="direction">
                    <value>https://maps.google.com?q=15.51249,73.97099&amp;t=h</value>
                </Data>
                <Data name="id">
                    <value>264</value>
                </Data>
                <Data name="name">
                    <value>Signi bhat</value>
                </Data>
                <Data name="taluka">
                    <value>Ponda</value>
                </Data>
                <Data name="syno">
                    <value>104</value>
                </Data>
                <Data name="subdiv">
                    <value>1</value>
                </Data>
                <Data name="village">
                    <value>Candola</value>
                </Data>
                <Data name="latitude">
                    <value>15.51249</value>
                </Data>
                <Data name="longitude">
                    <value>73.97099</value>
                </Data>
                <Data name="photo_1">
                    <value>DCIM/20220315093606573.jpg</value>
                </Data>
                <Data name="photo_2">
                    <value>DCIM/20220315093618457.jpg</value>
                </Data>
                <Data name="constituency">
                    <value>20 - Priol</value>
                </Data>
                <Data name="status">
                    <value>Completed</value>
                </Data>
                <Data name="panchayat">
                    <value>Betqui, Candola</value>
                </Data>
                <Data name="wb_type">
                    <value>Tank</value>
                </Data>
                <Data name="owner_type">
                    <value>Private</value>
                </Data>
                <Data name="purpose">
                    <value>Storage</value>
                </Data>
                <Data name="construction">
                    <value>Man Made</value>
                </Data>
                <Data name="condition">
                    <value>Needs Maintenance</value>
                </Data>
                <Data name="print_order">
                    <value>085</value>
                </Data>
                <Data name="wb_id">
                    <value>Po/Cala/15</value>
                </Data>
                <Data name="storage_capacity">
                    <value>204.0</value>
                </Data>
                <Data name="wb_surface_id">
                    <value>2808</value>
                </Data>
                <Data name="created_at">
                    <value>2020-02-28 15:24:34</value>
                </Data>
                <Data name="updated_at">
                    <value>2023-07-22 14:03:14.307690</value>
                </Data>
                <Data name="book_id">
                    <value>2</value>
                </Data>
                <Data name="owners">
                    <value>Anthony Alexienho Desmond Rangel
Chandrakant B. Parab
Damodar Pandurang Volvoikar
Dinesh Venku Naik
Dnyaneshwar Janardhan Haldankar
Gangaram Mallapa Mareguddi
Mahadev Chandrakant Naik
Mr. Shantaram Vishnu Bandekar , Mrs. Sharmila Shantaram Bandekar
Mrs:Nita Upendra Timble
Nisha Dnyaneshwar Haldankar
Nishakant Chudu Sawant
Ramchandra Vishwanath Dhond
Ranjana Rajan Kitturkar
Sadanand Babuso Sawant
Shekhar Vishwanath Dhond
Shrikant Ramnath Verenkar
Shubham Satchit Naik
Suvarna Shirodkar</value>
                </Data>
                <Data name="label_x">
                    <value>989975.0</value>
                </Data>
                <Data name="label_y">
                    <value>1013857.581436924</value>
                </Data>
            </ExtendedData>
            <Point id="32525">
                <coordinates>73.970989939,15.512490346,0.0</coordinates>
            </Point>
        </Placemark>
        <Placemark id="32558">
            <ExtendedData>
                <Data name="direction">
                    <value>https://maps.google.com?q=15.51135,73.97661&amp;t=h</value>
                </Data>
                <Data name="id">
                    <value>255</value>
                </Data>
                <Data name="name">
                    <value>Tamsuli</value>
                </Data>
                <Data name="taluka">
                    <value>Ponda</value>
                </Data>
                <Data name="syno">
                    <value>90</value>
                </Data>
                <Data name="subdiv">
                    <value>1</value>
                </Data>
                <Data name="village">
                    <value>Candola</value>
                </Data>
                <Data name="latitude">
                    <value>15.51135</value>
                </Data>
                <Data name="longitude">
                    <value>73.97661</value>
                </Data>
                <Data name="photo_1">
                    <value>DCIM/20220315101757400.jpg</value>
                </Data>
                <Data name="photo_2">
                    <value>DCIM/20220315101900866.jpg</value>
                </Data>
                <Data name="constituency">
                    <value>20 - Priol</value>
                </Data>
                <Data name="status">
                    <value>Completed</value>
                </Data>
                <Data name="panchayat">
                    <value>Betqui, Candola</value>
                </Data>
                <Data name="wb_type">
                    <value>Tank</value>
                </Data>
                <Data name="owner_type">
                    <value>Public</value>
                </Data>
                <Data name="purpose">
                    <value>Natural Collection</value>
                </Data>
                <Data name="construction">
                    <value>Natural</value>
                </Data>
                <Data name="condition">
                    <value>Needs Maintenance</value>
                </Data>
                <Data name="print_order">
                    <value>077</value>
                </Data>
                <Data name="wb_id">
                    <value>Po/Cala/04</value>
                </Data>
                <Data name="storage_capacity">
                    <value>890.0</value>
                </Data>
                <Data name="wb_surface_id">
                    <value>2809</value>
                </Data>
                <Data name="created_at">
                    <value>2020-02-28 15:24:34</value>
                </Data>
                <Data name="updated_at">
                    <value>2023-07-22 14:03:14.307690</value>
                </Data>
                <Data name="book_id">
                    <value>2</value>
                </Data>
                <Data name="owners">
                    <value>Executive Engineer, Works Division XVIII (R-N), PWD, Ponda</value>
                </Data>
                <Data name="label_x">
                    <value>1004136.0</value>
                </Data>
                <Data name="label_y">
                    <value>1013172.58237607</value>
                </Data>
            </ExtendedData>
            <Point id="32557">
                <coordinates>73.976613107,15.511351744,0.0</coordinates>
            </Point>
        </Placemark>
        <Placemark id="32590">
            <ExtendedData>
                <Data name="direction">
                    <value>https://maps.google.com?q=15.51658,73.96571&amp;t=h</value>
                </Data>
                <Data name="id">
                    <value>4599</value>
                </Data>
                <Data name="name">
                    <value>Hodyo Bhat</value>
                </Data>
                <Data name="taluka">
                    <value>Ponda</value>
                </Data>
                <Data name="syno">
                    <value>114</value>
                </Data>
                <Data name="subdiv">
                    <value>4</value>
                </Data>
                <Data name="village">
                    <value>Candola</value>
                </Data>
                <Data name="latitude">
                    <value>15.51658</value>
                </Data>
                <Data name="longitude">
                    <value>73.96571</value>
                </Data>
                <Data name="photo_1">
                    <value>DCIM/20220315043017596.jpg</value>
                </Data>
                <Data name="photo_2">
                    <value>DCIM/20220315100025979.jpg</value>
                </Data>
                <Data name="constituency">
                    <value>20 - Priol</value>
                </Data>
                <Data name="status">
                    <value>Completed</value>
                </Data>
                <Data name="panchayat">
                    <value>Betqui, Candola</value>
                </Data>
                <Data name="wb_type">
                    <value>Tank</value>
                </Data>
                <Data name="owner_type">
                    <value>Communidade / Pvt</value>
                </Data>
                <Data name="purpose">
                    <value>Irrigation</value>
                </Data>
                <Data name="construction">
                    <value>Man Made</value>
                </Data>
                <Data name="condition">
                    <value>Needs Maintenance</value>
                </Data>
                <Data name="print_order">
                    <value>082</value>
                </Data>
                <Data name="wb_id">
                    <value>Po/Cala/12</value>
                </Data>
                <Data name="storage_capacity">
                    <value>255.0</value>
                </Data>
                <Data name="wb_surface_id">
                    <value>3694</value>
                </Data>
                <Data name="created_at">
                    <value>2022-03-15 00:00:00</value>
                </Data>
                <Data name="updated_at">
                    <value>2023-07-22 14:03:14.307690</value>
                </Data>
                <Data name="book_id">
                    <value>2</value>
                </Data>
                <Data name="owners">
                    <value>Gajanan Shrinivas Lavande
Jagdishchandra Mahadeo Sinai Khandeparkr
[Communidade Khandole]</value>
                </Data>
                <Data name="label_x">
                    <value>989975.0</value>
                </Data>
                <Data name="label_y">
                    <value>1014857.581436924</value>
                </Data>
            </ExtendedData>
            <Point id="32589">
                <coordinates>73.96571,15.516581667,0.0</coordinates>
            </Point>
        </Placemark>
        <Placemark id="32622">
            <ExtendedData>
                <Data name="direction">
                    <value>https://maps.google.com?q=15.51245,73.97645&amp;t=h</value>
                </Data>
                <Data name="id">
                    <value>265</value>
                </Data>
                <Data name="name">
                    <value>Devla Malo</value>
                </Data>
                <Data name="taluka">
                    <value>Ponda</value>
                </Data>
                <Data name="syno">
                    <value>94</value>
                </Data>
                <Data name="subdiv">
                    <value>0</value>
                </Data>
                <Data name="village">
                    <value>Candola</value>
                </Data>
                <Data name="latitude">
                    <value>15.51245</value>
                </Data>
                <Data name="longitude">
                    <value>73.97645</value>
                </Data>
                <Data name="photo_1">
                    <value>DCIM/20220315101257211.jpg</value>
                </Data>
                <Data name="photo_2">
                    <value>DCIM/20220315101319982.jpg</value>
                </Data>
                <Data name="constituency">
                    <value>20 - Priol</value>
                </Data>
                <Data name="status">
                    <value>Completed</value>
                </Data>
                <Data name="panchayat">
                    <value>Betqui, Candola</value>
                </Data>
                <Data name="wb_type">
                    <value>Tank</value>
                </Data>
                <Data name="owner_type">
                    <value>Private</value>
                </Data>
                <Data name="purpose">
                    <value>Irrigation</value>
                </Data>
                <Data name="construction">
                    <value>Natural/Man Made</value>
                </Data>
                <Data name="condition">
                    <value>Good</value>
                </Data>
                <Data name="print_order">
                    <value>080</value>
                </Data>
                <Data name="wb_id">
                    <value>Po/Cala/10</value>
                </Data>
                <Data name="storage_capacity">
                    <value>329.0</value>
                </Data>
                <Data name="wb_surface_id">
                    <value>2811</value>
                </Data>
                <Data name="created_at">
                    <value>2020-02-28 15:24:34</value>
                </Data>
                <Data name="updated_at">
                    <value>2023-07-22 14:03:14.307690</value>
                </Data>
                <Data name="book_id">
                    <value>2</value>
                </Data>
                <Data name="owners">
                    <value>Devidas Purshottam Savoikar
Ganpati Purshottam Savoikar
Vassudeo Purshottam Savoikar</value>
                </Data>
                <Data name="label_x">
                    <value>1004136.0</value>
                </Data>
                <Data name="label_y">
                    <value>1013672.58237607</value>
                </Data>
            </ExtendedData>
            <Point id="32621">
                <coordinates>73.976451014,15.51244554,0.0</coordinates>
            </Point>
        </Placemark>
        <Placemark id="32654">
            <ExtendedData>
                <Data name="direction">
                    <value>https://maps.google.com?q=15.51507,73.96698&amp;t=h</value>
                </Data>
                <Data name="id">
                    <value>260</value>
                </Data>
                <Data name="name">
                    <value>Hodya Bhat</value>
                </Data>
                <Data name="taluka">
                    <value>Ponda</value>
                </Data>
                <Data name="syno">
                    <value>114</value>
                </Data>
                <Data name="subdiv">
                    <value>2</value>
                </Data>
                <Data name="village">
                    <value>Candola</value>
                </Data>
                <Data name="latitude">
                    <value>15.51507</value>
                </Data>
                <Data name="longitude">
                    <value>73.96698</value>
                </Data>
                <Data name="photo_1">
                    <value>DCIM/20220315094520777.jpg</value>
                </Data>
                <Data name="photo_2">
                    <value>DCIM/20220315094533543.jpg</value>
                </Data>
                <Data name="constituency">
                    <value>20 - Priol</value>
                </Data>
                <Data name="status">
                    <value>Completed</value>
                </Data>
                <Data name="panchayat">
                    <value>Betqui, Candola</value>
                </Data>
                <Data name="wb_type">
                    <value>Tank</value>
                </Data>
                <Data name="owner_type">
                    <value>Private</value>
                </Data>
                <Data name="purpose">
                    <value>Irrigation</value>
                </Data>
                <Data name="construction">
                    <value>Man Made</value>
                </Data>
                <Data name="condition">
                    <value>Needs Maintenance</value>
                </Data>
                <Data name="print_order">
                    <value>076</value>
                </Data>
                <Data name="wb_id">
                    <value>Po/Cala/03</value>
                </Data>
                <Data name="storage_capacity">
                    <value>1040.0</value>
                </Data>
                <Data name="wb_surface_id">
                    <value>2841</value>
                </Data>
                <Data name="created_at">
                    <value>2020-02-28 15:24:34</value>
                </Data>
                <Data name="updated_at">
                    <value>2023-07-22 14:03:14.307690</value>
                </Data>
                <Data name="book_id">
                    <value>2</value>
                </Data>
                <Data name="owners">
                    <value>Gajanan Shrinivas Lawande
Jagdishchandra Mahadeo Sinai Khandeparkr</value>
                </Data>
                <Data name="label_x">
                    <value>989975.0</value>
                </Data>
                <Data name="label_y">
                    <value>1014357.581436924</value>
                </Data>
            </ExtendedData>
            <Point id="32653">
                <coordinates>73.966978474,15.515070652,0.0</coordinates>
            </Point>
        </Placemark>
        <Placemark id="32686">
            <ExtendedData>
                <Data name="direction">
                    <value>https://maps.google.com?q=15.5092,73.97974&amp;t=h</value>
                </Data>
                <Data name="id">
                    <value>4603</value>
                </Data>
                <Data name="name">
                    <value>Tamsil</value>
                </Data>
                <Data name="taluka">
                    <value>Ponda</value>
                </Data>
                <Data name="syno">
                    <value>88</value>
                </Data>
                <Data name="subdiv">
                    <value>3</value>
                </Data>
                <Data name="village">
                    <value>Candola</value>
                </Data>
                <Data name="latitude">
                    <value>15.5092</value>
                </Data>
                <Data name="longitude">
                    <value>73.97974</value>
                </Data>
                <Data name="photo_1">
                    <value>DCIM/20220315062108182.jpg</value>
                </Data>
                <Data name="photo_2">
                    <value>DCIM/20220315115133181.jpg</value>
                </Data>
                <Data name="constituency">
                    <value>20 - Priol</value>
                </Data>
                <Data name="status">
                    <value>Completed</value>
                </Data>
                <Data name="panchayat">
                    <value>Betqui, Candola</value>
                </Data>
                <Data name="wb_type">
                    <value>Pond</value>
                </Data>
                <Data name="owner_type">
                    <value>Private</value>
                </Data>
                <Data name="purpose">
                    <value>Irrigation</value>
                </Data>
                <Data name="construction">
                    <value>Natural/Man Made</value>
                </Data>
                <Data name="condition">
                    <value>Good</value>
                </Data>
                <Data name="print_order">
                    <value>009</value>
                </Data>
                <Data name="wb_id">
                    <value>Po/Cala/09</value>
                </Data>
                <Data name="storage_capacity">
                    <value>463.0</value>
                </Data>
                <Data name="wb_surface_id">
                    <value>3693</value>
                </Data>
                <Data name="created_at">
                    <value>2022-03-15 00:00:00</value>
                </Data>
                <Data name="updated_at">
                    <value>2023-07-22 14:03:14.307690</value>
                </Data>
                <Data name="book_id">
                    <value>2</value>
                </Data>
                <Data name="owners">
                    <value>Dattatray Pandurang Navathe
Mahadeva Vishnu Bhat Savaikar
Narayan Vishnu Bhat Savaikar
Rama Vishnu Bhat Savaikar</value>
                </Data>
                <Data name="label_x">
                    <value>1004136.0</value>
                </Data>
                <Data name="label_y">
                    <value>1012922.58237607</value>
                </Data>
            </ExtendedData>
            <Point id="32685">
                <coordinates>73.979735872,15.509201059,0.0</coordinates>
            </Point>
        </Placemark>
    </Document>
</kml>
