<?xml version="1.0" encoding="UTF-8"?>
<kml xmlns="http://www.opengis.net/kml/2.2" xmlns:gx="http://www.google.com/kml/ext/2.2">
    <Document id="31498">
        <Placemark id="31500">
            <ExtendedData>
                <Data name="direction">
                    <value>https://maps.google.com?q=15.44297,74.03186&amp;t=h</value>
                </Data>
                <Data name="id">
                    <value>244</value>
                </Data>
                <Data name="name">
                    <value>Namosvaril Danda</value>
                </Data>
                <Data name="taluka">
                    <value>Ponda</value>
                </Data>
                <Data name="syno">
                    <value>60</value>
                </Data>
                <Data name="subdiv">
                    <value>0</value>
                </Data>
                <Data name="village">
                    <value>Candepar</value>
                </Data>
                <Data name="latitude">
                    <value>15.44297</value>
                </Data>
                <Data name="longitude">
                    <value>74.03186</value>
                </Data>
                <Data name="photo_1">
                    <value>DCIM/20220318142846535.jpg</value>
                </Data>
                <Data name="photo_2">
                    <value>DCIM/20220318142937055.jpg</value>
                </Data>
                <Data name="constituency">
                    <value>21 - Ponda</value>
                </Data>
                <Data name="status">
                    <value>Completed</value>
                </Data>
                <Data name="panchayat">
                    <value>Curti-Khandepar</value>
                </Data>
                <Data name="wb_type">
                    <value>Pond</value>
                </Data>
                <Data name="owner_type">
                    <value>Private</value>
                </Data>
                <Data name="purpose">
                    <value>Irrigation</value>
                </Data>
                <Data name="construction">
                    <value>Natural</value>
                </Data>
                <Data name="condition">
                    <value>Needs Maintenance</value>
                </Data>
                <Data name="print_order">
                    <value>056</value>
                </Data>
                <Data name="wb_id">
                    <value>Po/Capr/17</value>
                </Data>
                <Data name="storage_capacity">
                    <value>88.0</value>
                </Data>
                <Data name="wb_surface_id">
                    <value>3067</value>
                </Data>
                <Data name="created_at">
                    <value>2020-02-28 15:24:34</value>
                </Data>
                <Data name="updated_at">
                    <value>2023-07-22 14:03:14.307690</value>
                </Data>
                <Data name="book_id">
                    <value>1</value>
                </Data>
                <Data name="owners">
                    <value>Jagadischandra Mahadeo Sinai Khande-
parkar</value>
                </Data>
                <Data name="label_x">
                    <value>1013004.0</value>
                </Data>
                <Data name="label_y">
                    <value>1008518.7886671748</value>
                </Data>
            </ExtendedData>
            <Point id="31499">
                <coordinates>74.031862095,15.442965998,0.0</coordinates>
            </Point>
        </Placemark>
        <Placemark id="31532">
            <ExtendedData>
                <Data name="direction">
                    <value>https://maps.google.com?q=15.40969,74.04884&amp;t=h</value>
                </Data>
                <Data name="id">
                    <value>4489</value>
                </Data>
                <Data name="name">
                    <value>Agnotri or Upadia</value>
                </Data>
                <Data name="taluka">
                    <value>Ponda</value>
                </Data>
                <Data name="syno">
                    <value>146</value>
                </Data>
                <Data name="subdiv">
                    <value>2</value>
                </Data>
                <Data name="village">
                    <value>Candepar</value>
                </Data>
                <Data name="latitude">
                    <value>15.40969</value>
                </Data>
                <Data name="longitude">
                    <value>74.04884</value>
                </Data>
                <Data name="photo_1">
                    <value>DCIM/20220320114236522.jpg</value>
                </Data>
                <Data name="photo_2">
                    <value>DCIM/20220320114254417.jpg</value>
                </Data>
                <Data name="constituency">
                    <value>21 - Ponda</value>
                </Data>
                <Data name="status">
                    <value>Completed</value>
                </Data>
                <Data name="panchayat">
                    <value>Curti-Khandepar</value>
                </Data>
                <Data name="wb_type">
                    <value>Pond</value>
                </Data>
                <Data name="owner_type">
                    <value>Private</value>
                </Data>
                <Data name="purpose">
                    <value>Irrigation</value>
                </Data>
                <Data name="construction">
                    <value>Man Made</value>
                </Data>
                <Data name="condition">
                    <value>Good</value>
                </Data>
                <Data name="print_order">
                    <value>055</value>
                </Data>
                <Data name="wb_id">
                    <value>Po/Capr/14</value>
                </Data>
                <Data name="storage_capacity">
                    <value>115.0</value>
                </Data>
                <Data name="wb_surface_id">
                    <value>3576</value>
                </Data>
                <Data name="created_at">
                    <value>2022-02-21 05:00:47.899950</value>
                </Data>
                <Data name="updated_at">
                    <value>2023-07-22 14:03:14.307690</value>
                </Data>
                <Data name="book_id">
                    <value>1</value>
                </Data>
                <Data name="owners">
                    <value>Janardhan Tato Bhat Gaonkar
Laximi Vishnu Gawde</value>
                </Data>
                <Data name="label_x">
                    <value>1013004.0</value>
                </Data>
                <Data name="label_y">
                    <value>1004701.0129075972</value>
                </Data>
            </ExtendedData>
            <Point id="31531">
                <coordinates>74.048836009,15.409685786,0.0</coordinates>
            </Point>
        </Placemark>
        <Placemark id="31564">
            <ExtendedData>
                <Data name="direction">
                    <value>https://maps.google.com?q=15.44262,74.02786&amp;t=h</value>
                </Data>
                <Data name="id">
                    <value>2639</value>
                </Data>
                <Data name="name">
                    <value>In the property of Rohidas Kashinath Gaude, Sukdulem</value>
                </Data>
                <Data name="taluka">
                    <value>Ponda</value>
                </Data>
                <Data name="syno">
                    <value>50</value>
                </Data>
                <Data name="subdiv">
                    <value>5</value>
                </Data>
                <Data name="village">
                    <value>Candepar</value>
                </Data>
                <Data name="latitude">
                    <value>15.44262</value>
                </Data>
                <Data name="longitude">
                    <value>74.02786</value>
                </Data>
                <Data name="photo_1">
                    <value>DCIM/20220318141143781.jpg</value>
                </Data>
                <Data name="photo_2">
                    <value>DCIM/20220318141210218.jpg</value>
                </Data>
                <Data name="constituency">
                    <value>21 - Ponda</value>
                </Data>
                <Data name="status">
                    <value>Completed</value>
                </Data>
                <Data name="panchayat">
                    <value>Curti-Khandepar</value>
                </Data>
                <Data name="wb_type">
                    <value>Pond</value>
                </Data>
                <Data name="owner_type">
                    <value>Private</value>
                </Data>
                <Data name="purpose">
                    <value>Irrigation</value>
                </Data>
                <Data name="construction">
                    <value>Natural/Man Made</value>
                </Data>
                <Data name="condition">
                    <value>Good</value>
                </Data>
                <Data name="print_order">
                    <value>052</value>
                </Data>
                <Data name="wb_id">
                    <value>Po/Capr/08</value>
                </Data>
                <Data name="storage_capacity">
                    <value>241.0</value>
                </Data>
                <Data name="wb_surface_id">
                    <value>3037</value>
                </Data>
                <Data name="created_at">
                    <value>2020-03-26 07:41:03</value>
                </Data>
                <Data name="updated_at">
                    <value>2023-07-22 14:03:14.307690</value>
                </Data>
                <Data name="book_id">
                    <value>1</value>
                </Data>
                <Data name="owners">
                    <value>2) Jagadishchandra Mahadeo Sinai
Babani Gopal Gaude
Babuso Gopal Gaude
Kashinath Gopal Gaude
Khandeparkar
Mohan Balkrishna Sinai Khandeparkar</value>
                </Data>
                <Data name="label_x">
                    <value>1013004.0</value>
                </Data>
                <Data name="label_y">
                    <value>1009007.6834742329</value>
                </Data>
            </ExtendedData>
            <Point id="31563">
                <coordinates>74.027855829,15.442616225,0.0</coordinates>
            </Point>
        </Placemark>
        <Placemark id="31596">
            <ExtendedData>
                <Data name="direction">
                    <value>https://maps.google.com?q=15.40941,74.04864&amp;t=h</value>
                </Data>
                <Data name="id">
                    <value>4488</value>
                </Data>
                <Data name="name">
                    <value>Upadia</value>
                </Data>
                <Data name="taluka">
                    <value>Ponda</value>
                </Data>
                <Data name="syno">
                    <value>146</value>
                </Data>
                <Data name="subdiv">
                    <value>5</value>
                </Data>
                <Data name="village">
                    <value>Candepar</value>
                </Data>
                <Data name="latitude">
                    <value>15.40941</value>
                </Data>
                <Data name="longitude">
                    <value>74.04864</value>
                </Data>
                <Data name="photo_1">
                    <value>DCIM/20220320114406035.jpg</value>
                </Data>
                <Data name="photo_2">
                    <value>DCIM/20220320114425466.jpg</value>
                </Data>
                <Data name="constituency">
                    <value>21 - Ponda</value>
                </Data>
                <Data name="status">
                    <value>Completed</value>
                </Data>
                <Data name="panchayat">
                    <value>Curti-Khandepar</value>
                </Data>
                <Data name="wb_type">
                    <value>Tank</value>
                </Data>
                <Data name="owner_type">
                    <value>Private</value>
                </Data>
                <Data name="purpose">
                    <value>Irrigation</value>
                </Data>
                <Data name="construction">
                    <value>Man Made</value>
                </Data>
                <Data name="condition">
                    <value>Needs Maintenance</value>
                </Data>
                <Data name="print_order">
                    <value>130</value>
                </Data>
                <Data name="wb_id">
                    <value>Po/Capr/10</value>
                </Data>
                <Data name="storage_capacity">
                    <value>163.0</value>
                </Data>
                <Data name="wb_surface_id">
                    <value>3575</value>
                </Data>
                <Data name="created_at">
                    <value>2022-02-21 05:00:47.899950</value>
                </Data>
                <Data name="updated_at">
                    <value>2023-07-22 14:03:14.307690</value>
                </Data>
                <Data name="book_id">
                    <value>1</value>
                </Data>
                <Data name="owners">
                    <value>Gajanan Molu Gaude</value>
                </Data>
                <Data name="label_x">
                    <value>1013004.0</value>
                </Data>
                <Data name="label_y">
                    <value>1004424.2366800959</value>
                </Data>
            </ExtendedData>
            <Point id="31595">
                <coordinates>74.048641218,15.409408048,0.0</coordinates>
            </Point>
        </Placemark>
        <Placemark id="31628">
            <ExtendedData>
                <Data name="direction">
                    <value>https://maps.google.com?q=15.44345,74.0316&amp;t=h</value>
                </Data>
                <Data name="id">
                    <value>4627</value>
                </Data>
                <Data name="name">
                    <value>Puranik Dando</value>
                </Data>
                <Data name="taluka">
                    <value>Ponda</value>
                </Data>
                <Data name="syno">
                    <value>57</value>
                </Data>
                <Data name="subdiv">
                    <value>2</value>
                </Data>
                <Data name="village">
                    <value>Candepar</value>
                </Data>
                <Data name="latitude">
                    <value>15.44345</value>
                </Data>
                <Data name="longitude">
                    <value>74.0316</value>
                </Data>
                <Data name="photo_1">
                    <value>DCIM/20220318090056450.jpg</value>
                </Data>
                <Data name="photo_2">
                    <value>DCIM/20220318090132454.jpg</value>
                </Data>
                <Data name="constituency">
                    <value>21 - Ponda</value>
                </Data>
                <Data name="status">
                    <value>Completed</value>
                </Data>
                <Data name="panchayat">
                    <value>Curti-Khandepar</value>
                </Data>
                <Data name="wb_type">
                    <value>Pond</value>
                </Data>
                <Data name="owner_type">
                    <value>Private</value>
                </Data>
                <Data name="purpose">
                    <value>Irrigation</value>
                </Data>
                <Data name="construction">
                    <value>Natural</value>
                </Data>
                <Data name="condition">
                    <value>Needs Maintenance</value>
                </Data>
                <Data name="print_order">
                    <value>060</value>
                </Data>
                <Data name="wb_id">
                    <value>Po/Capr/25</value>
                </Data>
                <Data name="storage_capacity">
                    <value>17.0</value>
                </Data>
                <Data name="wb_surface_id">
                    <value>3718</value>
                </Data>
                <Data name="created_at">
                    <value>2022-03-18 00:00:00</value>
                </Data>
                <Data name="updated_at">
                    <value>2023-07-22 14:03:14.307690</value>
                </Data>
                <Data name="book_id">
                    <value>1</value>
                </Data>
                <Data name="owners">
                    <value>Jagadischandra Mahadeo Sinai Khande-
Suresh Naro Gaude
Uttam Naro Gaude
parkar</value>
                </Data>
                <Data name="label_x">
                    <value>1013004.0</value>
                </Data>
                <Data name="label_y">
                    <value>1009251.0203584676</value>
                </Data>
            </ExtendedData>
            <Point id="31627">
                <coordinates>74.031595,15.443451667,0.0</coordinates>
            </Point>
        </Placemark>
        <Placemark id="31660">
            <ExtendedData>
                <Data name="direction">
                    <value>https://maps.google.com?q=15.40632,74.04591&amp;t=h</value>
                </Data>
                <Data name="id">
                    <value>4633</value>
                </Data>
                <Data name="name">
                    <value>Vadem Azalaboim</value>
                </Data>
                <Data name="taluka">
                    <value>Ponda</value>
                </Data>
                <Data name="syno">
                    <value>126</value>
                </Data>
                <Data name="subdiv">
                    <value>1</value>
                </Data>
                <Data name="village">
                    <value>Candepar</value>
                </Data>
                <Data name="latitude">
                    <value>15.40632</value>
                </Data>
                <Data name="longitude">
                    <value>74.04591</value>
                </Data>
                <Data name="photo_1">
                    <value>DCIM/20220320113130983.jpg</value>
                </Data>
                <Data name="photo_2">
                    <value>DCIM/20220320113140104.jpg</value>
                </Data>
                <Data name="constituency">
                    <value>21 - Ponda</value>
                </Data>
                <Data name="status">
                    <value>Completed</value>
                </Data>
                <Data name="panchayat">
                    <value>Curti-Khandepar</value>
                </Data>
                <Data name="wb_type">
                    <value>Pond</value>
                </Data>
                <Data name="owner_type">
                    <value>Private / Public</value>
                </Data>
                <Data name="purpose">
                    <value>Irrigation</value>
                </Data>
                <Data name="construction">
                    <value>Man Made</value>
                </Data>
                <Data name="condition">
                    <value>Needs Maintenance</value>
                </Data>
                <Data name="print_order">
                    <value>059</value>
                </Data>
                <Data name="wb_id">
                    <value>Po/Capr/24</value>
                </Data>
                <Data name="storage_capacity">
                    <value>19.0</value>
                </Data>
                <Data name="wb_surface_id">
                    <value>3706</value>
                </Data>
                <Data name="created_at">
                    <value>2022-03-20 00:00:00</value>
                </Data>
                <Data name="updated_at">
                    <value>2023-07-22 14:03:14.307690</value>
                </Data>
                <Data name="book_id">
                    <value>1</value>
                </Data>
                <Data name="owners">
                    <value>Anand Gajanan Gaude
Govt.Goa,Executive Engineer, Works Div
Krishna Sagun Gaude
Lalan Laximikant Gaude
Laximikant Anant Gaude
Prasad Krishna Gaude
Rekha Vithoba Ghadi
Uday Anant Gaude
Urmila Uday Gaude
Vaishali Vishwas Gaude
Vishwas Anant Gaude
Vithoba Ghadi
XVIII (R&amp;B) P.W.D.Ponda
Zingo L.Gaudo</value>
                </Data>
                <Data name="label_x">
                    <value>1013004.0</value>
                </Data>
                <Data name="label_y">
                    <value>1003844.7048874835</value>
                </Data>
            </ExtendedData>
            <Point id="31659">
                <coordinates>74.045911667,15.406315,0.0</coordinates>
            </Point>
        </Placemark>
        <Placemark id="31692">
            <ExtendedData>
                <Data name="direction">
                    <value>https://maps.google.com?q=15.40763,74.04547&amp;t=h</value>
                </Data>
                <Data name="id">
                    <value>4634</value>
                </Data>
                <Data name="name">
                    <value>Chowgule Godgodi</value>
                </Data>
                <Data name="taluka">
                    <value>Ponda</value>
                </Data>
                <Data name="syno">
                    <value>122</value>
                </Data>
                <Data name="subdiv">
                    <value>0</value>
                </Data>
                <Data name="village">
                    <value>Candepar</value>
                </Data>
                <Data name="latitude">
                    <value>15.40763</value>
                </Data>
                <Data name="longitude">
                    <value>74.04547</value>
                </Data>
                <Data name="photo_1">
                    <value>DCIM/20220320113428693.jpg</value>
                </Data>
                <Data name="photo_2">
                    <value>DCIM/20220320113437568.jpg</value>
                </Data>
                <Data name="constituency">
                    <value>21 - Ponda</value>
                </Data>
                <Data name="status">
                    <value>Completed</value>
                </Data>
                <Data name="panchayat">
                    <value>Curti-Khandepar</value>
                </Data>
                <Data name="wb_type">
                    <value>Tank</value>
                </Data>
                <Data name="owner_type">
                    <value>Private</value>
                </Data>
                <Data name="purpose">
                    <value>Irrigation</value>
                </Data>
                <Data name="construction">
                    <value>Man Made</value>
                </Data>
                <Data name="condition">
                    <value>Needs Maintenance</value>
                </Data>
                <Data name="print_order">
                    <value>131</value>
                </Data>
                <Data name="wb_id">
                    <value>Po/Capr/15</value>
                </Data>
                <Data name="storage_capacity">
                    <value>110.0</value>
                </Data>
                <Data name="wb_surface_id">
                    <value>3707</value>
                </Data>
                <Data name="created_at">
                    <value>2022-03-20 00:00:00</value>
                </Data>
                <Data name="updated_at">
                    <value>2023-07-22 14:03:14.307690</value>
                </Data>
                <Data name="book_id">
                    <value>1</value>
                </Data>
                <Data name="owners">
                    <value>1) Gopal Krishna Pandurang Desai
2) Devidas Pandurang Desai
3) Saraswati Dattaram Desai</value>
                </Data>
                <Data name="label_x">
                    <value>1013004.0</value>
                </Data>
                <Data name="label_y">
                    <value>1004148.2573424863</value>
                </Data>
            </ExtendedData>
            <Point id="31691">
                <coordinates>74.045467088,15.407628334,0.0</coordinates>
            </Point>
        </Placemark>
        <Placemark id="31724">
            <ExtendedData>
                <Data name="direction">
                    <value>https://maps.google.com?q=15.42547,74.03363&amp;t=h</value>
                </Data>
                <Data name="id">
                    <value>247</value>
                </Data>
                <Data name="name">
                    <value>Panchame Tank; Paythal Tallyakanth</value>
                </Data>
                <Data name="taluka">
                    <value>Ponda</value>
                </Data>
                <Data name="syno">
                    <value>85</value>
                </Data>
                <Data name="subdiv">
                    <value>0</value>
                </Data>
                <Data name="village">
                    <value>Candepar</value>
                </Data>
                <Data name="latitude">
                    <value>15.42547</value>
                </Data>
                <Data name="longitude">
                    <value>74.03363</value>
                </Data>
                <Data name="photo_1">
                    <value>DCIM/20220320154235144.jpg</value>
                </Data>
                <Data name="photo_2">
                    <value>DCIM/20220320154255216.jpg</value>
                </Data>
                <Data name="constituency">
                    <value>21 - Ponda</value>
                </Data>
                <Data name="status">
                    <value>Completed</value>
                </Data>
                <Data name="panchayat">
                    <value>Curti-Khandepar</value>
                </Data>
                <Data name="wb_type">
                    <value>Lake</value>
                </Data>
                <Data name="owner_type">
                    <value>Public</value>
                </Data>
                <Data name="purpose">
                    <value>Irrigation</value>
                </Data>
                <Data name="construction">
                    <value>Natural</value>
                </Data>
                <Data name="condition">
                    <value>Good</value>
                </Data>
                <Data name="print_order">
                    <value>005</value>
                </Data>
                <Data name="wb_id">
                    <value>Po/Capr/01</value>
                </Data>
                <Data name="storage_capacity">
                    <value>13094.0</value>
                </Data>
                <Data name="wb_surface_id">
                    <value>381</value>
                </Data>
                <Data name="created_at">
                    <value>2020-02-28 15:24:34</value>
                </Data>
                <Data name="updated_at">
                    <value>2023-07-22 14:03:14.307690</value>
                </Data>
                <Data name="book_id">
                    <value>1</value>
                </Data>
                <Data name="owners">
                    <value>Government</value>
                </Data>
                <Data name="label_x">
                    <value>1013004.0</value>
                </Data>
                <Data name="label_y">
                    <value>1007093.9438990002</value>
                </Data>
            </ExtendedData>
            <Point id="31723">
                <coordinates>74.033628891,15.425473572,0.0</coordinates>
            </Point>
        </Placemark>
        <Placemark id="31756">
            <ExtendedData>
                <Data name="direction">
                    <value>https://maps.google.com?q=15.41107,74.04974&amp;t=h</value>
                </Data>
                <Data name="id">
                    <value>4492</value>
                </Data>
                <Data name="name">
                    <value>Poidar Rumod</value>
                </Data>
                <Data name="taluka">
                    <value>Ponda</value>
                </Data>
                <Data name="syno">
                    <value>142</value>
                </Data>
                <Data name="subdiv">
                    <value>1</value>
                </Data>
                <Data name="village">
                    <value>Candepar</value>
                </Data>
                <Data name="latitude">
                    <value>15.41107</value>
                </Data>
                <Data name="longitude">
                    <value>74.04974</value>
                </Data>
                <Data name="photo_1">
                    <value>DCIM/20220320115214348.jpg</value>
                </Data>
                <Data name="photo_2">
                    <value>DCIM/20220320115310885.jpg</value>
                </Data>
                <Data name="constituency">
                    <value>21 - Ponda</value>
                </Data>
                <Data name="status">
                    <value>Completed</value>
                </Data>
                <Data name="panchayat">
                    <value>Curti-Khandepar</value>
                </Data>
                <Data name="wb_type">
                    <value>Pond</value>
                </Data>
                <Data name="owner_type">
                    <value>Private / Public</value>
                </Data>
                <Data name="purpose">
                    <value>Irrigation</value>
                </Data>
                <Data name="construction">
                    <value>Natural/Man Made</value>
                </Data>
                <Data name="condition">
                    <value>Good</value>
                </Data>
                <Data name="print_order">
                    <value>057</value>
                </Data>
                <Data name="wb_id">
                    <value>Po/Capr/21</value>
                </Data>
                <Data name="storage_capacity">
                    <value>31.0</value>
                </Data>
                <Data name="wb_surface_id">
                    <value>3579</value>
                </Data>
                <Data name="created_at">
                    <value>2022-02-21 05:00:47.899950</value>
                </Data>
                <Data name="updated_at">
                    <value>2023-07-22 14:03:14.307690</value>
                </Data>
                <Data name="book_id">
                    <value>1</value>
                </Data>
                <Data name="owners">
                    <value>Krishnanath Janardhan Gaokar
Govt.of Goa,Executive Engineer Works Div.XVIII (R&amp;B)P.W.D. Ponda
Keshav Molu Gaude
Gulabi Keshav Gaude</value>
                </Data>
                <Data name="label_x">
                    <value>1013004.0</value>
                </Data>
                <Data name="label_y">
                    <value>1005464.401021348</value>
                </Data>
            </ExtendedData>
            <Point id="31755">
                <coordinates>74.049736256,15.411068637,0.0</coordinates>
            </Point>
        </Placemark>
        <Placemark id="31788">
            <ExtendedData>
                <Data name="direction">
                    <value>https://maps.google.com?q=15.43313,74.03077&amp;t=h</value>
                </Data>
                <Data name="id">
                    <value>4638</value>
                </Data>
                <Data name="name">
                    <value>Dalke</value>
                </Data>
                <Data name="taluka">
                    <value>Ponda</value>
                </Data>
                <Data name="syno">
                    <value>196</value>
                </Data>
                <Data name="subdiv">
                    <value>0</value>
                </Data>
                <Data name="village">
                    <value>Candepar</value>
                </Data>
                <Data name="latitude">
                    <value>15.43313</value>
                </Data>
                <Data name="longitude">
                    <value>74.03077</value>
                </Data>
                <Data name="photo_1">
                    <value>DCIM/20220320160853231.jpg</value>
                </Data>
                <Data name="photo_2">
                    <value>DCIM/20220320160925791.jpg</value>
                </Data>
                <Data name="constituency">
                    <value>21 - Ponda</value>
                </Data>
                <Data name="status">
                    <value>Completed</value>
                </Data>
                <Data name="panchayat">
                    <value>Curti-Khandepar</value>
                </Data>
                <Data name="wb_type">
                    <value>Pond</value>
                </Data>
                <Data name="owner_type">
                    <value>Public</value>
                </Data>
                <Data name="purpose">
                    <value>Irrigation</value>
                </Data>
                <Data name="construction">
                    <value>Natural/Man Made</value>
                </Data>
                <Data name="condition">
                    <value>Needs Maintenance</value>
                </Data>
                <Data name="print_order">
                    <value>051</value>
                </Data>
                <Data name="wb_id">
                    <value>Po/Capr/07</value>
                </Data>
                <Data name="storage_capacity">
                    <value>340.0</value>
                </Data>
                <Data name="wb_surface_id">
                    <value>3711</value>
                </Data>
                <Data name="created_at">
                    <value>2022-03-20 00:00:00</value>
                </Data>
                <Data name="updated_at">
                    <value>2023-07-22 14:03:14.307690</value>
                </Data>
                <Data name="book_id">
                    <value>1</value>
                </Data>
                <Data name="owners">
                    <value>Governmant of Goa Daman and Diu</value>
                </Data>
                <Data name="label_x">
                    <value>1013004.0</value>
                </Data>
                <Data name="label_y">
                    <value>1007571.7335131163</value>
                </Data>
            </ExtendedData>
            <Point id="31787">
                <coordinates>74.030765,15.433125,0.0</coordinates>
            </Point>
        </Placemark>
        <Placemark id="31820">
            <ExtendedData>
                <Data name="direction">
                    <value>https://maps.google.com?q=15.40093,74.04392&amp;t=h</value>
                </Data>
                <Data name="id">
                    <value>4631</value>
                </Data>
                <Data name="name">
                    <value>Tollem</value>
                </Data>
                <Data name="taluka">
                    <value>Ponda</value>
                </Data>
                <Data name="syno">
                    <value>132</value>
                </Data>
                <Data name="subdiv">
                    <value>1</value>
                </Data>
                <Data name="village">
                    <value>Candepar</value>
                </Data>
                <Data name="latitude">
                    <value>15.40093</value>
                </Data>
                <Data name="longitude">
                    <value>74.04392</value>
                </Data>
                <Data name="photo_1">
                    <value>DCIM/20220320112143732.jpg</value>
                </Data>
                <Data name="photo_2">
                    <value>DCIM/20220320112205291.jpg</value>
                </Data>
                <Data name="constituency">
                    <value>21 - Ponda</value>
                </Data>
                <Data name="status">
                    <value>Completed</value>
                </Data>
                <Data name="panchayat">
                    <value>Curti-Khandepar</value>
                </Data>
                <Data name="wb_type">
                    <value>Tank</value>
                </Data>
                <Data name="owner_type">
                    <value>Private</value>
                </Data>
                <Data name="purpose">
                    <value>Irrigation</value>
                </Data>
                <Data name="construction">
                    <value>Man Made</value>
                </Data>
                <Data name="condition">
                    <value>Good</value>
                </Data>
                <Data name="print_order">
                    <value>133</value>
                </Data>
                <Data name="wb_id">
                    <value>Po/Capr/22</value>
                </Data>
                <Data name="storage_capacity">
                    <value>28.0</value>
                </Data>
                <Data name="wb_surface_id">
                    <value>3712</value>
                </Data>
                <Data name="created_at">
                    <value>2022-03-20 00:00:00</value>
                </Data>
                <Data name="updated_at">
                    <value>2023-07-22 14:03:14.307690</value>
                </Data>
                <Data name="book_id">
                    <value>1</value>
                </Data>
                <Data name="owners">
                    <value>Sanjiv Narayan Desai</value>
                </Data>
                <Data name="label_x">
                    <value>1013004.0</value>
                </Data>
                <Data name="label_y">
                    <value>1003103.718839972</value>
                </Data>
            </ExtendedData>
            <Point id="31819">
                <coordinates>74.043918333,15.400933333,0.0</coordinates>
            </Point>
        </Placemark>
        <Placemark id="31852">
            <ExtendedData>
                <Data name="direction">
                    <value>https://maps.google.com?q=15.41877,74.04126&amp;t=h</value>
                </Data>
                <Data name="id">
                    <value>251</value>
                </Data>
                <Data name="name">
                    <value>Parama Toli</value>
                </Data>
                <Data name="taluka">
                    <value>Ponda</value>
                </Data>
                <Data name="syno">
                    <value>109</value>
                </Data>
                <Data name="subdiv">
                    <value>1</value>
                </Data>
                <Data name="village">
                    <value>Candepar</value>
                </Data>
                <Data name="latitude">
                    <value>15.41877</value>
                </Data>
                <Data name="longitude">
                    <value>74.04126</value>
                </Data>
                <Data name="photo_1">
                    <value>DCIM/20220320152553092.jpg</value>
                </Data>
                <Data name="photo_2">
                    <value>DCIM/20220320152614723.jpg</value>
                </Data>
                <Data name="constituency">
                    <value>21 - Ponda</value>
                </Data>
                <Data name="status">
                    <value>Completed</value>
                </Data>
                <Data name="panchayat">
                    <value>Curti-Khandepar</value>
                </Data>
                <Data name="wb_type">
                    <value>Pond</value>
                </Data>
                <Data name="owner_type">
                    <value>Private</value>
                </Data>
                <Data name="purpose">
                    <value>Irrigation</value>
                </Data>
                <Data name="construction">
                    <value>Natural/Man Made</value>
                </Data>
                <Data name="condition">
                    <value>Needs Maintenance</value>
                </Data>
                <Data name="print_order">
                    <value>050</value>
                </Data>
                <Data name="wb_id">
                    <value>Po/Capr/06</value>
                </Data>
                <Data name="storage_capacity">
                    <value>346.0</value>
                </Data>
                <Data name="wb_surface_id">
                    <value>3179</value>
                </Data>
                <Data name="created_at">
                    <value>2020-02-28 15:24:34</value>
                </Data>
                <Data name="updated_at">
                    <value>2023-07-22 14:03:14.307690</value>
                </Data>
                <Data name="book_id">
                    <value>1</value>
                </Data>
                <Data name="owners">
                    <value>Moreshwar Pandurang Mule</value>
                </Data>
                <Data name="label_x">
                    <value>1013004.0</value>
                </Data>
                <Data name="label_y">
                    <value>1006410.2664164978</value>
                </Data>
            </ExtendedData>
            <Point id="31851">
                <coordinates>74.041263767,15.418774686,0.0</coordinates>
            </Point>
        </Placemark>
        <Placemark id="31884">
            <ExtendedData>
                <Data name="direction">
                    <value>https://maps.google.com?q=15.41436,74.03795&amp;t=h</value>
                </Data>
                <Data name="id">
                    <value>249</value>
                </Data>
                <Data name="name">
                    <value>Kungaon</value>
                </Data>
                <Data name="taluka">
                    <value>Ponda</value>
                </Data>
                <Data name="syno">
                    <value>113</value>
                </Data>
                <Data name="subdiv">
                    <value>1</value>
                </Data>
                <Data name="village">
                    <value>Candepar</value>
                </Data>
                <Data name="latitude">
                    <value>15.41436</value>
                </Data>
                <Data name="longitude">
                    <value>74.03795</value>
                </Data>
                <Data name="photo_1">
                    <value>DCIM/20220320150516220.jpg</value>
                </Data>
                <Data name="photo_2">
                    <value>DCIM/20220320150530159.jpg</value>
                </Data>
                <Data name="constituency">
                    <value>21 - Ponda</value>
                </Data>
                <Data name="status">
                    <value>Completed</value>
                </Data>
                <Data name="panchayat">
                    <value>Curti-Khandepar</value>
                </Data>
                <Data name="wb_type">
                    <value>Pond</value>
                </Data>
                <Data name="owner_type">
                    <value>Private</value>
                </Data>
                <Data name="purpose">
                    <value>Irrigation</value>
                </Data>
                <Data name="construction">
                    <value>Natural</value>
                </Data>
                <Data name="condition">
                    <value>Needs Maintenance</value>
                </Data>
                <Data name="print_order">
                    <value>053</value>
                </Data>
                <Data name="wb_id">
                    <value>Po/Capr/11</value>
                </Data>
                <Data name="storage_capacity">
                    <value>144.0</value>
                </Data>
                <Data name="wb_surface_id">
                    <value>3062</value>
                </Data>
                <Data name="created_at">
                    <value>2020-02-28 15:24:34</value>
                </Data>
                <Data name="updated_at">
                    <value>2023-07-22 14:03:14.307690</value>
                </Data>
                <Data name="book_id">
                    <value>1</value>
                </Data>
                <Data name="owners">
                    <value>Ravi Ganapat Sinai Kerkar</value>
                </Data>
                <Data name="label_x">
                    <value>1013004.0</value>
                </Data>
                <Data name="label_y">
                    <value>1005690.4756058159</value>
                </Data>
            </ExtendedData>
            <Point id="31883">
                <coordinates>74.037952682,15.414361655,0.0</coordinates>
            </Point>
        </Placemark>
        <Placemark id="31916">
            <ExtendedData>
                <Data name="direction">
                    <value>https://maps.google.com?q=15.41084,74.04983&amp;t=h</value>
                </Data>
                <Data name="id">
                    <value>4490</value>
                </Data>
                <Data name="name">
                    <value>Agnotri or Upadia</value>
                </Data>
                <Data name="taluka">
                    <value>Ponda</value>
                </Data>
                <Data name="syno">
                    <value>146</value>
                </Data>
                <Data name="subdiv">
                    <value>2</value>
                </Data>
                <Data name="village">
                    <value>Candepar</value>
                </Data>
                <Data name="latitude">
                    <value>15.41084</value>
                </Data>
                <Data name="longitude">
                    <value>74.04983</value>
                </Data>
                <Data name="photo_1">
                    <value>DCIM/20220320115405299.jpg</value>
                </Data>
                <Data name="photo_2">
                    <value>DCIM/20220320115428492.jpg</value>
                </Data>
                <Data name="constituency">
                    <value>21 - Ponda</value>
                </Data>
                <Data name="status">
                    <value>Completed</value>
                </Data>
                <Data name="panchayat">
                    <value>Curti-Khandepar</value>
                </Data>
                <Data name="wb_type">
                    <value>Tank</value>
                </Data>
                <Data name="owner_type">
                    <value>Private</value>
                </Data>
                <Data name="purpose">
                    <value>Irrigation</value>
                </Data>
                <Data name="construction">
                    <value>Man Made</value>
                </Data>
                <Data name="condition">
                    <value>Good</value>
                </Data>
                <Data name="print_order">
                    <value>132</value>
                </Data>
                <Data name="wb_id">
                    <value>Po/Capr/16</value>
                </Data>
                <Data name="storage_capacity">
                    <value>97.0</value>
                </Data>
                <Data name="wb_surface_id">
                    <value>3578</value>
                </Data>
                <Data name="created_at">
                    <value>2022-02-21 05:00:47.899950</value>
                </Data>
                <Data name="updated_at">
                    <value>2023-07-22 14:03:14.307690</value>
                </Data>
                <Data name="book_id">
                    <value>1</value>
                </Data>
                <Data name="owners">
                    <value>Janardhan Tato Bhat Gaonkar
Laximi Vishnu Gawde</value>
                </Data>
                <Data name="label_x">
                    <value>1013004.0</value>
                </Data>
                <Data name="label_y">
                    <value>1004937.6247938467</value>
                </Data>
            </ExtendedData>
            <Point id="31915">
                <coordinates>74.049826332,15.410840917,0.0</coordinates>
            </Point>
        </Placemark>
        <Placemark id="31948">
            <ExtendedData>
                <Data name="direction">
                    <value>https://maps.google.com?q=15.44271,74.03201&amp;t=h</value>
                </Data>
                <Data name="id">
                    <value>243</value>
                </Data>
                <Data name="name">
                    <value>Hall Namas and Dandechem antad</value>
                </Data>
                <Data name="taluka">
                    <value>Ponda</value>
                </Data>
                <Data name="syno">
                    <value>59</value>
                </Data>
                <Data name="subdiv">
                    <value>0</value>
                </Data>
                <Data name="village">
                    <value>Candepar</value>
                </Data>
                <Data name="latitude">
                    <value>15.44271</value>
                </Data>
                <Data name="longitude">
                    <value>74.03201</value>
                </Data>
                <Data name="photo_1">
                    <value>DCIM/20220318142728771.jpg</value>
                </Data>
                <Data name="photo_2">
                    <value>DCIM/20220318142737978.jpg</value>
                </Data>
                <Data name="constituency">
                    <value>21 - Ponda</value>
                </Data>
                <Data name="status">
                    <value>Completed</value>
                </Data>
                <Data name="panchayat">
                    <value>Curti-Khandepar</value>
                </Data>
                <Data name="wb_type">
                    <value>Tank</value>
                </Data>
                <Data name="owner_type">
                    <value>Private</value>
                </Data>
                <Data name="purpose">
                    <value>Irrigation</value>
                </Data>
                <Data name="construction">
                    <value>Man Made</value>
                </Data>
                <Data name="condition">
                    <value>Needs Maintenance</value>
                </Data>
                <Data name="print_order">
                    <value>129</value>
                </Data>
                <Data name="wb_id">
                    <value>Po/Capr/09</value>
                </Data>
                <Data name="storage_capacity">
                    <value>201.0</value>
                </Data>
                <Data name="wb_surface_id">
                    <value>3068</value>
                </Data>
                <Data name="created_at">
                    <value>2020-02-28 15:24:34</value>
                </Data>
                <Data name="updated_at">
                    <value>2023-07-22 14:03:14.307690</value>
                </Data>
                <Data name="book_id">
                    <value>1</value>
                </Data>
                <Data name="owners">
                    <value>Jagadischandra Mahadeo Sinai Khande-
parkar</value>
                </Data>
                <Data name="label_x">
                    <value>1013004.0</value>
                </Data>
                <Data name="label_y">
                    <value>1008268.7886671749</value>
                </Data>
            </ExtendedData>
            <Point id="31947">
                <coordinates>74.032014963,15.442712566,0.0</coordinates>
            </Point>
        </Placemark>
        <Placemark id="31980">
            <ExtendedData>
                <Data name="direction">
                    <value>https://maps.google.com?q=15.42552,74.03427&amp;t=h</value>
                </Data>
                <Data name="id">
                    <value>4637</value>
                </Data>
                <Data name="name">
                    <value>Agartalla Kadil</value>
                </Data>
                <Data name="taluka">
                    <value>Ponda</value>
                </Data>
                <Data name="syno">
                    <value>86</value>
                </Data>
                <Data name="subdiv">
                    <value>2</value>
                </Data>
                <Data name="village">
                    <value>Candepar</value>
                </Data>
                <Data name="latitude">
                    <value>15.42552</value>
                </Data>
                <Data name="longitude">
                    <value>74.03427</value>
                </Data>
                <Data name="photo_1">
                    <value>DCIM/20220320154541273.jpg</value>
                </Data>
                <Data name="photo_2">
                    <value>DCIM/20220320154603428.jpg</value>
                </Data>
                <Data name="constituency">
                    <value>21 - Ponda</value>
                </Data>
                <Data name="status">
                    <value>Completed</value>
                </Data>
                <Data name="panchayat">
                    <value>Curti-Khandepar</value>
                </Data>
                <Data name="wb_type">
                    <value>Tank</value>
                </Data>
                <Data name="owner_type">
                    <value>Private</value>
                </Data>
                <Data name="purpose">
                    <value>Irrigation</value>
                </Data>
                <Data name="construction">
                    <value>Man Made</value>
                </Data>
                <Data name="condition">
                    <value>Good</value>
                </Data>
                <Data name="print_order">
                    <value>127</value>
                </Data>
                <Data name="wb_id">
                    <value>Po/Capr/03</value>
                </Data>
                <Data name="storage_capacity">
                    <value>811.0</value>
                </Data>
                <Data name="wb_surface_id">
                    <value>3710</value>
                </Data>
                <Data name="created_at">
                    <value>2022-03-20 00:00:00</value>
                </Data>
                <Data name="updated_at">
                    <value>2023-07-22 14:03:14.307690</value>
                </Data>
                <Data name="book_id">
                    <value>1</value>
                </Data>
                <Data name="owners">
                    <value>Gopalchandra Mahadev Sinai Khandepar-
Ramchandra Narayan Satarkar
kar.</value>
                </Data>
                <Data name="label_x">
                    <value>1013004.0</value>
                </Data>
                <Data name="label_y">
                    <value>1006857.1158104534</value>
                </Data>
            </ExtendedData>
            <Point id="31979">
                <coordinates>74.034274696,15.425516927,0.0</coordinates>
            </Point>
        </Placemark>
        <Placemark id="32012">
            <ExtendedData>
                <Data name="direction">
                    <value>https://maps.google.com?q=15.41729,74.04084&amp;t=h</value>
                </Data>
                <Data name="id">
                    <value>4695</value>
                </Data>
                <Data name="name">
                    <value>Queriam Maicherem</value>
                </Data>
                <Data name="taluka">
                    <value>Ponda</value>
                </Data>
                <Data name="syno">
                    <value>110</value>
                </Data>
                <Data name="subdiv">
                    <value>1</value>
                </Data>
                <Data name="village">
                    <value>Candepar</value>
                </Data>
                <Data name="latitude">
                    <value>15.41729</value>
                </Data>
                <Data name="longitude">
                    <value>74.04084</value>
                </Data>
                <Data name="photo_1">
                    <value>DCIM/20220405121125072.jpg</value>
                </Data>
                <Data name="photo_2">
                    <value>DCIM/20220405121136928.jpg</value>
                </Data>
                <Data name="constituency">
                    <value>21 - Ponda</value>
                </Data>
                <Data name="status">
                    <value>Completed</value>
                </Data>
                <Data name="panchayat">
                    <value>Curti-Khandepar</value>
                </Data>
                <Data name="wb_type">
                    <value>Pond</value>
                </Data>
                <Data name="owner_type">
                    <value>Private</value>
                </Data>
                <Data name="purpose">
                    <value>Irrigation</value>
                </Data>
                <Data name="construction">
                    <value>Man Made</value>
                </Data>
                <Data name="condition">
                    <value>Good</value>
                </Data>
                <Data name="print_order">
                    <value>054</value>
                </Data>
                <Data name="wb_id">
                    <value>Po/Capr/12</value>
                </Data>
                <Data name="storage_capacity">
                    <value>131.0</value>
                </Data>
                <Data name="wb_surface_id">
                    <value>3742</value>
                </Data>
                <Data name="created_at">
                    <value>2022-04-05 00:00:00</value>
                </Data>
                <Data name="updated_at">
                    <value>2023-07-22 14:03:14.307690</value>
                </Data>
                <Data name="book_id">
                    <value>1</value>
                </Data>
                <Data name="owners">
                    <value>Madeva Balchandra Sinai Candeparkar</value>
                </Data>
                <Data name="label_x">
                    <value>1013004.0</value>
                </Data>
                <Data name="label_y">
                    <value>1006202.2089495487</value>
                </Data>
            </ExtendedData>
            <Point id="32011">
                <coordinates>74.04083688,15.417285671,0.0</coordinates>
            </Point>
        </Placemark>
        <Placemark id="32044">
            <ExtendedData>
                <Data name="direction">
                    <value>https://maps.google.com?q=15.40152,74.04456&amp;t=h</value>
                </Data>
                <Data name="id">
                    <value>4487</value>
                </Data>
                <Data name="name">
                    <value>Tollem</value>
                </Data>
                <Data name="taluka">
                    <value>Ponda</value>
                </Data>
                <Data name="syno">
                    <value>132</value>
                </Data>
                <Data name="subdiv">
                    <value>1</value>
                </Data>
                <Data name="village">
                    <value>Candepar</value>
                </Data>
                <Data name="latitude">
                    <value>15.40152</value>
                </Data>
                <Data name="longitude">
                    <value>74.04456</value>
                </Data>
                <Data name="photo_1">
                    <value>DCIM/20220320111336376.jpg</value>
                </Data>
                <Data name="photo_2">
                    <value>DCIM/20220320111417194.jpg</value>
                </Data>
                <Data name="constituency">
                    <value>21 - Ponda</value>
                </Data>
                <Data name="status">
                    <value>Completed</value>
                </Data>
                <Data name="panchayat">
                    <value>Curti-Khandepar</value>
                </Data>
                <Data name="wb_type">
                    <value>Pond</value>
                </Data>
                <Data name="owner_type">
                    <value>Private</value>
                </Data>
                <Data name="purpose">
                    <value>Irrigation</value>
                </Data>
                <Data name="construction">
                    <value>Man Made</value>
                </Data>
                <Data name="condition">
                    <value>Good</value>
                </Data>
                <Data name="print_order">
                    <value>049</value>
                </Data>
                <Data name="wb_id">
                    <value>Po/Capr/02</value>
                </Data>
                <Data name="storage_capacity">
                    <value>1543.0</value>
                </Data>
                <Data name="wb_surface_id">
                    <value>3574</value>
                </Data>
                <Data name="created_at">
                    <value>2022-02-21 05:00:47.899950</value>
                </Data>
                <Data name="updated_at">
                    <value>2023-07-22 14:03:14.307690</value>
                </Data>
                <Data name="book_id">
                    <value>1</value>
                </Data>
                <Data name="owners">
                    <value>Sanjiv Narayan Desai</value>
                </Data>
                <Data name="label_x">
                    <value>1013004.0</value>
                </Data>
                <Data name="label_y">
                    <value>1003585.1596750675</value>
                </Data>
            </ExtendedData>
            <Point id="32043">
                <coordinates>74.044557906,15.401524954,0.0</coordinates>
            </Point>
        </Placemark>
        <Placemark id="32076">
            <ExtendedData>
                <Data name="direction">
                    <value>https://maps.google.com?q=15.41079,74.04935&amp;t=h</value>
                </Data>
                <Data name="id">
                    <value>4491</value>
                </Data>
                <Data name="name">
                    <value>Poidar Rumod</value>
                </Data>
                <Data name="taluka">
                    <value>Ponda</value>
                </Data>
                <Data name="syno">
                    <value>142</value>
                </Data>
                <Data name="subdiv">
                    <value>1</value>
                </Data>
                <Data name="village">
                    <value>Candepar</value>
                </Data>
                <Data name="latitude">
                    <value>15.41079</value>
                </Data>
                <Data name="longitude">
                    <value>74.04935</value>
                </Data>
                <Data name="photo_1">
                    <value>DCIM/20220320115001827.jpg</value>
                </Data>
                <Data name="photo_2">
                    <value>DCIM/20220320115028387.jpg</value>
                </Data>
                <Data name="constituency">
                    <value>21 - Ponda</value>
                </Data>
                <Data name="status">
                    <value>Completed</value>
                </Data>
                <Data name="panchayat">
                    <value>Curti-Khandepar</value>
                </Data>
                <Data name="wb_type">
                    <value>Pond</value>
                </Data>
                <Data name="owner_type">
                    <value>Private / Public</value>
                </Data>
                <Data name="purpose">
                    <value>Irrigation</value>
                </Data>
                <Data name="construction">
                    <value>Natural</value>
                </Data>
                <Data name="condition">
                    <value>Needs Maintenance</value>
                </Data>
                <Data name="print_order">
                    <value>058</value>
                </Data>
                <Data name="wb_id">
                    <value>Po/Capr/23</value>
                </Data>
                <Data name="storage_capacity">
                    <value>19.0</value>
                </Data>
                <Data name="wb_surface_id">
                    <value>3577</value>
                </Data>
                <Data name="created_at">
                    <value>2022-02-21 05:00:47.899950</value>
                </Data>
                <Data name="updated_at">
                    <value>2023-07-22 14:03:14.307690</value>
                </Data>
                <Data name="book_id">
                    <value>1</value>
                </Data>
                <Data name="owners">
                    <value>Krishnanath Janardhan Gaokar
Govt.of Goa,Executive Engineer Works Div.XVIII (R&amp;B)P.W.D. Ponda
Keshav Molu Gaude
Gulabi Keshav Gaude</value>
                </Data>
                <Data name="label_x">
                    <value>1013004.0</value>
                </Data>
                <Data name="label_y">
                    <value>1005201.0129075972</value>
                </Data>
            </ExtendedData>
            <Point id="32075">
                <coordinates>74.049353268,15.410793575,0.0</coordinates>
            </Point>
        </Placemark>
        <Placemark id="32108">
            <ExtendedData>
                <Data name="direction">
                    <value>https://maps.google.com?q=15.40097,74.04406&amp;t=h</value>
                </Data>
                <Data name="id">
                    <value>4632</value>
                </Data>
                <Data name="name">
                    <value>Tollem</value>
                </Data>
                <Data name="taluka">
                    <value>Ponda</value>
                </Data>
                <Data name="syno">
                    <value>132</value>
                </Data>
                <Data name="subdiv">
                    <value>1</value>
                </Data>
                <Data name="village">
                    <value>Candepar</value>
                </Data>
                <Data name="latitude">
                    <value>15.40097</value>
                </Data>
                <Data name="longitude">
                    <value>74.04406</value>
                </Data>
                <Data name="photo_1">
                    <value>DCIM/20220320112251833.jpg</value>
                </Data>
                <Data name="photo_2">
                    <value>DCIM/20220320112318820.jpg</value>
                </Data>
                <Data name="constituency">
                    <value>21 - Ponda</value>
                </Data>
                <Data name="status">
                    <value>Completed</value>
                </Data>
                <Data name="panchayat">
                    <value>Curti-Khandepar</value>
                </Data>
                <Data name="wb_type">
                    <value>Pond</value>
                </Data>
                <Data name="owner_type">
                    <value>Private</value>
                </Data>
                <Data name="purpose">
                    <value>Irrigation</value>
                </Data>
                <Data name="construction">
                    <value>Man Made</value>
                </Data>
                <Data name="condition">
                    <value>Good</value>
                </Data>
                <Data name="print_order">
                    <value>061</value>
                </Data>
                <Data name="wb_id">
                    <value>Po/Capr/26</value>
                </Data>
                <Data name="storage_capacity">
                    <value>17.0</value>
                </Data>
                <Data name="wb_surface_id">
                    <value>3713</value>
                </Data>
                <Data name="created_at">
                    <value>2022-03-20 00:00:00</value>
                </Data>
                <Data name="updated_at">
                    <value>2023-07-22 14:03:14.307690</value>
                </Data>
                <Data name="book_id">
                    <value>1</value>
                </Data>
                <Data name="owners">
                    <value>Sanjiv Narayan Desai</value>
                </Data>
                <Data name="label_x">
                    <value>1013004.0</value>
                </Data>
                <Data name="label_y">
                    <value>1003353.7188399723</value>
                </Data>
            </ExtendedData>
            <Point id="32107">
                <coordinates>74.044058333,15.400971667,0.0</coordinates>
            </Point>
        </Placemark>
        <Placemark id="32140">
            <ExtendedData>
                <Data name="direction">
                    <value>https://maps.google.com?q=15.4252,74.03436&amp;t=h</value>
                </Data>
                <Data name="id">
                    <value>4636</value>
                </Data>
                <Data name="name">
                    <value>Agartalla Kadil</value>
                </Data>
                <Data name="taluka">
                    <value>Ponda</value>
                </Data>
                <Data name="syno">
                    <value>86</value>
                </Data>
                <Data name="subdiv">
                    <value>2</value>
                </Data>
                <Data name="village">
                    <value>Candepar</value>
                </Data>
                <Data name="latitude">
                    <value>15.4252</value>
                </Data>
                <Data name="longitude">
                    <value>74.03436</value>
                </Data>
                <Data name="photo_1">
                    <value>DCIM/20220320154131324.jpg</value>
                </Data>
                <Data name="photo_2">
                    <value>DCIM/20220320154142766.jpg</value>
                </Data>
                <Data name="constituency">
                    <value>21 - Ponda</value>
                </Data>
                <Data name="status">
                    <value>Completed</value>
                </Data>
                <Data name="panchayat">
                    <value>Curti-Khandepar</value>
                </Data>
                <Data name="wb_type">
                    <value>Tank</value>
                </Data>
                <Data name="owner_type">
                    <value>Private</value>
                </Data>
                <Data name="purpose">
                    <value>Irrigation</value>
                </Data>
                <Data name="construction">
                    <value>Man Made</value>
                </Data>
                <Data name="condition">
                    <value>Good</value>
                </Data>
                <Data name="print_order">
                    <value>128</value>
                </Data>
                <Data name="wb_id">
                    <value>Po/Capr/05</value>
                </Data>
                <Data name="storage_capacity">
                    <value>370.0</value>
                </Data>
                <Data name="wb_surface_id">
                    <value>3709</value>
                </Data>
                <Data name="created_at">
                    <value>2022-03-20 00:00:00</value>
                </Data>
                <Data name="updated_at">
                    <value>2023-07-22 14:03:14.307690</value>
                </Data>
                <Data name="book_id">
                    <value>1</value>
                </Data>
                <Data name="owners">
                    <value>Gopalchandra Mahadev Sinai Khandepar-
Ramchandra Narayan Satarkar
kar.</value>
                </Data>
                <Data name="label_x">
                    <value>1013004.0</value>
                </Data>
                <Data name="label_y">
                    <value>1006646.9401849675</value>
                </Data>
            </ExtendedData>
            <Point id="32139">
                <coordinates>74.034357251,15.425201271,0.0</coordinates>
            </Point>
        </Placemark>
        <Placemark id="32172">
            <ExtendedData>
                <Data name="direction">
                    <value>https://maps.google.com?q=15.43415,74.03278&amp;t=h</value>
                </Data>
                <Data name="id">
                    <value>245</value>
                </Data>
                <Data name="name">
                    <value>Sancole Shantadurga Temple Tank; Talliem</value>
                </Data>
                <Data name="taluka">
                    <value>Ponda</value>
                </Data>
                <Data name="syno">
                    <value>69</value>
                </Data>
                <Data name="subdiv">
                    <value>1</value>
                </Data>
                <Data name="village">
                    <value>Candepar</value>
                </Data>
                <Data name="latitude">
                    <value>15.43415</value>
                </Data>
                <Data name="longitude">
                    <value>74.03278</value>
                </Data>
                <Data name="photo_1">
                    <value>DCIM/20220320155707966.jpg</value>
                </Data>
                <Data name="photo_2">
                    <value>DCIM/20220320155737619.jpg</value>
                </Data>
                <Data name="constituency">
                    <value>21 - Ponda</value>
                </Data>
                <Data name="status">
                    <value>Completed</value>
                </Data>
                <Data name="panchayat">
                    <value>Curti-Khandepar</value>
                </Data>
                <Data name="wb_type">
                    <value>Temple Tank</value>
                </Data>
                <Data name="owner_type">
                    <value>Private</value>
                </Data>
                <Data name="purpose">
                    <value>Irrigation</value>
                </Data>
                <Data name="construction">
                    <value>Natural/Man Made</value>
                </Data>
                <Data name="condition">
                    <value>Needs Maintenance</value>
                </Data>
                <Data name="print_order">
                    <value>096</value>
                </Data>
                <Data name="wb_id">
                    <value>Po/Capr/04</value>
                </Data>
                <Data name="storage_capacity">
                    <value>442.0</value>
                </Data>
                <Data name="wb_surface_id">
                    <value>3066</value>
                </Data>
                <Data name="created_at">
                    <value>2020-02-28 15:24:34</value>
                </Data>
                <Data name="updated_at">
                    <value>2023-07-22 14:03:14.307690</value>
                </Data>
                <Data name="book_id">
                    <value>1</value>
                </Data>
                <Data name="owners">
                    <value>Prabhakar Vishnu Ghate
Ramchandra Bhikam Bhat Ghate</value>
                </Data>
                <Data name="label_x">
                    <value>1013004.0</value>
                </Data>
                <Data name="label_y">
                    <value>1007786.4540958306</value>
                </Data>
            </ExtendedData>
            <Point id="32171">
                <coordinates>74.032777575,15.434150145,0.0</coordinates>
            </Point>
        </Placemark>
    </Document>
</kml>
