<?xml version="1.0" encoding="UTF-8"?>
<kml xmlns="http://www.opengis.net/kml/2.2" xmlns:gx="http://www.google.com/kml/ext/2.2">
    <Document id="32882">
        <Placemark id="32884">
            <ExtendedData>
                <Data name="direction">
                    <value>https://maps.google.com?q=15.46745,73.97908&amp;t=h</value>
                </Data>
                <Data name="id">
                    <value>279</value>
                </Data>
                <Data name="name">
                    <value>Bhaili Fal</value>
                </Data>
                <Data name="taluka">
                    <value>Ponda</value>
                </Data>
                <Data name="syno">
                    <value>73</value>
                </Data>
                <Data name="subdiv">
                    <value>4</value>
                </Data>
                <Data name="village">
                    <value>Cuncoliem</value>
                </Data>
                <Data name="latitude">
                    <value>15.46745</value>
                </Data>
                <Data name="longitude">
                    <value>73.97908</value>
                </Data>
                <Data name="photo_1">
                    <value>DCIM/20220304113207471.jpg</value>
                </Data>
                <Data name="photo_2">
                    <value>DCIM/20220304113236565.jpg</value>
                </Data>
                <Data name="constituency">
                    <value>20 - Priol</value>
                </Data>
                <Data name="status">
                    <value>Completed</value>
                </Data>
                <Data name="panchayat">
                    <value>Veling,Priol,Cuncoliem</value>
                </Data>
                <Data name="wb_type">
                    <value>Tank</value>
                </Data>
                <Data name="owner_type">
                    <value>Private</value>
                </Data>
                <Data name="purpose">
                    <value>Irrigation</value>
                </Data>
                <Data name="construction">
                    <value>Man Made</value>
                </Data>
                <Data name="condition">
                    <value>Good</value>
                </Data>
                <Data name="print_order">
                    <value>093</value>
                </Data>
                <Data name="wb_id">
                    <value>Po/Cunc/06</value>
                </Data>
                <Data name="storage_capacity">
                    <value>166.0</value>
                </Data>
                <Data name="wb_surface_id">
                    <value>3175</value>
                </Data>
                <Data name="created_at">
                    <value>2020-02-28 15:24:34</value>
                </Data>
                <Data name="updated_at">
                    <value>2023-07-22 14:03:14.307690</value>
                </Data>
                <Data name="book_id">
                    <value>2</value>
                </Data>
                <Data name="owners">
                    <value>1) Devidas Shripad Sukthankar
2) Satchitanand Sarshwat Swami
3) Ramchandra Bhavani Sukhathankar
4) A. V. Bhandare</value>
                </Data>
                <Data name="label_x">
                    <value>1004136.0</value>
                </Data>
                <Data name="label_y">
                    <value>1011672.58237607</value>
                </Data>
            </ExtendedData>
            <Point id="32883">
                <coordinates>73.979076667,15.467448333,0.0</coordinates>
            </Point>
        </Placemark>
        <Placemark id="32916">
            <ExtendedData>
                <Data name="direction">
                    <value>https://maps.google.com?q=15.46784,73.97941&amp;t=h</value>
                </Data>
                <Data name="id">
                    <value>4585</value>
                </Data>
                <Data name="name">
                    <value>Bhaili Fal</value>
                </Data>
                <Data name="taluka">
                    <value>Ponda</value>
                </Data>
                <Data name="syno">
                    <value>73</value>
                </Data>
                <Data name="subdiv">
                    <value>3</value>
                </Data>
                <Data name="village">
                    <value>Cuncoliem</value>
                </Data>
                <Data name="latitude">
                    <value>15.46784</value>
                </Data>
                <Data name="longitude">
                    <value>73.97941</value>
                </Data>
                <Data name="photo_1">
                    <value>DCIM/20220304110647610.jpg</value>
                </Data>
                <Data name="photo_2">
                    <value>DCIM/20220304110705662.jpg</value>
                </Data>
                <Data name="constituency">
                    <value>20 - Priol</value>
                </Data>
                <Data name="status">
                    <value>Completed</value>
                </Data>
                <Data name="panchayat">
                    <value>Veling,Priol,Cuncoliem</value>
                </Data>
                <Data name="wb_type">
                    <value>Pond</value>
                </Data>
                <Data name="owner_type">
                    <value>Private</value>
                </Data>
                <Data name="purpose">
                    <value>Irrigation</value>
                </Data>
                <Data name="construction">
                    <value>Natural/Man Made</value>
                </Data>
                <Data name="condition">
                    <value>Good</value>
                </Data>
                <Data name="print_order">
                    <value>014</value>
                </Data>
                <Data name="wb_id">
                    <value>Po/Cunc/07</value>
                </Data>
                <Data name="storage_capacity">
                    <value>120.0</value>
                </Data>
                <Data name="wb_surface_id">
                    <value>3649</value>
                </Data>
                <Data name="created_at">
                    <value>2022-03-04 00:00:00</value>
                </Data>
                <Data name="updated_at">
                    <value>2023-07-22 14:03:14.307690</value>
                </Data>
                <Data name="book_id">
                    <value>2</value>
                </Data>
                <Data name="owners">
                    <value>Gurudas Naik
Putu Naik</value>
                </Data>
                <Data name="label_x">
                    <value>1004136.0</value>
                </Data>
                <Data name="label_y">
                    <value>1011922.58237607</value>
                </Data>
            </ExtendedData>
            <Point id="32915">
                <coordinates>73.979412596,15.467836166,0.0</coordinates>
            </Point>
        </Placemark>
        <Placemark id="32948">
            <ExtendedData>
                <Data name="direction">
                    <value>https://maps.google.com?q=15.45553,73.96798&amp;t=h</value>
                </Data>
                <Data name="id">
                    <value>4582</value>
                </Data>
                <Data name="name">
                    <value>Sawatalya Paiki</value>
                </Data>
                <Data name="taluka">
                    <value>Ponda</value>
                </Data>
                <Data name="syno">
                    <value>46</value>
                </Data>
                <Data name="subdiv">
                    <value>1</value>
                </Data>
                <Data name="village">
                    <value>Cuncoliem</value>
                </Data>
                <Data name="latitude">
                    <value>15.45553</value>
                </Data>
                <Data name="longitude">
                    <value>73.96798</value>
                </Data>
                <Data name="photo_1">
                    <value>DCIM/20220304100124344.jpg</value>
                </Data>
                <Data name="photo_2">
                    <value>DCIM/20220304100144641.jpg</value>
                </Data>
                <Data name="constituency">
                    <value>20 - Priol</value>
                </Data>
                <Data name="status">
                    <value>Completed</value>
                </Data>
                <Data name="panchayat">
                    <value>Veling,Priol,Cuncoliem</value>
                </Data>
                <Data name="wb_type">
                    <value>Pond</value>
                </Data>
                <Data name="owner_type">
                    <value>Private</value>
                </Data>
                <Data name="purpose">
                    <value>Irrigation</value>
                </Data>
                <Data name="construction">
                    <value>Natural/Man Made</value>
                </Data>
                <Data name="condition">
                    <value>Good</value>
                </Data>
                <Data name="print_order">
                    <value>016</value>
                </Data>
                <Data name="wb_id">
                    <value>Po/Cunc/11</value>
                </Data>
                <Data name="storage_capacity">
                    <value>52.0</value>
                </Data>
                <Data name="wb_surface_id">
                    <value>3651</value>
                </Data>
                <Data name="created_at">
                    <value>2022-03-04 00:00:00</value>
                </Data>
                <Data name="updated_at">
                    <value>2023-07-22 14:03:14.307690</value>
                </Data>
                <Data name="book_id">
                    <value>2</value>
                </Data>
                <Data name="owners">
                    <value>Pandurang Bhiku Phondekar</value>
                </Data>
                <Data name="label_x">
                    <value>989975.0</value>
                </Data>
                <Data name="label_y">
                    <value>1012607.581436924</value>
                </Data>
            </ExtendedData>
            <Point id="32947">
                <coordinates>73.967978333,15.455526667,0.0</coordinates>
            </Point>
        </Placemark>
        <Placemark id="32980">
            <ExtendedData>
                <Data name="direction">
                    <value>https://maps.google.com?q=15.46908,73.97988&amp;t=h</value>
                </Data>
                <Data name="id">
                    <value>4588</value>
                </Data>
                <Data name="name">
                    <value>Chafera Bhatlem Fal</value>
                </Data>
                <Data name="taluka">
                    <value>Ponda</value>
                </Data>
                <Data name="syno">
                    <value>72</value>
                </Data>
                <Data name="subdiv">
                    <value>0</value>
                </Data>
                <Data name="village">
                    <value>Cuncoliem</value>
                </Data>
                <Data name="latitude">
                    <value>15.46908</value>
                </Data>
                <Data name="longitude">
                    <value>73.97988</value>
                </Data>
                <Data name="photo_1">
                    <value>DCIM/20220304111926057.jpg</value>
                </Data>
                <Data name="photo_2">
                    <value>DCIM/20220304111949084.jpg</value>
                </Data>
                <Data name="constituency">
                    <value>20 - Priol</value>
                </Data>
                <Data name="status">
                    <value>Completed</value>
                </Data>
                <Data name="panchayat">
                    <value>Veling,Priol,Cuncoliem</value>
                </Data>
                <Data name="wb_type">
                    <value>Pond</value>
                </Data>
                <Data name="owner_type">
                    <value>Private / Public</value>
                </Data>
                <Data name="purpose">
                    <value>Irrigation</value>
                </Data>
                <Data name="construction">
                    <value>Natural/Man Made</value>
                </Data>
                <Data name="condition">
                    <value>Good</value>
                </Data>
                <Data name="print_order">
                    <value>013</value>
                </Data>
                <Data name="wb_id">
                    <value>Po/Cunc/05</value>
                </Data>
                <Data name="storage_capacity">
                    <value>189.0</value>
                </Data>
                <Data name="wb_surface_id">
                    <value>3647</value>
                </Data>
                <Data name="created_at">
                    <value>2022-03-04 00:00:00</value>
                </Data>
                <Data name="updated_at">
                    <value>2023-07-22 14:03:14.307690</value>
                </Data>
                <Data name="book_id">
                    <value>2</value>
                </Data>
                <Data name="owners">
                    <value>Act,1964
Gifted/Leased without prior approval
Goa, Daman &amp; Diu Agricultural Tenancy
Putu Govinda Naik
This land cannot be Sold/Transferred/
of Mamlatdar as provided u/s 18-K of</value>
                </Data>
                <Data name="label_x">
                    <value>1004136.0</value>
                </Data>
                <Data name="label_y">
                    <value>1012672.58237607</value>
                </Data>
            </ExtendedData>
            <Point id="32979">
                <coordinates>73.979878333,15.469075,0.0</coordinates>
            </Point>
        </Placemark>
        <Placemark id="33012">
            <ExtendedData>
                <Data name="direction">
                    <value>https://maps.google.com?q=15.46652,73.98398&amp;t=h</value>
                </Data>
                <Data name="id">
                    <value>278</value>
                </Data>
                <Data name="name">
                    <value>Tale</value>
                </Data>
                <Data name="taluka">
                    <value>Ponda</value>
                </Data>
                <Data name="syno">
                    <value>85</value>
                </Data>
                <Data name="subdiv">
                    <value>1</value>
                </Data>
                <Data name="village">
                    <value>Cuncoliem</value>
                </Data>
                <Data name="latitude">
                    <value>15.46652</value>
                </Data>
                <Data name="longitude">
                    <value>73.98398</value>
                </Data>
                <Data name="photo_1">
                    <value>DCIM/20220304114124169.jpg</value>
                </Data>
                <Data name="photo_2">
                    <value>DCIM/20220304114656264.jpg</value>
                </Data>
                <Data name="constituency">
                    <value>20 - Priol</value>
                </Data>
                <Data name="status">
                    <value>Completed</value>
                </Data>
                <Data name="panchayat">
                    <value>Veling,Priol,Cuncoliem</value>
                </Data>
                <Data name="wb_type">
                    <value>Tank</value>
                </Data>
                <Data name="owner_type">
                    <value>Private</value>
                </Data>
                <Data name="purpose">
                    <value>Irrigation</value>
                </Data>
                <Data name="construction">
                    <value>Man Made</value>
                </Data>
                <Data name="condition">
                    <value>Good</value>
                </Data>
                <Data name="print_order">
                    <value>091</value>
                </Data>
                <Data name="wb_id">
                    <value>Po/Cunc/03</value>
                </Data>
                <Data name="storage_capacity">
                    <value>574.0</value>
                </Data>
                <Data name="wb_surface_id">
                    <value>3177</value>
                </Data>
                <Data name="created_at">
                    <value>2020-02-28 15:24:34</value>
                </Data>
                <Data name="updated_at">
                    <value>2023-07-22 14:03:14.307690</value>
                </Data>
                <Data name="book_id">
                    <value>2</value>
                </Data>
                <Data name="owners">
                    <value>Ganapat Dattatray Vaidhya</value>
                </Data>
                <Data name="label_x">
                    <value>1004136.0</value>
                </Data>
                <Data name="label_y">
                    <value>1010944.8126229997</value>
                </Data>
            </ExtendedData>
            <Point id="33011">
                <coordinates>73.983981667,15.466515,0.0</coordinates>
            </Point>
        </Placemark>
        <Placemark id="33044">
            <ExtendedData>
                <Data name="direction">
                    <value>https://maps.google.com?q=15.46891,73.97999&amp;t=h</value>
                </Data>
                <Data name="id">
                    <value>4587</value>
                </Data>
                <Data name="name">
                    <value>Chafera</value>
                </Data>
                <Data name="taluka">
                    <value>Ponda</value>
                </Data>
                <Data name="syno">
                    <value>73</value>
                </Data>
                <Data name="subdiv">
                    <value>2</value>
                </Data>
                <Data name="village">
                    <value>Cuncoliem</value>
                </Data>
                <Data name="latitude">
                    <value>15.46891</value>
                </Data>
                <Data name="longitude">
                    <value>73.97999</value>
                </Data>
                <Data name="photo_1">
                    <value>DCIM/20220304111707387.jpg</value>
                </Data>
                <Data name="photo_2">
                    <value>DCIM/20220304111715566.jpg</value>
                </Data>
                <Data name="constituency">
                    <value>20 - Priol</value>
                </Data>
                <Data name="status">
                    <value>Completed</value>
                </Data>
                <Data name="panchayat">
                    <value>Veling,Priol,Cuncoliem</value>
                </Data>
                <Data name="wb_type">
                    <value>Pond</value>
                </Data>
                <Data name="owner_type">
                    <value>Private</value>
                </Data>
                <Data name="purpose">
                    <value>Irrigation</value>
                </Data>
                <Data name="construction">
                    <value>Natural/Man Made</value>
                </Data>
                <Data name="condition">
                    <value>Needs Maintenance</value>
                </Data>
                <Data name="print_order">
                    <value>015</value>
                </Data>
                <Data name="wb_id">
                    <value>Po/Cunc/08</value>
                </Data>
                <Data name="storage_capacity">
                    <value>116.0</value>
                </Data>
                <Data name="wb_surface_id">
                    <value>3646</value>
                </Data>
                <Data name="created_at">
                    <value>2022-03-04 00:00:00</value>
                </Data>
                <Data name="updated_at">
                    <value>2023-07-22 14:03:14.307690</value>
                </Data>
                <Data name="book_id">
                    <value>2</value>
                </Data>
                <Data name="owners">
                    <value>Putu Govinda Naik</value>
                </Data>
                <Data name="label_x">
                    <value>1004136.0</value>
                </Data>
                <Data name="label_y">
                    <value>1012422.58237607</value>
                </Data>
            </ExtendedData>
            <Point id="33043">
                <coordinates>73.979988333,15.468906667,0.0</coordinates>
            </Point>
        </Placemark>
        <Placemark id="33076">
            <ExtendedData>
                <Data name="direction">
                    <value>https://maps.google.com?q=15.46825,73.97964&amp;t=h</value>
                </Data>
                <Data name="id">
                    <value>4586</value>
                </Data>
                <Data name="name">
                    <value>Bhaili Fal</value>
                </Data>
                <Data name="taluka">
                    <value>Ponda</value>
                </Data>
                <Data name="syno">
                    <value>73</value>
                </Data>
                <Data name="subdiv">
                    <value>3</value>
                </Data>
                <Data name="village">
                    <value>Cuncoliem</value>
                </Data>
                <Data name="latitude">
                    <value>15.46825</value>
                </Data>
                <Data name="longitude">
                    <value>73.97964</value>
                </Data>
                <Data name="photo_1">
                    <value>DCIM/20220304111306499.jpg</value>
                </Data>
                <Data name="photo_2">
                    <value>DCIM/20220304111324764.jpg</value>
                </Data>
                <Data name="constituency">
                    <value>20 - Priol</value>
                </Data>
                <Data name="status">
                    <value>Completed</value>
                </Data>
                <Data name="panchayat">
                    <value>Veling,Priol,Cuncoliem</value>
                </Data>
                <Data name="wb_type">
                    <value>Tank</value>
                </Data>
                <Data name="owner_type">
                    <value>Private</value>
                </Data>
                <Data name="purpose">
                    <value>Irrigation</value>
                </Data>
                <Data name="construction">
                    <value>Man Made</value>
                </Data>
                <Data name="condition">
                    <value>Good</value>
                </Data>
                <Data name="print_order">
                    <value>092</value>
                </Data>
                <Data name="wb_id">
                    <value>Po/Cunc/04</value>
                </Data>
                <Data name="storage_capacity">
                    <value>224.0</value>
                </Data>
                <Data name="wb_surface_id">
                    <value>3648</value>
                </Data>
                <Data name="created_at">
                    <value>2022-03-04 00:00:00</value>
                </Data>
                <Data name="updated_at">
                    <value>2023-07-22 14:03:14.307690</value>
                </Data>
                <Data name="book_id">
                    <value>2</value>
                </Data>
                <Data name="owners">
                    <value>Gurudas Naik
Putu Naik</value>
                </Data>
                <Data name="label_x">
                    <value>1004136.0</value>
                </Data>
                <Data name="label_y">
                    <value>1012172.58237607</value>
                </Data>
            </ExtendedData>
            <Point id="33075">
                <coordinates>73.979636667,15.468251667,0.0</coordinates>
            </Point>
        </Placemark>
        <Placemark id="33108">
            <ExtendedData>
                <Data name="direction">
                    <value>https://maps.google.com?q=15.46745,73.98511&amp;t=h</value>
                </Data>
                <Data name="id">
                    <value>282</value>
                </Data>
                <Data name="name">
                    <value>Tale,Tale Kusa Kine</value>
                </Data>
                <Data name="taluka">
                    <value>Ponda</value>
                </Data>
                <Data name="syno">
                    <value>85</value>
                </Data>
                <Data name="subdiv">
                    <value>3-5</value>
                </Data>
                <Data name="village">
                    <value>Cuncoliem</value>
                </Data>
                <Data name="latitude">
                    <value>15.46745</value>
                </Data>
                <Data name="longitude">
                    <value>73.98511</value>
                </Data>
                <Data name="photo_1">
                    <value>DCIM/20220304114455168.jpg</value>
                </Data>
                <Data name="photo_2">
                    <value>DCIM/20220304114505625.jpg</value>
                </Data>
                <Data name="constituency">
                    <value>20 - Priol</value>
                </Data>
                <Data name="status">
                    <value>Completed</value>
                </Data>
                <Data name="panchayat">
                    <value>Veling,Priol,Cuncoliem</value>
                </Data>
                <Data name="wb_type">
                    <value>Pond</value>
                </Data>
                <Data name="owner_type">
                    <value>Private</value>
                </Data>
                <Data name="purpose">
                    <value>Irrigation</value>
                </Data>
                <Data name="construction">
                    <value>Natural</value>
                </Data>
                <Data name="condition">
                    <value>Needs Maintenance</value>
                </Data>
                <Data name="print_order">
                    <value>012</value>
                </Data>
                <Data name="wb_id">
                    <value>Po/Cunc/01</value>
                </Data>
                <Data name="storage_capacity">
                    <value>10257.0</value>
                </Data>
                <Data name="wb_surface_id">
                    <value>3191</value>
                </Data>
                <Data name="created_at">
                    <value>2020-02-28 15:24:34</value>
                </Data>
                <Data name="updated_at">
                    <value>2023-07-22 14:03:14.307690</value>
                </Data>
                <Data name="book_id">
                    <value>2</value>
                </Data>
                <Data name="owners">
                    <value>Govind Satu Sinai Varti</value>
                </Data>
                <Data name="label_x">
                    <value>1004136.0</value>
                </Data>
                <Data name="label_y">
                    <value>1011422.58237607</value>
                </Data>
            </ExtendedData>
            <Point id="33107">
                <coordinates>73.98510782,15.467445043,0.0</coordinates>
            </Point>
        </Placemark>
        <Placemark id="33140">
            <ExtendedData>
                <Data name="direction">
                    <value>https://maps.google.com?q=15.46531,73.97436&amp;t=h</value>
                </Data>
                <Data name="id">
                    <value>281</value>
                </Data>
                <Data name="name">
                    <value>Narile</value>
                </Data>
                <Data name="taluka">
                    <value>Ponda</value>
                </Data>
                <Data name="syno">
                    <value>63</value>
                </Data>
                <Data name="subdiv">
                    <value>1,2</value>
                </Data>
                <Data name="village">
                    <value>Cuncoliem</value>
                </Data>
                <Data name="latitude">
                    <value>15.46531</value>
                </Data>
                <Data name="longitude">
                    <value>73.97436</value>
                </Data>
                <Data name="photo_1">
                    <value>DCIM/20220304105508619.jpg</value>
                </Data>
                <Data name="photo_2">
                    <value>DCIM/20220304105531375.jpg</value>
                </Data>
                <Data name="constituency">
                    <value>20 - Priol</value>
                </Data>
                <Data name="status">
                    <value>Completed</value>
                </Data>
                <Data name="panchayat">
                    <value>Veling,Priol,Cuncoliem</value>
                </Data>
                <Data name="wb_type">
                    <value>Tank</value>
                </Data>
                <Data name="owner_type">
                    <value>Private / Public</value>
                </Data>
                <Data name="purpose">
                    <value>Irrigation</value>
                </Data>
                <Data name="construction">
                    <value>Natural/Man Made</value>
                </Data>
                <Data name="condition">
                    <value>Good</value>
                </Data>
                <Data name="print_order">
                    <value>090</value>
                </Data>
                <Data name="wb_id">
                    <value>Po/Cunc/02</value>
                </Data>
                <Data name="storage_capacity">
                    <value>2759.0</value>
                </Data>
                <Data name="wb_surface_id">
                    <value>3174</value>
                </Data>
                <Data name="created_at">
                    <value>2020-02-28 15:24:34</value>
                </Data>
                <Data name="updated_at">
                    <value>2023-07-22 14:03:14.307690</value>
                </Data>
                <Data name="book_id">
                    <value>2</value>
                </Data>
                <Data name="owners">
                    <value>Govt. of Goa, Executive Engineer, WD XVIII (R) PWD, Ponda Goa
Pandurang Krishna Naik
Prakash Govind Naik
Ramnath Govind Naik
Santosh Govind Naik
Umesh Krishna Naik</value>
                </Data>
                <Data name="label_x">
                    <value>1004136.0</value>
                </Data>
                <Data name="label_y">
                    <value>1011185.3936296126</value>
                </Data>
            </ExtendedData>
            <Point id="33139">
                <coordinates>73.974363827,15.465312172,0.0</coordinates>
            </Point>
        </Placemark>
        <Placemark id="33172">
            <ExtendedData>
                <Data name="direction">
                    <value>https://maps.google.com?q=15.45916,73.97523&amp;t=h</value>
                </Data>
                <Data name="id">
                    <value>4583</value>
                </Data>
                <Data name="name">
                    <value>Zarkhane</value>
                </Data>
                <Data name="taluka">
                    <value>Ponda</value>
                </Data>
                <Data name="syno">
                    <value>54</value>
                </Data>
                <Data name="subdiv">
                    <value>0</value>
                </Data>
                <Data name="village">
                    <value>Cuncoliem</value>
                </Data>
                <Data name="latitude">
                    <value>15.45916</value>
                </Data>
                <Data name="longitude">
                    <value>73.97523</value>
                </Data>
                <Data name="photo_1">
                    <value>DCIM/20220304050350398.jpg</value>
                </Data>
                <Data name="photo_2">
                    <value>DCIM/20220304103358069.jpg</value>
                </Data>
                <Data name="constituency">
                    <value>20 - Priol</value>
                </Data>
                <Data name="status">
                    <value>Completed</value>
                </Data>
                <Data name="panchayat">
                    <value>Veling,Priol,Cuncoliem</value>
                </Data>
                <Data name="wb_type">
                    <value>Tank</value>
                </Data>
                <Data name="owner_type">
                    <value>Private</value>
                </Data>
                <Data name="purpose">
                    <value>Irrigation</value>
                </Data>
                <Data name="construction">
                    <value>Natural</value>
                </Data>
                <Data name="condition">
                    <value>Needs Maintenance</value>
                </Data>
                <Data name="print_order">
                    <value>095</value>
                </Data>
                <Data name="wb_id">
                    <value>Po/Cunc/12</value>
                </Data>
                <Data name="storage_capacity">
                    <value>26.0</value>
                </Data>
                <Data name="wb_surface_id">
                    <value>3650</value>
                </Data>
                <Data name="created_at">
                    <value>2022-03-04 00:00:00</value>
                </Data>
                <Data name="updated_at">
                    <value>2023-07-22 14:03:14.307690</value>
                </Data>
                <Data name="book_id">
                    <value>2</value>
                </Data>
                <Data name="owners">
                    <value>1) Chandrakant Shripad Sinai Kunkalie-
2) Shrikant Kunkalienkar          1/2
3) Vaikunth Narayan Sinai Kunkalien-
4) Madusudhan Cuncolienkar        1/3
5) Jaiwant Cuncolienkar
6) Pandurang Shantaram Cuncolien-
7) Jivaji Gopal Sinai Cuncolienkar 1/2
8) Ramakant Shankar Cuncolienkar  1/2
9) Ganpat Venkatesh Shinai Cuncoli-
Anandibai Prabhakar Sinai Kuncolienkar
Anant Pundalik Cuncolienkar
Asha Ganapat Naik
enkar                          1/2
kar                            1/2
kar                            1/3</value>
                </Data>
                <Data name="label_x">
                    <value>1004136.0</value>
                </Data>
                <Data name="label_y">
                    <value>1010137.5408755976</value>
                </Data>
            </ExtendedData>
            <Point id="33171">
                <coordinates>73.975234556,15.459159592,0.0</coordinates>
            </Point>
        </Placemark>
        <Placemark id="33204">
            <ExtendedData>
                <Data name="direction">
                    <value>https://maps.google.com?q=15.46209,73.97838&amp;t=h</value>
                </Data>
                <Data name="id">
                    <value>4272</value>
                </Data>
                <Data name="name">
                    <value>Kulkarni</value>
                </Data>
                <Data name="taluka">
                    <value>Ponda</value>
                </Data>
                <Data name="syno">
                    <value>112</value>
                </Data>
                <Data name="subdiv">
                    <value>2</value>
                </Data>
                <Data name="village">
                    <value>Cuncoliem</value>
                </Data>
                <Data name="latitude">
                    <value>15.46209</value>
                </Data>
                <Data name="longitude">
                    <value>73.97838</value>
                </Data>
                <Data name="photo_1">
                    <value>DCIM/20220304104633559.jpg</value>
                </Data>
                <Data name="photo_2">
                    <value>DCIM/20220304104653784.jpg</value>
                </Data>
                <Data name="constituency">
                    <value>20 - Priol</value>
                </Data>
                <Data name="status">
                    <value>Completed</value>
                </Data>
                <Data name="panchayat">
                    <value>Veling,Priol,Cuncoliem</value>
                </Data>
                <Data name="wb_type">
                    <value>Tank</value>
                </Data>
                <Data name="owner_type">
                    <value>Private</value>
                </Data>
                <Data name="purpose">
                    <value>Irrigation</value>
                </Data>
                <Data name="construction">
                    <value>Man Made</value>
                </Data>
                <Data name="condition">
                    <value>Good</value>
                </Data>
                <Data name="print_order">
                    <value>094</value>
                </Data>
                <Data name="wb_id">
                    <value>Po/Cunc/09</value>
                </Data>
                <Data name="storage_capacity">
                    <value>56.0</value>
                </Data>
                <Data name="wb_surface_id">
                    <value>3159</value>
                </Data>
                <Data name="created_at">
                    <value>2021-12-29 12:54:37.407239</value>
                </Data>
                <Data name="updated_at">
                    <value>2023-07-22 14:03:14.307690</value>
                </Data>
                <Data name="book_id">
                    <value>2</value>
                </Data>
                <Data name="owners">
                    <value>Mr. Ranganath Mukund Naik ,Murari Mukund Naik, Chandrakant Ganesh Naik,</value>
                </Data>
                <Data name="label_x">
                    <value>1004136.0</value>
                </Data>
                <Data name="label_y">
                    <value>1010672.58237607</value>
                </Data>
            </ExtendedData>
            <Point id="33203">
                <coordinates>73.978381035,15.462085435,0.0</coordinates>
            </Point>
        </Placemark>
    </Document>
</kml>
