<?xml version="1.0" encoding="UTF-8"?>
<kml xmlns="http://www.opengis.net/kml/2.2" xmlns:gx="http://www.google.com/kml/ext/2.2">
    <Document id="34134">
        <Placemark id="34136">
            <ExtendedData>
                <Data name="direction">
                    <value>https://maps.google.com?q=15.41989,74.00485&amp;t=h</value>
                </Data>
                <Data name="id">
                    <value>288</value>
                </Data>
                <Data name="name">
                    <value>Kolme</value>
                </Data>
                <Data name="taluka">
                    <value>Ponda</value>
                </Data>
                <Data name="syno">
                    <value>10</value>
                </Data>
                <Data name="subdiv">
                    <value>0</value>
                </Data>
                <Data name="village">
                    <value>Curti</value>
                </Data>
                <Data name="latitude">
                    <value>15.41989</value>
                </Data>
                <Data name="longitude">
                    <value>74.00485</value>
                </Data>
                <Data name="photo_1">
                    <value>DCIM/20220302154429903.jpg</value>
                </Data>
                <Data name="photo_2">
                    <value>DCIM/20220302154444387.jpg</value>
                </Data>
                <Data name="constituency">
                    <value>21 - Ponda</value>
                </Data>
                <Data name="status">
                    <value>Completed</value>
                </Data>
                <Data name="panchayat">
                    <value>Curti-Khandepar</value>
                </Data>
                <Data name="wb_type">
                    <value>Pond</value>
                </Data>
                <Data name="owner_type">
                    <value>Private</value>
                </Data>
                <Data name="purpose">
                    <value>Irrigation</value>
                </Data>
                <Data name="construction">
                    <value>Man Made</value>
                </Data>
                <Data name="condition">
                    <value>Good</value>
                </Data>
                <Data name="print_order">
                    <value>029</value>
                </Data>
                <Data name="wb_id">
                    <value>Po/Curt/07</value>
                </Data>
                <Data name="storage_capacity">
                    <value>184.0</value>
                </Data>
                <Data name="wb_surface_id">
                    <value>3192</value>
                </Data>
                <Data name="created_at">
                    <value>2020-02-28 15:24:34</value>
                </Data>
                <Data name="updated_at">
                    <value>2023-07-22 14:03:14.307690</value>
                </Data>
                <Data name="book_id">
                    <value>2</value>
                </Data>
                <Data name="owners">
                    <value>Balkrisna Sivrama Korde
Madeva alias Madhav Shivram Korde
Manohar Siurama Karde
Pramod Shivram Korde</value>
                </Data>
                <Data name="label_x">
                    <value>989975.0</value>
                </Data>
                <Data name="label_y">
                    <value>998607.581436924</value>
                </Data>
            </ExtendedData>
            <Point id="34135">
                <coordinates>74.004852146,15.419894826,0.0</coordinates>
            </Point>
        </Placemark>
        <Placemark id="34168">
            <ExtendedData>
                <Data name="direction">
                    <value>https://maps.google.com?q=15.41932,74.00301&amp;t=h</value>
                </Data>
                <Data name="id">
                    <value>4560</value>
                </Data>
                <Data name="name">
                    <value>Kolme</value>
                </Data>
                <Data name="taluka">
                    <value>Ponda</value>
                </Data>
                <Data name="syno">
                    <value>10</value>
                </Data>
                <Data name="subdiv">
                    <value>0</value>
                </Data>
                <Data name="village">
                    <value>Curti</value>
                </Data>
                <Data name="latitude">
                    <value>15.41932</value>
                </Data>
                <Data name="longitude">
                    <value>74.00301</value>
                </Data>
                <Data name="photo_1">
                    <value>DCIM/20220302103655333.jpg</value>
                </Data>
                <Data name="photo_2">
                    <value>DCIM/20220302160719311.jpg</value>
                </Data>
                <Data name="constituency">
                    <value>21 - Ponda</value>
                </Data>
                <Data name="status">
                    <value>Completed</value>
                </Data>
                <Data name="panchayat">
                    <value>Curti-Khandepar</value>
                </Data>
                <Data name="wb_type">
                    <value>Tank</value>
                </Data>
                <Data name="owner_type">
                    <value>Private</value>
                </Data>
                <Data name="purpose">
                    <value>Irrigation</value>
                </Data>
                <Data name="construction">
                    <value>Man Made</value>
                </Data>
                <Data name="condition">
                    <value>Good</value>
                </Data>
                <Data name="print_order">
                    <value>109</value>
                </Data>
                <Data name="wb_id">
                    <value>Po/Curt/05</value>
                </Data>
                <Data name="storage_capacity">
                    <value>250.0</value>
                </Data>
                <Data name="wb_surface_id">
                    <value>3635</value>
                </Data>
                <Data name="created_at">
                    <value>2022-03-02 00:00:00</value>
                </Data>
                <Data name="updated_at">
                    <value>2023-07-22 14:03:14.307690</value>
                </Data>
                <Data name="book_id">
                    <value>2</value>
                </Data>
                <Data name="owners">
                    <value>Balkrisna Sivrama Korde
Madeva alias Madhav Shivram Korde
Manohar Siurama Karde
Pramod Shivram Korde</value>
                </Data>
                <Data name="label_x">
                    <value>989975.0</value>
                </Data>
                <Data name="label_y">
                    <value>1000107.581436924</value>
                </Data>
            </ExtendedData>
            <Point id="34167">
                <coordinates>74.003010352,15.419320611,0.0</coordinates>
            </Point>
        </Placemark>
        <Placemark id="34200">
            <ExtendedData>
                <Data name="direction">
                    <value>https://maps.google.com?q=15.42005,74.00416&amp;t=h</value>
                </Data>
                <Data name="id">
                    <value>4559</value>
                </Data>
                <Data name="name">
                    <value>Kolme</value>
                </Data>
                <Data name="taluka">
                    <value>Ponda</value>
                </Data>
                <Data name="syno">
                    <value>10</value>
                </Data>
                <Data name="subdiv">
                    <value>0</value>
                </Data>
                <Data name="village">
                    <value>Curti</value>
                </Data>
                <Data name="latitude">
                    <value>15.42005</value>
                </Data>
                <Data name="longitude">
                    <value>74.00416</value>
                </Data>
                <Data name="photo_1">
                    <value>DCIM/20220302102616519.jpg</value>
                </Data>
                <Data name="photo_2">
                    <value>DCIM/20220302155655335.jpg</value>
                </Data>
                <Data name="constituency">
                    <value>21 - Ponda</value>
                </Data>
                <Data name="status">
                    <value>Completed</value>
                </Data>
                <Data name="panchayat">
                    <value>Curti-Khandepar</value>
                </Data>
                <Data name="wb_type">
                    <value>Tank</value>
                </Data>
                <Data name="owner_type">
                    <value>Private</value>
                </Data>
                <Data name="purpose">
                    <value>Irrigation</value>
                </Data>
                <Data name="construction">
                    <value>Man Made</value>
                </Data>
                <Data name="condition">
                    <value>Good</value>
                </Data>
                <Data name="print_order">
                    <value>111</value>
                </Data>
                <Data name="wb_id">
                    <value>Po/Curt/08</value>
                </Data>
                <Data name="storage_capacity">
                    <value>105.0</value>
                </Data>
                <Data name="wb_surface_id">
                    <value>3671</value>
                </Data>
                <Data name="created_at">
                    <value>2022-03-02 00:00:00</value>
                </Data>
                <Data name="updated_at">
                    <value>2023-07-22 14:03:14.307690</value>
                </Data>
                <Data name="book_id">
                    <value>2</value>
                </Data>
                <Data name="owners">
                    <value>Balkrisna Sivrama Korde
Madeva alias Madhav Shivram Korde
Manohar Siurama Karde
Pramod Shivram Korde</value>
                </Data>
                <Data name="label_x">
                    <value>989975.0</value>
                </Data>
                <Data name="label_y">
                    <value>1000357.581436924</value>
                </Data>
            </ExtendedData>
            <Point id="34199">
                <coordinates>74.004161667,15.420045,0.0</coordinates>
            </Point>
        </Placemark>
        <Placemark id="34232">
            <ExtendedData>
                <Data name="direction">
                    <value>https://maps.google.com?q=15.42016,74.00478&amp;t=h</value>
                </Data>
                <Data name="id">
                    <value>4557</value>
                </Data>
                <Data name="name">
                    <value>Kolme</value>
                </Data>
                <Data name="taluka">
                    <value>Ponda</value>
                </Data>
                <Data name="syno">
                    <value>10</value>
                </Data>
                <Data name="subdiv">
                    <value>0</value>
                </Data>
                <Data name="village">
                    <value>Curti</value>
                </Data>
                <Data name="latitude">
                    <value>15.42016</value>
                </Data>
                <Data name="longitude">
                    <value>74.00478</value>
                </Data>
                <Data name="photo_1">
                    <value>DCIM/20220302102331223.jpg</value>
                </Data>
                <Data name="photo_2">
                    <value>DCIM/20220302102343303.jpg</value>
                </Data>
                <Data name="constituency">
                    <value>21 - Ponda</value>
                </Data>
                <Data name="status">
                    <value>Completed</value>
                </Data>
                <Data name="panchayat">
                    <value>Curti-Khandepar</value>
                </Data>
                <Data name="wb_type">
                    <value>Tank</value>
                </Data>
                <Data name="owner_type">
                    <value>Private</value>
                </Data>
                <Data name="purpose">
                    <value>Irrigation</value>
                </Data>
                <Data name="construction">
                    <value>Man Made</value>
                </Data>
                <Data name="condition">
                    <value>Needs Maintenance</value>
                </Data>
                <Data name="print_order">
                    <value>110</value>
                </Data>
                <Data name="wb_id">
                    <value>Po/Curt/06</value>
                </Data>
                <Data name="storage_capacity">
                    <value>191.0</value>
                </Data>
                <Data name="wb_surface_id">
                    <value>3673</value>
                </Data>
                <Data name="created_at">
                    <value>2022-03-02 00:00:00</value>
                </Data>
                <Data name="updated_at">
                    <value>2023-07-22 14:03:14.307690</value>
                </Data>
                <Data name="book_id">
                    <value>2</value>
                </Data>
                <Data name="owners">
                    <value>Balkrisna Sivrama Korde
Madeva alias Madhav Shivram Korde
Manohar Siurama Karde
Pramod Shivram Korde</value>
                </Data>
                <Data name="label_x">
                    <value>989975.0</value>
                </Data>
                <Data name="label_y">
                    <value>999607.581436924</value>
                </Data>
            </ExtendedData>
            <Point id="34231">
                <coordinates>74.004778333,15.420155,0.0</coordinates>
            </Point>
        </Placemark>
        <Placemark id="34264">
            <ExtendedData>
                <Data name="direction">
                    <value>https://maps.google.com?q=15.42,74.00451&amp;t=h</value>
                </Data>
                <Data name="id">
                    <value>4558</value>
                </Data>
                <Data name="name">
                    <value>Kolme</value>
                </Data>
                <Data name="taluka">
                    <value>Ponda</value>
                </Data>
                <Data name="syno">
                    <value>10</value>
                </Data>
                <Data name="subdiv">
                    <value>0</value>
                </Data>
                <Data name="village">
                    <value>Curti</value>
                </Data>
                <Data name="latitude">
                    <value>15.42</value>
                </Data>
                <Data name="longitude">
                    <value>74.00451</value>
                </Data>
                <Data name="photo_1">
                    <value>DCIM/20220302102452858.jpg</value>
                </Data>
                <Data name="photo_2">
                    <value>DCIM/20220302155509089.jpg</value>
                </Data>
                <Data name="constituency">
                    <value>21 - Ponda</value>
                </Data>
                <Data name="status">
                    <value>Completed</value>
                </Data>
                <Data name="panchayat">
                    <value>Curti-Khandepar</value>
                </Data>
                <Data name="wb_type">
                    <value>Tank</value>
                </Data>
                <Data name="owner_type">
                    <value>Private</value>
                </Data>
                <Data name="purpose">
                    <value>Irrigation</value>
                </Data>
                <Data name="construction">
                    <value>Man Made</value>
                </Data>
                <Data name="condition">
                    <value>Good</value>
                </Data>
                <Data name="print_order">
                    <value>114</value>
                </Data>
                <Data name="wb_id">
                    <value>Po/Curt/14</value>
                </Data>
                <Data name="storage_capacity">
                    <value>28.0</value>
                </Data>
                <Data name="wb_surface_id">
                    <value>3672</value>
                </Data>
                <Data name="created_at">
                    <value>2022-03-02 00:00:00</value>
                </Data>
                <Data name="updated_at">
                    <value>2023-07-22 14:03:14.307690</value>
                </Data>
                <Data name="book_id">
                    <value>2</value>
                </Data>
                <Data name="owners">
                    <value>Balkrisna Sivrama Korde
Madeva alias Madhav Shivram Korde
Manohar Siurama Karde
Pramod Shivram Korde</value>
                </Data>
                <Data name="label_x">
                    <value>989975.0</value>
                </Data>
                <Data name="label_y">
                    <value>999857.581436924</value>
                </Data>
            </ExtendedData>
            <Point id="34263">
                <coordinates>74.004513333,15.420001667,0.0</coordinates>
            </Point>
        </Placemark>
        <Placemark id="34296">
            <ExtendedData>
                <Data name="direction">
                    <value>https://maps.google.com?q=15.42044,74.00594&amp;t=h</value>
                </Data>
                <Data name="id">
                    <value>2627</value>
                </Data>
                <Data name="name">
                    <value>Kolme</value>
                </Data>
                <Data name="taluka">
                    <value>Ponda</value>
                </Data>
                <Data name="syno">
                    <value>10</value>
                </Data>
                <Data name="subdiv">
                    <value>0</value>
                </Data>
                <Data name="village">
                    <value>Curti</value>
                </Data>
                <Data name="latitude">
                    <value>15.42044</value>
                </Data>
                <Data name="longitude">
                    <value>74.00594</value>
                </Data>
                <Data name="photo_1">
                    <value>DCIM/20220302154926904.jpg</value>
                </Data>
                <Data name="photo_2">
                    <value>DCIM/20220302154944354.jpg</value>
                </Data>
                <Data name="constituency">
                    <value>21 - Ponda</value>
                </Data>
                <Data name="status">
                    <value>Completed</value>
                </Data>
                <Data name="panchayat">
                    <value>Curti-Khandepar</value>
                </Data>
                <Data name="wb_type">
                    <value>Pond</value>
                </Data>
                <Data name="owner_type">
                    <value>Private</value>
                </Data>
                <Data name="purpose">
                    <value>Irrigation</value>
                </Data>
                <Data name="construction">
                    <value>Natural/Man Made</value>
                </Data>
                <Data name="condition">
                    <value>Good</value>
                </Data>
                <Data name="print_order">
                    <value>027</value>
                </Data>
                <Data name="wb_id">
                    <value>Po/Curt/03</value>
                </Data>
                <Data name="storage_capacity">
                    <value>354.0</value>
                </Data>
                <Data name="wb_surface_id">
                    <value>2987</value>
                </Data>
                <Data name="created_at">
                    <value>2020-03-26 07:40:55</value>
                </Data>
                <Data name="updated_at">
                    <value>2023-07-22 14:03:14.307690</value>
                </Data>
                <Data name="book_id">
                    <value>2</value>
                </Data>
                <Data name="owners">
                    <value>Balkrisna Sivrama Korde
Madeva alias Madhav Shivram Korde
Manohar Siurama Karde
Pramod Shivram Korde</value>
                </Data>
                <Data name="label_x">
                    <value>989975.0</value>
                </Data>
                <Data name="label_y">
                    <value>998357.581436924</value>
                </Data>
            </ExtendedData>
            <Point id="34295">
                <coordinates>74.005944411,15.42043708,0.0</coordinates>
            </Point>
        </Placemark>
        <Placemark id="34328">
            <ExtendedData>
                <Data name="direction">
                    <value>https://maps.google.com?q=15.41993,74.00237&amp;t=h</value>
                </Data>
                <Data name="id">
                    <value>4561</value>
                </Data>
                <Data name="name">
                    <value>Kolme</value>
                </Data>
                <Data name="taluka">
                    <value>Ponda</value>
                </Data>
                <Data name="syno">
                    <value>10</value>
                </Data>
                <Data name="subdiv">
                    <value>0</value>
                </Data>
                <Data name="village">
                    <value>Curti</value>
                </Data>
                <Data name="latitude">
                    <value>15.41993</value>
                </Data>
                <Data name="longitude">
                    <value>74.00237</value>
                </Data>
                <Data name="photo_1">
                    <value>DCIM/20220302105120831.jpg</value>
                </Data>
                <Data name="photo_2">
                    <value>DCIM/20220302105131163.jpg</value>
                </Data>
                <Data name="constituency">
                    <value>21 - Ponda</value>
                </Data>
                <Data name="status">
                    <value>Completed</value>
                </Data>
                <Data name="panchayat">
                    <value>Curti-Khandepar</value>
                </Data>
                <Data name="wb_type">
                    <value>Tank</value>
                </Data>
                <Data name="owner_type">
                    <value>Private</value>
                </Data>
                <Data name="purpose">
                    <value>Irrigation</value>
                </Data>
                <Data name="construction">
                    <value>Man Made</value>
                </Data>
                <Data name="condition">
                    <value>Needs Maintenance</value>
                </Data>
                <Data name="print_order">
                    <value>113</value>
                </Data>
                <Data name="wb_id">
                    <value>Po/Curt/12</value>
                </Data>
                <Data name="storage_capacity">
                    <value>41.0</value>
                </Data>
                <Data name="wb_surface_id">
                    <value>3670</value>
                </Data>
                <Data name="created_at">
                    <value>2022-03-02 00:00:00</value>
                </Data>
                <Data name="updated_at">
                    <value>2023-07-22 14:03:14.307690</value>
                </Data>
                <Data name="book_id">
                    <value>2</value>
                </Data>
                <Data name="owners">
                    <value>Balkrisna Sivrama Korde
Madeva alias Madhav Shivram Korde
Manohar Siurama Karde
Pramod Shivram Korde</value>
                </Data>
                <Data name="label_x">
                    <value>989975.0</value>
                </Data>
                <Data name="label_y">
                    <value>1000607.581436924</value>
                </Data>
            </ExtendedData>
            <Point id="34327">
                <coordinates>74.002371667,15.419933333,0.0</coordinates>
            </Point>
        </Placemark>
        <Placemark id="34360">
            <ExtendedData>
                <Data name="direction">
                    <value>https://maps.google.com?q=15.40821,74.02159&amp;t=h</value>
                </Data>
                <Data name="id">
                    <value>4456</value>
                </Data>
                <Data name="name">
                    <value>Mesta Waddo or Nomosh Morod</value>
                </Data>
                <Data name="taluka">
                    <value>Ponda</value>
                </Data>
                <Data name="syno">
                    <value>73</value>
                </Data>
                <Data name="subdiv">
                    <value>1</value>
                </Data>
                <Data name="village">
                    <value>Curti</value>
                </Data>
                <Data name="latitude">
                    <value>15.40821</value>
                </Data>
                <Data name="longitude">
                    <value>74.02159</value>
                </Data>
                <Data name="photo_1">
                    <value>DCIM/20220302144207136.jpg</value>
                </Data>
                <Data name="photo_2">
                    <value>DCIM/20220302144216403.jpg</value>
                </Data>
                <Data name="constituency">
                    <value>21 - Ponda</value>
                </Data>
                <Data name="status">
                    <value>Completed</value>
                </Data>
                <Data name="panchayat">
                    <value>Curti-Khandepar</value>
                </Data>
                <Data name="wb_type">
                    <value>Pond</value>
                </Data>
                <Data name="owner_type">
                    <value>Private</value>
                </Data>
                <Data name="purpose">
                    <value>Irrigation</value>
                </Data>
                <Data name="construction">
                    <value>Man Made</value>
                </Data>
                <Data name="condition">
                    <value>Good</value>
                </Data>
                <Data name="print_order">
                    <value>028</value>
                </Data>
                <Data name="wb_id">
                    <value>Po/Curt/04</value>
                </Data>
                <Data name="storage_capacity">
                    <value>297.0</value>
                </Data>
                <Data name="wb_surface_id">
                    <value>3543</value>
                </Data>
                <Data name="created_at">
                    <value>2022-02-21 01:10:51.085931</value>
                </Data>
                <Data name="updated_at">
                    <value>2023-07-22 14:03:14.307690</value>
                </Data>
                <Data name="book_id">
                    <value>2</value>
                </Data>
                <Data name="owners">
                    <value>Pandurang Govind Tilvi</value>
                </Data>
                <Data name="label_x">
                    <value>1011650.0</value>
                </Data>
                <Data name="label_y">
                    <value>997953.2117646063</value>
                </Data>
            </ExtendedData>
            <Point id="34359">
                <coordinates>74.021593678,15.408206912,0.0</coordinates>
            </Point>
        </Placemark>
        <Placemark id="34392">
            <ExtendedData>
                <Data name="direction">
                    <value>https://maps.google.com?q=15.4194,74.0047&amp;t=h</value>
                </Data>
                <Data name="id">
                    <value>2626</value>
                </Data>
                <Data name="name">
                    <value>Kolme</value>
                </Data>
                <Data name="taluka">
                    <value>Ponda</value>
                </Data>
                <Data name="syno">
                    <value>10</value>
                </Data>
                <Data name="subdiv">
                    <value>0</value>
                </Data>
                <Data name="village">
                    <value>Curti</value>
                </Data>
                <Data name="latitude">
                    <value>15.4194</value>
                </Data>
                <Data name="longitude">
                    <value>74.0047</value>
                </Data>
                <Data name="photo_1">
                    <value>DCIM/20220302154309445.jpg</value>
                </Data>
                <Data name="photo_2">
                    <value>DCIM/20220302154349575.jpg</value>
                </Data>
                <Data name="constituency">
                    <value>21 - Ponda</value>
                </Data>
                <Data name="status">
                    <value>Completed</value>
                </Data>
                <Data name="panchayat">
                    <value>Curti-Khandepar</value>
                </Data>
                <Data name="wb_type">
                    <value>Tank</value>
                </Data>
                <Data name="owner_type">
                    <value>Private</value>
                </Data>
                <Data name="purpose">
                    <value>Irrigation</value>
                </Data>
                <Data name="construction">
                    <value>Natural/Man Made</value>
                </Data>
                <Data name="condition">
                    <value>Good</value>
                </Data>
                <Data name="print_order">
                    <value>108</value>
                </Data>
                <Data name="wb_id">
                    <value>Po/Curt/02</value>
                </Data>
                <Data name="storage_capacity">
                    <value>1150.0</value>
                </Data>
                <Data name="wb_surface_id">
                    <value>2988</value>
                </Data>
                <Data name="created_at">
                    <value>2020-03-26 07:40:54</value>
                </Data>
                <Data name="updated_at">
                    <value>2023-07-22 14:03:14.307690</value>
                </Data>
                <Data name="book_id">
                    <value>2</value>
                </Data>
                <Data name="owners">
                    <value>Balkrisna Sivrama Korde
Madeva alias Madhav Shivram Korde
Manohar Siurama Karde
Pramod Shivram Korde</value>
                </Data>
                <Data name="label_x">
                    <value>989975.0</value>
                </Data>
                <Data name="label_y">
                    <value>998107.581436924</value>
                </Data>
            </ExtendedData>
            <Point id="34391">
                <coordinates>74.0047,15.4194,0.0</coordinates>
            </Point>
        </Placemark>
        <Placemark id="34424">
            <ExtendedData>
                <Data name="direction">
                    <value>https://maps.google.com?q=15.42068,74.00074&amp;t=h</value>
                </Data>
                <Data name="id">
                    <value>2521</value>
                </Data>
                <Data name="name">
                    <value>Magilwada, Chirpute, Ward No.9, Veling; Kolme</value>
                </Data>
                <Data name="taluka">
                    <value>Ponda</value>
                </Data>
                <Data name="syno">
                    <value>10</value>
                </Data>
                <Data name="subdiv">
                    <value>0</value>
                </Data>
                <Data name="village">
                    <value>Curti</value>
                </Data>
                <Data name="latitude">
                    <value>15.42068</value>
                </Data>
                <Data name="longitude">
                    <value>74.00074</value>
                </Data>
                <Data name="photo_1">
                    <value>DCIM/20220302163939713.jpg</value>
                </Data>
                <Data name="photo_2">
                    <value>DCIM/20220302163957969.jpg</value>
                </Data>
                <Data name="constituency">
                    <value>21 - Ponda</value>
                </Data>
                <Data name="status">
                    <value>Completed</value>
                </Data>
                <Data name="panchayat">
                    <value>Curti-Khandepar</value>
                </Data>
                <Data name="wb_type">
                    <value>Lake</value>
                </Data>
                <Data name="owner_type">
                    <value>Private</value>
                </Data>
                <Data name="purpose">
                    <value>Irrigation</value>
                </Data>
                <Data name="construction">
                    <value>Man Made</value>
                </Data>
                <Data name="condition">
                    <value>Good</value>
                </Data>
                <Data name="print_order">
                    <value>004</value>
                </Data>
                <Data name="wb_id">
                    <value>Po/Curt/01</value>
                </Data>
                <Data name="storage_capacity">
                    <value>1372.0</value>
                </Data>
                <Data name="wb_surface_id">
                    <value>2823</value>
                </Data>
                <Data name="created_at">
                    <value>2020-03-26 07:23:19</value>
                </Data>
                <Data name="updated_at">
                    <value>2023-07-22 14:03:14.307690</value>
                </Data>
                <Data name="book_id">
                    <value>2</value>
                </Data>
                <Data name="owners">
                    <value>Balkrisna Sivrama Korde
Madeva alias Madhav Shivram Korde
Manohar Siurama Karde
Pramod Shivram Korde</value>
                </Data>
                <Data name="label_x">
                    <value>989975.0</value>
                </Data>
                <Data name="label_y">
                    <value>1000857.581436924</value>
                </Data>
            </ExtendedData>
            <Point id="34423">
                <coordinates>74.00074,15.42068,0.0</coordinates>
            </Point>
        </Placemark>
        <Placemark id="34456">
            <ExtendedData>
                <Data name="direction">
                    <value>https://maps.google.com?q=15.42332,74.02115&amp;t=h</value>
                </Data>
                <Data name="id">
                    <value>4640</value>
                </Data>
                <Data name="name">
                    <value>Ocemel Khond, Lakh Mali, Taenbdi Mati</value>
                </Data>
                <Data name="taluka">
                    <value>Ponda</value>
                </Data>
                <Data name="syno">
                    <value>23</value>
                </Data>
                <Data name="subdiv">
                    <value>0</value>
                </Data>
                <Data name="village">
                    <value>Curti</value>
                </Data>
                <Data name="latitude">
                    <value>15.42332</value>
                </Data>
                <Data name="longitude">
                    <value>74.02115</value>
                </Data>
                <Data name="photo_1">
                    <value>DCIM/20220320164636689.jpg</value>
                </Data>
                <Data name="photo_2">
                    <value>DCIM/20220320164656543.jpg</value>
                </Data>
                <Data name="constituency">
                    <value>21 - Ponda</value>
                </Data>
                <Data name="status">
                    <value>Completed</value>
                </Data>
                <Data name="panchayat">
                    <value>Curti-Khandepar</value>
                </Data>
                <Data name="wb_type">
                    <value>Tank</value>
                </Data>
                <Data name="owner_type">
                    <value>Private</value>
                </Data>
                <Data name="purpose">
                    <value>Irrigation</value>
                </Data>
                <Data name="construction">
                    <value>Man Made</value>
                </Data>
                <Data name="condition">
                    <value>Good</value>
                </Data>
                <Data name="print_order">
                    <value>112</value>
                </Data>
                <Data name="wb_id">
                    <value>Po/Curt/10</value>
                </Data>
                <Data name="storage_capacity">
                    <value>59.0</value>
                </Data>
                <Data name="wb_surface_id">
                    <value>3717</value>
                </Data>
                <Data name="created_at">
                    <value>2022-03-20 00:00:00</value>
                </Data>
                <Data name="updated_at">
                    <value>2023-07-22 14:03:14.307690</value>
                </Data>
                <Data name="book_id">
                    <value>2</value>
                </Data>
                <Data name="owners">
                    <value>Shripad Shriniwas Naique</value>
                </Data>
                <Data name="label_x">
                    <value>1011650.0</value>
                </Data>
                <Data name="label_y">
                    <value>999531.1513244724</value>
                </Data>
            </ExtendedData>
            <Point id="34455">
                <coordinates>74.021146667,15.42332,0.0</coordinates>
            </Point>
        </Placemark>
    </Document>
</kml>
