<?xml version="1.0" encoding="UTF-8"?>
<kml xmlns="http://www.opengis.net/kml/2.2" xmlns:gx="http://www.google.com/kml/ext/2.2">
    <Document id="34586">
        <Placemark id="34588">
            <ExtendedData>
                <Data name="direction">
                    <value>https://maps.google.com?q=15.44049,74.10112&amp;t=h</value>
                </Data>
                <Data name="id">
                    <value>407</value>
                </Data>
                <Data name="name">
                    <value>Bondla WLS</value>
                </Data>
                <Data name="taluka">
                    <value>Ponda</value>
                </Data>
                <Data name="syno">
                    <value>33</value>
                </Data>
                <Data name="subdiv">
                    <value>1</value>
                </Data>
                <Data name="village">
                    <value>Gangem</value>
                </Data>
                <Data name="latitude">
                    <value>15.44049</value>
                </Data>
                <Data name="longitude">
                    <value>74.10112</value>
                </Data>
                <Data name="photo_1">
                    <value>DCIM/20220331101619268.jpg</value>
                </Data>
                <Data name="photo_2">
                    <value>DCIM/20220331082317452.jpg</value>
                </Data>
                <Data name="constituency">
                    <value>19 - Valpoi</value>
                </Data>
                <Data name="status">
                    <value>Completed</value>
                </Data>
                <Data name="panchayat">
                    <value>Usgao-Ganjem</value>
                </Data>
                <Data name="wb_type">
                    <value>Tank</value>
                </Data>
                <Data name="owner_type">
                    <value>Public</value>
                </Data>
                <Data name="purpose">
                    <value>Animal Drinking</value>
                </Data>
                <Data name="construction">
                    <value>Man Made</value>
                </Data>
                <Data name="condition">
                    <value>Good</value>
                </Data>
                <Data name="print_order">
                    <value>117</value>
                </Data>
                <Data name="wb_id">
                    <value>Po/Gang/01</value>
                </Data>
                <Data name="storage_capacity">
                    <value>13864.0</value>
                </Data>
                <Data name="wb_surface_id">
                    <value>376</value>
                </Data>
                <Data name="created_at">
                    <value>2020-02-28 15:24:34</value>
                </Data>
                <Data name="updated_at">
                    <value>2023-07-22 14:03:14.307690</value>
                </Data>
                <Data name="book_id">
                    <value>2</value>
                </Data>
                <Data name="owners">
                    <value>Government of Goa</value>
                </Data>
                <Data name="label_x">
                    <value>1011650.0</value>
                </Data>
                <Data name="label_y">
                    <value>1000971.011069658</value>
                </Data>
            </ExtendedData>
            <Point id="34587">
                <coordinates>74.101116458,15.44049054,0.0</coordinates>
            </Point>
        </Placemark>
        <Placemark id="34620">
            <ExtendedData>
                <Data name="direction">
                    <value>https://maps.google.com?q=15.46514,74.08405&amp;t=h</value>
                </Data>
                <Data name="id">
                    <value>4628</value>
                </Data>
                <Data name="name">
                    <value>Nagser</value>
                </Data>
                <Data name="taluka">
                    <value>Ponda</value>
                </Data>
                <Data name="syno">
                    <value>22</value>
                </Data>
                <Data name="subdiv">
                    <value>1</value>
                </Data>
                <Data name="village">
                    <value>Gangem</value>
                </Data>
                <Data name="latitude">
                    <value>15.46514</value>
                </Data>
                <Data name="longitude">
                    <value>74.08405</value>
                </Data>
                <Data name="photo_1">
                    <value>DCIM/20220320034503522.jpg</value>
                </Data>
                <Data name="photo_2">
                    <value>DCIM/20220320034513117.jpg</value>
                </Data>
                <Data name="constituency">
                    <value>19 - Valpoi</value>
                </Data>
                <Data name="status">
                    <value>Completed</value>
                </Data>
                <Data name="panchayat">
                    <value>Usgao-Ganjem</value>
                </Data>
                <Data name="wb_type">
                    <value>Tank</value>
                </Data>
                <Data name="owner_type">
                    <value>Private</value>
                </Data>
                <Data name="purpose">
                    <value>Irrigation</value>
                </Data>
                <Data name="construction">
                    <value>Man Made</value>
                </Data>
                <Data name="condition">
                    <value>Good</value>
                </Data>
                <Data name="print_order">
                    <value>118</value>
                </Data>
                <Data name="wb_id">
                    <value>Po/Gang/02</value>
                </Data>
                <Data name="storage_capacity">
                    <value>51.0</value>
                </Data>
                <Data name="wb_surface_id">
                    <value>3704</value>
                </Data>
                <Data name="created_at">
                    <value>2022-03-20 00:00:00</value>
                </Data>
                <Data name="updated_at">
                    <value>2023-07-22 14:03:14.307690</value>
                </Data>
                <Data name="book_id">
                    <value>2</value>
                </Data>
                <Data name="owners">
                    <value>Buki Pandurang Parab Gaonkar
Devidas Yeshwant Gaonkar
Shivdas Atmaram Shet Verenkar
Tulshidas Yeshwant Gaonkar</value>
                </Data>
                <Data name="label_x">
                    <value>1011650.0</value>
                </Data>
                <Data name="label_y">
                    <value>1000471.011069658</value>
                </Data>
            </ExtendedData>
            <Point id="34619">
                <coordinates>74.084046177,15.465143172,0.0</coordinates>
            </Point>
        </Placemark>
    </Document>
</kml>
