<?xml version="1.0" encoding="UTF-8"?>
<kml xmlns="http://www.opengis.net/kml/2.2" xmlns:gx="http://www.google.com/kml/ext/2.2">
    <Document id="34974">
        <Placemark id="34976">
            <ExtendedData>
                <Data name="direction">
                    <value>https://maps.google.com?q=15.36972,74.05821&amp;t=h</value>
                </Data>
                <Data name="id">
                    <value>4510</value>
                </Data>
                <Data name="name">
                    <value>Kelbaithane</value>
                </Data>
                <Data name="taluka">
                    <value>Ponda</value>
                </Data>
                <Data name="syno">
                    <value>99</value>
                </Data>
                <Data name="subdiv">
                    <value>1</value>
                </Data>
                <Data name="village">
                    <value>Nirancal</value>
                </Data>
                <Data name="latitude">
                    <value>15.36972</value>
                </Data>
                <Data name="longitude">
                    <value>74.05821</value>
                </Data>
                <Data name="photo_1">
                    <value>DCIM/20220329174216792.jpg</value>
                </Data>
                <Data name="photo_2">
                    <value>DCIM/20220329174243164.jpg</value>
                </Data>
                <Data name="constituency">
                    <value>22 - Siroda</value>
                </Data>
                <Data name="status">
                    <value>Completed</value>
                </Data>
                <Data name="panchayat">
                    <value>Betora-Nirancal</value>
                </Data>
                <Data name="wb_type">
                    <value>Tank</value>
                </Data>
                <Data name="owner_type">
                    <value>Private</value>
                </Data>
                <Data name="purpose">
                    <value>Irrigation</value>
                </Data>
                <Data name="construction">
                    <value>Natural/Man Made</value>
                </Data>
                <Data name="condition">
                    <value>Good</value>
                </Data>
                <Data name="print_order">
                    <value>126</value>
                </Data>
                <Data name="wb_id">
                    <value>Po/Nira/10</value>
                </Data>
                <Data name="storage_capacity">
                    <value>145.0</value>
                </Data>
                <Data name="wb_surface_id">
                    <value>3596</value>
                </Data>
                <Data name="created_at">
                    <value>2022-02-22 09:26:02.813006</value>
                </Data>
                <Data name="updated_at">
                    <value>2023-07-22 14:03:14.307690</value>
                </Data>
                <Data name="book_id">
                    <value>2</value>
                </Data>
                <Data name="owners">
                    <value>1-Sadashiv Tukaram Prabhu
2-Vassant Tukaram Prabhu</value>
                </Data>
                <Data name="label_x">
                    <value>1011650.0</value>
                </Data>
                <Data name="label_y">
                    <value>995971.011069658</value>
                </Data>
            </ExtendedData>
            <Point id="34975">
                <coordinates>74.058207376,15.369724921,0.0</coordinates>
            </Point>
        </Placemark>
        <Placemark id="35008">
            <ExtendedData>
                <Data name="direction">
                    <value>https://maps.google.com?q=15.36424,74.07075&amp;t=h</value>
                </Data>
                <Data name="id">
                    <value>2520</value>
                </Data>
                <Data name="name">
                    <value>Shivyachi Talli, Nirankal; Shel</value>
                </Data>
                <Data name="taluka">
                    <value>Ponda</value>
                </Data>
                <Data name="syno">
                    <value>47</value>
                </Data>
                <Data name="subdiv">
                    <value>0</value>
                </Data>
                <Data name="village">
                    <value>Nirancal</value>
                </Data>
                <Data name="latitude">
                    <value>15.36424</value>
                </Data>
                <Data name="longitude">
                    <value>74.07075</value>
                </Data>
                <Data name="photo_1">
                    <value>DCIM/20220329170022328.jpg</value>
                </Data>
                <Data name="photo_2">
                    <value>DCIM/20220329170033181.jpg</value>
                </Data>
                <Data name="constituency">
                    <value>22 - Siroda</value>
                </Data>
                <Data name="status">
                    <value>Completed</value>
                </Data>
                <Data name="panchayat">
                    <value>Betora-Nirancal</value>
                </Data>
                <Data name="wb_type">
                    <value>Tank</value>
                </Data>
                <Data name="owner_type">
                    <value>Private</value>
                </Data>
                <Data name="purpose">
                    <value>Irrigation</value>
                </Data>
                <Data name="construction">
                    <value>Man Made</value>
                </Data>
                <Data name="condition">
                    <value>Needs Maintenance</value>
                </Data>
                <Data name="print_order">
                    <value>120</value>
                </Data>
                <Data name="wb_id">
                    <value>Po/Nira/01</value>
                </Data>
                <Data name="storage_capacity">
                    <value>6240.0</value>
                </Data>
                <Data name="wb_surface_id">
                    <value>3040</value>
                </Data>
                <Data name="created_at">
                    <value>2020-03-26 07:23:19</value>
                </Data>
                <Data name="updated_at">
                    <value>2023-07-22 14:03:14.307690</value>
                </Data>
                <Data name="book_id">
                    <value>2</value>
                </Data>
                <Data name="owners">
                    <value>1)Shridhar Bhanu Samant
2)Bhicaji Bhanu Samant
3)Madhuker Bhanu Samant
4)Govind Bhanu Samant</value>
                </Data>
                <Data name="label_x">
                    <value>1011650.0</value>
                </Data>
                <Data name="label_y">
                    <value>996721.011069658</value>
                </Data>
            </ExtendedData>
            <Point id="35007">
                <coordinates>74.07075,15.36424,0.0</coordinates>
            </Point>
        </Placemark>
        <Placemark id="35040">
            <ExtendedData>
                <Data name="direction">
                    <value>https://maps.google.com?q=15.36793,74.06384&amp;t=h</value>
                </Data>
                <Data name="id">
                    <value>4369</value>
                </Data>
                <Data name="name">
                    <value>Vaitlgal</value>
                </Data>
                <Data name="taluka">
                    <value>Ponda</value>
                </Data>
                <Data name="syno">
                    <value>75</value>
                </Data>
                <Data name="subdiv">
                    <value>0</value>
                </Data>
                <Data name="village">
                    <value>Nirancal</value>
                </Data>
                <Data name="latitude">
                    <value>15.36793</value>
                </Data>
                <Data name="longitude">
                    <value>74.06384</value>
                </Data>
                <Data name="photo_1">
                    <value>DCIM/20220329172354190.jpg</value>
                </Data>
                <Data name="photo_2">
                    <value>DCIM/20220329172421995.jpg</value>
                </Data>
                <Data name="constituency">
                    <value>22 - Siroda</value>
                </Data>
                <Data name="status">
                    <value>Completed</value>
                </Data>
                <Data name="panchayat">
                    <value>Betora-Nirancal</value>
                </Data>
                <Data name="wb_type">
                    <value>Tank</value>
                </Data>
                <Data name="owner_type">
                    <value>Private</value>
                </Data>
                <Data name="purpose">
                    <value>Irrigation</value>
                </Data>
                <Data name="construction">
                    <value>Man Made</value>
                </Data>
                <Data name="condition">
                    <value>Good</value>
                </Data>
                <Data name="print_order">
                    <value>125</value>
                </Data>
                <Data name="wb_id">
                    <value>Po/Nira/09</value>
                </Data>
                <Data name="storage_capacity">
                    <value>153.0</value>
                </Data>
                <Data name="wb_surface_id">
                    <value>3345</value>
                </Data>
                <Data name="created_at">
                    <value>2022-02-02 00:00:00</value>
                </Data>
                <Data name="updated_at">
                    <value>2023-07-22 14:03:14.307690</value>
                </Data>
                <Data name="book_id">
                    <value>2</value>
                </Data>
                <Data name="owners">
                    <value>Madhuker Bhanu Samant</value>
                </Data>
                <Data name="label_x">
                    <value>1011650.0</value>
                </Data>
                <Data name="label_y">
                    <value>997471.011069658</value>
                </Data>
            </ExtendedData>
            <Point id="35039">
                <coordinates>74.063842319,15.367929211,0.0</coordinates>
            </Point>
        </Placemark>
        <Placemark id="35072">
            <ExtendedData>
                <Data name="direction">
                    <value>https://maps.google.com?q=15.3673,74.0641&amp;t=h</value>
                </Data>
                <Data name="id">
                    <value>4281</value>
                </Data>
                <Data name="name">
                    <value>Vaitlgal</value>
                </Data>
                <Data name="taluka">
                    <value>Ponda</value>
                </Data>
                <Data name="syno">
                    <value>75</value>
                </Data>
                <Data name="subdiv">
                    <value>0</value>
                </Data>
                <Data name="village">
                    <value>Nirancal</value>
                </Data>
                <Data name="latitude">
                    <value>15.3673</value>
                </Data>
                <Data name="longitude">
                    <value>74.0641</value>
                </Data>
                <Data name="photo_1">
                    <value>DCIM/20220329172028538.jpg</value>
                </Data>
                <Data name="photo_2">
                    <value>DCIM/20220329172055562.jpg</value>
                </Data>
                <Data name="constituency">
                    <value>22 - Siroda</value>
                </Data>
                <Data name="status">
                    <value>Completed</value>
                </Data>
                <Data name="panchayat">
                    <value>Betora-Nirancal</value>
                </Data>
                <Data name="wb_type">
                    <value>Tank</value>
                </Data>
                <Data name="owner_type">
                    <value>Private</value>
                </Data>
                <Data name="purpose">
                    <value>Irrigation</value>
                </Data>
                <Data name="construction">
                    <value>Natural</value>
                </Data>
                <Data name="condition">
                    <value>Good</value>
                </Data>
                <Data name="print_order">
                    <value>122</value>
                </Data>
                <Data name="wb_id">
                    <value>Po/Nira/05</value>
                </Data>
                <Data name="storage_capacity">
                    <value>566.0</value>
                </Data>
                <Data name="wb_surface_id">
                    <value>3234</value>
                </Data>
                <Data name="created_at">
                    <value>2021-12-31 08:34:21.108355</value>
                </Data>
                <Data name="updated_at">
                    <value>2023-07-22 14:03:14.307690</value>
                </Data>
                <Data name="book_id">
                    <value>2</value>
                </Data>
                <Data name="owners">
                    <value>Madhuker Bhanu Samant</value>
                </Data>
                <Data name="label_x">
                    <value>1011650.0</value>
                </Data>
                <Data name="label_y">
                    <value>996971.011069658</value>
                </Data>
            </ExtendedData>
            <Point id="35071">
                <coordinates>74.06410073,15.367297117,0.0</coordinates>
            </Point>
        </Placemark>
        <Placemark id="35104">
            <ExtendedData>
                <Data name="direction">
                    <value>https://maps.google.com?q=15.36121,74.0568&amp;t=h</value>
                </Data>
                <Data name="id">
                    <value>4671</value>
                </Data>
                <Data name="name">
                    <value>Kurvalem</value>
                </Data>
                <Data name="taluka">
                    <value>Ponda</value>
                </Data>
                <Data name="syno">
                    <value>72</value>
                </Data>
                <Data name="subdiv">
                    <value>0</value>
                </Data>
                <Data name="village">
                    <value>Nirancal</value>
                </Data>
                <Data name="latitude">
                    <value>15.36121</value>
                </Data>
                <Data name="longitude">
                    <value>74.0568</value>
                </Data>
                <Data name="photo_1">
                    <value>DCIM/20220331174559151.jpg</value>
                </Data>
                <Data name="photo_2">
                    <value>DCIM/20220331174627605.jpg</value>
                </Data>
                <Data name="constituency">
                    <value>22 - Siroda</value>
                </Data>
                <Data name="status">
                    <value>Completed</value>
                </Data>
                <Data name="panchayat">
                    <value>Betora-Nirancal</value>
                </Data>
                <Data name="wb_type">
                    <value>Tank</value>
                </Data>
                <Data name="owner_type">
                    <value>Private</value>
                </Data>
                <Data name="purpose">
                    <value>Irrigation</value>
                </Data>
                <Data name="construction">
                    <value>Natural</value>
                </Data>
                <Data name="condition">
                    <value>Needs Maintenance</value>
                </Data>
                <Data name="print_order">
                    <value>124</value>
                </Data>
                <Data name="wb_id">
                    <value>Po/Nira/08</value>
                </Data>
                <Data name="storage_capacity">
                    <value>166.0</value>
                </Data>
                <Data name="wb_surface_id">
                    <value>3745</value>
                </Data>
                <Data name="created_at">
                    <value>2022-03-31 00:00:00</value>
                </Data>
                <Data name="updated_at">
                    <value>2023-07-22 14:03:14.307690</value>
                </Data>
                <Data name="book_id">
                    <value>2</value>
                </Data>
                <Data name="owners">
                    <value>1-Gopinath Vaman Prabhu Sawker
2-Subhash Narayan Prabhu Sawker
3- Yeshwant Narayan Prabhu Sawker</value>
                </Data>
                <Data name="label_x">
                    <value>1011650.0</value>
                </Data>
                <Data name="label_y">
                    <value>995471.011069658</value>
                </Data>
            </ExtendedData>
            <Point id="35103">
                <coordinates>74.0568,15.361213333,0.0</coordinates>
            </Point>
        </Placemark>
        <Placemark id="35136">
            <ExtendedData>
                <Data name="direction">
                    <value>https://maps.google.com?q=15.36731,74.06452&amp;t=h</value>
                </Data>
                <Data name="id">
                    <value>4658</value>
                </Data>
                <Data name="name">
                    <value>Vaitle Gal</value>
                </Data>
                <Data name="taluka">
                    <value>Ponda</value>
                </Data>
                <Data name="syno">
                    <value>77</value>
                </Data>
                <Data name="subdiv">
                    <value>2</value>
                </Data>
                <Data name="village">
                    <value>Nirancal</value>
                </Data>
                <Data name="latitude">
                    <value>15.36731</value>
                </Data>
                <Data name="longitude">
                    <value>74.06452</value>
                </Data>
                <Data name="photo_1">
                    <value>DCIM/20220329172843848.jpg</value>
                </Data>
                <Data name="photo_2">
                    <value>DCIM/20220329172904393.jpg</value>
                </Data>
                <Data name="constituency">
                    <value>22 - Siroda</value>
                </Data>
                <Data name="status">
                    <value>Completed</value>
                </Data>
                <Data name="panchayat">
                    <value>Betora-Nirancal</value>
                </Data>
                <Data name="wb_type">
                    <value>Tank</value>
                </Data>
                <Data name="owner_type">
                    <value>Private</value>
                </Data>
                <Data name="purpose">
                    <value>Irrigation</value>
                </Data>
                <Data name="construction">
                    <value>Natural/Man Made</value>
                </Data>
                <Data name="condition">
                    <value>Good</value>
                </Data>
                <Data name="print_order">
                    <value>123</value>
                </Data>
                <Data name="wb_id">
                    <value>Po/Nira/07</value>
                </Data>
                <Data name="storage_capacity">
                    <value>222.0</value>
                </Data>
                <Data name="wb_surface_id">
                    <value>3748</value>
                </Data>
                <Data name="created_at">
                    <value>2022-03-29 00:00:00</value>
                </Data>
                <Data name="updated_at">
                    <value>2023-07-22 14:03:14.307690</value>
                </Data>
                <Data name="book_id">
                    <value>2</value>
                </Data>
                <Data name="owners">
                    <value>1-Madhukar Bhanu Samant
2-Datta Tukaram Prabhu</value>
                </Data>
                <Data name="label_x">
                    <value>1011650.0</value>
                </Data>
                <Data name="label_y">
                    <value>997221.011069658</value>
                </Data>
            </ExtendedData>
            <Point id="35135">
                <coordinates>74.064515776,15.367307981,0.0</coordinates>
            </Point>
        </Placemark>
        <Placemark id="35168">
            <ExtendedData>
                <Data name="direction">
                    <value>https://maps.google.com?q=15.36063,74.05707&amp;t=h</value>
                </Data>
                <Data name="id">
                    <value>4670</value>
                </Data>
                <Data name="name">
                    <value>Kurvalem</value>
                </Data>
                <Data name="taluka">
                    <value>Ponda</value>
                </Data>
                <Data name="syno">
                    <value>67</value>
                </Data>
                <Data name="subdiv">
                    <value>0</value>
                </Data>
                <Data name="village">
                    <value>Nirancal</value>
                </Data>
                <Data name="latitude">
                    <value>15.36063</value>
                </Data>
                <Data name="longitude">
                    <value>74.05707</value>
                </Data>
                <Data name="photo_1">
                    <value>DCIM/20220331174343166.jpg</value>
                </Data>
                <Data name="photo_2">
                    <value>DCIM/20220331174417940.jpg</value>
                </Data>
                <Data name="constituency">
                    <value>22 - Siroda</value>
                </Data>
                <Data name="status">
                    <value>Completed</value>
                </Data>
                <Data name="panchayat">
                    <value>Betora-Nirancal</value>
                </Data>
                <Data name="wb_type">
                    <value>Tank</value>
                </Data>
                <Data name="owner_type">
                    <value>Private</value>
                </Data>
                <Data name="purpose">
                    <value>Storage</value>
                </Data>
                <Data name="construction">
                    <value>Natural</value>
                </Data>
                <Data name="condition">
                    <value>Good</value>
                </Data>
                <Data name="print_order">
                    <value>127</value>
                </Data>
                <Data name="wb_id">
                    <value>Po/Nira/11</value>
                </Data>
                <Data name="storage_capacity">
                    <value>84.0</value>
                </Data>
                <Data name="wb_surface_id">
                    <value>3746</value>
                </Data>
                <Data name="created_at">
                    <value>2022-03-31 00:00:00</value>
                </Data>
                <Data name="updated_at">
                    <value>2023-07-22 14:03:14.307690</value>
                </Data>
                <Data name="book_id">
                    <value>2</value>
                </Data>
                <Data name="owners">
                    <value>1-Gopinath Vaman Prabhu Sawker
2-Subhash Narayan Prabhu Sawker
3- Yeshwant Narayan Prabhu Sawker</value>
                </Data>
                <Data name="label_x">
                    <value>1011650.0</value>
                </Data>
                <Data name="label_y">
                    <value>995221.011069658</value>
                </Data>
            </ExtendedData>
            <Point id="35167">
                <coordinates>74.057071667,15.360633333,0.0</coordinates>
            </Point>
        </Placemark>
        <Placemark id="35200">
            <ExtendedData>
                <Data name="direction">
                    <value>https://maps.google.com?q=15.36857,74.06603&amp;t=h</value>
                </Data>
                <Data name="id">
                    <value>4458</value>
                </Data>
                <Data name="name">
                    <value>Tamso Mal</value>
                </Data>
                <Data name="taluka">
                    <value>Ponda</value>
                </Data>
                <Data name="syno">
                    <value>84</value>
                </Data>
                <Data name="subdiv">
                    <value>1</value>
                </Data>
                <Data name="village">
                    <value>Nirancal</value>
                </Data>
                <Data name="latitude">
                    <value>15.36857</value>
                </Data>
                <Data name="longitude">
                    <value>74.06603</value>
                </Data>
                <Data name="photo_1">
                    <value>DCIM/20220329171455501.jpg</value>
                </Data>
                <Data name="photo_2">
                    <value>DCIM/20220329171517020.jpg</value>
                </Data>
                <Data name="constituency">
                    <value>22 - Siroda</value>
                </Data>
                <Data name="status">
                    <value>Completed</value>
                </Data>
                <Data name="panchayat">
                    <value>Betora-Nirancal</value>
                </Data>
                <Data name="wb_type">
                    <value>Tank</value>
                </Data>
                <Data name="owner_type">
                    <value>Private</value>
                </Data>
                <Data name="purpose">
                    <value>Irrigation</value>
                </Data>
                <Data name="construction">
                    <value>Natural</value>
                </Data>
                <Data name="condition">
                    <value>Good</value>
                </Data>
                <Data name="print_order">
                    <value>121</value>
                </Data>
                <Data name="wb_id">
                    <value>Po/Nira/04</value>
                </Data>
                <Data name="storage_capacity">
                    <value>898.0</value>
                </Data>
                <Data name="wb_surface_id">
                    <value>3545</value>
                </Data>
                <Data name="created_at">
                    <value>2022-02-21 01:15:24.798347</value>
                </Data>
                <Data name="updated_at">
                    <value>2023-07-22 14:03:14.307690</value>
                </Data>
                <Data name="book_id">
                    <value>2</value>
                </Data>
                <Data name="owners">
                    <value>1-Shri Kamashxi Devasthan of Shiroda</value>
                </Data>
                <Data name="label_x">
                    <value>1011650.0</value>
                </Data>
                <Data name="label_y">
                    <value>997721.011069658</value>
                </Data>
            </ExtendedData>
            <Point id="35199">
                <coordinates>74.066025848,15.368567124,0.0</coordinates>
            </Point>
        </Placemark>
        <Placemark id="35232">
            <ExtendedData>
                <Data name="direction">
                    <value>https://maps.google.com?q=15.34774,74.10382&amp;t=h</value>
                </Data>
                <Data name="id">
                    <value>4509</value>
                </Data>
                <Data name="name">
                    <value>Donva Kadil Ghal</value>
                </Data>
                <Data name="taluka">
                    <value>Ponda</value>
                </Data>
                <Data name="syno">
                    <value>197</value>
                </Data>
                <Data name="subdiv">
                    <value>1-A</value>
                </Data>
                <Data name="village">
                    <value>Nirancal</value>
                </Data>
                <Data name="latitude">
                    <value>15.34774</value>
                </Data>
                <Data name="longitude">
                    <value>74.10382</value>
                </Data>
                <Data name="photo_1">
                    <value>DCIM/20220329150758892.jpg</value>
                </Data>
                <Data name="photo_2">
                    <value>DCIM/20220329150827072.jpg</value>
                </Data>
                <Data name="constituency">
                    <value>22 - Siroda</value>
                </Data>
                <Data name="status">
                    <value>Completed</value>
                </Data>
                <Data name="panchayat">
                    <value>Betora-Nirancal</value>
                </Data>
                <Data name="wb_type">
                    <value>Pond</value>
                </Data>
                <Data name="owner_type">
                    <value>Private</value>
                </Data>
                <Data name="purpose">
                    <value>Irrigation</value>
                </Data>
                <Data name="construction">
                    <value>Natural</value>
                </Data>
                <Data name="condition">
                    <value>Needs Maintenance</value>
                </Data>
                <Data name="print_order">
                    <value>031</value>
                </Data>
                <Data name="wb_id">
                    <value>Po/Nira/02</value>
                </Data>
                <Data name="storage_capacity">
                    <value>1998.0</value>
                </Data>
                <Data name="wb_surface_id">
                    <value>3594</value>
                </Data>
                <Data name="created_at">
                    <value>2022-02-22 09:25:52.586100</value>
                </Data>
                <Data name="updated_at">
                    <value>2023-07-22 14:03:14.307690</value>
                </Data>
                <Data name="book_id">
                    <value>2</value>
                </Data>
                <Data name="owners">
                    <value>Damodar Dattaram Prabhu Velguencar</value>
                </Data>
                <Data name="label_x">
                    <value>1011650.0</value>
                </Data>
                <Data name="label_y">
                    <value>996471.011069658</value>
                </Data>
            </ExtendedData>
            <Point id="35231">
                <coordinates>74.103824886,15.347737197,0.0</coordinates>
            </Point>
        </Placemark>
        <Placemark id="35264">
            <ExtendedData>
                <Data name="direction">
                    <value>https://maps.google.com?q=15.35931,74.05331&amp;t=h</value>
                </Data>
                <Data name="id">
                    <value>4669</value>
                </Data>
                <Data name="name">
                    <value>Bibu Kalmakade</value>
                </Data>
                <Data name="taluka">
                    <value>Ponda</value>
                </Data>
                <Data name="syno">
                    <value>70</value>
                </Data>
                <Data name="subdiv">
                    <value>2</value>
                </Data>
                <Data name="village">
                    <value>Nirancal</value>
                </Data>
                <Data name="latitude">
                    <value>15.35931</value>
                </Data>
                <Data name="longitude">
                    <value>74.05331</value>
                </Data>
                <Data name="photo_1">
                    <value>DCIM/20220331164909832.jpg</value>
                </Data>
                <Data name="photo_2">
                    <value>DCIM/20220331164936166.jpg</value>
                </Data>
                <Data name="constituency">
                    <value>22 - Siroda</value>
                </Data>
                <Data name="status">
                    <value>Completed</value>
                </Data>
                <Data name="panchayat">
                    <value>Betora-Nirancal</value>
                </Data>
                <Data name="wb_type">
                    <value>Pond</value>
                </Data>
                <Data name="owner_type">
                    <value>Private</value>
                </Data>
                <Data name="purpose">
                    <value>Irrigation</value>
                </Data>
                <Data name="construction">
                    <value>Natural</value>
                </Data>
                <Data name="condition">
                    <value>Good</value>
                </Data>
                <Data name="print_order">
                    <value>033</value>
                </Data>
                <Data name="wb_id">
                    <value>Po/Nira/06</value>
                </Data>
                <Data name="storage_capacity">
                    <value>275.0</value>
                </Data>
                <Data name="wb_surface_id">
                    <value>3736</value>
                </Data>
                <Data name="created_at">
                    <value>2022-03-31 00:00:00</value>
                </Data>
                <Data name="updated_at">
                    <value>2023-07-22 14:03:14.307690</value>
                </Data>
                <Data name="book_id">
                    <value>2</value>
                </Data>
                <Data name="owners">
                    <value>Seema Paresh Prabhu</value>
                </Data>
                <Data name="label_x">
                    <value>1011650.0</value>
                </Data>
                <Data name="label_y">
                    <value>994971.011069658</value>
                </Data>
            </ExtendedData>
            <Point id="35263">
                <coordinates>74.053307086,15.359313702,0.0</coordinates>
            </Point>
        </Placemark>
        <Placemark id="35296">
            <ExtendedData>
                <Data name="direction">
                    <value>https://maps.google.com?q=15.34779,74.10336&amp;t=h</value>
                </Data>
                <Data name="id">
                    <value>4656</value>
                </Data>
                <Data name="name">
                    <value>Donval Kadil Ghal</value>
                </Data>
                <Data name="taluka">
                    <value>Ponda</value>
                </Data>
                <Data name="syno">
                    <value>196</value>
                </Data>
                <Data name="subdiv">
                    <value>0</value>
                </Data>
                <Data name="village">
                    <value>Nirancal</value>
                </Data>
                <Data name="latitude">
                    <value>15.34779</value>
                </Data>
                <Data name="longitude">
                    <value>74.10336</value>
                </Data>
                <Data name="photo_1">
                    <value>DCIM/20220329150541731.jpg</value>
                </Data>
                <Data name="photo_2">
                    <value>DCIM/20220329150610238.jpg</value>
                </Data>
                <Data name="constituency">
                    <value>22 - Siroda</value>
                </Data>
                <Data name="status">
                    <value>Completed</value>
                </Data>
                <Data name="panchayat">
                    <value>Betora-Nirancal</value>
                </Data>
                <Data name="wb_type">
                    <value>Pond</value>
                </Data>
                <Data name="owner_type">
                    <value>Public</value>
                </Data>
                <Data name="purpose">
                    <value>Irrigation</value>
                </Data>
                <Data name="construction">
                    <value>Natural</value>
                </Data>
                <Data name="condition">
                    <value>Good</value>
                </Data>
                <Data name="print_order">
                    <value>032</value>
                </Data>
                <Data name="wb_id">
                    <value>Po/Nira/03</value>
                </Data>
                <Data name="storage_capacity">
                    <value>1377.0</value>
                </Data>
                <Data name="wb_surface_id">
                    <value>3747</value>
                </Data>
                <Data name="created_at">
                    <value>2022-03-29 00:00:00</value>
                </Data>
                <Data name="updated_at">
                    <value>2023-07-22 14:03:14.307690</value>
                </Data>
                <Data name="book_id">
                    <value>2</value>
                </Data>
                <Data name="owners">
                    <value>Government Forest</value>
                </Data>
                <Data name="label_x">
                    <value>1011650.0</value>
                </Data>
                <Data name="label_y">
                    <value>996221.011069658</value>
                </Data>
            </ExtendedData>
            <Point id="35295">
                <coordinates>74.103360591,15.347785172,0.0</coordinates>
            </Point>
        </Placemark>
    </Document>
</kml>
