<?xml version="1.0" encoding="UTF-8"?>
<kml xmlns="http://www.opengis.net/kml/2.2" xmlns:gx="http://www.google.com/kml/ext/2.2">
    <Document id="38828">
        <Placemark id="38830">
            <ExtendedData>
                <Data name="direction">
                    <value>https://maps.google.com?q=15.48448,74.00717&amp;t=h</value>
                </Data>
                <Data name="id">
                    <value>4677</value>
                </Data>
                <Data name="name">
                    <value>Gharakodil Tukada</value>
                </Data>
                <Data name="taluka">
                    <value>Ponda</value>
                </Data>
                <Data name="syno">
                    <value>101</value>
                </Data>
                <Data name="subdiv">
                    <value>2</value>
                </Data>
                <Data name="village">
                    <value>Savoi-Verem</value>
                </Data>
                <Data name="latitude">
                    <value>15.48448</value>
                </Data>
                <Data name="longitude">
                    <value>74.00717</value>
                </Data>
                <Data name="photo_1">
                    <value>DCIM/20220402095406765.jpg</value>
                </Data>
                <Data name="photo_2">
                    <value>DCIM/20220402095423616.jpg</value>
                </Data>
                <Data name="constituency">
                    <value>20 - Priol</value>
                </Data>
                <Data name="status">
                    <value>Completed</value>
                </Data>
                <Data name="panchayat">
                    <value>Verem,Vaghurme</value>
                </Data>
                <Data name="wb_type">
                    <value>Tank</value>
                </Data>
                <Data name="owner_type">
                    <value>Private</value>
                </Data>
                <Data name="purpose">
                    <value>Irrigation</value>
                </Data>
                <Data name="construction">
                    <value>Man Made</value>
                </Data>
                <Data name="condition">
                    <value>Good</value>
                </Data>
                <Data name="print_order">
                    <value>113</value>
                </Data>
                <Data name="wb_id">
                    <value>Po/Savo/16</value>
                </Data>
                <Data name="storage_capacity">
                    <value>46.0</value>
                </Data>
                <Data name="wb_surface_id">
                    <value>3761</value>
                </Data>
                <Data name="created_at">
                    <value>2022-04-02 00:00:00</value>
                </Data>
                <Data name="updated_at">
                    <value>2023-07-22 14:03:14.307690</value>
                </Data>
                <Data name="book_id">
                    <value>4</value>
                </Data>
                <Data name="owners">
                    <value>Dasharath B. Palkar
Gajanan B. Palkar
Madhav Nonlo @ Ramnath Palkar
Narayan B. Palkar
Parvati V. Palkar
Vinayak Babal Palkar</value>
                </Data>
                <Data name="label_x">
                    <value>1013310.0</value>
                </Data>
                <Data name="label_y">
                    <value>1000841.328909109</value>
                </Data>
            </ExtendedData>
            <Point id="38829">
                <coordinates>74.007171667,15.484476667,0.0</coordinates>
            </Point>
        </Placemark>
        <Placemark id="38862">
            <ExtendedData>
                <Data name="direction">
                    <value>https://maps.google.com?q=15.48394,74.00768&amp;t=h</value>
                </Data>
                <Data name="id">
                    <value>4675</value>
                </Data>
                <Data name="name">
                    <value>Ghara Kodil Thikan,Gharakodil Tukada</value>
                </Data>
                <Data name="taluka">
                    <value>Ponda</value>
                </Data>
                <Data name="syno">
                    <value>101</value>
                </Data>
                <Data name="subdiv">
                    <value>2,8</value>
                </Data>
                <Data name="village">
                    <value>Savoi-Verem</value>
                </Data>
                <Data name="latitude">
                    <value>15.48394</value>
                </Data>
                <Data name="longitude">
                    <value>74.00768</value>
                </Data>
                <Data name="photo_1">
                    <value>DCIM/20220402094822890.jpg</value>
                </Data>
                <Data name="photo_2">
                    <value>DCIM/20220402094830892.jpg</value>
                </Data>
                <Data name="constituency">
                    <value>20 - Priol</value>
                </Data>
                <Data name="status">
                    <value>Completed</value>
                </Data>
                <Data name="panchayat">
                    <value>Verem,Vaghurme</value>
                </Data>
                <Data name="wb_type">
                    <value>Tank</value>
                </Data>
                <Data name="owner_type">
                    <value>Private</value>
                </Data>
                <Data name="purpose">
                    <value>Irrigation</value>
                </Data>
                <Data name="construction">
                    <value>Man Made</value>
                </Data>
                <Data name="condition">
                    <value>Dry</value>
                </Data>
                <Data name="print_order">
                    <value>112</value>
                </Data>
                <Data name="wb_id">
                    <value>Po/Savo/15</value>
                </Data>
                <Data name="storage_capacity">
                    <value>46.0</value>
                </Data>
                <Data name="wb_surface_id">
                    <value>3769</value>
                </Data>
                <Data name="created_at">
                    <value>2022-04-02 00:00:00</value>
                </Data>
                <Data name="updated_at">
                    <value>2023-07-22 14:03:14.307690</value>
                </Data>
                <Data name="book_id">
                    <value>4</value>
                </Data>
                <Data name="owners">
                    <value>Dasharath B. Palkar
Gajanan B. Palkar
Madhav Nonlo @ Ramnath Palkar
Madhev Keshav Khedokar
Narayan B. Palkar
Parvati V. Palkar
Vinayak Babal Palkar</value>
                </Data>
                <Data name="label_x">
                    <value>1013310.0</value>
                </Data>
                <Data name="label_y">
                    <value>1000591.328909109</value>
                </Data>
            </ExtendedData>
            <Point id="38861">
                <coordinates>74.007683333,15.483943333,0.0</coordinates>
            </Point>
        </Placemark>
        <Placemark id="38894">
            <ExtendedData>
                <Data name="direction">
                    <value>https://maps.google.com?q=15.47351,74.02186&amp;t=h</value>
                </Data>
                <Data name="id">
                    <value>4625</value>
                </Data>
                <Data name="name">
                    <value>--</value>
                </Data>
                <Data name="taluka">
                    <value>Ponda</value>
                </Data>
                <Data name="syno">
                    <value>23</value>
                </Data>
                <Data name="subdiv">
                    <value>3</value>
                </Data>
                <Data name="village">
                    <value>Savoi-Verem</value>
                </Data>
                <Data name="latitude">
                    <value>15.47351</value>
                </Data>
                <Data name="longitude">
                    <value>74.02186</value>
                </Data>
                <Data name="photo_1">
                    <value>DCIM/20220318074927609.jpg</value>
                </Data>
                <Data name="photo_2">
                    <value>DCIM/20220318074936493.jpg</value>
                </Data>
                <Data name="constituency">
                    <value>20 - Priol</value>
                </Data>
                <Data name="status">
                    <value>Completed</value>
                </Data>
                <Data name="panchayat">
                    <value>Verem,Vaghurme</value>
                </Data>
                <Data name="wb_type">
                    <value>Tank</value>
                </Data>
                <Data name="owner_type">
                    <value>Private / Public</value>
                </Data>
                <Data name="purpose">
                    <value>Irrigation</value>
                </Data>
                <Data name="construction">
                    <value>Natural</value>
                </Data>
                <Data name="condition">
                    <value>Needs Maintenance</value>
                </Data>
                <Data name="print_order">
                    <value>111</value>
                </Data>
                <Data name="wb_id">
                    <value>Po/Savo/14</value>
                </Data>
                <Data name="storage_capacity">
                    <value>48.0</value>
                </Data>
                <Data name="wb_surface_id">
                    <value>3715</value>
                </Data>
                <Data name="created_at">
                    <value>2022-03-18 00:00:00</value>
                </Data>
                <Data name="updated_at">
                    <value>2023-07-22 14:03:14.307690</value>
                </Data>
                <Data name="book_id">
                    <value>4</value>
                </Data>
                <Data name="owners">
                    <value>Govt of Goa Executive Engineer Division
Venkatesh Vinayak Bhot Abhisheki
XVIII (Road Control) P.W.D Ponda</value>
                </Data>
                <Data name="label_x">
                    <value>1013310.0</value>
                </Data>
                <Data name="label_y">
                    <value>1001091.328909109</value>
                </Data>
            </ExtendedData>
            <Point id="38893">
                <coordinates>74.02185545,15.473513032,0.0</coordinates>
            </Point>
        </Placemark>
        <Placemark id="38926">
            <ExtendedData>
                <Data name="direction">
                    <value>https://maps.google.com?q=15.47936,73.99881&amp;t=h</value>
                </Data>
                <Data name="id">
                    <value>4681</value>
                </Data>
                <Data name="name">
                    <value>Bonye</value>
                </Data>
                <Data name="taluka">
                    <value>Ponda</value>
                </Data>
                <Data name="syno">
                    <value>82</value>
                </Data>
                <Data name="subdiv">
                    <value>2</value>
                </Data>
                <Data name="village">
                    <value>Savoi-Verem</value>
                </Data>
                <Data name="latitude">
                    <value>15.47936</value>
                </Data>
                <Data name="longitude">
                    <value>73.99881</value>
                </Data>
                <Data name="photo_1">
                    <value>DCIM/20220402110203287.jpg</value>
                </Data>
                <Data name="photo_2">
                    <value>DCIM/20220402110225736.jpg</value>
                </Data>
                <Data name="constituency">
                    <value>20 - Priol</value>
                </Data>
                <Data name="status">
                    <value>Completed</value>
                </Data>
                <Data name="panchayat">
                    <value>Verem,Vaghurme</value>
                </Data>
                <Data name="wb_type">
                    <value>Pond</value>
                </Data>
                <Data name="owner_type">
                    <value>Public</value>
                </Data>
                <Data name="purpose">
                    <value>Storage</value>
                </Data>
                <Data name="construction">
                    <value>Natural/Man Made</value>
                </Data>
                <Data name="condition">
                    <value>Good</value>
                </Data>
                <Data name="print_order">
                    <value>016</value>
                </Data>
                <Data name="wb_id">
                    <value>Po/Savo/02</value>
                </Data>
                <Data name="storage_capacity">
                    <value>975.0</value>
                </Data>
                <Data name="wb_surface_id">
                    <value>3770</value>
                </Data>
                <Data name="created_at">
                    <value>2022-04-02 00:00:00</value>
                </Data>
                <Data name="updated_at">
                    <value>2023-07-22 14:03:14.307690</value>
                </Data>
                <Data name="book_id">
                    <value>4</value>
                </Data>
                <Data name="owners">
                    <value>Public path - Govt. of Goa</value>
                </Data>
                <Data name="label_x">
                    <value>1013310.0</value>
                </Data>
                <Data name="label_y">
                    <value>997341.328909109</value>
                </Data>
            </ExtendedData>
            <Point id="38925">
                <coordinates>73.998808266,15.479356498,0.0</coordinates>
            </Point>
        </Placemark>
        <Placemark id="38958">
            <ExtendedData>
                <Data name="direction">
                    <value>https://maps.google.com?q=15.49728,73.99571&amp;t=h</value>
                </Data>
                <Data name="id">
                    <value>4684</value>
                </Data>
                <Data name="name">
                    <value>Udo</value>
                </Data>
                <Data name="taluka">
                    <value>Ponda</value>
                </Data>
                <Data name="syno">
                    <value>162</value>
                </Data>
                <Data name="subdiv">
                    <value>1</value>
                </Data>
                <Data name="village">
                    <value>Savoi-Verem</value>
                </Data>
                <Data name="latitude">
                    <value>15.49728</value>
                </Data>
                <Data name="longitude">
                    <value>73.99571</value>
                </Data>
                <Data name="photo_1">
                    <value>DCIM/20220402113858835.jpg</value>
                </Data>
                <Data name="photo_2">
                    <value>DCIM/20220402113926597.jpg</value>
                </Data>
                <Data name="constituency">
                    <value>20 - Priol</value>
                </Data>
                <Data name="status">
                    <value>Completed</value>
                </Data>
                <Data name="panchayat">
                    <value>Verem,Vaghurme</value>
                </Data>
                <Data name="wb_type">
                    <value>Tank</value>
                </Data>
                <Data name="owner_type">
                    <value>Private</value>
                </Data>
                <Data name="purpose">
                    <value>Irrigation</value>
                </Data>
                <Data name="construction">
                    <value>Natural/Man Made</value>
                </Data>
                <Data name="condition">
                    <value>Needs Maintenance</value>
                </Data>
                <Data name="print_order">
                    <value>110</value>
                </Data>
                <Data name="wb_id">
                    <value>Po/Savo/13</value>
                </Data>
                <Data name="storage_capacity">
                    <value>84.0</value>
                </Data>
                <Data name="wb_surface_id">
                    <value>3758</value>
                </Data>
                <Data name="created_at">
                    <value>2022-04-02 00:00:00</value>
                </Data>
                <Data name="updated_at">
                    <value>2023-07-22 14:03:14.307690</value>
                </Data>
                <Data name="book_id">
                    <value>4</value>
                </Data>
                <Data name="owners">
                    <value>Gajanand Madhav Bhot Zamble</value>
                </Data>
                <Data name="label_x">
                    <value>1000396.0</value>
                </Data>
                <Data name="label_y">
                    <value>1016495.08576605</value>
                </Data>
            </ExtendedData>
            <Point id="38957">
                <coordinates>73.99571,15.497278333,0.0</coordinates>
            </Point>
        </Placemark>
        <Placemark id="38990">
            <ExtendedData>
                <Data name="direction">
                    <value>https://maps.google.com?q=15.49853,74.00099&amp;t=h</value>
                </Data>
                <Data name="id">
                    <value>4682</value>
                </Data>
                <Data name="name">
                    <value>Savoi-path</value>
                </Data>
                <Data name="taluka">
                    <value>Ponda</value>
                </Data>
                <Data name="syno">
                    <value>176</value>
                </Data>
                <Data name="subdiv">
                    <value>2</value>
                </Data>
                <Data name="village">
                    <value>Savoi-Verem</value>
                </Data>
                <Data name="latitude">
                    <value>15.49853</value>
                </Data>
                <Data name="longitude">
                    <value>74.00099</value>
                </Data>
                <Data name="photo_1">
                    <value>DCIM/20220402112621241.jpg</value>
                </Data>
                <Data name="photo_2">
                    <value>DCIM/20220402112729600.jpg</value>
                </Data>
                <Data name="constituency">
                    <value>20 - Priol</value>
                </Data>
                <Data name="status">
                    <value>Completed</value>
                </Data>
                <Data name="panchayat">
                    <value>Verem,Vaghurme</value>
                </Data>
                <Data name="wb_type">
                    <value>Tank</value>
                </Data>
                <Data name="owner_type">
                    <value>Private</value>
                </Data>
                <Data name="purpose">
                    <value>Irrigation</value>
                </Data>
                <Data name="construction">
                    <value>Man Made</value>
                </Data>
                <Data name="condition">
                    <value>Good</value>
                </Data>
                <Data name="print_order">
                    <value>105</value>
                </Data>
                <Data name="wb_id">
                    <value>Po/Savo/06</value>
                </Data>
                <Data name="storage_capacity">
                    <value>296.0</value>
                </Data>
                <Data name="wb_surface_id">
                    <value>3766</value>
                </Data>
                <Data name="created_at">
                    <value>2022-04-02 00:00:00</value>
                </Data>
                <Data name="updated_at">
                    <value>2023-07-22 14:03:14.307690</value>
                </Data>
                <Data name="book_id">
                    <value>4</value>
                </Data>
                <Data name="owners">
                    <value>Babu Babani Gaude</value>
                </Data>
                <Data name="label_x">
                    <value>1000396.0</value>
                </Data>
                <Data name="label_y">
                    <value>1015245.08576605</value>
                </Data>
            </ExtendedData>
            <Point id="38989">
                <coordinates>74.000986442,15.49852854,0.0</coordinates>
            </Point>
        </Placemark>
        <Placemark id="39022">
            <ExtendedData>
                <Data name="direction">
                    <value>https://maps.google.com?q=15.49837,73.99556&amp;t=h</value>
                </Data>
                <Data name="id">
                    <value>4685</value>
                </Data>
                <Data name="name">
                    <value>Udo</value>
                </Data>
                <Data name="taluka">
                    <value>Ponda</value>
                </Data>
                <Data name="syno">
                    <value>162</value>
                </Data>
                <Data name="subdiv">
                    <value>1</value>
                </Data>
                <Data name="village">
                    <value>Savoi-Verem</value>
                </Data>
                <Data name="latitude">
                    <value>15.49837</value>
                </Data>
                <Data name="longitude">
                    <value>73.99556</value>
                </Data>
                <Data name="photo_1">
                    <value>DCIM/20220402114619595.jpg</value>
                </Data>
                <Data name="photo_2">
                    <value>DCIM/20220402114633552.jpg</value>
                </Data>
                <Data name="constituency">
                    <value>20 - Priol</value>
                </Data>
                <Data name="status">
                    <value>Completed</value>
                </Data>
                <Data name="panchayat">
                    <value>Verem,Vaghurme</value>
                </Data>
                <Data name="wb_type">
                    <value>Pond</value>
                </Data>
                <Data name="owner_type">
                    <value>Private</value>
                </Data>
                <Data name="purpose">
                    <value>Domestic</value>
                </Data>
                <Data name="construction">
                    <value>Man Made</value>
                </Data>
                <Data name="condition">
                    <value>Good</value>
                </Data>
                <Data name="print_order">
                    <value>019</value>
                </Data>
                <Data name="wb_id">
                    <value>Po/Savo/21</value>
                </Data>
                <Data name="storage_capacity">
                    <value>28.0</value>
                </Data>
                <Data name="wb_surface_id">
                    <value>3760</value>
                </Data>
                <Data name="created_at">
                    <value>2022-04-02 00:00:00</value>
                </Data>
                <Data name="updated_at">
                    <value>2023-07-22 14:03:14.307690</value>
                </Data>
                <Data name="book_id">
                    <value>4</value>
                </Data>
                <Data name="owners">
                    <value>Gajanand Madhav Bhot Zamble</value>
                </Data>
                <Data name="label_x">
                    <value>1000396.0</value>
                </Data>
                <Data name="label_y">
                    <value>1016745.08576605</value>
                </Data>
            </ExtendedData>
            <Point id="39021">
                <coordinates>73.995561667,15.498371667,0.0</coordinates>
            </Point>
        </Placemark>
        <Placemark id="39054">
            <ExtendedData>
                <Data name="direction">
                    <value>https://maps.google.com?q=15.4931,73.99951&amp;t=h</value>
                </Data>
                <Data name="id">
                    <value>4621</value>
                </Data>
                <Data name="name">
                    <value>Quin</value>
                </Data>
                <Data name="taluka">
                    <value>Ponda</value>
                </Data>
                <Data name="syno">
                    <value>153</value>
                </Data>
                <Data name="subdiv">
                    <value>1</value>
                </Data>
                <Data name="village">
                    <value>Savoi-Verem</value>
                </Data>
                <Data name="latitude">
                    <value>15.4931</value>
                </Data>
                <Data name="longitude">
                    <value>73.99951</value>
                </Data>
                <Data name="photo_1">
                    <value>DCIM/20220318064854010.jpg</value>
                </Data>
                <Data name="photo_2">
                    <value>DCIM/20220318064918676.jpg</value>
                </Data>
                <Data name="constituency">
                    <value>20 - Priol</value>
                </Data>
                <Data name="status">
                    <value>Completed</value>
                </Data>
                <Data name="panchayat">
                    <value>Verem,Vaghurme</value>
                </Data>
                <Data name="wb_type">
                    <value>Pond</value>
                </Data>
                <Data name="owner_type">
                    <value>Private</value>
                </Data>
                <Data name="purpose">
                    <value>Irrigation</value>
                </Data>
                <Data name="construction">
                    <value>Man Made</value>
                </Data>
                <Data name="condition">
                    <value>Good</value>
                </Data>
                <Data name="print_order">
                    <value>018</value>
                </Data>
                <Data name="wb_id">
                    <value>Po/Savo/08</value>
                </Data>
                <Data name="storage_capacity">
                    <value>181.0</value>
                </Data>
                <Data name="wb_surface_id">
                    <value>3729</value>
                </Data>
                <Data name="created_at">
                    <value>2022-03-18 00:00:00</value>
                </Data>
                <Data name="updated_at">
                    <value>2023-07-22 14:03:14.307690</value>
                </Data>
                <Data name="book_id">
                    <value>4</value>
                </Data>
                <Data name="owners">
                    <value>Pandurang Raghunath Porobo Sinari</value>
                </Data>
                <Data name="label_x">
                    <value>1000396.0</value>
                </Data>
                <Data name="label_y">
                    <value>1015745.08576605</value>
                </Data>
            </ExtendedData>
            <Point id="39053">
                <coordinates>73.999510449,15.493101646,0.0</coordinates>
            </Point>
        </Placemark>
        <Placemark id="39086">
            <ExtendedData>
                <Data name="direction">
                    <value>https://maps.google.com?q=15.47842,74.01984&amp;t=h</value>
                </Data>
                <Data name="id">
                    <value>4304</value>
                </Data>
                <Data name="name">
                    <value>Anant Temple Tank; Fodd</value>
                </Data>
                <Data name="taluka">
                    <value>Ponda</value>
                </Data>
                <Data name="syno">
                    <value>1</value>
                </Data>
                <Data name="subdiv">
                    <value>19</value>
                </Data>
                <Data name="village">
                    <value>Savoi-Verem</value>
                </Data>
                <Data name="latitude">
                    <value>15.47842</value>
                </Data>
                <Data name="longitude">
                    <value>74.01984</value>
                </Data>
                <Data name="photo_1">
                    <value>DCIM/20220318093026342.jpg</value>
                </Data>
                <Data name="photo_2">
                    <value>DCIM/20220318093101484.jpg</value>
                </Data>
                <Data name="constituency">
                    <value>20 - Priol</value>
                </Data>
                <Data name="status">
                    <value>Completed</value>
                </Data>
                <Data name="panchayat">
                    <value>Verem,Vaghurme</value>
                </Data>
                <Data name="wb_type">
                    <value>Temple Tank</value>
                </Data>
                <Data name="owner_type">
                    <value>Private</value>
                </Data>
                <Data name="purpose">
                    <value>Storage</value>
                </Data>
                <Data name="construction">
                    <value>Man Made</value>
                </Data>
                <Data name="condition">
                    <value>Good</value>
                </Data>
                <Data name="print_order">
                    <value>093</value>
                </Data>
                <Data name="wb_id">
                    <value>Po/Savo/04</value>
                </Data>
                <Data name="storage_capacity">
                    <value>578.0</value>
                </Data>
                <Data name="wb_surface_id">
                    <value>3269</value>
                </Data>
                <Data name="created_at">
                    <value>2021-12-31 11:07:09</value>
                </Data>
                <Data name="updated_at">
                    <value>2023-07-22 14:03:14.307690</value>
                </Data>
                <Data name="book_id">
                    <value>4</value>
                </Data>
                <Data name="owners">
                    <value>Shri:-Anant Temple of Savoi-Verem</value>
                </Data>
                <Data name="label_x">
                    <value>1013310.0</value>
                </Data>
                <Data name="label_y">
                    <value>1006091.328909109</value>
                </Data>
            </ExtendedData>
            <Point id="39085">
                <coordinates>74.01983543,15.478417192,0.0</coordinates>
            </Point>
        </Placemark>
        <Placemark id="39118">
            <ExtendedData>
                <Data name="direction">
                    <value>https://maps.google.com?q=15.48439,74.00844&amp;t=h</value>
                </Data>
                <Data name="id">
                    <value>4679</value>
                </Data>
                <Data name="name">
                    <value>Madlem shet</value>
                </Data>
                <Data name="taluka">
                    <value>Ponda</value>
                </Data>
                <Data name="syno">
                    <value>101</value>
                </Data>
                <Data name="subdiv">
                    <value>5</value>
                </Data>
                <Data name="village">
                    <value>Savoi-Verem</value>
                </Data>
                <Data name="latitude">
                    <value>15.48439</value>
                </Data>
                <Data name="longitude">
                    <value>74.00844</value>
                </Data>
                <Data name="photo_1">
                    <value>DCIM/20220402100253668.jpg</value>
                </Data>
                <Data name="photo_2">
                    <value>DCIM/20220402100317684.jpg</value>
                </Data>
                <Data name="constituency">
                    <value>20 - Priol</value>
                </Data>
                <Data name="status">
                    <value>Completed</value>
                </Data>
                <Data name="panchayat">
                    <value>Verem,Vaghurme</value>
                </Data>
                <Data name="wb_type">
                    <value>Tank</value>
                </Data>
                <Data name="owner_type">
                    <value>Private</value>
                </Data>
                <Data name="purpose">
                    <value>Irrigation</value>
                </Data>
                <Data name="construction">
                    <value>Man Made</value>
                </Data>
                <Data name="condition">
                    <value>Good</value>
                </Data>
                <Data name="print_order">
                    <value>115</value>
                </Data>
                <Data name="wb_id">
                    <value>Po/Savo/19</value>
                </Data>
                <Data name="storage_capacity">
                    <value>41.0</value>
                </Data>
                <Data name="wb_surface_id">
                    <value>3764</value>
                </Data>
                <Data name="created_at">
                    <value>2022-04-02 00:00:00</value>
                </Data>
                <Data name="updated_at">
                    <value>2023-07-22 14:03:14.307690</value>
                </Data>
                <Data name="book_id">
                    <value>4</value>
                </Data>
                <Data name="owners">
                    <value>Durgaram Krishna Khedekar
Ganapati Krishna Khedekar
Madhav Keshav Khedekar
Vaman Krishna Khedekar</value>
                </Data>
                <Data name="label_x">
                    <value>1013310.0</value>
                </Data>
                <Data name="label_y">
                    <value>1006841.328909109</value>
                </Data>
            </ExtendedData>
            <Point id="39117">
                <coordinates>74.008441667,15.484385,0.0</coordinates>
            </Point>
        </Placemark>
        <Placemark id="39150">
            <ExtendedData>
                <Data name="direction">
                    <value>https://maps.google.com?q=15.47835,74.00927&amp;t=h</value>
                </Data>
                <Data name="id">
                    <value>4674</value>
                </Data>
                <Data name="name">
                    <value>Tallanga Lake</value>
                </Data>
                <Data name="taluka">
                    <value>Ponda</value>
                </Data>
                <Data name="syno">
                    <value>0</value>
                </Data>
                <Data name="subdiv">
                    <value>North of 78</value>
                </Data>
                <Data name="village">
                    <value>Savoi-Verem</value>
                </Data>
                <Data name="latitude">
                    <value>15.47835</value>
                </Data>
                <Data name="longitude">
                    <value>74.00927</value>
                </Data>
                <Data name="photo_1">
                    <value>DCIM/20220402094156962.jpg</value>
                </Data>
                <Data name="photo_2">
                    <value>DCIM/20220402094211263.jpg</value>
                </Data>
                <Data name="constituency">
                    <value>20 - Priol</value>
                </Data>
                <Data name="status">
                    <value>Completed</value>
                </Data>
                <Data name="panchayat">
                    <value>Verem,Vaghurme</value>
                </Data>
                <Data name="wb_type">
                    <value>Tank</value>
                </Data>
                <Data name="owner_type">
                    <value>Public</value>
                </Data>
                <Data name="purpose">
                    <value>Irrigation</value>
                </Data>
                <Data name="construction">
                    <value>Man Made</value>
                </Data>
                <Data name="condition">
                    <value>Good</value>
                </Data>
                <Data name="print_order">
                    <value>103</value>
                </Data>
                <Data name="wb_id">
                    <value>Po/Savo/03</value>
                </Data>
                <Data name="storage_capacity">
                    <value>905.0</value>
                </Data>
                <Data name="wb_surface_id">
                    <value>3754</value>
                </Data>
                <Data name="created_at">
                    <value>2022-04-02 00:00:00</value>
                </Data>
                <Data name="updated_at">
                    <value>2023-07-22 14:03:14.307690</value>
                </Data>
                <Data name="book_id">
                    <value>4</value>
                </Data>
                <Data name="owners">
                    <value>Govt. of Goa</value>
                </Data>
                <Data name="label_x">
                    <value>1013310.0</value>
                </Data>
                <Data name="label_y">
                    <value>999341.328909109</value>
                </Data>
            </ExtendedData>
            <Point id="39149">
                <coordinates>74.009271667,15.478346667,0.0</coordinates>
            </Point>
        </Placemark>
        <Placemark id="39182">
            <ExtendedData>
                <Data name="direction">
                    <value>https://maps.google.com?q=15.48754,73.9981&amp;t=h</value>
                </Data>
                <Data name="id">
                    <value>4688</value>
                </Data>
                <Data name="name">
                    <value>--</value>
                </Data>
                <Data name="taluka">
                    <value>Ponda</value>
                </Data>
                <Data name="syno">
                    <value>133</value>
                </Data>
                <Data name="subdiv">
                    <value>1</value>
                </Data>
                <Data name="village">
                    <value>Savoi-Verem</value>
                </Data>
                <Data name="latitude">
                    <value>15.48754</value>
                </Data>
                <Data name="longitude">
                    <value>73.9981</value>
                </Data>
                <Data name="photo_1">
                    <value>DCIM/20220402120844777.jpg</value>
                </Data>
                <Data name="photo_2">
                    <value>DCIM/20220402120854871.jpg</value>
                </Data>
                <Data name="constituency">
                    <value>20 - Priol</value>
                </Data>
                <Data name="status">
                    <value>Completed</value>
                </Data>
                <Data name="panchayat">
                    <value>Verem,Vaghurme</value>
                </Data>
                <Data name="wb_type">
                    <value>Pond</value>
                </Data>
                <Data name="owner_type">
                    <value>Private</value>
                </Data>
                <Data name="purpose">
                    <value>Irrigation</value>
                </Data>
                <Data name="construction">
                    <value>Natural/Man Made</value>
                </Data>
                <Data name="condition">
                    <value>Good</value>
                </Data>
                <Data name="print_order">
                    <value>017</value>
                </Data>
                <Data name="wb_id">
                    <value>Po/Savo/07</value>
                </Data>
                <Data name="storage_capacity">
                    <value>254.0</value>
                </Data>
                <Data name="wb_surface_id">
                    <value>3755</value>
                </Data>
                <Data name="created_at">
                    <value>2022-04-02 00:00:00</value>
                </Data>
                <Data name="updated_at">
                    <value>2023-07-22 14:03:14.307690</value>
                </Data>
                <Data name="book_id">
                    <value>4</value>
                </Data>
                <Data name="owners">
                    <value>Ganpat Ramkrishna Korde</value>
                </Data>
                <Data name="label_x">
                    <value>1013310.0</value>
                </Data>
                <Data name="label_y">
                    <value>998591.328909109</value>
                </Data>
            </ExtendedData>
            <Point id="39181">
                <coordinates>73.998103333,15.487538333,0.0</coordinates>
            </Point>
        </Placemark>
        <Placemark id="39214">
            <ExtendedData>
                <Data name="direction">
                    <value>https://maps.google.com?q=15.48517,74.00992&amp;t=h</value>
                </Data>
                <Data name="id">
                    <value>4680</value>
                </Data>
                <Data name="name">
                    <value>Barazan Thican</value>
                </Data>
                <Data name="taluka">
                    <value>Ponda</value>
                </Data>
                <Data name="syno">
                    <value>191</value>
                </Data>
                <Data name="subdiv">
                    <value>1</value>
                </Data>
                <Data name="village">
                    <value>Savoi-Verem</value>
                </Data>
                <Data name="latitude">
                    <value>15.48517</value>
                </Data>
                <Data name="longitude">
                    <value>74.00992</value>
                </Data>
                <Data name="photo_1">
                    <value>DCIM/20220402100713779.jpg</value>
                </Data>
                <Data name="photo_2">
                    <value>DCIM/20220402100726456.jpg</value>
                </Data>
                <Data name="constituency">
                    <value>20 - Priol</value>
                </Data>
                <Data name="status">
                    <value>Completed</value>
                </Data>
                <Data name="panchayat">
                    <value>Verem,Vaghurme</value>
                </Data>
                <Data name="wb_type">
                    <value>Tank</value>
                </Data>
                <Data name="owner_type">
                    <value>Private</value>
                </Data>
                <Data name="purpose">
                    <value>Irrigation</value>
                </Data>
                <Data name="construction">
                    <value>Man Made</value>
                </Data>
                <Data name="condition">
                    <value>Good</value>
                </Data>
                <Data name="print_order">
                    <value>109</value>
                </Data>
                <Data name="wb_id">
                    <value>Po/Savo/12</value>
                </Data>
                <Data name="storage_capacity">
                    <value>84.0</value>
                </Data>
                <Data name="wb_surface_id">
                    <value>3757</value>
                </Data>
                <Data name="created_at">
                    <value>2022-04-02 00:00:00</value>
                </Data>
                <Data name="updated_at">
                    <value>2023-07-22 14:03:14.307690</value>
                </Data>
                <Data name="book_id">
                    <value>4</value>
                </Data>
                <Data name="owners">
                    <value>Soiru Bhollu Palkar</value>
                </Data>
                <Data name="label_x">
                    <value>1013310.0</value>
                </Data>
                <Data name="label_y">
                    <value>1007841.328909109</value>
                </Data>
            </ExtendedData>
            <Point id="39213">
                <coordinates>74.009916667,15.485173333,0.0</coordinates>
            </Point>
        </Placemark>
        <Placemark id="39246">
            <ExtendedData>
                <Data name="direction">
                    <value>https://maps.google.com?q=15.48762,73.99881&amp;t=h</value>
                </Data>
                <Data name="id">
                    <value>4687</value>
                </Data>
                <Data name="name">
                    <value>--</value>
                </Data>
                <Data name="taluka">
                    <value>Ponda</value>
                </Data>
                <Data name="syno">
                    <value>133</value>
                </Data>
                <Data name="subdiv">
                    <value>1</value>
                </Data>
                <Data name="village">
                    <value>Savoi-Verem</value>
                </Data>
                <Data name="latitude">
                    <value>15.48762</value>
                </Data>
                <Data name="longitude">
                    <value>73.99881</value>
                </Data>
                <Data name="photo_1">
                    <value>DCIM/20220402120650786.jpg</value>
                </Data>
                <Data name="photo_2">
                    <value>DCIM/20220402120708970.jpg</value>
                </Data>
                <Data name="constituency">
                    <value>20 - Priol</value>
                </Data>
                <Data name="status">
                    <value>Completed</value>
                </Data>
                <Data name="panchayat">
                    <value>Verem,Vaghurme</value>
                </Data>
                <Data name="wb_type">
                    <value>Tank</value>
                </Data>
                <Data name="owner_type">
                    <value>Private</value>
                </Data>
                <Data name="purpose">
                    <value>Irrigation</value>
                </Data>
                <Data name="construction">
                    <value>Man Made</value>
                </Data>
                <Data name="condition">
                    <value>Good</value>
                </Data>
                <Data name="print_order">
                    <value>114</value>
                </Data>
                <Data name="wb_id">
                    <value>Po/Savo/18</value>
                </Data>
                <Data name="storage_capacity">
                    <value>43.0</value>
                </Data>
                <Data name="wb_surface_id">
                    <value>3756</value>
                </Data>
                <Data name="created_at">
                    <value>2022-04-02 00:00:00</value>
                </Data>
                <Data name="updated_at">
                    <value>2023-07-22 14:03:14.307690</value>
                </Data>
                <Data name="book_id">
                    <value>4</value>
                </Data>
                <Data name="owners">
                    <value>Ganpat Ramkrishna Korde</value>
                </Data>
                <Data name="label_x">
                    <value>1013310.0</value>
                </Data>
                <Data name="label_y">
                    <value>998841.328909109</value>
                </Data>
            </ExtendedData>
            <Point id="39245">
                <coordinates>73.998808333,15.487623333,0.0</coordinates>
            </Point>
        </Placemark>
        <Placemark id="39278">
            <ExtendedData>
                <Data name="direction">
                    <value>https://maps.google.com?q=15.4659,74.0166&amp;t=h</value>
                </Data>
                <Data name="id">
                    <value>4623</value>
                </Data>
                <Data name="name">
                    <value>Datt Shitora Varil</value>
                </Data>
                <Data name="taluka">
                    <value>Ponda</value>
                </Data>
                <Data name="syno">
                    <value>44</value>
                </Data>
                <Data name="subdiv">
                    <value>1</value>
                </Data>
                <Data name="village">
                    <value>Savoi-Verem</value>
                </Data>
                <Data name="latitude">
                    <value>15.4659</value>
                </Data>
                <Data name="longitude">
                    <value>74.0166</value>
                </Data>
                <Data name="photo_1">
                    <value>DCIM/20220318073515063.jpg</value>
                </Data>
                <Data name="photo_2">
                    <value>DCIM/20220318074002040.jpg</value>
                </Data>
                <Data name="constituency">
                    <value>20 - Priol</value>
                </Data>
                <Data name="status">
                    <value>Completed</value>
                </Data>
                <Data name="panchayat">
                    <value>Verem,Vaghurme</value>
                </Data>
                <Data name="wb_type">
                    <value>Tank</value>
                </Data>
                <Data name="owner_type">
                    <value>Private / Public</value>
                </Data>
                <Data name="purpose">
                    <value>Storage</value>
                </Data>
                <Data name="construction">
                    <value>Man Made</value>
                </Data>
                <Data name="condition">
                    <value>Needs Maintenance</value>
                </Data>
                <Data name="print_order">
                    <value>107</value>
                </Data>
                <Data name="wb_id">
                    <value>Po/Savo/10</value>
                </Data>
                <Data name="storage_capacity">
                    <value>166.0</value>
                </Data>
                <Data name="wb_surface_id">
                    <value>3722</value>
                </Data>
                <Data name="created_at">
                    <value>2022-03-18 00:00:00</value>
                </Data>
                <Data name="updated_at">
                    <value>2023-07-22 14:03:14.307690</value>
                </Data>
                <Data name="book_id">
                    <value>4</value>
                </Data>
                <Data name="owners">
                    <value>Balcrishna Raghunath Singbal
Govt of Goa Executive Engineer Division
Hirabai Datta Zuarkar
Mahadhan Real Estates LLP
Phondu B. Kerkar
Prabhakar Pandurang S. Singbal
Prakash Shantaram Sinai Singbal
XVIII (Road control) P.W.D Ponda</value>
                </Data>
                <Data name="label_x">
                    <value>1013310.0</value>
                </Data>
                <Data name="label_y">
                    <value>997591.328909109</value>
                </Data>
            </ExtendedData>
            <Point id="39277">
                <coordinates>74.01659559,15.465896067,0.0</coordinates>
            </Point>
        </Placemark>
        <Placemark id="39310">
            <ExtendedData>
                <Data name="direction">
                    <value>https://maps.google.com?q=15.49329,73.99958&amp;t=h</value>
                </Data>
                <Data name="id">
                    <value>4620</value>
                </Data>
                <Data name="name">
                    <value>Quin</value>
                </Data>
                <Data name="taluka">
                    <value>Ponda</value>
                </Data>
                <Data name="syno">
                    <value>153</value>
                </Data>
                <Data name="subdiv">
                    <value>1</value>
                </Data>
                <Data name="village">
                    <value>Savoi-Verem</value>
                </Data>
                <Data name="latitude">
                    <value>15.49329</value>
                </Data>
                <Data name="longitude">
                    <value>73.99958</value>
                </Data>
                <Data name="photo_1">
                    <value>DCIM/20220318121804220.jpg</value>
                </Data>
                <Data name="photo_2">
                    <value>DCIM/20220318121812048.jpg</value>
                </Data>
                <Data name="constituency">
                    <value>20 - Priol</value>
                </Data>
                <Data name="status">
                    <value>Completed</value>
                </Data>
                <Data name="panchayat">
                    <value>Verem,Vaghurme</value>
                </Data>
                <Data name="wb_type">
                    <value>Tank</value>
                </Data>
                <Data name="owner_type">
                    <value>Private</value>
                </Data>
                <Data name="purpose">
                    <value>Irrigation</value>
                </Data>
                <Data name="construction">
                    <value>Man Made</value>
                </Data>
                <Data name="condition">
                    <value>Good</value>
                </Data>
                <Data name="print_order">
                    <value>104</value>
                </Data>
                <Data name="wb_id">
                    <value>Po/Savo/05</value>
                </Data>
                <Data name="storage_capacity">
                    <value>505.0</value>
                </Data>
                <Data name="wb_surface_id">
                    <value>3730</value>
                </Data>
                <Data name="created_at">
                    <value>2022-03-18 00:00:00</value>
                </Data>
                <Data name="updated_at">
                    <value>2023-07-22 14:03:14.307690</value>
                </Data>
                <Data name="book_id">
                    <value>4</value>
                </Data>
                <Data name="owners">
                    <value>Pandurang Raghunath Porobo Sinari</value>
                </Data>
                <Data name="label_x">
                    <value>1000396.0</value>
                </Data>
                <Data name="label_y">
                    <value>1015995.08576605</value>
                </Data>
            </ExtendedData>
            <Point id="39309">
                <coordinates>73.999576152,15.493289198,0.0</coordinates>
            </Point>
        </Placemark>
        <Placemark id="39342">
            <ExtendedData>
                <Data name="direction">
                    <value>https://maps.google.com?q=15.49351,74.00064&amp;t=h</value>
                </Data>
                <Data name="id">
                    <value>422</value>
                </Data>
                <Data name="name">
                    <value>Kularn Tank; Quina</value>
                </Data>
                <Data name="taluka">
                    <value>Ponda</value>
                </Data>
                <Data name="syno">
                    <value>153</value>
                </Data>
                <Data name="subdiv">
                    <value>2</value>
                </Data>
                <Data name="village">
                    <value>Savoi-Verem</value>
                </Data>
                <Data name="latitude">
                    <value>15.49351</value>
                </Data>
                <Data name="longitude">
                    <value>74.00064</value>
                </Data>
                <Data name="photo_1">
                    <value>DCIM/20220318120533677.jpg</value>
                </Data>
                <Data name="photo_2">
                    <value>DCIM/20220318120558291.jpg</value>
                </Data>
                <Data name="constituency">
                    <value>20 - Priol</value>
                </Data>
                <Data name="status">
                    <value>Completed</value>
                </Data>
                <Data name="panchayat">
                    <value>Verem,Vaghurme</value>
                </Data>
                <Data name="wb_type">
                    <value>Lake</value>
                </Data>
                <Data name="owner_type">
                    <value>Communidade</value>
                </Data>
                <Data name="purpose">
                    <value>Irrigation</value>
                </Data>
                <Data name="construction">
                    <value>Natural/Man Made</value>
                </Data>
                <Data name="condition">
                    <value>Good</value>
                </Data>
                <Data name="print_order">
                    <value>002</value>
                </Data>
                <Data name="wb_id">
                    <value>Po/Savo/01</value>
                </Data>
                <Data name="storage_capacity">
                    <value>8721.0</value>
                </Data>
                <Data name="wb_surface_id">
                    <value>2845</value>
                </Data>
                <Data name="created_at">
                    <value>2020-02-28 15:24:34</value>
                </Data>
                <Data name="updated_at">
                    <value>2023-07-22 14:03:14.307690</value>
                </Data>
                <Data name="book_id">
                    <value>4</value>
                </Data>
                <Data name="owners">
                    <value>Communidade of Savoi-Verem</value>
                </Data>
                <Data name="label_x">
                    <value>1000396.0</value>
                </Data>
                <Data name="label_y">
                    <value>1014995.0857660465</value>
                </Data>
            </ExtendedData>
            <Point id="39341">
                <coordinates>74.000642753,15.49350949,0.0</coordinates>
            </Point>
        </Placemark>
        <Placemark id="39374">
            <ExtendedData>
                <Data name="direction">
                    <value>https://maps.google.com?q=15.48859,73.99906&amp;t=h</value>
                </Data>
                <Data name="id">
                    <value>4686</value>
                </Data>
                <Data name="name">
                    <value>Zorit</value>
                </Data>
                <Data name="taluka">
                    <value>Ponda</value>
                </Data>
                <Data name="syno">
                    <value>145</value>
                </Data>
                <Data name="subdiv">
                    <value>2</value>
                </Data>
                <Data name="village">
                    <value>Savoi-Verem</value>
                </Data>
                <Data name="latitude">
                    <value>15.48859</value>
                </Data>
                <Data name="longitude">
                    <value>73.99906</value>
                </Data>
                <Data name="photo_1">
                    <value>DCIM/20220402120135759.jpg</value>
                </Data>
                <Data name="photo_2">
                    <value>DCIM/20220402120156253.jpg</value>
                </Data>
                <Data name="constituency">
                    <value>20 - Priol</value>
                </Data>
                <Data name="status">
                    <value>Completed</value>
                </Data>
                <Data name="panchayat">
                    <value>Verem,Vaghurme</value>
                </Data>
                <Data name="wb_type">
                    <value>Tank</value>
                </Data>
                <Data name="owner_type">
                    <value>Private</value>
                </Data>
                <Data name="purpose">
                    <value>Irrigation</value>
                </Data>
                <Data name="construction">
                    <value>Man Made</value>
                </Data>
                <Data name="condition">
                    <value>Good</value>
                </Data>
                <Data name="print_order">
                    <value>106</value>
                </Data>
                <Data name="wb_id">
                    <value>Po/Savo/09</value>
                </Data>
                <Data name="storage_capacity">
                    <value>173.0</value>
                </Data>
                <Data name="wb_surface_id">
                    <value>3765</value>
                </Data>
                <Data name="created_at">
                    <value>2022-04-02 00:00:00</value>
                </Data>
                <Data name="updated_at">
                    <value>2023-07-22 14:03:14.307690</value>
                </Data>
                <Data name="book_id">
                    <value>4</value>
                </Data>
                <Data name="owners">
                    <value>Babulo Pandurang Shilkar
Dilip Pandurang Shilkar</value>
                </Data>
                <Data name="label_x">
                    <value>1013310.0</value>
                </Data>
                <Data name="label_y">
                    <value>1007341.328909109</value>
                </Data>
            </ExtendedData>
            <Point id="39373">
                <coordinates>73.999055643,15.488593125,0.0</coordinates>
            </Point>
        </Placemark>
        <Placemark id="39406">
            <ExtendedData>
                <Data name="direction">
                    <value>https://maps.google.com?q=15.49737,73.99574&amp;t=h</value>
                </Data>
                <Data name="id">
                    <value>4683</value>
                </Data>
                <Data name="name">
                    <value>Udo</value>
                </Data>
                <Data name="taluka">
                    <value>Ponda</value>
                </Data>
                <Data name="syno">
                    <value>162</value>
                </Data>
                <Data name="subdiv">
                    <value>1</value>
                </Data>
                <Data name="village">
                    <value>Savoi-Verem</value>
                </Data>
                <Data name="latitude">
                    <value>15.49737</value>
                </Data>
                <Data name="longitude">
                    <value>73.99574</value>
                </Data>
                <Data name="photo_1">
                    <value>DCIM/20220402113742166.jpg</value>
                </Data>
                <Data name="photo_2">
                    <value>DCIM/20220402113820665.jpg</value>
                </Data>
                <Data name="constituency">
                    <value>20 - Priol</value>
                </Data>
                <Data name="status">
                    <value>Completed</value>
                </Data>
                <Data name="panchayat">
                    <value>Verem,Vaghurme</value>
                </Data>
                <Data name="wb_type">
                    <value>Tank</value>
                </Data>
                <Data name="owner_type">
                    <value>Private</value>
                </Data>
                <Data name="purpose">
                    <value>Irrigation</value>
                </Data>
                <Data name="construction">
                    <value>Natural/Man Made</value>
                </Data>
                <Data name="condition">
                    <value>Good</value>
                </Data>
                <Data name="print_order">
                    <value>108</value>
                </Data>
                <Data name="wb_id">
                    <value>Po/Savo/11</value>
                </Data>
                <Data name="storage_capacity">
                    <value>115.0</value>
                </Data>
                <Data name="wb_surface_id">
                    <value>3763</value>
                </Data>
                <Data name="created_at">
                    <value>2022-04-02 00:00:00</value>
                </Data>
                <Data name="updated_at">
                    <value>2023-07-22 14:03:14.307690</value>
                </Data>
                <Data name="book_id">
                    <value>4</value>
                </Data>
                <Data name="owners">
                    <value>Gajanand Madhav Bhot Zamble</value>
                </Data>
                <Data name="label_x">
                    <value>1000396.0</value>
                </Data>
                <Data name="label_y">
                    <value>1016245.08576605</value>
                </Data>
            </ExtendedData>
            <Point id="39405">
                <coordinates>73.995741667,15.497368333,0.0</coordinates>
            </Point>
        </Placemark>
    </Document>
</kml>
