<?xml version="1.0" encoding="UTF-8"?>
<kml xmlns="http://www.opengis.net/kml/2.2" xmlns:gx="http://www.google.com/kml/ext/2.2">
    <Document id="19464">
        <Placemark id="19466">
            <ExtendedData>
                <Data name="direction">
                    <value>https://maps.google.com?q=15.55805,74.16123&amp;t=h</value>
                </Data>
                <Data name="id">
                    <value>2472</value>
                </Data>
                <Data name="Sr.No">
                    <value>2472</value>
                </Data>
                <Data name="Reg No">
                    <value>1268/Sattari</value>
                </Data>
                <Data name="Category">
                    <value>agricultural</value>
                </Data>
                <Data name="Type Of Well">
                    <value>Open Well</value>
                </Data>
                <Data name="Applicant Name">
                    <value>Gaonkar Ramkrishna Bhalu</value>
                </Data>
                <Data name="Applicant Address">
                    <value>H.No. 26, Ambedem, Nagargao, Sattari Goa</value>
                </Data>
                <Data name="latitude">
                    <value>15.55805</value>
                </Data>
                <Data name="longitude">
                    <value>74.16123</value>
                </Data>
                <Data name="taluka">
                    <value>Sattari</value>
                </Data>
                <Data name="village">
                    <value>Ambedem</value>
                </Data>
            </ExtendedData>
            <Point id="19465">
                <coordinates>74.16123,15.55805,0.0</coordinates>
            </Point>
        </Placemark>
        <Placemark id="19481">
            <ExtendedData>
                <Data name="direction">
                    <value>https://maps.google.com?q=15.55942,74.16293&amp;t=h</value>
                </Data>
                <Data name="id">
                    <value>2474</value>
                </Data>
                <Data name="Sr.No">
                    <value>2474</value>
                </Data>
                <Data name="Reg No">
                    <value>1270/Sattari</value>
                </Data>
                <Data name="Category">
                    <value>agricultural</value>
                </Data>
                <Data name="Type Of Well">
                    <value>Open Well</value>
                </Data>
                <Data name="Applicant Name">
                    <value>Gaonkar Ramkrishna Bhalu</value>
                </Data>
                <Data name="Applicant Address">
                    <value>H.No. 26, Ambedem, Nagargao, Sattari Goa</value>
                </Data>
                <Data name="latitude">
                    <value>15.55942</value>
                </Data>
                <Data name="longitude">
                    <value>74.16293</value>
                </Data>
                <Data name="taluka">
                    <value>Sattari</value>
                </Data>
                <Data name="village">
                    <value>Ambedem</value>
                </Data>
            </ExtendedData>
            <Point id="19480">
                <coordinates>74.16293,15.55942,0.0</coordinates>
            </Point>
        </Placemark>
        <Placemark id="19496">
            <ExtendedData>
                <Data name="direction">
                    <value>https://maps.google.com?q=15.55113,74.15862&amp;t=h</value>
                </Data>
                <Data name="id">
                    <value>2477</value>
                </Data>
                <Data name="Sr.No">
                    <value>2477</value>
                </Data>
                <Data name="Reg No">
                    <value>35/Sattari</value>
                </Data>
                <Data name="Category">
                    <value>irrigation</value>
                </Data>
                <Data name="Type Of Well">
                    <value>Open Well</value>
                </Data>
                <Data name="Applicant Name">
                    <value>Rajendra Abhankar</value>
                </Data>
                <Data name="Applicant Address">
                    <value>Valvantache malavaril sarad</value>
                </Data>
                <Data name="latitude">
                    <value>15.55113</value>
                </Data>
                <Data name="longitude">
                    <value>74.15862</value>
                </Data>
                <Data name="taluka">
                    <value>Sattari</value>
                </Data>
                <Data name="village">
                    <value>Ambedem</value>
                </Data>
            </ExtendedData>
            <Point id="19495">
                <coordinates>74.15862,15.55113,0.0</coordinates>
            </Point>
        </Placemark>
        <Placemark id="19511">
            <ExtendedData>
                <Data name="direction">
                    <value>https://maps.google.com?q=15.55386,74.16419&amp;t=h</value>
                </Data>
                <Data name="id">
                    <value>2489</value>
                </Data>
                <Data name="Sr.No">
                    <value>2489</value>
                </Data>
                <Data name="Reg No">
                    <value>1443/Sattari</value>
                </Data>
                <Data name="Category">
                    <value>agricultural</value>
                </Data>
                <Data name="Type Of Well">
                    <value>Open Well</value>
                </Data>
                <Data name="Applicant Name">
                    <value>Marathe Dhananjay Vinayak</value>
                </Data>
                <Data name="Applicant Address">
                    <value>H.No. 43, Ambede, Sattari Goa</value>
                </Data>
                <Data name="latitude">
                    <value>15.55386</value>
                </Data>
                <Data name="longitude">
                    <value>74.16419</value>
                </Data>
                <Data name="taluka">
                    <value>Sattari</value>
                </Data>
                <Data name="village">
                    <value>Ambedem</value>
                </Data>
            </ExtendedData>
            <Point id="19510">
                <coordinates>74.16419,15.55386,0.0</coordinates>
            </Point>
        </Placemark>
        <Placemark id="19526">
            <ExtendedData>
                <Data name="direction">
                    <value>https://maps.google.com?q=15.55178,74.15723&amp;t=h</value>
                </Data>
                <Data name="id">
                    <value>2756</value>
                </Data>
                <Data name="Sr.No">
                    <value>2756</value>
                </Data>
                <Data name="Reg No">
                    <value>48/Sattari</value>
                </Data>
                <Data name="Category">
                    <value>irrigation</value>
                </Data>
                <Data name="Type Of Well">
                    <value>Open Well</value>
                </Data>
                <Data name="Applicant Name">
                    <value>Gangadhar Bhave</value>
                </Data>
                <Data name="Applicant Address">
                    <value>Kumlechi tekdi Ambedem</value>
                </Data>
                <Data name="latitude">
                    <value>15.55178</value>
                </Data>
                <Data name="longitude">
                    <value>74.15723</value>
                </Data>
                <Data name="taluka">
                    <value>Sattari</value>
                </Data>
                <Data name="village">
                    <value>Ambedem</value>
                </Data>
            </ExtendedData>
            <Point id="19525">
                <coordinates>74.15723,15.55178,0.0</coordinates>
            </Point>
        </Placemark>
    </Document>
</kml>
