<?xml version="1.0" encoding="UTF-8"?>
<kml xmlns="http://www.opengis.net/kml/2.2" xmlns:gx="http://www.google.com/kml/ext/2.2">
    <Document id="19637">
        <Placemark id="19639">
            <ExtendedData>
                <Data name="direction">
                    <value>https://maps.google.com?q=15.5479,74.1606&amp;t=h</value>
                </Data>
                <Data name="id">
                    <value>2484</value>
                </Data>
                <Data name="Sr.No">
                    <value>2484</value>
                </Data>
                <Data name="Reg No">
                    <value>919/Sattari</value>
                </Data>
                <Data name="Category">
                    <value>agricultural</value>
                </Data>
                <Data name="Type Of Well">
                    <value>Open Well</value>
                </Data>
                <Data name="Applicant Name">
                    <value>Marathe Madhukar Narayan</value>
                </Data>
                <Data name="Applicant Address">
                    <value>Bhombede, Nagargao, Sattari Goa</value>
                </Data>
                <Data name="latitude">
                    <value>15.5479</value>
                </Data>
                <Data name="longitude">
                    <value>74.1606</value>
                </Data>
                <Data name="taluka">
                    <value>Sattari</value>
                </Data>
                <Data name="village">
                    <value>Bombedem</value>
                </Data>
            </ExtendedData>
            <Point id="19638">
                <coordinates>74.1606,15.5479,0.0</coordinates>
            </Point>
        </Placemark>
        <Placemark id="19654">
            <ExtendedData>
                <Data name="direction">
                    <value>https://maps.google.com?q=15.54699,74.15981&amp;t=h</value>
                </Data>
                <Data name="id">
                    <value>2485</value>
                </Data>
                <Data name="Sr.No">
                    <value>2485</value>
                </Data>
                <Data name="Reg No">
                    <value>920/Sattari</value>
                </Data>
                <Data name="Category">
                    <value>agricultural</value>
                </Data>
                <Data name="Type Of Well">
                    <value>Open Well</value>
                </Data>
                <Data name="Applicant Name">
                    <value>Marathe Madhukar Narayan</value>
                </Data>
                <Data name="Applicant Address">
                    <value>Bhombede, Nagargao, Sattari Goa</value>
                </Data>
                <Data name="latitude">
                    <value>15.54699</value>
                </Data>
                <Data name="longitude">
                    <value>74.15981</value>
                </Data>
                <Data name="taluka">
                    <value>Sattari</value>
                </Data>
                <Data name="village">
                    <value>Bombedem</value>
                </Data>
            </ExtendedData>
            <Point id="19653">
                <coordinates>74.15981,15.54699,0.0</coordinates>
            </Point>
        </Placemark>
        <Placemark id="19669">
            <ExtendedData>
                <Data name="direction">
                    <value>https://maps.google.com?q=15.5484,74.16559&amp;t=h</value>
                </Data>
                <Data name="id">
                    <value>2486</value>
                </Data>
                <Data name="Sr.No">
                    <value>2486</value>
                </Data>
                <Data name="Reg No">
                    <value>7/Sattari</value>
                </Data>
                <Data name="Category">
                    <value>irrigation</value>
                </Data>
                <Data name="Type Of Well">
                    <value>Open Well</value>
                </Data>
                <Data name="Applicant Name">
                    <value>Ramchandra Joshi</value>
                </Data>
                <Data name="Applicant Address">
                    <value>Gotnechi Moli Bhombede</value>
                </Data>
                <Data name="latitude">
                    <value>15.5484</value>
                </Data>
                <Data name="longitude">
                    <value>74.16559</value>
                </Data>
                <Data name="taluka">
                    <value>Sattari</value>
                </Data>
                <Data name="village">
                    <value>Bombedem</value>
                </Data>
            </ExtendedData>
            <Point id="19668">
                <coordinates>74.16559,15.5484,0.0</coordinates>
            </Point>
        </Placemark>
        <Placemark id="19684">
            <ExtendedData>
                <Data name="direction">
                    <value>https://maps.google.com?q=15.5526,74.16383&amp;t=h</value>
                </Data>
                <Data name="id">
                    <value>3216</value>
                </Data>
                <Data name="Sr.No">
                    <value>3216</value>
                </Data>
                <Data name="Reg No">
                    <value>124/sattari</value>
                </Data>
                <Data name="Category">
                    <value>agricultural</value>
                </Data>
                <Data name="Type Of Well">
                    <value>Open Well</value>
                </Data>
                <Data name="Applicant Name">
                    <value>Shri Barve Devidas Waman,</value>
                </Data>
                <Data name="Applicant Address">
                    <value>H. No. 33/2, Ambede, Nagargao, valpoi, Sattari Goa.</value>
                </Data>
                <Data name="latitude">
                    <value>15.5526</value>
                </Data>
                <Data name="longitude">
                    <value>74.16383</value>
                </Data>
                <Data name="taluka">
                    <value>Sattari</value>
                </Data>
                <Data name="village">
                    <value>Bombedem</value>
                </Data>
            </ExtendedData>
            <Point id="19683">
                <coordinates>74.16383,15.5526,0.0</coordinates>
            </Point>
        </Placemark>
    </Document>
</kml>
