<?xml version="1.0" encoding="UTF-8"?>
<kml xmlns="http://www.opengis.net/kml/2.2" xmlns:gx="http://www.google.com/kml/ext/2.2">
    <Document id="19699">
        <Placemark id="19701">
            <ExtendedData>
                <Data name="direction">
                    <value>https://maps.google.com?q=15.54186,74.06281&amp;t=h</value>
                </Data>
                <Data name="id">
                    <value>3031</value>
                </Data>
                <Data name="Sr.No">
                    <value>3031</value>
                </Data>
                <Data name="Reg No">
                    <value>184/Sattari</value>
                </Data>
                <Data name="Category">
                    <value>irrigation</value>
                </Data>
                <Data name="Type Of Well">
                    <value>Open Well</value>
                </Data>
                <Data name="Applicant Name">
                    <value>Dasharath Majik/Sumati Majik</value>
                </Data>
                <Data name="Applicant Address">
                    <value>Irrigation well at Garadi Sy no. 29/1, Honda, Sattari Goa</value>
                </Data>
                <Data name="latitude">
                    <value>15.54186</value>
                </Data>
                <Data name="longitude">
                    <value>74.06281</value>
                </Data>
                <Data name="taluka">
                    <value>Sattari</value>
                </Data>
                <Data name="village">
                    <value>Buimpal</value>
                </Data>
            </ExtendedData>
            <Point id="19700">
                <coordinates>74.06281,15.54186,0.0</coordinates>
            </Point>
        </Placemark>
        <Placemark id="19716">
            <ExtendedData>
                <Data name="direction">
                    <value>https://maps.google.com?q=15.54193,74.07805&amp;t=h</value>
                </Data>
                <Data name="id">
                    <value>3034</value>
                </Data>
                <Data name="Sr.No">
                    <value>3034</value>
                </Data>
                <Data name="Reg No">
                    <value>175/Sattari</value>
                </Data>
                <Data name="Category">
                    <value>irrigation</value>
                </Data>
                <Data name="Type Of Well">
                    <value>Open Well</value>
                </Data>
                <Data name="Applicant Name">
                    <value>Vijaykumar Chawan</value>
                </Data>
                <Data name="Applicant Address">
                    <value>Starting point, near ACGL Bus body , Bhimpal,Honda, Sattari Goa.</value>
                </Data>
                <Data name="latitude">
                    <value>15.54193</value>
                </Data>
                <Data name="longitude">
                    <value>74.07805</value>
                </Data>
                <Data name="taluka">
                    <value>Sattari</value>
                </Data>
                <Data name="village">
                    <value>Buimpal</value>
                </Data>
            </ExtendedData>
            <Point id="19715">
                <coordinates>74.07805,15.54193,0.0</coordinates>
            </Point>
        </Placemark>
        <Placemark id="19731">
            <ExtendedData>
                <Data name="direction">
                    <value>https://maps.google.com?q=15.5421,74.07872&amp;t=h</value>
                </Data>
                <Data name="id">
                    <value>3035</value>
                </Data>
                <Data name="Sr.No">
                    <value>3035</value>
                </Data>
                <Data name="Reg No">
                    <value>1647/Sattari</value>
                </Data>
                <Data name="Category">
                    <value>agricultural</value>
                </Data>
                <Data name="Type Of Well">
                    <value>Bore well</value>
                </Data>
                <Data name="Applicant Name">
                    <value>Vijaykumar Chawan</value>
                </Data>
                <Data name="Applicant Address">
                    <value>Bhimpal,Honda, Sattari-Goa.</value>
                </Data>
                <Data name="latitude">
                    <value>15.5421</value>
                </Data>
                <Data name="longitude">
                    <value>74.07872</value>
                </Data>
                <Data name="taluka">
                    <value>Sattari</value>
                </Data>
                <Data name="village">
                    <value>Buimpal</value>
                </Data>
            </ExtendedData>
            <Point id="19730">
                <coordinates>74.07872,15.5421,0.0</coordinates>
            </Point>
        </Placemark>
        <Placemark id="19746">
            <ExtendedData>
                <Data name="direction">
                    <value>https://maps.google.com?q=15.54626,74.08034&amp;t=h</value>
                </Data>
                <Data name="id">
                    <value>3036</value>
                </Data>
                <Data name="Sr.No">
                    <value>3036</value>
                </Data>
                <Data name="Reg No">
                    <value>1018/Sattari</value>
                </Data>
                <Data name="Category">
                    <value>agricultural</value>
                </Data>
                <Data name="Type Of Well">
                    <value>Bore well</value>
                </Data>
                <Data name="Applicant Name">
                    <value>Gaonkar Rajaram Savlo</value>
                </Data>
                <Data name="Applicant Address">
                    <value>H.No. 19, Gaonkar wada, Bhuimpal, Honda, Sattari Goa\t</value>
                </Data>
                <Data name="latitude">
                    <value>15.54626</value>
                </Data>
                <Data name="longitude">
                    <value>74.08034</value>
                </Data>
                <Data name="taluka">
                    <value>Sattari</value>
                </Data>
                <Data name="village">
                    <value>Buimpal</value>
                </Data>
            </ExtendedData>
            <Point id="19745">
                <coordinates>74.08034,15.54626,0.0</coordinates>
            </Point>
        </Placemark>
        <Placemark id="19761">
            <ExtendedData>
                <Data name="direction">
                    <value>https://maps.google.com?q=15.54457,74.08443&amp;t=h</value>
                </Data>
                <Data name="id">
                    <value>3037</value>
                </Data>
                <Data name="Sr.No">
                    <value>3037</value>
                </Data>
                <Data name="Reg No">
                    <value>176/Sattari</value>
                </Data>
                <Data name="Category">
                    <value>irrigation</value>
                </Data>
                <Data name="Type Of Well">
                    <value>Open Well</value>
                </Data>
                <Data name="Applicant Name">
                    <value>Laxman S. Gaonkar</value>
                </Data>
                <Data name="Applicant Address">
                    <value>Kalmachi mati, Bhuimpal,Honda, Sattari-Goa.</value>
                </Data>
                <Data name="latitude">
                    <value>15.54457</value>
                </Data>
                <Data name="longitude">
                    <value>74.08443</value>
                </Data>
                <Data name="taluka">
                    <value>Sattari</value>
                </Data>
                <Data name="village">
                    <value>Buimpal</value>
                </Data>
            </ExtendedData>
            <Point id="19760">
                <coordinates>74.08443,15.54457,0.0</coordinates>
            </Point>
        </Placemark>
        <Placemark id="19776">
            <ExtendedData>
                <Data name="direction">
                    <value>https://maps.google.com?q=15.54686,74.07717&amp;t=h</value>
                </Data>
                <Data name="id">
                    <value>3038</value>
                </Data>
                <Data name="Sr.No">
                    <value>3038</value>
                </Data>
                <Data name="Reg No">
                    <value>180/Sattari</value>
                </Data>
                <Data name="Category">
                    <value>irrigation</value>
                </Data>
                <Data name="Type Of Well">
                    <value>Open Well</value>
                </Data>
                <Data name="Applicant Name">
                    <value>Vithu Phondu Gaonkar</value>
                </Data>
                <Data name="Applicant Address">
                    <value>Niscachi moli, Bhuimpal, Honda, Sattari-Goa.</value>
                </Data>
                <Data name="latitude">
                    <value>15.54686</value>
                </Data>
                <Data name="longitude">
                    <value>74.07717</value>
                </Data>
                <Data name="taluka">
                    <value>Sattari</value>
                </Data>
                <Data name="village">
                    <value>Buimpal</value>
                </Data>
            </ExtendedData>
            <Point id="19775">
                <coordinates>74.07717,15.54686,0.0</coordinates>
            </Point>
        </Placemark>
        <Placemark id="19791">
            <ExtendedData>
                <Data name="direction">
                    <value>https://maps.google.com?q=15.54956,74.08203&amp;t=h</value>
                </Data>
                <Data name="id">
                    <value>3039</value>
                </Data>
                <Data name="Sr.No">
                    <value>3039</value>
                </Data>
                <Data name="Reg No">
                    <value>1631/Sattari</value>
                </Data>
                <Data name="Category">
                    <value>agricultural</value>
                </Data>
                <Data name="Type Of Well">
                    <value>Bore well</value>
                </Data>
                <Data name="Applicant Name">
                    <value>Vithu Phondu Gaonkar</value>
                </Data>
                <Data name="Applicant Address">
                    <value>Bhuimpal, Honda, Sattari-Goa.</value>
                </Data>
                <Data name="latitude">
                    <value>15.54956</value>
                </Data>
                <Data name="longitude">
                    <value>74.08203</value>
                </Data>
                <Data name="taluka">
                    <value>Sattari</value>
                </Data>
                <Data name="village">
                    <value>Buimpal</value>
                </Data>
            </ExtendedData>
            <Point id="19790">
                <coordinates>74.08203,15.54956,0.0</coordinates>
            </Point>
        </Placemark>
        <Placemark id="19806">
            <ExtendedData>
                <Data name="direction">
                    <value>https://maps.google.com?q=15.54535,74.08521&amp;t=h</value>
                </Data>
                <Data name="id">
                    <value>3040</value>
                </Data>
                <Data name="Sr.No">
                    <value>3040</value>
                </Data>
                <Data name="Reg No">
                    <value>1644/Sattari</value>
                </Data>
                <Data name="Category">
                    <value>agricultural</value>
                </Data>
                <Data name="Type Of Well">
                    <value>Bore well</value>
                </Data>
                <Data name="Applicant Name">
                    <value>Vaman Atma Gaonkar</value>
                </Data>
                <Data name="Applicant Address">
                    <value>Bhuimpal, Honda, Sattari-Goa.</value>
                </Data>
                <Data name="latitude">
                    <value>15.54535</value>
                </Data>
                <Data name="longitude">
                    <value>74.08521</value>
                </Data>
                <Data name="taluka">
                    <value>Sattari</value>
                </Data>
                <Data name="village">
                    <value>Buimpal</value>
                </Data>
            </ExtendedData>
            <Point id="19805">
                <coordinates>74.08521,15.54535,0.0</coordinates>
            </Point>
        </Placemark>
        <Placemark id="19821">
            <ExtendedData>
                <Data name="direction">
                    <value>https://maps.google.com?q=15.53694,74.08551&amp;t=h</value>
                </Data>
                <Data name="id">
                    <value>3043</value>
                </Data>
                <Data name="Sr.No">
                    <value>3043</value>
                </Data>
                <Data name="Reg No">
                    <value>1649/Sattari</value>
                </Data>
                <Data name="Category">
                    <value>agricultural</value>
                </Data>
                <Data name="Type Of Well">
                    <value>Bore well</value>
                </Data>
                <Data name="Applicant Name">
                    <value>Vitho Bhago Varak</value>
                </Data>
                <Data name="Applicant Address">
                    <value>Bhedshi wada, Bhuimpal, Honda, Sattari-Goa.</value>
                </Data>
                <Data name="latitude">
                    <value>15.53694</value>
                </Data>
                <Data name="longitude">
                    <value>74.08551</value>
                </Data>
                <Data name="taluka">
                    <value>Sattari</value>
                </Data>
                <Data name="village">
                    <value>Buimpal</value>
                </Data>
            </ExtendedData>
            <Point id="19820">
                <coordinates>74.08551,15.53694,0.0</coordinates>
            </Point>
        </Placemark>
        <Placemark id="19836">
            <ExtendedData>
                <Data name="direction">
                    <value>https://maps.google.com?q=15.53734,74.08408&amp;t=h</value>
                </Data>
                <Data name="id">
                    <value>3044</value>
                </Data>
                <Data name="Sr.No">
                    <value>3044</value>
                </Data>
                <Data name="Reg No">
                    <value>1643/Sattari</value>
                </Data>
                <Data name="Category">
                    <value>agricultural</value>
                </Data>
                <Data name="Type Of Well">
                    <value>Bore well</value>
                </Data>
                <Data name="Applicant Name">
                    <value>Constancio Bothelo</value>
                </Data>
                <Data name="Applicant Address">
                    <value>Bhuimpal, Honda, Sattari-Goa.</value>
                </Data>
                <Data name="latitude">
                    <value>15.53734</value>
                </Data>
                <Data name="longitude">
                    <value>74.08408</value>
                </Data>
                <Data name="taluka">
                    <value>Sattari</value>
                </Data>
                <Data name="village">
                    <value>Buimpal</value>
                </Data>
            </ExtendedData>
            <Point id="19835">
                <coordinates>74.08408,15.53734,0.0</coordinates>
            </Point>
        </Placemark>
        <Placemark id="19851">
            <ExtendedData>
                <Data name="direction">
                    <value>https://maps.google.com?q=15.53907,74.07645&amp;t=h</value>
                </Data>
                <Data name="id">
                    <value>3045</value>
                </Data>
                <Data name="Sr.No">
                    <value>3045</value>
                </Data>
                <Data name="Reg No">
                    <value>1648/Sattari</value>
                </Data>
                <Data name="Category">
                    <value>agricultural</value>
                </Data>
                <Data name="Type Of Well">
                    <value>Bore well</value>
                </Data>
                <Data name="Applicant Name">
                    <value>Babu Bablo Tate</value>
                </Data>
                <Data name="Applicant Address">
                    <value>Bhedshi wada, Bhuimpal, Honda, Sattari-Goa.</value>
                </Data>
                <Data name="latitude">
                    <value>15.53907</value>
                </Data>
                <Data name="longitude">
                    <value>74.07645</value>
                </Data>
                <Data name="taluka">
                    <value>Sattari</value>
                </Data>
                <Data name="village">
                    <value>Buimpal</value>
                </Data>
            </ExtendedData>
            <Point id="19850">
                <coordinates>74.07645,15.53907,0.0</coordinates>
            </Point>
        </Placemark>
        <Placemark id="19866">
            <ExtendedData>
                <Data name="direction">
                    <value>https://maps.google.com?q=15.54023,74.0765&amp;t=h</value>
                </Data>
                <Data name="id">
                    <value>3046</value>
                </Data>
                <Data name="Sr.No">
                    <value>3046</value>
                </Data>
                <Data name="Reg No">
                    <value>1650/Sattari</value>
                </Data>
                <Data name="Category">
                    <value>agricultural</value>
                </Data>
                <Data name="Type Of Well">
                    <value>Bore well</value>
                </Data>
                <Data name="Applicant Name">
                    <value>Ankush L. Hondkar</value>
                </Data>
                <Data name="Applicant Address">
                    <value>Bhedshi wada, Bhuimpal, Honda, Sattari-Goa.</value>
                </Data>
                <Data name="latitude">
                    <value>15.54023</value>
                </Data>
                <Data name="longitude">
                    <value>74.0765</value>
                </Data>
                <Data name="taluka">
                    <value>Sattari</value>
                </Data>
                <Data name="village">
                    <value>Buimpal</value>
                </Data>
            </ExtendedData>
            <Point id="19865">
                <coordinates>74.0765,15.54023,0.0</coordinates>
            </Point>
        </Placemark>
        <Placemark id="19881">
            <ExtendedData>
                <Data name="direction">
                    <value>https://maps.google.com?q=15.541,74.07891&amp;t=h</value>
                </Data>
                <Data name="id">
                    <value>3047</value>
                </Data>
                <Data name="Sr.No">
                    <value>3047</value>
                </Data>
                <Data name="Reg No">
                    <value>1633/Sattari</value>
                </Data>
                <Data name="Category">
                    <value>agricultural</value>
                </Data>
                <Data name="Type Of Well">
                    <value>Bore well</value>
                </Data>
                <Data name="Applicant Name">
                    <value>Sachidanand Shetye</value>
                </Data>
                <Data name="Applicant Address">
                    <value>Bhuimpal, Honda, Sattari-Goa.</value>
                </Data>
                <Data name="latitude">
                    <value>15.541</value>
                </Data>
                <Data name="longitude">
                    <value>74.07891</value>
                </Data>
                <Data name="taluka">
                    <value>Sattari</value>
                </Data>
                <Data name="village">
                    <value>Buimpal</value>
                </Data>
            </ExtendedData>
            <Point id="19880">
                <coordinates>74.07891,15.541,0.0</coordinates>
            </Point>
        </Placemark>
        <Placemark id="19896">
            <ExtendedData>
                <Data name="direction">
                    <value>https://maps.google.com?q=15.54695,74.08317&amp;t=h</value>
                </Data>
                <Data name="id">
                    <value>3048</value>
                </Data>
                <Data name="Sr.No">
                    <value>3048</value>
                </Data>
                <Data name="Reg No">
                    <value>1618/Sattari</value>
                </Data>
                <Data name="Category">
                    <value>agricultural</value>
                </Data>
                <Data name="Type Of Well">
                    <value>Bore well</value>
                </Data>
                <Data name="Applicant Name">
                    <value>Kasturi K. Gaonkar</value>
                </Data>
                <Data name="Applicant Address">
                    <value>Bhuimpal, Honda, Sattari-Goa.</value>
                </Data>
                <Data name="latitude">
                    <value>15.54695</value>
                </Data>
                <Data name="longitude">
                    <value>74.08317</value>
                </Data>
                <Data name="taluka">
                    <value>Sattari</value>
                </Data>
                <Data name="village">
                    <value>Buimpal</value>
                </Data>
            </ExtendedData>
            <Point id="19895">
                <coordinates>74.08317,15.54695,0.0</coordinates>
            </Point>
        </Placemark>
        <Placemark id="19911">
            <ExtendedData>
                <Data name="direction">
                    <value>https://maps.google.com?q=15.53972,74.08563&amp;t=h</value>
                </Data>
                <Data name="id">
                    <value>3049</value>
                </Data>
                <Data name="Sr.No">
                    <value>3049</value>
                </Data>
                <Data name="Reg No">
                    <value>1645/Sattari</value>
                </Data>
                <Data name="Category">
                    <value>agricultural</value>
                </Data>
                <Data name="Type Of Well">
                    <value>Bore well</value>
                </Data>
                <Data name="Applicant Name">
                    <value>Vinayak Khanolkar</value>
                </Data>
                <Data name="Applicant Address">
                    <value>Bhuimpal, Honda, Sattari-Goa.</value>
                </Data>
                <Data name="latitude">
                    <value>15.53972</value>
                </Data>
                <Data name="longitude">
                    <value>74.08563</value>
                </Data>
                <Data name="taluka">
                    <value>Sattari</value>
                </Data>
                <Data name="village">
                    <value>Buimpal</value>
                </Data>
            </ExtendedData>
            <Point id="19910">
                <coordinates>74.08563,15.53972,0.0</coordinates>
            </Point>
        </Placemark>
    </Document>
</kml>
