<?xml version="1.0" encoding="UTF-8"?>
<kml xmlns="http://www.opengis.net/kml/2.2" xmlns:gx="http://www.google.com/kml/ext/2.2">
    <Document id="20450">
        <Placemark id="20452">
            <ExtendedData>
                <Data name="direction">
                    <value>https://maps.google.com?q=15.56429,74.12659&amp;t=h</value>
                </Data>
                <Data name="id">
                    <value>2512</value>
                </Data>
                <Data name="Sr.No">
                    <value>2512</value>
                </Data>
                <Data name="Reg No">
                    <value>862/Sattari</value>
                </Data>
                <Data name="Category">
                    <value>agricultural</value>
                </Data>
                <Data name="Type Of Well">
                    <value>Bore well</value>
                </Data>
                <Data name="Applicant Name">
                    <value>Sawant Madso Laxman</value>
                </Data>
                <Data name="Applicant Address">
                    <value>H.No.66, Kopordem, Valpoi, Sattari Goa</value>
                </Data>
                <Data name="latitude">
                    <value>15.56429</value>
                </Data>
                <Data name="longitude">
                    <value>74.12659</value>
                </Data>
                <Data name="taluka">
                    <value>Sattari</value>
                </Data>
                <Data name="village">
                    <value>Compordem</value>
                </Data>
            </ExtendedData>
            <Point id="20451">
                <coordinates>74.12659,15.56429,0.0</coordinates>
            </Point>
        </Placemark>
        <Placemark id="20467">
            <ExtendedData>
                <Data name="direction">
                    <value>https://maps.google.com?q=15.57083,74.13486&amp;t=h</value>
                </Data>
                <Data name="id">
                    <value>2525</value>
                </Data>
                <Data name="Sr.No">
                    <value>2525</value>
                </Data>
                <Data name="Reg No">
                    <value>245/Sattari</value>
                </Data>
                <Data name="Category">
                    <value>irrigation</value>
                </Data>
                <Data name="Type Of Well">
                    <value>Open Well</value>
                </Data>
                <Data name="Applicant Name">
                    <value>Rama Sawant</value>
                </Data>
                <Data name="Applicant Address">
                    <value>Ambhyakadil Bharad</value>
                </Data>
                <Data name="latitude">
                    <value>15.57083</value>
                </Data>
                <Data name="longitude">
                    <value>74.13486</value>
                </Data>
                <Data name="taluka">
                    <value>Sattari</value>
                </Data>
                <Data name="village">
                    <value>Compordem</value>
                </Data>
            </ExtendedData>
            <Point id="20466">
                <coordinates>74.13486,15.57083,0.0</coordinates>
            </Point>
        </Placemark>
        <Placemark id="20482">
            <ExtendedData>
                <Data name="direction">
                    <value>https://maps.google.com?q=15.56625,74.13406&amp;t=h</value>
                </Data>
                <Data name="id">
                    <value>2819</value>
                </Data>
                <Data name="Sr.No">
                    <value>2819</value>
                </Data>
                <Data name="Reg No">
                    <value>867/Sattari</value>
                </Data>
                <Data name="Category">
                    <value>agricultural</value>
                </Data>
                <Data name="Type Of Well">
                    <value>Bore well</value>
                </Data>
                <Data name="Applicant Name">
                    <value>Shri Gawas mahesh Raghu</value>
                </Data>
                <Data name="Applicant Address">
                    <value>Kopordem, Valpoi, sattari Goa.</value>
                </Data>
                <Data name="latitude">
                    <value>15.56625</value>
                </Data>
                <Data name="longitude">
                    <value>74.13406</value>
                </Data>
                <Data name="taluka">
                    <value>Sattari</value>
                </Data>
                <Data name="village">
                    <value>Compordem</value>
                </Data>
            </ExtendedData>
            <Point id="20481">
                <coordinates>74.13406,15.56625,0.0</coordinates>
            </Point>
        </Placemark>
        <Placemark id="20497">
            <ExtendedData>
                <Data name="direction">
                    <value>https://maps.google.com?q=15.56023,74.12909&amp;t=h</value>
                </Data>
                <Data name="id">
                    <value>2835</value>
                </Data>
                <Data name="Sr.No">
                    <value>2835</value>
                </Data>
                <Data name="Reg No">
                    <value>1264/Sattari</value>
                </Data>
                <Data name="Category">
                    <value>irrigation</value>
                </Data>
                <Data name="Type Of Well">
                    <value>Open Well</value>
                </Data>
                <Data name="Applicant Name">
                    <value>Shaikh Sairabanu Talab</value>
                </Data>
                <Data name="Applicant Address">
                    <value>H.No. 47, Ward No. 8, Near Zonal Agriculture Office, Valpoi Sattari Goa</value>
                </Data>
                <Data name="latitude">
                    <value>15.56023</value>
                </Data>
                <Data name="longitude">
                    <value>74.12909</value>
                </Data>
                <Data name="taluka">
                    <value>Sattari</value>
                </Data>
                <Data name="village">
                    <value>Compordem</value>
                </Data>
            </ExtendedData>
            <Point id="20496">
                <coordinates>74.12909,15.56023,0.0</coordinates>
            </Point>
        </Placemark>
        <Placemark id="20512">
            <ExtendedData>
                <Data name="direction">
                    <value>https://maps.google.com?q=15.54923,74.13448&amp;t=h</value>
                </Data>
                <Data name="id">
                    <value>2864</value>
                </Data>
                <Data name="Sr.No">
                    <value>2864</value>
                </Data>
                <Data name="Reg No">
                    <value>3017/Sattari</value>
                </Data>
                <Data name="Category">
                    <value>agricultural</value>
                </Data>
                <Data name="Type Of Well">
                    <value>Bore well</value>
                </Data>
                <Data name="Applicant Name">
                    <value>Aga Mohammad Ibrahim</value>
                </Data>
                <Data name="Applicant Address">
                    <value>H.No. 95/A, Mauxi road</value>
                </Data>
                <Data name="latitude">
                    <value>15.54923</value>
                </Data>
                <Data name="longitude">
                    <value>74.13448</value>
                </Data>
                <Data name="taluka">
                    <value>Sattari</value>
                </Data>
                <Data name="village">
                    <value>Compordem</value>
                </Data>
            </ExtendedData>
            <Point id="20511">
                <coordinates>74.13448,15.54923,0.0</coordinates>
            </Point>
        </Placemark>
        <Placemark id="20527">
            <ExtendedData>
                <Data name="direction">
                    <value>https://maps.google.com?q=15.56041,74.12689&amp;t=h</value>
                </Data>
                <Data name="id">
                    <value>2871</value>
                </Data>
                <Data name="Sr.No">
                    <value>2871</value>
                </Data>
                <Data name="Reg No">
                    <value>1679/Sattari</value>
                </Data>
                <Data name="Category">
                    <value>agricultural</value>
                </Data>
                <Data name="Type Of Well">
                    <value>Bore well</value>
                </Data>
                <Data name="Applicant Name">
                    <value>Dwarki Vithal Sawant</value>
                </Data>
                <Data name="Applicant Address">
                    <value>Kopardem, Mauxi, Sattari Goa.</value>
                </Data>
                <Data name="latitude">
                    <value>15.56041</value>
                </Data>
                <Data name="longitude">
                    <value>74.12689</value>
                </Data>
                <Data name="taluka">
                    <value>Sattari</value>
                </Data>
                <Data name="village">
                    <value>Compordem</value>
                </Data>
            </ExtendedData>
            <Point id="20526">
                <coordinates>74.12689,15.56041,0.0</coordinates>
            </Point>
        </Placemark>
        <Placemark id="20542">
            <ExtendedData>
                <Data name="direction">
                    <value>https://maps.google.com?q=15.56055,74.1292&amp;t=h</value>
                </Data>
                <Data name="id">
                    <value>2872</value>
                </Data>
                <Data name="Sr.No">
                    <value>2872</value>
                </Data>
                <Data name="Reg No">
                    <value>1688/Sattari</value>
                </Data>
                <Data name="Category">
                    <value>agricultural</value>
                </Data>
                <Data name="Type Of Well">
                    <value>Bore well</value>
                </Data>
                <Data name="Applicant Name">
                    <value>Shaikh Talab</value>
                </Data>
                <Data name="Applicant Address">
                    <value>Kopardem, Mauxi, Sattari Goa.</value>
                </Data>
                <Data name="latitude">
                    <value>15.56055</value>
                </Data>
                <Data name="longitude">
                    <value>74.1292</value>
                </Data>
                <Data name="taluka">
                    <value>Sattari</value>
                </Data>
                <Data name="village">
                    <value>Compordem</value>
                </Data>
            </ExtendedData>
            <Point id="20541">
                <coordinates>74.1292,15.56055,0.0</coordinates>
            </Point>
        </Placemark>
        <Placemark id="20557">
            <ExtendedData>
                <Data name="direction">
                    <value>https://maps.google.com?q=15.5648,74.1358&amp;t=h</value>
                </Data>
                <Data name="id">
                    <value>2873</value>
                </Data>
                <Data name="Sr.No">
                    <value>2873</value>
                </Data>
                <Data name="Reg No">
                    <value>1678/Sattari</value>
                </Data>
                <Data name="Category">
                    <value>agricultural</value>
                </Data>
                <Data name="Type Of Well">
                    <value>Bore well</value>
                </Data>
                <Data name="Applicant Name">
                    <value>Gurudatta Kokodkar</value>
                </Data>
                <Data name="Applicant Address">
                    <value>Thane road, Kopardem, Mauxi, Sattari Goa.</value>
                </Data>
                <Data name="latitude">
                    <value>15.5648</value>
                </Data>
                <Data name="longitude">
                    <value>74.1358</value>
                </Data>
                <Data name="taluka">
                    <value>Sattari</value>
                </Data>
                <Data name="village">
                    <value>Compordem</value>
                </Data>
            </ExtendedData>
            <Point id="20556">
                <coordinates>74.1358,15.5648,0.0</coordinates>
            </Point>
        </Placemark>
        <Placemark id="20572">
            <ExtendedData>
                <Data name="direction">
                    <value>https://maps.google.com?q=15.55882,74.13391&amp;t=h</value>
                </Data>
                <Data name="id">
                    <value>2874</value>
                </Data>
                <Data name="Sr.No">
                    <value>2874</value>
                </Data>
                <Data name="Reg No">
                    <value>1629/Sattari</value>
                </Data>
                <Data name="Category">
                    <value>agricultural</value>
                </Data>
                <Data name="Type Of Well">
                    <value>Bore well</value>
                </Data>
                <Data name="Applicant Name">
                    <value>Arjun Shablo Sawant</value>
                </Data>
                <Data name="Applicant Address">
                    <value>Kopardem, Mauxi, Sattari Goa.</value>
                </Data>
                <Data name="latitude">
                    <value>15.55882</value>
                </Data>
                <Data name="longitude">
                    <value>74.13391</value>
                </Data>
                <Data name="taluka">
                    <value>Sattari</value>
                </Data>
                <Data name="village">
                    <value>Compordem</value>
                </Data>
            </ExtendedData>
            <Point id="20571">
                <coordinates>74.13391,15.55882,0.0</coordinates>
            </Point>
        </Placemark>
        <Placemark id="20587">
            <ExtendedData>
                <Data name="direction">
                    <value>https://maps.google.com?q=15.56719,74.1292&amp;t=h</value>
                </Data>
                <Data name="id">
                    <value>2875</value>
                </Data>
                <Data name="Sr.No">
                    <value>2875</value>
                </Data>
                <Data name="Reg No">
                    <value>1681/Sattari</value>
                </Data>
                <Data name="Category">
                    <value>agricultural</value>
                </Data>
                <Data name="Type Of Well">
                    <value>Bore well</value>
                </Data>
                <Data name="Applicant Name">
                    <value>Datta Vithal Sawant</value>
                </Data>
                <Data name="Applicant Address">
                    <value>Kopardem, Mauxi, Sattari Goa.</value>
                </Data>
                <Data name="latitude">
                    <value>15.56719</value>
                </Data>
                <Data name="longitude">
                    <value>74.1292</value>
                </Data>
                <Data name="taluka">
                    <value>Sattari</value>
                </Data>
                <Data name="village">
                    <value>Compordem</value>
                </Data>
            </ExtendedData>
            <Point id="20586">
                <coordinates>74.1292,15.56719,0.0</coordinates>
            </Point>
        </Placemark>
        <Placemark id="20602">
            <ExtendedData>
                <Data name="direction">
                    <value>https://maps.google.com?q=15.5698,74.13134&amp;t=h</value>
                </Data>
                <Data name="id">
                    <value>2877</value>
                </Data>
                <Data name="Sr.No">
                    <value>2877</value>
                </Data>
                <Data name="Reg No">
                    <value>1686/Sattari</value>
                </Data>
                <Data name="Category">
                    <value>agricultural</value>
                </Data>
                <Data name="Type Of Well">
                    <value>Bore well</value>
                </Data>
                <Data name="Applicant Name">
                    <value>Smt. Vidhya V. Salelkar</value>
                </Data>
                <Data name="Applicant Address">
                    <value>Valpoi, Sattari - Goa</value>
                </Data>
                <Data name="latitude">
                    <value>15.5698</value>
                </Data>
                <Data name="longitude">
                    <value>74.13134</value>
                </Data>
                <Data name="taluka">
                    <value>Sattari</value>
                </Data>
                <Data name="village">
                    <value>Compordem</value>
                </Data>
            </ExtendedData>
            <Point id="20601">
                <coordinates>74.13134,15.5698,0.0</coordinates>
            </Point>
        </Placemark>
        <Placemark id="20617">
            <ExtendedData>
                <Data name="direction">
                    <value>https://maps.google.com?q=15.57157,74.13412&amp;t=h</value>
                </Data>
                <Data name="id">
                    <value>2878</value>
                </Data>
                <Data name="Sr.No">
                    <value>2878</value>
                </Data>
                <Data name="Reg No">
                    <value>1687/Sattari</value>
                </Data>
                <Data name="Category">
                    <value>agricultural</value>
                </Data>
                <Data name="Type Of Well">
                    <value>Bore well</value>
                </Data>
                <Data name="Applicant Name">
                    <value>Shankar Vasu Sawant</value>
                </Data>
                <Data name="Applicant Address">
                    <value>Kopardem, Mauxi, Sattari Goa.</value>
                </Data>
                <Data name="latitude">
                    <value>15.57157</value>
                </Data>
                <Data name="longitude">
                    <value>74.13412</value>
                </Data>
                <Data name="taluka">
                    <value>Sattari</value>
                </Data>
                <Data name="village">
                    <value>Compordem</value>
                </Data>
            </ExtendedData>
            <Point id="20616">
                <coordinates>74.13412,15.57157,0.0</coordinates>
            </Point>
        </Placemark>
        <Placemark id="20632">
            <ExtendedData>
                <Data name="direction">
                    <value>https://maps.google.com?q=15.57192,74.13525&amp;t=h</value>
                </Data>
                <Data name="id">
                    <value>2879</value>
                </Data>
                <Data name="Sr.No">
                    <value>2879</value>
                </Data>
                <Data name="Reg No">
                    <value>1684/Sattari</value>
                </Data>
                <Data name="Category">
                    <value>agricultural</value>
                </Data>
                <Data name="Type Of Well">
                    <value>Bore well</value>
                </Data>
                <Data name="Applicant Name">
                    <value>Rama Vithal Sawant</value>
                </Data>
                <Data name="Applicant Address">
                    <value>Kopardem, Mauxi, Sattari Goa.</value>
                </Data>
                <Data name="latitude">
                    <value>15.57192</value>
                </Data>
                <Data name="longitude">
                    <value>74.13525</value>
                </Data>
                <Data name="taluka">
                    <value>Sattari</value>
                </Data>
                <Data name="village">
                    <value>Compordem</value>
                </Data>
            </ExtendedData>
            <Point id="20631">
                <coordinates>74.13525,15.57192,0.0</coordinates>
            </Point>
        </Placemark>
        <Placemark id="20647">
            <ExtendedData>
                <Data name="direction">
                    <value>https://maps.google.com?q=15.56444,74.13011&amp;t=h</value>
                </Data>
                <Data name="id">
                    <value>2881</value>
                </Data>
                <Data name="Sr.No">
                    <value>2881</value>
                </Data>
                <Data name="Reg No">
                    <value>1596/Sattari</value>
                </Data>
                <Data name="Category">
                    <value>agricultural</value>
                </Data>
                <Data name="Type Of Well">
                    <value>Bore well</value>
                </Data>
                <Data name="Applicant Name">
                    <value>Shaba Vithal Sawant</value>
                </Data>
                <Data name="Applicant Address">
                    <value>Kopardem, Mauxi, Sattari Goa.</value>
                </Data>
                <Data name="latitude">
                    <value>15.56444</value>
                </Data>
                <Data name="longitude">
                    <value>74.13011</value>
                </Data>
                <Data name="taluka">
                    <value>Sattari</value>
                </Data>
                <Data name="village">
                    <value>Compordem</value>
                </Data>
            </ExtendedData>
            <Point id="20646">
                <coordinates>74.13011,15.56444,0.0</coordinates>
            </Point>
        </Placemark>
        <Placemark id="20662">
            <ExtendedData>
                <Data name="direction">
                    <value>https://maps.google.com?q=15.56491,74.13026&amp;t=h</value>
                </Data>
                <Data name="id">
                    <value>2882</value>
                </Data>
                <Data name="Sr.No">
                    <value>2882</value>
                </Data>
                <Data name="Reg No">
                    <value>249/Sattari</value>
                </Data>
                <Data name="Category">
                    <value>irrigation</value>
                </Data>
                <Data name="Type Of Well">
                    <value>Open Well</value>
                </Data>
                <Data name="Applicant Name">
                    <value>Krishna R. Sawant</value>
                </Data>
                <Data name="Applicant Address">
                    <value>Karsal Gaonkar Wada, Kopardem, Sattari-Goa\t</value>
                </Data>
                <Data name="latitude">
                    <value>15.56491</value>
                </Data>
                <Data name="longitude">
                    <value>74.13026</value>
                </Data>
                <Data name="taluka">
                    <value>Sattari</value>
                </Data>
                <Data name="village">
                    <value>Compordem</value>
                </Data>
            </ExtendedData>
            <Point id="20661">
                <coordinates>74.13026,15.56491,0.0</coordinates>
            </Point>
        </Placemark>
        <Placemark id="20677">
            <ExtendedData>
                <Data name="direction">
                    <value>https://maps.google.com?q=15.56013,74.14115&amp;t=h</value>
                </Data>
                <Data name="id">
                    <value>2883</value>
                </Data>
                <Data name="Sr.No">
                    <value>2883</value>
                </Data>
                <Data name="Reg No">
                    <value>246/Sattari</value>
                </Data>
                <Data name="Category">
                    <value>irrigation</value>
                </Data>
                <Data name="Type Of Well">
                    <value>Open Well</value>
                </Data>
                <Data name="Applicant Name">
                    <value>Uday R. Pokle</value>
                </Data>
                <Data name="Applicant Address">
                    <value>Ramkando, Kopardem Sattari-Goa\t</value>
                </Data>
                <Data name="latitude">
                    <value>15.56013</value>
                </Data>
                <Data name="longitude">
                    <value>74.14115</value>
                </Data>
                <Data name="taluka">
                    <value>Sattari</value>
                </Data>
                <Data name="village">
                    <value>Compordem</value>
                </Data>
            </ExtendedData>
            <Point id="20676">
                <coordinates>74.14115,15.56013,0.0</coordinates>
            </Point>
        </Placemark>
        <Placemark id="20692">
            <ExtendedData>
                <Data name="direction">
                    <value>https://maps.google.com?q=15.55652,74.13536&amp;t=h</value>
                </Data>
                <Data name="id">
                    <value>2884</value>
                </Data>
                <Data name="Sr.No">
                    <value>2884</value>
                </Data>
                <Data name="Reg No">
                    <value>1677/Sattari</value>
                </Data>
                <Data name="Category">
                    <value>agricultural</value>
                </Data>
                <Data name="Type Of Well">
                    <value>Bore well</value>
                </Data>
                <Data name="Applicant Name">
                    <value>Shalini Khade</value>
                </Data>
                <Data name="Applicant Address">
                    <value>Thane road, Kopardem, Mauxi, Sattari Goa</value>
                </Data>
                <Data name="latitude">
                    <value>15.55652</value>
                </Data>
                <Data name="longitude">
                    <value>74.13536</value>
                </Data>
                <Data name="taluka">
                    <value>Sattari</value>
                </Data>
                <Data name="village">
                    <value>Compordem</value>
                </Data>
            </ExtendedData>
            <Point id="20691">
                <coordinates>74.13536,15.55652,0.0</coordinates>
            </Point>
        </Placemark>
        <Placemark id="20707">
            <ExtendedData>
                <Data name="direction">
                    <value>https://maps.google.com?q=15.55798,74.13775&amp;t=h</value>
                </Data>
                <Data name="id">
                    <value>2885</value>
                </Data>
                <Data name="Sr.No">
                    <value>2885</value>
                </Data>
                <Data name="Reg No">
                    <value>247/Sattari</value>
                </Data>
                <Data name="Category">
                    <value>irrigation</value>
                </Data>
                <Data name="Type Of Well">
                    <value>Open Well</value>
                </Data>
                <Data name="Applicant Name">
                    <value>Mahadev Sawant</value>
                </Data>
                <Data name="Applicant Address">
                    <value>Bonekar wada Kopardem\t</value>
                </Data>
                <Data name="latitude">
                    <value>15.55798</value>
                </Data>
                <Data name="longitude">
                    <value>74.13775</value>
                </Data>
                <Data name="taluka">
                    <value>Sattari</value>
                </Data>
                <Data name="village">
                    <value>Compordem</value>
                </Data>
            </ExtendedData>
            <Point id="20706">
                <coordinates>74.13775,15.55798,0.0</coordinates>
            </Point>
        </Placemark>
        <Placemark id="20722">
            <ExtendedData>
                <Data name="direction">
                    <value>https://maps.google.com?q=15.5598,74.13405&amp;t=h</value>
                </Data>
                <Data name="id">
                    <value>2886</value>
                </Data>
                <Data name="Sr.No">
                    <value>2886</value>
                </Data>
                <Data name="Reg No">
                    <value>257/Sattari</value>
                </Data>
                <Data name="Category">
                    <value>irrigation</value>
                </Data>
                <Data name="Type Of Well">
                    <value>Open Well</value>
                </Data>
                <Data name="Applicant Name">
                    <value>Laxman Arjun Sawant</value>
                </Data>
                <Data name="Applicant Address">
                    <value>Kopardem, Mauxi, Sattari Goa.</value>
                </Data>
                <Data name="latitude">
                    <value>15.5598</value>
                </Data>
                <Data name="longitude">
                    <value>74.13405</value>
                </Data>
                <Data name="taluka">
                    <value>Sattari</value>
                </Data>
                <Data name="village">
                    <value>Compordem</value>
                </Data>
            </ExtendedData>
            <Point id="20721">
                <coordinates>74.13405,15.5598,0.0</coordinates>
            </Point>
        </Placemark>
        <Placemark id="20737">
            <ExtendedData>
                <Data name="direction">
                    <value>https://maps.google.com?q=15.56323,74.1313&amp;t=h</value>
                </Data>
                <Data name="id">
                    <value>3199</value>
                </Data>
                <Data name="Sr.No">
                    <value>3199</value>
                </Data>
                <Data name="Reg No">
                    <value>1673/sattari</value>
                </Data>
                <Data name="Category">
                    <value>agricultural</value>
                </Data>
                <Data name="Type Of Well">
                    <value>Bore well</value>
                </Data>
                <Data name="Applicant Name">
                    <value>Executive Engineer, W.D.III, W.R.D, Ponda- Goa. (B.win in the field of Gopal Apa Sawant)</value>
                </Data>
                <Data name="Applicant Address">
                    <value>mauxi sattari goa.</value>
                </Data>
                <Data name="latitude">
                    <value>15.56323</value>
                </Data>
                <Data name="longitude">
                    <value>74.1313</value>
                </Data>
                <Data name="taluka">
                    <value>Sattari</value>
                </Data>
                <Data name="village">
                    <value>Compordem</value>
                </Data>
            </ExtendedData>
            <Point id="20736">
                <coordinates>74.1313,15.56323,0.0</coordinates>
            </Point>
        </Placemark>
        <Placemark id="20752">
            <ExtendedData>
                <Data name="direction">
                    <value>https://maps.google.com?q=15.56857,74.13374&amp;t=h</value>
                </Data>
                <Data name="id">
                    <value>3200</value>
                </Data>
                <Data name="Sr.No">
                    <value>3200</value>
                </Data>
                <Data name="Reg No">
                    <value>255/sattari</value>
                </Data>
                <Data name="Category">
                    <value>irrigation</value>
                </Data>
                <Data name="Type Of Well">
                    <value>Open Well</value>
                </Data>
                <Data name="Applicant Name">
                    <value>Shantabai C. Naik</value>
                </Data>
                <Data name="Applicant Address">
                    <value>nagargoa valpoi goa.</value>
                </Data>
                <Data name="latitude">
                    <value>15.56857</value>
                </Data>
                <Data name="longitude">
                    <value>74.13374</value>
                </Data>
                <Data name="taluka">
                    <value>Sattari</value>
                </Data>
                <Data name="village">
                    <value>Compordem</value>
                </Data>
            </ExtendedData>
            <Point id="20751">
                <coordinates>74.13374,15.56857,0.0</coordinates>
            </Point>
        </Placemark>
        <Placemark id="20767">
            <ExtendedData>
                <Data name="direction">
                    <value>https://maps.google.com?q=15.57195,74.13522&amp;t=h</value>
                </Data>
                <Data name="id">
                    <value>3201</value>
                </Data>
                <Data name="Sr.No">
                    <value>3201</value>
                </Data>
                <Data name="Reg No">
                    <value>1675/sattari</value>
                </Data>
                <Data name="Category">
                    <value>agricultural</value>
                </Data>
                <Data name="Type Of Well">
                    <value>Bore well</value>
                </Data>
                <Data name="Applicant Name">
                    <value>Executive Engineer, W.D.III, W.R.D, Ponda- Goa. (B.win in the field of Sita Rama Sawant )</value>
                </Data>
                <Data name="Applicant Address">
                    <value>mauxi sattari goa.</value>
                </Data>
                <Data name="latitude">
                    <value>15.57195</value>
                </Data>
                <Data name="longitude">
                    <value>74.13522</value>
                </Data>
                <Data name="taluka">
                    <value>Sattari</value>
                </Data>
                <Data name="village">
                    <value>Compordem</value>
                </Data>
            </ExtendedData>
            <Point id="20766">
                <coordinates>74.13522,15.57195,0.0</coordinates>
            </Point>
        </Placemark>
    </Document>
</kml>
