<?xml version="1.0" encoding="UTF-8"?>
<kml xmlns="http://www.opengis.net/kml/2.2" xmlns:gx="http://www.google.com/kml/ext/2.2">
    <Document id="20829">
        <Placemark id="20831">
            <ExtendedData>
                <Data name="direction">
                    <value>https://maps.google.com?q=15.48216,74.15511&amp;t=h</value>
                </Data>
                <Data name="id">
                    <value>2587</value>
                </Data>
                <Data name="Sr.No">
                    <value>2587</value>
                </Data>
                <Data name="Reg No">
                    <value>111/Sattari</value>
                </Data>
                <Data name="Category">
                    <value>irrigation</value>
                </Data>
                <Data name="Type Of Well">
                    <value>Open Well</value>
                </Data>
                <Data name="Applicant Name">
                    <value>Damodar Bhave</value>
                </Data>
                <Data name="Applicant Address">
                    <value>Bimbal thikan 2 ,Bimbal , Valpoi.</value>
                </Data>
                <Data name="latitude">
                    <value>15.48216</value>
                </Data>
                <Data name="longitude">
                    <value>74.15511</value>
                </Data>
                <Data name="taluka">
                    <value>Sattari</value>
                </Data>
                <Data name="village">
                    <value>Cotorem</value>
                </Data>
            </ExtendedData>
            <Point id="20830">
                <coordinates>74.15511,15.48216,0.0</coordinates>
            </Point>
        </Placemark>
        <Placemark id="20846">
            <ExtendedData>
                <Data name="direction">
                    <value>https://maps.google.com?q=15.4831,74.15321&amp;t=h</value>
                </Data>
                <Data name="id">
                    <value>2588</value>
                </Data>
                <Data name="Sr.No">
                    <value>2588</value>
                </Data>
                <Data name="Reg No">
                    <value>154/Sattari</value>
                </Data>
                <Data name="Category">
                    <value>irrigation</value>
                </Data>
                <Data name="Type Of Well">
                    <value>Open Well</value>
                </Data>
                <Data name="Applicant Name">
                    <value>Sitaram Marathe</value>
                </Data>
                <Data name="Applicant Address">
                    <value>Kalamachi Moli ,Bimbal ,Valpoi.</value>
                </Data>
                <Data name="latitude">
                    <value>15.4831</value>
                </Data>
                <Data name="longitude">
                    <value>74.15321</value>
                </Data>
                <Data name="taluka">
                    <value>Sattari</value>
                </Data>
                <Data name="village">
                    <value>Cotorem</value>
                </Data>
            </ExtendedData>
            <Point id="20845">
                <coordinates>74.15321,15.4831,0.0</coordinates>
            </Point>
        </Placemark>
        <Placemark id="20861">
            <ExtendedData>
                <Data name="direction">
                    <value>https://maps.google.com?q=15.48131,74.15276&amp;t=h</value>
                </Data>
                <Data name="id">
                    <value>2589</value>
                </Data>
                <Data name="Sr.No">
                    <value>2589</value>
                </Data>
                <Data name="Reg No">
                    <value>150/Sattari</value>
                </Data>
                <Data name="Category">
                    <value>irrigation</value>
                </Data>
                <Data name="Type Of Well">
                    <value>Open Well</value>
                </Data>
                <Data name="Applicant Name">
                    <value>Devu Ramchandra Marathe</value>
                </Data>
                <Data name="Applicant Address">
                    <value>Khotodem Bimbal , Bimbal ,Valpoi.</value>
                </Data>
                <Data name="latitude">
                    <value>15.48131</value>
                </Data>
                <Data name="longitude">
                    <value>74.15276</value>
                </Data>
                <Data name="taluka">
                    <value>Sattari</value>
                </Data>
                <Data name="village">
                    <value>Cotorem</value>
                </Data>
            </ExtendedData>
            <Point id="20860">
                <coordinates>74.15276,15.48131,0.0</coordinates>
            </Point>
        </Placemark>
        <Placemark id="20876">
            <ExtendedData>
                <Data name="direction">
                    <value>https://maps.google.com?q=15.48241,74.15225&amp;t=h</value>
                </Data>
                <Data name="id">
                    <value>2590</value>
                </Data>
                <Data name="Sr.No">
                    <value>2590</value>
                </Data>
                <Data name="Reg No">
                    <value>161/Sattari</value>
                </Data>
                <Data name="Category">
                    <value>irrigation</value>
                </Data>
                <Data name="Type Of Well">
                    <value>Open Well</value>
                </Data>
                <Data name="Applicant Name">
                    <value>Janardhan Bhat</value>
                </Data>
                <Data name="Applicant Address">
                    <value>Irrigtion well at Bimbol , Bimbal , Valpoi.</value>
                </Data>
                <Data name="latitude">
                    <value>15.48241</value>
                </Data>
                <Data name="longitude">
                    <value>74.15225</value>
                </Data>
                <Data name="taluka">
                    <value>Sattari</value>
                </Data>
                <Data name="village">
                    <value>Cotorem</value>
                </Data>
            </ExtendedData>
            <Point id="20875">
                <coordinates>74.15225,15.48241,0.0</coordinates>
            </Point>
        </Placemark>
        <Placemark id="20891">
            <ExtendedData>
                <Data name="direction">
                    <value>https://maps.google.com?q=15.48088,74.15137&amp;t=h</value>
                </Data>
                <Data name="id">
                    <value>2591</value>
                </Data>
                <Data name="Sr.No">
                    <value>2591</value>
                </Data>
                <Data name="Reg No">
                    <value>160/Sattari</value>
                </Data>
                <Data name="Category">
                    <value>irrigation</value>
                </Data>
                <Data name="Type Of Well">
                    <value>Open Well</value>
                </Data>
                <Data name="Applicant Name">
                    <value>Purushotam Marathe.</value>
                </Data>
                <Data name="Applicant Address">
                    <value>Bimbal, Valpoi.</value>
                </Data>
                <Data name="latitude">
                    <value>15.48088</value>
                </Data>
                <Data name="longitude">
                    <value>74.15137</value>
                </Data>
                <Data name="taluka">
                    <value>Sattari</value>
                </Data>
                <Data name="village">
                    <value>Cotorem</value>
                </Data>
            </ExtendedData>
            <Point id="20890">
                <coordinates>74.15137,15.48088,0.0</coordinates>
            </Point>
        </Placemark>
        <Placemark id="20906">
            <ExtendedData>
                <Data name="direction">
                    <value>https://maps.google.com?q=15.48038,74.15141&amp;t=h</value>
                </Data>
                <Data name="id">
                    <value>2592</value>
                </Data>
                <Data name="Sr.No">
                    <value>2592</value>
                </Data>
                <Data name="Reg No">
                    <value>110/Sattari</value>
                </Data>
                <Data name="Category">
                    <value>irrigation</value>
                </Data>
                <Data name="Type Of Well">
                    <value>Open Well</value>
                </Data>
                <Data name="Applicant Name">
                    <value>Purushottam Marathe</value>
                </Data>
                <Data name="Applicant Address">
                    <value>Bimbal thikan 1 . Bimbal , Valpoi.</value>
                </Data>
                <Data name="latitude">
                    <value>15.48038</value>
                </Data>
                <Data name="longitude">
                    <value>74.15141</value>
                </Data>
                <Data name="taluka">
                    <value>Sattari</value>
                </Data>
                <Data name="village">
                    <value>Cotorem</value>
                </Data>
            </ExtendedData>
            <Point id="20905">
                <coordinates>74.15141,15.48038,0.0</coordinates>
            </Point>
        </Placemark>
        <Placemark id="20921">
            <ExtendedData>
                <Data name="direction">
                    <value>https://maps.google.com?q=15.48087,74.15076&amp;t=h</value>
                </Data>
                <Data name="id">
                    <value>2593</value>
                </Data>
                <Data name="Sr.No">
                    <value>2593</value>
                </Data>
                <Data name="Reg No">
                    <value>159/Sattari</value>
                </Data>
                <Data name="Category">
                    <value>irrigation</value>
                </Data>
                <Data name="Type Of Well">
                    <value>Open Well</value>
                </Data>
                <Data name="Applicant Name">
                    <value>Mahadev Ganpule</value>
                </Data>
                <Data name="Applicant Address">
                    <value>Bimbal ,Valpoi.</value>
                </Data>
                <Data name="latitude">
                    <value>15.48087</value>
                </Data>
                <Data name="longitude">
                    <value>74.15076</value>
                </Data>
                <Data name="taluka">
                    <value>Sattari</value>
                </Data>
                <Data name="village">
                    <value>Cotorem</value>
                </Data>
            </ExtendedData>
            <Point id="20920">
                <coordinates>74.15076,15.48087,0.0</coordinates>
            </Point>
        </Placemark>
        <Placemark id="20936">
            <ExtendedData>
                <Data name="direction">
                    <value>https://maps.google.com?q=15.48322,74.14725&amp;t=h</value>
                </Data>
                <Data name="id">
                    <value>2708</value>
                </Data>
                <Data name="Sr.No">
                    <value>2708</value>
                </Data>
                <Data name="Reg No">
                    <value>1271/Sattari</value>
                </Data>
                <Data name="Category">
                    <value>agricultural</value>
                </Data>
                <Data name="Type Of Well">
                    <value>Open Well</value>
                </Data>
                <Data name="Applicant Name">
                    <value>Patil Arvind Gondopanth</value>
                </Data>
                <Data name="Applicant Address">
                    <value>H.No. 45, Cotorem, Bimbal, Sattari Goa</value>
                </Data>
                <Data name="latitude">
                    <value>15.48322</value>
                </Data>
                <Data name="longitude">
                    <value>74.14725</value>
                </Data>
                <Data name="taluka">
                    <value>Sattari</value>
                </Data>
                <Data name="village">
                    <value>Cotorem</value>
                </Data>
            </ExtendedData>
            <Point id="20935">
                <coordinates>74.14725,15.48322,0.0</coordinates>
            </Point>
        </Placemark>
        <Placemark id="20951">
            <ExtendedData>
                <Data name="direction">
                    <value>https://maps.google.com?q=15.48114,74.15359&amp;t=h</value>
                </Data>
                <Data name="id">
                    <value>2709</value>
                </Data>
                <Data name="Sr.No">
                    <value>2709</value>
                </Data>
                <Data name="Reg No">
                    <value>818/Sattari</value>
                </Data>
                <Data name="Category">
                    <value>irrigation</value>
                </Data>
                <Data name="Type Of Well">
                    <value>Open Well</value>
                </Data>
                <Data name="Applicant Name">
                    <value>Bhave Dattatrey Shantaram</value>
                </Data>
                <Data name="Applicant Address">
                    <value>Bimbal , Khotodem, Sattari Goa.</value>
                </Data>
                <Data name="latitude">
                    <value>15.48114</value>
                </Data>
                <Data name="longitude">
                    <value>74.15359</value>
                </Data>
                <Data name="taluka">
                    <value>Sattari</value>
                </Data>
                <Data name="village">
                    <value>Cotorem</value>
                </Data>
            </ExtendedData>
            <Point id="20950">
                <coordinates>74.15359,15.48114,0.0</coordinates>
            </Point>
        </Placemark>
        <Placemark id="20966">
            <ExtendedData>
                <Data name="direction">
                    <value>https://maps.google.com?q=15.47366,74.14299&amp;t=h</value>
                </Data>
                <Data name="id">
                    <value>3203</value>
                </Data>
                <Data name="Sr.No">
                    <value>3203</value>
                </Data>
                <Data name="Reg No">
                    <value>1614/sattari</value>
                </Data>
                <Data name="Category">
                    <value>agricultural</value>
                </Data>
                <Data name="Type Of Well">
                    <value>Bore well</value>
                </Data>
                <Data name="Applicant Name">
                    <value>Yeshwant S. Barve</value>
                </Data>
                <Data name="Applicant Address">
                    <value>Khotodem, Valpoi, Sattari Goa</value>
                </Data>
                <Data name="latitude">
                    <value>15.47366</value>
                </Data>
                <Data name="longitude">
                    <value>74.14299</value>
                </Data>
                <Data name="taluka">
                    <value>Sattari</value>
                </Data>
                <Data name="village">
                    <value>Cotorem</value>
                </Data>
            </ExtendedData>
            <Point id="20965">
                <coordinates>74.14299,15.47366,0.0</coordinates>
            </Point>
        </Placemark>
        <Placemark id="20981">
            <ExtendedData>
                <Data name="direction">
                    <value>https://maps.google.com?q=15.48334,74.1419&amp;t=h</value>
                </Data>
                <Data name="id">
                    <value>3275</value>
                </Data>
                <Data name="Sr.No">
                    <value>3275</value>
                </Data>
                <Data name="Reg No">
                    <value>Laximan P Marathe</value>
                </Data>
                <Data name="Category">
                    <value>irrigation</value>
                </Data>
                <Data name="Type Of Well">
                    <value>Open Well</value>
                </Data>
                <Data name="Applicant Name">
                    <value>laximan P marathe</value>
                </Data>
                <Data name="Applicant Address">
                    <value>khotodem sattari goa.</value>
                </Data>
                <Data name="latitude">
                    <value>15.48334</value>
                </Data>
                <Data name="longitude">
                    <value>74.1419</value>
                </Data>
                <Data name="taluka">
                    <value>Sattari</value>
                </Data>
                <Data name="village">
                    <value>Cotorem</value>
                </Data>
            </ExtendedData>
            <Point id="20980">
                <coordinates>74.1419,15.48334,0.0</coordinates>
            </Point>
        </Placemark>
    </Document>
</kml>
