<?xml version="1.0" encoding="UTF-8"?>
<kml xmlns="http://www.opengis.net/kml/2.2" xmlns:gx="http://www.google.com/kml/ext/2.2">
    <Document id="20996">
        <Placemark id="20998">
            <ExtendedData>
                <Data name="direction">
                    <value>https://maps.google.com?q=15.53445,74.16093&amp;t=h</value>
                </Data>
                <Data name="id">
                    <value>2546</value>
                </Data>
                <Data name="Sr.No">
                    <value>2546</value>
                </Data>
                <Data name="Reg No">
                    <value>973/Sattari</value>
                </Data>
                <Data name="Category">
                    <value>agricultural</value>
                </Data>
                <Data name="Type Of Well">
                    <value>Open Well</value>
                </Data>
                <Data name="Applicant Name">
                    <value>Kanekar Manohar Vitthal</value>
                </Data>
                <Data name="Applicant Address">
                    <value>kudshem , Valpoi</value>
                </Data>
                <Data name="latitude">
                    <value>15.53445</value>
                </Data>
                <Data name="longitude">
                    <value>74.16093</value>
                </Data>
                <Data name="taluka">
                    <value>Sattari</value>
                </Data>
                <Data name="village">
                    <value>Cudcem</value>
                </Data>
            </ExtendedData>
            <Point id="20997">
                <coordinates>74.16093,15.53445,0.0</coordinates>
            </Point>
        </Placemark>
    </Document>
</kml>
