<?xml version="1.0" encoding="UTF-8"?>
<kml xmlns="http://www.opengis.net/kml/2.2" xmlns:gx="http://www.google.com/kml/ext/2.2">
    <Document id="21535">
        <Placemark id="21537">
            <ExtendedData>
                <Data name="direction">
                    <value>https://maps.google.com?q=15.60933,74.04987&amp;t=h</value>
                </Data>
                <Data name="id">
                    <value>2889</value>
                </Data>
                <Data name="Sr.No">
                    <value>2889</value>
                </Data>
                <Data name="Reg No">
                    <value>236/Sattari</value>
                </Data>
                <Data name="Category">
                    <value>irrigation</value>
                </Data>
                <Data name="Type Of Well">
                    <value>Open Well</value>
                </Data>
                <Data name="Applicant Name">
                    <value>Ganesh S. Gawas</value>
                </Data>
                <Data name="Applicant Address">
                    <value>Dhangar wada, Ghoteli no.2\t</value>
                </Data>
                <Data name="latitude">
                    <value>15.60933</value>
                </Data>
                <Data name="longitude">
                    <value>74.04987</value>
                </Data>
                <Data name="taluka">
                    <value>Sattari</value>
                </Data>
                <Data name="village">
                    <value>Gonteli</value>
                </Data>
            </ExtendedData>
            <Point id="21536">
                <coordinates>74.04987,15.60933,0.0</coordinates>
            </Point>
        </Placemark>
        <Placemark id="21552">
            <ExtendedData>
                <Data name="direction">
                    <value>https://maps.google.com?q=15.60927,74.06344&amp;t=h</value>
                </Data>
                <Data name="id">
                    <value>2898</value>
                </Data>
                <Data name="Sr.No">
                    <value>2898</value>
                </Data>
                <Data name="Reg No">
                    <value>231/Sattari</value>
                </Data>
                <Data name="Category">
                    <value>irrigation</value>
                </Data>
                <Data name="Type Of Well">
                    <value>Open Well</value>
                </Data>
                <Data name="Applicant Name">
                    <value>Suryakant G. Gawas</value>
                </Data>
                <Data name="Applicant Address">
                    <value>Mhalsa Pani Vatap Society Ghoteli No.1\nKeri\tSattari-Goa</value>
                </Data>
                <Data name="latitude">
                    <value>15.60927</value>
                </Data>
                <Data name="longitude">
                    <value>74.06344</value>
                </Data>
                <Data name="taluka">
                    <value>Sattari</value>
                </Data>
                <Data name="village">
                    <value>Gonteli</value>
                </Data>
            </ExtendedData>
            <Point id="21551">
                <coordinates>74.06344,15.60927,0.0</coordinates>
            </Point>
        </Placemark>
        <Placemark id="21567">
            <ExtendedData>
                <Data name="direction">
                    <value>https://maps.google.com?q=15.60649,74.06097&amp;t=h</value>
                </Data>
                <Data name="id">
                    <value>2917</value>
                </Data>
                <Data name="Sr.No">
                    <value>2917</value>
                </Data>
                <Data name="Reg No">
                    <value>1288/Sattari</value>
                </Data>
                <Data name="Category">
                    <value>agricultural</value>
                </Data>
                <Data name="Type Of Well">
                    <value>Open Well</value>
                </Data>
                <Data name="Applicant Name">
                    <value>Pangam Chandrakant Jaidev</value>
                </Data>
                <Data name="Applicant Address">
                    <value>Ghoteli no.1, Keri, Sattari-Goa</value>
                </Data>
                <Data name="latitude">
                    <value>15.60649</value>
                </Data>
                <Data name="longitude">
                    <value>74.06097</value>
                </Data>
                <Data name="taluka">
                    <value>Sattari</value>
                </Data>
                <Data name="village">
                    <value>Gonteli</value>
                </Data>
            </ExtendedData>
            <Point id="21566">
                <coordinates>74.06097,15.60649,0.0</coordinates>
            </Point>
        </Placemark>
        <Placemark id="21582">
            <ExtendedData>
                <Data name="direction">
                    <value>https://maps.google.com?q=15.60803,74.06213&amp;t=h</value>
                </Data>
                <Data name="id">
                    <value>2918</value>
                </Data>
                <Data name="Sr.No">
                    <value>2918</value>
                </Data>
                <Data name="Reg No">
                    <value>1287/Sattari</value>
                </Data>
                <Data name="Category">
                    <value>agricultural</value>
                </Data>
                <Data name="Type Of Well">
                    <value>Open Well</value>
                </Data>
                <Data name="Applicant Name">
                    <value>Pangam Chandrakant Jaidev</value>
                </Data>
                <Data name="Applicant Address">
                    <value>Ghoteli no.1\t</value>
                </Data>
                <Data name="latitude">
                    <value>15.60803</value>
                </Data>
                <Data name="longitude">
                    <value>74.06213</value>
                </Data>
                <Data name="taluka">
                    <value>Sattari</value>
                </Data>
                <Data name="village">
                    <value>Gonteli</value>
                </Data>
            </ExtendedData>
            <Point id="21581">
                <coordinates>74.06213,15.60803,0.0</coordinates>
            </Point>
        </Placemark>
        <Placemark id="21597">
            <ExtendedData>
                <Data name="direction">
                    <value>https://maps.google.com?q=15.60351,74.05704&amp;t=h</value>
                </Data>
                <Data name="id">
                    <value>2926</value>
                </Data>
                <Data name="Sr.No">
                    <value>2926</value>
                </Data>
                <Data name="Reg No">
                    <value>3018/Sattari</value>
                </Data>
                <Data name="Category">
                    <value>agricultural</value>
                </Data>
                <Data name="Type Of Well">
                    <value>Open Well</value>
                </Data>
                <Data name="Applicant Name">
                    <value>Habeeb Naveeda</value>
                </Data>
                <Data name="Applicant Address">
                    <value>H.No.297, Ghoteli no.1, Keri, Sattari-Goa</value>
                </Data>
                <Data name="latitude">
                    <value>15.60351</value>
                </Data>
                <Data name="longitude">
                    <value>74.05704</value>
                </Data>
                <Data name="taluka">
                    <value>Sattari</value>
                </Data>
                <Data name="village">
                    <value>Gonteli</value>
                </Data>
            </ExtendedData>
            <Point id="21596">
                <coordinates>74.05704,15.60351,0.0</coordinates>
            </Point>
        </Placemark>
        <Placemark id="21612">
            <ExtendedData>
                <Data name="direction">
                    <value>https://maps.google.com?q=15.60273,74.05227&amp;t=h</value>
                </Data>
                <Data name="id">
                    <value>2927</value>
                </Data>
                <Data name="Sr.No">
                    <value>2927</value>
                </Data>
                <Data name="Reg No">
                    <value>1289/Sattari</value>
                </Data>
                <Data name="Category">
                    <value>agricultural</value>
                </Data>
                <Data name="Type Of Well">
                    <value>Open Well</value>
                </Data>
                <Data name="Applicant Name">
                    <value>Pangam Chandrakant Jaidev</value>
                </Data>
                <Data name="Applicant Address">
                    <value>Keri, Sattari-Goa\t</value>
                </Data>
                <Data name="latitude">
                    <value>15.60273</value>
                </Data>
                <Data name="longitude">
                    <value>74.05227</value>
                </Data>
                <Data name="taluka">
                    <value>Sattari</value>
                </Data>
                <Data name="village">
                    <value>Gonteli</value>
                </Data>
            </ExtendedData>
            <Point id="21611">
                <coordinates>74.05227,15.60273,0.0</coordinates>
            </Point>
        </Placemark>
    </Document>
</kml>
