<?xml version="1.0" encoding="UTF-8"?>
<kml xmlns="http://www.opengis.net/kml/2.2" xmlns:gx="http://www.google.com/kml/ext/2.2">
    <Document id="21627">
        <Placemark id="21629">
            <ExtendedData>
                <Data name="direction">
                    <value>https://maps.google.com?q=15.4584,74.1876&amp;t=h</value>
                </Data>
                <Data name="id">
                    <value>2614</value>
                </Data>
                <Data name="Sr.No">
                    <value>2614</value>
                </Data>
                <Data name="Reg No">
                    <value>134/Sattari</value>
                </Data>
                <Data name="Category">
                    <value>irrigation</value>
                </Data>
                <Data name="Type Of Well">
                    <value>Open Well</value>
                </Data>
                <Data name="Applicant Name">
                    <value>Shantaram Harijan</value>
                </Data>
                <Data name="Applicant Address">
                    <value>Nimnachi Gal , Malpan ,</value>
                </Data>
                <Data name="latitude">
                    <value>15.4584</value>
                </Data>
                <Data name="longitude">
                    <value>74.1876</value>
                </Data>
                <Data name="taluka">
                    <value>Sattari</value>
                </Data>
                <Data name="village">
                    <value>Govanem</value>
                </Data>
            </ExtendedData>
            <Point id="21628">
                <coordinates>74.1876,15.4584,0.0</coordinates>
            </Point>
        </Placemark>
        <Placemark id="21644">
            <ExtendedData>
                <Data name="direction">
                    <value>https://maps.google.com?q=15.45945,74.19112&amp;t=h</value>
                </Data>
                <Data name="id">
                    <value>2615</value>
                </Data>
                <Data name="Sr.No">
                    <value>2615</value>
                </Data>
                <Data name="Reg No">
                    <value>129/Sattari</value>
                </Data>
                <Data name="Category">
                    <value>irrigation</value>
                </Data>
                <Data name="Type Of Well">
                    <value>Open Well</value>
                </Data>
                <Data name="Applicant Name">
                    <value>Mahadev Harijan</value>
                </Data>
                <Data name="Applicant Address">
                    <value>Nimnachi Gal Malpan</value>
                </Data>
                <Data name="latitude">
                    <value>15.45945</value>
                </Data>
                <Data name="longitude">
                    <value>74.19112</value>
                </Data>
                <Data name="taluka">
                    <value>Sattari</value>
                </Data>
                <Data name="village">
                    <value>Govanem</value>
                </Data>
            </ExtendedData>
            <Point id="21643">
                <coordinates>74.19112,15.45945,0.0</coordinates>
            </Point>
        </Placemark>
        <Placemark id="21659">
            <ExtendedData>
                <Data name="direction">
                    <value>https://maps.google.com?q=15.45638,74.18694&amp;t=h</value>
                </Data>
                <Data name="id">
                    <value>2616</value>
                </Data>
                <Data name="Sr.No">
                    <value>2616</value>
                </Data>
                <Data name="Reg No">
                    <value>135/Sattari</value>
                </Data>
                <Data name="Category">
                    <value>irrigation</value>
                </Data>
                <Data name="Type Of Well">
                    <value>Open Well</value>
                </Data>
                <Data name="Applicant Name">
                    <value>Rama Harijan</value>
                </Data>
                <Data name="Applicant Address">
                    <value>Nimnachi Gal Malpan</value>
                </Data>
                <Data name="latitude">
                    <value>15.45638</value>
                </Data>
                <Data name="longitude">
                    <value>74.18694</value>
                </Data>
                <Data name="taluka">
                    <value>Sattari</value>
                </Data>
                <Data name="village">
                    <value>Govanem</value>
                </Data>
            </ExtendedData>
            <Point id="21658">
                <coordinates>74.18694,15.45638,0.0</coordinates>
            </Point>
        </Placemark>
        <Placemark id="21674">
            <ExtendedData>
                <Data name="direction">
                    <value>https://maps.google.com?q=15.46392,74.17977&amp;t=h</value>
                </Data>
                <Data name="id">
                    <value>2617</value>
                </Data>
                <Data name="Sr.No">
                    <value>2617</value>
                </Data>
                <Data name="Reg No">
                    <value>117/Sattari</value>
                </Data>
                <Data name="Category">
                    <value>irrigation</value>
                </Data>
                <Data name="Type Of Well">
                    <value>Open Well</value>
                </Data>
                <Data name="Applicant Name">
                    <value>Mansing Rane</value>
                </Data>
                <Data name="Applicant Address">
                    <value>Mansing Rane , Gawane</value>
                </Data>
                <Data name="latitude">
                    <value>15.46392</value>
                </Data>
                <Data name="longitude">
                    <value>74.17977</value>
                </Data>
                <Data name="taluka">
                    <value>Sattari</value>
                </Data>
                <Data name="village">
                    <value>Govanem</value>
                </Data>
            </ExtendedData>
            <Point id="21673">
                <coordinates>74.17977,15.46392,0.0</coordinates>
            </Point>
        </Placemark>
        <Placemark id="21689">
            <ExtendedData>
                <Data name="direction">
                    <value>https://maps.google.com?q=15.4617,74.17695&amp;t=h</value>
                </Data>
                <Data name="id">
                    <value>2618</value>
                </Data>
                <Data name="Sr.No">
                    <value>2618</value>
                </Data>
                <Data name="Reg No">
                    <value>126/Sattari</value>
                </Data>
                <Data name="Category">
                    <value>irrigation</value>
                </Data>
                <Data name="Type Of Well">
                    <value>Open Well</value>
                </Data>
                <Data name="Applicant Name">
                    <value>Bhaskar Joshi</value>
                </Data>
                <Data name="Applicant Address">
                    <value>Bramhyache tad, Gawane ,Valpoi</value>
                </Data>
                <Data name="latitude">
                    <value>15.4617</value>
                </Data>
                <Data name="longitude">
                    <value>74.17695</value>
                </Data>
                <Data name="taluka">
                    <value>Sattari</value>
                </Data>
                <Data name="village">
                    <value>Govanem</value>
                </Data>
            </ExtendedData>
            <Point id="21688">
                <coordinates>74.17695,15.4617,0.0</coordinates>
            </Point>
        </Placemark>
        <Placemark id="21704">
            <ExtendedData>
                <Data name="direction">
                    <value>https://maps.google.com?q=15.4591,74.1735&amp;t=h</value>
                </Data>
                <Data name="id">
                    <value>2714</value>
                </Data>
                <Data name="Sr.No">
                    <value>2714</value>
                </Data>
                <Data name="Reg No">
                    <value>116/Sattari</value>
                </Data>
                <Data name="Category">
                    <value>irrigation</value>
                </Data>
                <Data name="Type Of Well">
                    <value>Open Well</value>
                </Data>
                <Data name="Applicant Name">
                    <value>Ghanasham Joshi</value>
                </Data>
                <Data name="Applicant Address">
                    <value>Lusache temb, Gawane, Sattari Goa.</value>
                </Data>
                <Data name="latitude">
                    <value>15.4591</value>
                </Data>
                <Data name="longitude">
                    <value>74.1735</value>
                </Data>
                <Data name="taluka">
                    <value>Sattari</value>
                </Data>
                <Data name="village">
                    <value>Govanem</value>
                </Data>
            </ExtendedData>
            <Point id="21703">
                <coordinates>74.1735,15.4591,0.0</coordinates>
            </Point>
        </Placemark>
        <Placemark id="21719">
            <ExtendedData>
                <Data name="direction">
                    <value>https://maps.google.com?q=15.4647,74.17446&amp;t=h</value>
                </Data>
                <Data name="id">
                    <value>2715</value>
                </Data>
                <Data name="Sr.No">
                    <value>2715</value>
                </Data>
                <Data name="Reg No">
                    <value>115/Sattari</value>
                </Data>
                <Data name="Category">
                    <value>irrigation</value>
                </Data>
                <Data name="Type Of Well">
                    <value>Open Well</value>
                </Data>
                <Data name="Applicant Name">
                    <value>Shrikant Joshi</value>
                </Data>
                <Data name="Applicant Address">
                    <value>Kamoli Gawane</value>
                </Data>
                <Data name="latitude">
                    <value>15.4647</value>
                </Data>
                <Data name="longitude">
                    <value>74.17446</value>
                </Data>
                <Data name="taluka">
                    <value>Sattari</value>
                </Data>
                <Data name="village">
                    <value>Govanem</value>
                </Data>
            </ExtendedData>
            <Point id="21718">
                <coordinates>74.17446,15.4647,0.0</coordinates>
            </Point>
        </Placemark>
        <Placemark id="21734">
            <ExtendedData>
                <Data name="direction">
                    <value>https://maps.google.com?q=15.46225,74.17565&amp;t=h</value>
                </Data>
                <Data name="id">
                    <value>2716</value>
                </Data>
                <Data name="Sr.No">
                    <value>2716</value>
                </Data>
                <Data name="Reg No">
                    <value>123/Sattari</value>
                </Data>
                <Data name="Category">
                    <value>irrigation</value>
                </Data>
                <Data name="Type Of Well">
                    <value>Open Well</value>
                </Data>
                <Data name="Applicant Name">
                    <value>Balchandra Joshi</value>
                </Data>
                <Data name="Applicant Address">
                    <value>Gawakadil tad Gawane</value>
                </Data>
                <Data name="latitude">
                    <value>15.46225</value>
                </Data>
                <Data name="longitude">
                    <value>74.17565</value>
                </Data>
                <Data name="taluka">
                    <value>Sattari</value>
                </Data>
                <Data name="village">
                    <value>Govanem</value>
                </Data>
            </ExtendedData>
            <Point id="21733">
                <coordinates>74.17565,15.46225,0.0</coordinates>
            </Point>
        </Placemark>
        <Placemark id="21749">
            <ExtendedData>
                <Data name="direction">
                    <value>https://maps.google.com?q=15.46178,74.17566&amp;t=h</value>
                </Data>
                <Data name="id">
                    <value>2717</value>
                </Data>
                <Data name="Sr.No">
                    <value>2717</value>
                </Data>
                <Data name="Reg No">
                    <value>112/Sattari</value>
                </Data>
                <Data name="Category">
                    <value>irrigation</value>
                </Data>
                <Data name="Type Of Well">
                    <value>Open Well</value>
                </Data>
                <Data name="Applicant Name">
                    <value>Kalidas N. Joshi</value>
                </Data>
                <Data name="Applicant Address">
                    <value>Kajryachi moli Khotodem</value>
                </Data>
                <Data name="latitude">
                    <value>15.46178</value>
                </Data>
                <Data name="longitude">
                    <value>74.17566</value>
                </Data>
                <Data name="taluka">
                    <value>Sattari</value>
                </Data>
                <Data name="village">
                    <value>Govanem</value>
                </Data>
            </ExtendedData>
            <Point id="21748">
                <coordinates>74.17566,15.46178,0.0</coordinates>
            </Point>
        </Placemark>
        <Placemark id="21764">
            <ExtendedData>
                <Data name="direction">
                    <value>https://maps.google.com?q=15.46639,74.18563&amp;t=h</value>
                </Data>
                <Data name="id">
                    <value>2718</value>
                </Data>
                <Data name="Sr.No">
                    <value>2718</value>
                </Data>
                <Data name="Reg No">
                    <value>155/Sattari</value>
                </Data>
                <Data name="Category">
                    <value>irrigation</value>
                </Data>
                <Data name="Type Of Well">
                    <value>Open Well</value>
                </Data>
                <Data name="Applicant Name">
                    <value>Vijaya S. Gaonkar</value>
                </Data>
                <Data name="Applicant Address">
                    <value>Kurad dando Gawane, Khotodem, Sattari Goa.</value>
                </Data>
                <Data name="latitude">
                    <value>15.46639</value>
                </Data>
                <Data name="longitude">
                    <value>74.18563</value>
                </Data>
                <Data name="taluka">
                    <value>Sattari</value>
                </Data>
                <Data name="village">
                    <value>Govanem</value>
                </Data>
            </ExtendedData>
            <Point id="21763">
                <coordinates>74.18563,15.46639,0.0</coordinates>
            </Point>
        </Placemark>
        <Placemark id="21779">
            <ExtendedData>
                <Data name="direction">
                    <value>https://maps.google.com?q=15.459319,74.19132&amp;t=h</value>
                </Data>
                <Data name="id">
                    <value>3168</value>
                </Data>
                <Data name="Sr.No">
                    <value>3168</value>
                </Data>
                <Data name="Reg No">
                    <value>164/Sattari</value>
                </Data>
                <Data name="Category">
                    <value>irrigation</value>
                </Data>
                <Data name="Type Of Well">
                    <value>Open Well</value>
                </Data>
                <Data name="Applicant Name">
                    <value>Nene Vasudev Vishwanath</value>
                </Data>
                <Data name="Applicant Address">
                    <value>Kajryache Mol Sonal, Saverdem, Sattari-Goa</value>
                </Data>
                <Data name="latitude">
                    <value>15.459319</value>
                </Data>
                <Data name="longitude">
                    <value>74.19132</value>
                </Data>
                <Data name="taluka">
                    <value>Sattari</value>
                </Data>
                <Data name="village">
                    <value>Govanem</value>
                </Data>
            </ExtendedData>
            <Point id="21778">
                <coordinates>74.19132,15.459319,0.0</coordinates>
            </Point>
        </Placemark>
    </Document>
</kml>
