<?xml version="1.0" encoding="UTF-8"?>
<kml xmlns="http://www.opengis.net/kml/2.2" xmlns:gx="http://www.google.com/kml/ext/2.2">
    <Document id="22258">
        <Placemark id="22260">
            <ExtendedData>
                <Data name="direction">
                    <value>https://maps.google.com?q=15.45974,74.15403&amp;t=h</value>
                </Data>
                <Data name="id">
                    <value>2690</value>
                </Data>
                <Data name="Sr.No">
                    <value>2690</value>
                </Data>
                <Data name="Reg No">
                    <value>200/Sattari</value>
                </Data>
                <Data name="Category">
                    <value>irrigation</value>
                </Data>
                <Data name="Type Of Well">
                    <value>Open Well</value>
                </Data>
                <Data name="Applicant Name">
                    <value>Vishnu Ganesh Malekar</value>
                </Data>
                <Data name="Applicant Address">
                    <value>Bodkechi Moli, Melouli, Guleli, Sattari-Goa</value>
                </Data>
                <Data name="latitude">
                    <value>15.45974</value>
                </Data>
                <Data name="longitude">
                    <value>74.15403</value>
                </Data>
                <Data name="taluka">
                    <value>Sattari</value>
                </Data>
                <Data name="village">
                    <value>Melauli</value>
                </Data>
            </ExtendedData>
            <Point id="22259">
                <coordinates>74.15403,15.45974,0.0</coordinates>
            </Point>
        </Placemark>
        <Placemark id="22275">
            <ExtendedData>
                <Data name="direction">
                    <value>https://maps.google.com?q=15.46529,74.15007&amp;t=h</value>
                </Data>
                <Data name="id">
                    <value>2692</value>
                </Data>
                <Data name="Sr.No">
                    <value>2692</value>
                </Data>
                <Data name="Reg No">
                    <value>203/Sattari</value>
                </Data>
                <Data name="Category">
                    <value>irrigation</value>
                </Data>
                <Data name="Type Of Well">
                    <value>Open Well</value>
                </Data>
                <Data name="Applicant Name">
                    <value>Babal Arjun Melekar</value>
                </Data>
                <Data name="Applicant Address">
                    <value>Maiginem Melouli, Guleli, Sattari Goa.</value>
                </Data>
                <Data name="latitude">
                    <value>15.46529</value>
                </Data>
                <Data name="longitude">
                    <value>74.15007</value>
                </Data>
                <Data name="taluka">
                    <value>Sattari</value>
                </Data>
                <Data name="village">
                    <value>Melauli</value>
                </Data>
            </ExtendedData>
            <Point id="22274">
                <coordinates>74.15007,15.46529,0.0</coordinates>
            </Point>
        </Placemark>
        <Placemark id="22290">
            <ExtendedData>
                <Data name="direction">
                    <value>https://maps.google.com?q=15.46641,74.14085&amp;t=h</value>
                </Data>
                <Data name="id">
                    <value>2696</value>
                </Data>
                <Data name="Sr.No">
                    <value>2696</value>
                </Data>
                <Data name="Reg No">
                    <value>207/Sattari</value>
                </Data>
                <Data name="Category">
                    <value>irrigation</value>
                </Data>
                <Data name="Type Of Well">
                    <value>Open Well</value>
                </Data>
                <Data name="Applicant Name">
                    <value>Pandurang Shivolkar</value>
                </Data>
                <Data name="Applicant Address">
                    <value>Shel Melouli, Guleli, Sattari-Goa</value>
                </Data>
                <Data name="latitude">
                    <value>15.46641</value>
                </Data>
                <Data name="longitude">
                    <value>74.14085</value>
                </Data>
                <Data name="taluka">
                    <value>Sattari</value>
                </Data>
                <Data name="village">
                    <value>Melauli</value>
                </Data>
            </ExtendedData>
            <Point id="22289">
                <coordinates>74.14085,15.46641,0.0</coordinates>
            </Point>
        </Placemark>
        <Placemark id="22305">
            <ExtendedData>
                <Data name="direction">
                    <value>https://maps.google.com?q=15.46824,74.1368&amp;t=h</value>
                </Data>
                <Data name="id">
                    <value>2697</value>
                </Data>
                <Data name="Sr.No">
                    <value>2697</value>
                </Data>
                <Data name="Reg No">
                    <value>198/Sattari</value>
                </Data>
                <Data name="Category">
                    <value>irrigation</value>
                </Data>
                <Data name="Type Of Well">
                    <value>Open Well</value>
                </Data>
                <Data name="Applicant Name">
                    <value>Prakash B. Gawade</value>
                </Data>
                <Data name="Applicant Address">
                    <value>Silothe Kankirem, Guleli, Sattari-Goa</value>
                </Data>
                <Data name="latitude">
                    <value>15.46824</value>
                </Data>
                <Data name="longitude">
                    <value>74.1368</value>
                </Data>
                <Data name="taluka">
                    <value>Sattari</value>
                </Data>
                <Data name="village">
                    <value>Melauli</value>
                </Data>
            </ExtendedData>
            <Point id="22304">
                <coordinates>74.1368,15.46824,0.0</coordinates>
            </Point>
        </Placemark>
        <Placemark id="22320">
            <ExtendedData>
                <Data name="direction">
                    <value>https://maps.google.com?q=15.44143,74.14448&amp;t=h</value>
                </Data>
                <Data name="id">
                    <value>2703</value>
                </Data>
                <Data name="Sr.No">
                    <value>2703</value>
                </Data>
                <Data name="Reg No">
                    <value>197/Sattari</value>
                </Data>
                <Data name="Category">
                    <value>irrigation</value>
                </Data>
                <Data name="Type Of Well">
                    <value>Open Well</value>
                </Data>
                <Data name="Applicant Name">
                    <value>Yesso Som Moulingkar</value>
                </Data>
                <Data name="Applicant Address">
                    <value>Malekarachi Vali Melouli, Guleli, Sattari-Goa</value>
                </Data>
                <Data name="latitude">
                    <value>15.44143</value>
                </Data>
                <Data name="longitude">
                    <value>74.14448</value>
                </Data>
                <Data name="taluka">
                    <value>Sattari</value>
                </Data>
                <Data name="village">
                    <value>Melauli</value>
                </Data>
            </ExtendedData>
            <Point id="22319">
                <coordinates>74.14448,15.44143,0.0</coordinates>
            </Point>
        </Placemark>
        <Placemark id="22335">
            <ExtendedData>
                <Data name="direction">
                    <value>https://maps.google.com?q=15.44248,74.14423&amp;t=h</value>
                </Data>
                <Data name="id">
                    <value>2704</value>
                </Data>
                <Data name="Sr.No">
                    <value>2704</value>
                </Data>
                <Data name="Reg No">
                    <value>1294/Sattari</value>
                </Data>
                <Data name="Category">
                    <value>agricultural</value>
                </Data>
                <Data name="Type Of Well">
                    <value>Open Well</value>
                </Data>
                <Data name="Applicant Name">
                    <value>Shri Usapkar Rajaram Laxman</value>
                </Data>
                <Data name="Applicant Address">
                    <value>H.No. 16, Guleli, Sattari Goa</value>
                </Data>
                <Data name="latitude">
                    <value>15.44248</value>
                </Data>
                <Data name="longitude">
                    <value>74.14423</value>
                </Data>
                <Data name="taluka">
                    <value>Sattari</value>
                </Data>
                <Data name="village">
                    <value>Melauli</value>
                </Data>
            </ExtendedData>
            <Point id="22334">
                <coordinates>74.14423,15.44248,0.0</coordinates>
            </Point>
        </Placemark>
        <Placemark id="22350">
            <ExtendedData>
                <Data name="direction">
                    <value>https://maps.google.com?q=15.46854,74.14381&amp;t=h</value>
                </Data>
                <Data name="id">
                    <value>3062</value>
                </Data>
                <Data name="Sr.No">
                    <value>3062</value>
                </Data>
                <Data name="Reg No">
                    <value>195/Sattari</value>
                </Data>
                <Data name="Category">
                    <value>irrigation</value>
                </Data>
                <Data name="Type Of Well">
                    <value>Open Well</value>
                </Data>
                <Data name="Applicant Name">
                    <value>Vishnu F. Gawade</value>
                </Data>
                <Data name="Applicant Address">
                    <value>Ghodache Mol, Maiguinem, Melouli, Sattari-Goa</value>
                </Data>
                <Data name="latitude">
                    <value>15.46854</value>
                </Data>
                <Data name="longitude">
                    <value>74.14381</value>
                </Data>
                <Data name="taluka">
                    <value>Sattari</value>
                </Data>
                <Data name="village">
                    <value>Melauli</value>
                </Data>
            </ExtendedData>
            <Point id="22349">
                <coordinates>74.14381,15.46854,0.0</coordinates>
            </Point>
        </Placemark>
        <Placemark id="22365">
            <ExtendedData>
                <Data name="direction">
                    <value>https://maps.google.com?q=15.43899,74.13106&amp;t=h</value>
                </Data>
                <Data name="id">
                    <value>3193</value>
                </Data>
                <Data name="Sr.No">
                    <value>3193</value>
                </Data>
                <Data name="Reg No">
                    <value>1358/Sattari</value>
                </Data>
                <Data name="Category">
                    <value>agricultural</value>
                </Data>
                <Data name="Type Of Well">
                    <value>Open Well</value>
                </Data>
                <Data name="Applicant Name">
                    <value>Shri Gawde Mahadev V.</value>
                </Data>
                <Data name="Applicant Address">
                    <value>Paikul, Guleli Valpoi, Sattari Goa</value>
                </Data>
                <Data name="latitude">
                    <value>15.43899</value>
                </Data>
                <Data name="longitude">
                    <value>74.13106</value>
                </Data>
                <Data name="taluka">
                    <value>Sattari</value>
                </Data>
                <Data name="village">
                    <value>Melauli</value>
                </Data>
            </ExtendedData>
            <Point id="22364">
                <coordinates>74.13106,15.43899,0.0</coordinates>
            </Point>
        </Placemark>
        <Placemark id="22380">
            <ExtendedData>
                <Data name="direction">
                    <value>https://maps.google.com?q=15.47293,74.15542&amp;t=h</value>
                </Data>
                <Data name="id">
                    <value>3276</value>
                </Data>
                <Data name="Sr.No">
                    <value>3276</value>
                </Data>
                <Data name="Reg No">
                    <value>1623/sattari</value>
                </Data>
                <Data name="Category">
                    <value>agricultural</value>
                </Data>
                <Data name="Type Of Well">
                    <value>Bore well</value>
                </Data>
                <Data name="Applicant Name">
                    <value>suhas s sawaikar</value>
                </Data>
                <Data name="Applicant Address">
                    <value>khotodem sattari goa.</value>
                </Data>
                <Data name="latitude">
                    <value>15.47293</value>
                </Data>
                <Data name="longitude">
                    <value>74.15542</value>
                </Data>
                <Data name="taluka">
                    <value>Sattari</value>
                </Data>
                <Data name="village">
                    <value>Melauli</value>
                </Data>
            </ExtendedData>
            <Point id="22379">
                <coordinates>74.15542,15.47293,0.0</coordinates>
            </Point>
        </Placemark>
    </Document>
</kml>
