<?xml version="1.0" encoding="UTF-8"?>
<kml xmlns="http://www.opengis.net/kml/2.2" xmlns:gx="http://www.google.com/kml/ext/2.2">
    <Document id="23110">
        <Placemark id="23112">
            <ExtendedData>
                <Data name="direction">
                    <value>https://maps.google.com?q=15.51733,74.13058&amp;t=h</value>
                </Data>
                <Data name="id">
                    <value>2500</value>
                </Data>
                <Data name="Sr.No">
                    <value>2500</value>
                </Data>
                <Data name="Reg No">
                    <value>1320/Sattari</value>
                </Data>
                <Data name="Category">
                    <value>agricultural</value>
                </Data>
                <Data name="Type Of Well">
                    <value>Open Well</value>
                </Data>
                <Data name="Applicant Name">
                    <value>Naik Gajanan Pandurang</value>
                </Data>
                <Data name="Applicant Address">
                    <value>H.No. 12, Nanus, Betkekar wada, Valpoi, Sattari Goa</value>
                </Data>
                <Data name="latitude">
                    <value>15.51733</value>
                </Data>
                <Data name="longitude">
                    <value>74.13058</value>
                </Data>
                <Data name="taluka">
                    <value>Sattari</value>
                </Data>
                <Data name="village">
                    <value>Nanus</value>
                </Data>
            </ExtendedData>
            <Point id="23111">
                <coordinates>74.13058,15.51733,0.0</coordinates>
            </Point>
        </Placemark>
        <Placemark id="23127">
            <ExtendedData>
                <Data name="direction">
                    <value>https://maps.google.com?q=15.51682,74.13052&amp;t=h</value>
                </Data>
                <Data name="id">
                    <value>2501</value>
                </Data>
                <Data name="Sr.No">
                    <value>2501</value>
                </Data>
                <Data name="Reg No">
                    <value>1321/Sattari</value>
                </Data>
                <Data name="Category">
                    <value>agricultural</value>
                </Data>
                <Data name="Type Of Well">
                    <value>Open Well</value>
                </Data>
                <Data name="Applicant Name">
                    <value>Naik Gokuldas Suklo</value>
                </Data>
                <Data name="Applicant Address">
                    <value>H.No. 54/3, Nanus, Betkekar wada, Valpoi, Sattari Goa</value>
                </Data>
                <Data name="latitude">
                    <value>15.51682</value>
                </Data>
                <Data name="longitude">
                    <value>74.13052</value>
                </Data>
                <Data name="taluka">
                    <value>Sattari</value>
                </Data>
                <Data name="village">
                    <value>Nanus</value>
                </Data>
            </ExtendedData>
            <Point id="23126">
                <coordinates>74.13052,15.51682,0.0</coordinates>
            </Point>
        </Placemark>
        <Placemark id="23142">
            <ExtendedData>
                <Data name="direction">
                    <value>https://maps.google.com?q=15.51803,74.1312&amp;t=h</value>
                </Data>
                <Data name="id">
                    <value>2502</value>
                </Data>
                <Data name="Sr.No">
                    <value>2502</value>
                </Data>
                <Data name="Reg No">
                    <value>1322/Sattari</value>
                </Data>
                <Data name="Category">
                    <value>agricultural</value>
                </Data>
                <Data name="Type Of Well">
                    <value>Open Well</value>
                </Data>
                <Data name="Applicant Name">
                    <value>Gaonkar Raju Laxman</value>
                </Data>
                <Data name="Applicant Address">
                    <value>H.No. 19, Ward No. 5, Nanuz, Betkekar wada, Valpoi, Sattari Goa</value>
                </Data>
                <Data name="latitude">
                    <value>15.51803</value>
                </Data>
                <Data name="longitude">
                    <value>74.1312</value>
                </Data>
                <Data name="taluka">
                    <value>Sattari</value>
                </Data>
                <Data name="village">
                    <value>Nanus</value>
                </Data>
            </ExtendedData>
            <Point id="23141">
                <coordinates>74.1312,15.51803,0.0</coordinates>
            </Point>
        </Placemark>
        <Placemark id="23157">
            <ExtendedData>
                <Data name="direction">
                    <value>https://maps.google.com?q=15.51755,74.13019&amp;t=h</value>
                </Data>
                <Data name="id">
                    <value>2503</value>
                </Data>
                <Data name="Sr.No">
                    <value>2503</value>
                </Data>
                <Data name="Reg No">
                    <value>1310/Sattari</value>
                </Data>
                <Data name="Category">
                    <value>agricultural</value>
                </Data>
                <Data name="Type Of Well">
                    <value>Open Well</value>
                </Data>
                <Data name="Applicant Name">
                    <value>Naik Ashok Ramchandra</value>
                </Data>
                <Data name="Applicant Address">
                    <value>Nanus, Valpoi, Sattari Goa</value>
                </Data>
                <Data name="latitude">
                    <value>15.51755</value>
                </Data>
                <Data name="longitude">
                    <value>74.13019</value>
                </Data>
                <Data name="taluka">
                    <value>Sattari</value>
                </Data>
                <Data name="village">
                    <value>Nanus</value>
                </Data>
            </ExtendedData>
            <Point id="23156">
                <coordinates>74.13019,15.51755,0.0</coordinates>
            </Point>
        </Placemark>
        <Placemark id="23172">
            <ExtendedData>
                <Data name="direction">
                    <value>https://maps.google.com?q=15.51578,74.13262&amp;t=h</value>
                </Data>
                <Data name="id">
                    <value>2504</value>
                </Data>
                <Data name="Sr.No">
                    <value>2504</value>
                </Data>
                <Data name="Reg No">
                    <value>1314/Sattari</value>
                </Data>
                <Data name="Category">
                    <value>agricultural</value>
                </Data>
                <Data name="Type Of Well">
                    <value>Open Well</value>
                </Data>
                <Data name="Applicant Name">
                    <value>Thakur Mahadev Laxman</value>
                </Data>
                <Data name="Applicant Address">
                    <value>H.No. 49/2, Nanus, Valpoi, Sattari Goa</value>
                </Data>
                <Data name="latitude">
                    <value>15.51578</value>
                </Data>
                <Data name="longitude">
                    <value>74.13262</value>
                </Data>
                <Data name="taluka">
                    <value>Sattari</value>
                </Data>
                <Data name="village">
                    <value>Nanus</value>
                </Data>
            </ExtendedData>
            <Point id="23171">
                <coordinates>74.13262,15.51578,0.0</coordinates>
            </Point>
        </Placemark>
        <Placemark id="23187">
            <ExtendedData>
                <Data name="direction">
                    <value>https://maps.google.com?q=15.51035,74.12724&amp;t=h</value>
                </Data>
                <Data name="id">
                    <value>2505</value>
                </Data>
                <Data name="Sr.No">
                    <value>2505</value>
                </Data>
                <Data name="Reg No">
                    <value>1315/Sattari</value>
                </Data>
                <Data name="Category">
                    <value>agricultural</value>
                </Data>
                <Data name="Type Of Well">
                    <value>Open Well</value>
                </Data>
                <Data name="Applicant Name">
                    <value>Aga Mainuna</value>
                </Data>
                <Data name="Applicant Address">
                    <value>H.No. 71, Nanus, Valpoi, Sattari Goa</value>
                </Data>
                <Data name="latitude">
                    <value>15.51035</value>
                </Data>
                <Data name="longitude">
                    <value>74.12724</value>
                </Data>
                <Data name="taluka">
                    <value>Sattari</value>
                </Data>
                <Data name="village">
                    <value>Nanus</value>
                </Data>
            </ExtendedData>
            <Point id="23186">
                <coordinates>74.12724,15.51035,0.0</coordinates>
            </Point>
        </Placemark>
        <Placemark id="23202">
            <ExtendedData>
                <Data name="direction">
                    <value>https://maps.google.com?q=15.51029,74.12466&amp;t=h</value>
                </Data>
                <Data name="id">
                    <value>2506</value>
                </Data>
                <Data name="Sr.No">
                    <value>2506</value>
                </Data>
                <Data name="Reg No">
                    <value>1318/Sattari</value>
                </Data>
                <Data name="Category">
                    <value>agricultural</value>
                </Data>
                <Data name="Type Of Well">
                    <value>Open Well</value>
                </Data>
                <Data name="Applicant Name">
                    <value>Shan Husen Hasan</value>
                </Data>
                <Data name="Applicant Address">
                    <value>H.No. 116, Nanus, Valpoi, Sattari Goa</value>
                </Data>
                <Data name="latitude">
                    <value>15.51029</value>
                </Data>
                <Data name="longitude">
                    <value>74.12466</value>
                </Data>
                <Data name="taluka">
                    <value>Sattari</value>
                </Data>
                <Data name="village">
                    <value>Nanus</value>
                </Data>
            </ExtendedData>
            <Point id="23201">
                <coordinates>74.12466,15.51029,0.0</coordinates>
            </Point>
        </Placemark>
        <Placemark id="23217">
            <ExtendedData>
                <Data name="direction">
                    <value>https://maps.google.com?q=15.50956,74.12574&amp;t=h</value>
                </Data>
                <Data name="id">
                    <value>2507</value>
                </Data>
                <Data name="Sr.No">
                    <value>2507</value>
                </Data>
                <Data name="Reg No">
                    <value>1312/Sattari</value>
                </Data>
                <Data name="Category">
                    <value>agricultural</value>
                </Data>
                <Data name="Type Of Well">
                    <value>Open Well</value>
                </Data>
                <Data name="Applicant Name">
                    <value>Khan Shamsodin Daud</value>
                </Data>
                <Data name="Applicant Address">
                    <value>Nanus, Muslim wada, Valpoi, Sattari Goa</value>
                </Data>
                <Data name="latitude">
                    <value>15.50956</value>
                </Data>
                <Data name="longitude">
                    <value>74.12574</value>
                </Data>
                <Data name="taluka">
                    <value>Sattari</value>
                </Data>
                <Data name="village">
                    <value>Nanus</value>
                </Data>
            </ExtendedData>
            <Point id="23216">
                <coordinates>74.12574,15.50956,0.0</coordinates>
            </Point>
        </Placemark>
        <Placemark id="23232">
            <ExtendedData>
                <Data name="direction">
                    <value>https://maps.google.com?q=15.51058,74.12402&amp;t=h</value>
                </Data>
                <Data name="id">
                    <value>2508</value>
                </Data>
                <Data name="Sr.No">
                    <value>2508</value>
                </Data>
                <Data name="Reg No">
                    <value>1311/Sattari</value>
                </Data>
                <Data name="Category">
                    <value>agricultural</value>
                </Data>
                <Data name="Type Of Well">
                    <value>Open Well</value>
                </Data>
                <Data name="Applicant Name">
                    <value>Khan Sadroddin Daud</value>
                </Data>
                <Data name="Applicant Address">
                    <value>Ansule, Nanus, Valpoi, Sattari Goa</value>
                </Data>
                <Data name="latitude">
                    <value>15.51058</value>
                </Data>
                <Data name="longitude">
                    <value>74.12402</value>
                </Data>
                <Data name="taluka">
                    <value>Sattari</value>
                </Data>
                <Data name="village">
                    <value>Nanus</value>
                </Data>
            </ExtendedData>
            <Point id="23231">
                <coordinates>74.12402,15.51058,0.0</coordinates>
            </Point>
        </Placemark>
        <Placemark id="23247">
            <ExtendedData>
                <Data name="direction">
                    <value>https://maps.google.com?q=15.50853,74.12653&amp;t=h</value>
                </Data>
                <Data name="id">
                    <value>2509</value>
                </Data>
                <Data name="Sr.No">
                    <value>2509</value>
                </Data>
                <Data name="Reg No">
                    <value>1317/Sattari</value>
                </Data>
                <Data name="Category">
                    <value>agricultural</value>
                </Data>
                <Data name="Type Of Well">
                    <value>Open Well</value>
                </Data>
                <Data name="Applicant Name">
                    <value>Shaikh Zahid Mohammed Kassim</value>
                </Data>
                <Data name="Applicant Address">
                    <value>Shri Khan Jahangir Daud, Ward No. 6, Nanus Valpoi, Sattari Goa</value>
                </Data>
                <Data name="latitude">
                    <value>15.50853</value>
                </Data>
                <Data name="longitude">
                    <value>74.12653</value>
                </Data>
                <Data name="taluka">
                    <value>Sattari</value>
                </Data>
                <Data name="village">
                    <value>Nanus</value>
                </Data>
            </ExtendedData>
            <Point id="23246">
                <coordinates>74.12653,15.50853,0.0</coordinates>
            </Point>
        </Placemark>
        <Placemark id="23262">
            <ExtendedData>
                <Data name="direction">
                    <value>https://maps.google.com?q=15.52375,74.12816&amp;t=h</value>
                </Data>
                <Data name="id">
                    <value>2510</value>
                </Data>
                <Data name="Sr.No">
                    <value>2510</value>
                </Data>
                <Data name="Reg No">
                    <value>1354/Sattari</value>
                </Data>
                <Data name="Category">
                    <value>agricultural</value>
                </Data>
                <Data name="Type Of Well">
                    <value>Open Well</value>
                </Data>
                <Data name="Applicant Name">
                    <value>Shaik Ismail Police</value>
                </Data>
                <Data name="Applicant Address">
                    <value>H.No. 164, Nanas, Valpoi, Sattari Goa</value>
                </Data>
                <Data name="latitude">
                    <value>15.52375</value>
                </Data>
                <Data name="longitude">
                    <value>74.12816</value>
                </Data>
                <Data name="taluka">
                    <value>Sattari</value>
                </Data>
                <Data name="village">
                    <value>Nanus</value>
                </Data>
            </ExtendedData>
            <Point id="23261">
                <coordinates>74.12816,15.52375,0.0</coordinates>
            </Point>
        </Placemark>
        <Placemark id="23277">
            <ExtendedData>
                <Data name="direction">
                    <value>https://maps.google.com?q=15.52595,74.12688&amp;t=h</value>
                </Data>
                <Data name="id">
                    <value>2838</value>
                </Data>
                <Data name="Sr.No">
                    <value>2838</value>
                </Data>
                <Data name="Reg No">
                    <value>264/Sattari</value>
                </Data>
                <Data name="Category">
                    <value>irrigation</value>
                </Data>
                <Data name="Type Of Well">
                    <value>Open Well</value>
                </Data>
                <Data name="Applicant Name">
                    <value>Noorbi Khan</value>
                </Data>
                <Data name="Applicant Address">
                    <value>Near forest office,Valpoi, sattari Goa.</value>
                </Data>
                <Data name="latitude">
                    <value>15.52595</value>
                </Data>
                <Data name="longitude">
                    <value>74.12688</value>
                </Data>
                <Data name="taluka">
                    <value>Sattari</value>
                </Data>
                <Data name="village">
                    <value>Nanus</value>
                </Data>
            </ExtendedData>
            <Point id="23276">
                <coordinates>74.12688,15.52595,0.0</coordinates>
            </Point>
        </Placemark>
        <Placemark id="23292">
            <ExtendedData>
                <Data name="direction">
                    <value>https://maps.google.com?q=15.51011,74.12608&amp;t=h</value>
                </Data>
                <Data name="id">
                    <value>3228</value>
                </Data>
                <Data name="Sr.No">
                    <value>3228</value>
                </Data>
                <Data name="Reg No">
                    <value>1319/sattari</value>
                </Data>
                <Data name="Category">
                    <value>agricultural</value>
                </Data>
                <Data name="Type Of Well">
                    <value>Open Well</value>
                </Data>
                <Data name="Applicant Name">
                    <value>Shri Shaikh Raziya Bi.</value>
                </Data>
                <Data name="Applicant Address">
                    <value>H.No. 111, Naus, Valpoi, Sattari Goa</value>
                </Data>
                <Data name="latitude">
                    <value>15.51011</value>
                </Data>
                <Data name="longitude">
                    <value>74.12608</value>
                </Data>
                <Data name="taluka">
                    <value>Sattari</value>
                </Data>
                <Data name="village">
                    <value>Nanus</value>
                </Data>
            </ExtendedData>
            <Point id="23291">
                <coordinates>74.12608,15.51011,0.0</coordinates>
            </Point>
        </Placemark>
        <Placemark id="23307">
            <ExtendedData>
                <Data name="direction">
                    <value>https://maps.google.com?q=15.518264,74.130898&amp;t=h</value>
                </Data>
                <Data name="id">
                    <value>3270</value>
                </Data>
                <Data name="Sr.No">
                    <value>3270</value>
                </Data>
                <Data name="Reg No">
                    <value>28/2019</value>
                </Data>
                <Data name="Category">
                    <value>agricultural</value>
                </Data>
                <Data name="Type Of Well">
                    <value>Bore well</value>
                </Data>
                <Data name="Applicant Name">
                    <value>Sail sharmila ulhas</value>
                </Data>
                <Data name="Applicant Address">
                    <value>H.no. 143, Ward no. 5, Nanus valpoi sattari goa.</value>
                </Data>
                <Data name="latitude">
                    <value>15.518264</value>
                </Data>
                <Data name="longitude">
                    <value>74.130898</value>
                </Data>
                <Data name="taluka">
                    <value>Sattari</value>
                </Data>
                <Data name="village">
                    <value>Nanus</value>
                </Data>
            </ExtendedData>
            <Point id="23306">
                <coordinates>74.130898,15.518264,0.0</coordinates>
            </Point>
        </Placemark>
    </Document>
</kml>
