<?xml version="1.0" encoding="UTF-8"?>
<kml xmlns="http://www.opengis.net/kml/2.2" xmlns:gx="http://www.google.com/kml/ext/2.2">
    <Document id="24589">
        <Placemark id="24591">
            <ExtendedData>
                <Data name="direction">
                    <value>https://maps.google.com?q=15.55342,74.14174&amp;t=h</value>
                </Data>
                <Data name="id">
                    <value>2643</value>
                </Data>
                <Data name="Sr.No">
                    <value>2643</value>
                </Data>
                <Data name="Reg No">
                    <value>23/Sattari</value>
                </Data>
                <Data name="Category">
                    <value>irrigation</value>
                </Data>
                <Data name="Type Of Well">
                    <value>Open Well</value>
                </Data>
                <Data name="Applicant Name">
                    <value>Gajanan Barve</value>
                </Data>
                <Data name="Applicant Address">
                    <value>June kamdal Satodem</value>
                </Data>
                <Data name="latitude">
                    <value>15.55342</value>
                </Data>
                <Data name="longitude">
                    <value>74.14174</value>
                </Data>
                <Data name="taluka">
                    <value>Sattari</value>
                </Data>
                <Data name="village">
                    <value>Satorem</value>
                </Data>
            </ExtendedData>
            <Point id="24590">
                <coordinates>74.14174,15.55342,0.0</coordinates>
            </Point>
        </Placemark>
        <Placemark id="24606">
            <ExtendedData>
                <Data name="direction">
                    <value>https://maps.google.com?q=15.55172,74.13866&amp;t=h</value>
                </Data>
                <Data name="id">
                    <value>2644</value>
                </Data>
                <Data name="Sr.No">
                    <value>2644</value>
                </Data>
                <Data name="Reg No">
                    <value>14/Sattari</value>
                </Data>
                <Data name="Category">
                    <value>irrigation</value>
                </Data>
                <Data name="Type Of Well">
                    <value>Open Well</value>
                </Data>
                <Data name="Applicant Name">
                    <value>Dattaram Barve</value>
                </Data>
                <Data name="Applicant Address">
                    <value>Gharakadil sarad, Satode</value>
                </Data>
                <Data name="latitude">
                    <value>15.55172</value>
                </Data>
                <Data name="longitude">
                    <value>74.13866</value>
                </Data>
                <Data name="taluka">
                    <value>Sattari</value>
                </Data>
                <Data name="village">
                    <value>Satorem</value>
                </Data>
            </ExtendedData>
            <Point id="24605">
                <coordinates>74.13866,15.55172,0.0</coordinates>
            </Point>
        </Placemark>
        <Placemark id="24621">
            <ExtendedData>
                <Data name="direction">
                    <value>https://maps.google.com?q=15.55326,74.14372&amp;t=h</value>
                </Data>
                <Data name="id">
                    <value>2645</value>
                </Data>
                <Data name="Sr.No">
                    <value>2645</value>
                </Data>
                <Data name="Reg No">
                    <value>32/Sattari</value>
                </Data>
                <Data name="Category">
                    <value>irrigation</value>
                </Data>
                <Data name="Type Of Well">
                    <value>Open Well</value>
                </Data>
                <Data name="Applicant Name">
                    <value>Kalu kusta gaonkar.</value>
                </Data>
                <Data name="Applicant Address">
                    <value>Bondakadil mol , Satode</value>
                </Data>
                <Data name="latitude">
                    <value>15.55326</value>
                </Data>
                <Data name="longitude">
                    <value>74.14372</value>
                </Data>
                <Data name="taluka">
                    <value>Sattari</value>
                </Data>
                <Data name="village">
                    <value>Satorem</value>
                </Data>
            </ExtendedData>
            <Point id="24620">
                <coordinates>74.14372,15.55326,0.0</coordinates>
            </Point>
        </Placemark>
        <Placemark id="24636">
            <ExtendedData>
                <Data name="direction">
                    <value>https://maps.google.com?q=15.55156,74.14643&amp;t=h</value>
                </Data>
                <Data name="id">
                    <value>2646</value>
                </Data>
                <Data name="Sr.No">
                    <value>2646</value>
                </Data>
                <Data name="Reg No">
                    <value>61/Sattari</value>
                </Data>
                <Data name="Category">
                    <value>irrigation</value>
                </Data>
                <Data name="Type Of Well">
                    <value>Open Well</value>
                </Data>
                <Data name="Applicant Name">
                    <value>Pandurang Paryekar</value>
                </Data>
                <Data name="Applicant Address">
                    <value>Pansuli Satodem</value>
                </Data>
                <Data name="latitude">
                    <value>15.55156</value>
                </Data>
                <Data name="longitude">
                    <value>74.14643</value>
                </Data>
                <Data name="taluka">
                    <value>Sattari</value>
                </Data>
                <Data name="village">
                    <value>Satorem</value>
                </Data>
            </ExtendedData>
            <Point id="24635">
                <coordinates>74.14643,15.55156,0.0</coordinates>
            </Point>
        </Placemark>
        <Placemark id="24651">
            <ExtendedData>
                <Data name="direction">
                    <value>https://maps.google.com?q=15.55208,74.14799&amp;t=h</value>
                </Data>
                <Data name="id">
                    <value>2647</value>
                </Data>
                <Data name="Sr.No">
                    <value>2647</value>
                </Data>
                <Data name="Reg No">
                    <value>22/Sattari</value>
                </Data>
                <Data name="Category">
                    <value>irrigation</value>
                </Data>
                <Data name="Type Of Well">
                    <value>Open Well</value>
                </Data>
                <Data name="Applicant Name">
                    <value>Dattaram Harwalkar</value>
                </Data>
                <Data name="Applicant Address">
                    <value>Pouchi Gothan</value>
                </Data>
                <Data name="latitude">
                    <value>15.55208</value>
                </Data>
                <Data name="longitude">
                    <value>74.14799</value>
                </Data>
                <Data name="taluka">
                    <value>Sattari</value>
                </Data>
                <Data name="village">
                    <value>Satorem</value>
                </Data>
            </ExtendedData>
            <Point id="24650">
                <coordinates>74.14799,15.55208,0.0</coordinates>
            </Point>
        </Placemark>
        <Placemark id="24666">
            <ExtendedData>
                <Data name="direction">
                    <value>https://maps.google.com?q=15.55333,74.14278&amp;t=h</value>
                </Data>
                <Data name="id">
                    <value>2649</value>
                </Data>
                <Data name="Sr.No">
                    <value>2649</value>
                </Data>
                <Data name="Reg No">
                    <value>38/Sattari</value>
                </Data>
                <Data name="Category">
                    <value>irrigation</value>
                </Data>
                <Data name="Type Of Well">
                    <value>Open Well</value>
                </Data>
                <Data name="Applicant Name">
                    <value>Sagun k. Gaonkar.</value>
                </Data>
                <Data name="Applicant Address">
                    <value>Namos Bharad ,Satodem</value>
                </Data>
                <Data name="latitude">
                    <value>15.55333</value>
                </Data>
                <Data name="longitude">
                    <value>74.14278</value>
                </Data>
                <Data name="taluka">
                    <value>Sattari</value>
                </Data>
                <Data name="village">
                    <value>Satorem</value>
                </Data>
            </ExtendedData>
            <Point id="24665">
                <coordinates>74.14278,15.55333,0.0</coordinates>
            </Point>
        </Placemark>
        <Placemark id="24681">
            <ExtendedData>
                <Data name="direction">
                    <value>https://maps.google.com?q=15.56447,74.15094&amp;t=h</value>
                </Data>
                <Data name="id">
                    <value>2747</value>
                </Data>
                <Data name="Sr.No">
                    <value>2747</value>
                </Data>
                <Data name="Reg No">
                    <value>15/Sattari</value>
                </Data>
                <Data name="Category">
                    <value>irrigation</value>
                </Data>
                <Data name="Type Of Well">
                    <value>Open Well</value>
                </Data>
                <Data name="Applicant Name">
                    <value>Ramkrishna Barve</value>
                </Data>
                <Data name="Applicant Address">
                    <value>Patiyechi Dongri, Nagargao Sattari Goa</value>
                </Data>
                <Data name="latitude">
                    <value>15.56447</value>
                </Data>
                <Data name="longitude">
                    <value>74.15094</value>
                </Data>
                <Data name="taluka">
                    <value>Sattari</value>
                </Data>
                <Data name="village">
                    <value>Satorem</value>
                </Data>
            </ExtendedData>
            <Point id="24680">
                <coordinates>74.15094,15.56447,0.0</coordinates>
            </Point>
        </Placemark>
        <Placemark id="24696">
            <ExtendedData>
                <Data name="direction">
                    <value>https://maps.google.com?q=15.55795,74.14463&amp;t=h</value>
                </Data>
                <Data name="id">
                    <value>3185</value>
                </Data>
                <Data name="Sr.No">
                    <value>3185</value>
                </Data>
                <Data name="Reg No">
                    <value>17/Sattari</value>
                </Data>
                <Data name="Category">
                    <value>irrigation</value>
                </Data>
                <Data name="Type Of Well">
                    <value>Open Well</value>
                </Data>
                <Data name="Applicant Name">
                    <value>Gopal Barve</value>
                </Data>
                <Data name="Applicant Address">
                    <value>Devuce Temb Satodem, Valpoi</value>
                </Data>
                <Data name="latitude">
                    <value>15.55795</value>
                </Data>
                <Data name="longitude">
                    <value>74.14463</value>
                </Data>
                <Data name="taluka">
                    <value>Sattari</value>
                </Data>
                <Data name="village">
                    <value>Satorem</value>
                </Data>
            </ExtendedData>
            <Point id="24695">
                <coordinates>74.14463,15.55795,0.0</coordinates>
            </Point>
        </Placemark>
    </Document>
</kml>
