<?xml version="1.0" encoding="UTF-8"?>
<kml xmlns="http://www.opengis.net/kml/2.2" xmlns:gx="http://www.google.com/kml/ext/2.2">
    <Document id="25329">
        <Placemark id="25331">
            <ExtendedData>
                <Data name="direction">
                    <value>https://maps.google.com?q=15.54095,74.15052&amp;t=h</value>
                </Data>
                <Data name="id">
                    <value>2824</value>
                </Data>
                <Data name="Sr.No">
                    <value>2824</value>
                </Data>
                <Data name="Reg No">
                    <value>265/Sattari</value>
                </Data>
                <Data name="Category">
                    <value>irrigation</value>
                </Data>
                <Data name="Type Of Well">
                    <value>Open Well</value>
                </Data>
                <Data name="Applicant Name">
                    <value>Ramchandra Bandekar</value>
                </Data>
                <Data name="Applicant Address">
                    <value>Kajryachi gundyachi moli, Velus.</value>
                </Data>
                <Data name="latitude">
                    <value>15.54095</value>
                </Data>
                <Data name="longitude">
                    <value>74.15052</value>
                </Data>
                <Data name="taluka">
                    <value>Sattari</value>
                </Data>
                <Data name="village">
                    <value>Velus</value>
                </Data>
            </ExtendedData>
            <Point id="25330">
                <coordinates>74.15052,15.54095,0.0</coordinates>
            </Point>
        </Placemark>
        <Placemark id="25346">
            <ExtendedData>
                <Data name="direction">
                    <value>https://maps.google.com?q=15.5361,74.14613&amp;t=h</value>
                </Data>
                <Data name="id">
                    <value>2825</value>
                </Data>
                <Data name="Sr.No">
                    <value>2825</value>
                </Data>
                <Data name="Reg No">
                    <value>3230/Sattari</value>
                </Data>
                <Data name="Category">
                    <value>agricultural</value>
                </Data>
                <Data name="Type Of Well">
                    <value>Open Well</value>
                </Data>
                <Data name="Applicant Name">
                    <value>Manerkar Murari Shankar</value>
                </Data>
                <Data name="Applicant Address">
                    <value>Velus, Valpoi, sattari Goa.</value>
                </Data>
                <Data name="latitude">
                    <value>15.5361</value>
                </Data>
                <Data name="longitude">
                    <value>74.14613</value>
                </Data>
                <Data name="taluka">
                    <value>Sattari</value>
                </Data>
                <Data name="village">
                    <value>Velus</value>
                </Data>
            </ExtendedData>
            <Point id="25345">
                <coordinates>74.14613,15.5361,0.0</coordinates>
            </Point>
        </Placemark>
        <Placemark id="25361">
            <ExtendedData>
                <Data name="direction">
                    <value>https://maps.google.com?q=15.53542,74.14581&amp;t=h</value>
                </Data>
                <Data name="id">
                    <value>2826</value>
                </Data>
                <Data name="Sr.No">
                    <value>2826</value>
                </Data>
                <Data name="Reg No">
                    <value>1669/Sattari</value>
                </Data>
                <Data name="Category">
                    <value>agricultural</value>
                </Data>
                <Data name="Type Of Well">
                    <value>Bore well</value>
                </Data>
                <Data name="Applicant Name">
                    <value>Shankar Banavalikar</value>
                </Data>
                <Data name="Applicant Address">
                    <value>Velus, Valpoi, sattari Goa.</value>
                </Data>
                <Data name="latitude">
                    <value>15.53542</value>
                </Data>
                <Data name="longitude">
                    <value>74.14581</value>
                </Data>
                <Data name="taluka">
                    <value>Sattari</value>
                </Data>
                <Data name="village">
                    <value>Velus</value>
                </Data>
            </ExtendedData>
            <Point id="25360">
                <coordinates>74.14581,15.53542,0.0</coordinates>
            </Point>
        </Placemark>
        <Placemark id="25376">
            <ExtendedData>
                <Data name="direction">
                    <value>https://maps.google.com?q=15.53725,74.14632&amp;t=h</value>
                </Data>
                <Data name="id">
                    <value>2827</value>
                </Data>
                <Data name="Sr.No">
                    <value>2827</value>
                </Data>
                <Data name="Reg No">
                    <value>1667/Sattari</value>
                </Data>
                <Data name="Category">
                    <value>agricultural</value>
                </Data>
                <Data name="Type Of Well">
                    <value>Bore well</value>
                </Data>
                <Data name="Applicant Name">
                    <value>Vinayak Shirodkar</value>
                </Data>
                <Data name="Applicant Address">
                    <value>Velus, Valpoi, sattari Goa.</value>
                </Data>
                <Data name="latitude">
                    <value>15.53725</value>
                </Data>
                <Data name="longitude">
                    <value>74.14632</value>
                </Data>
                <Data name="taluka">
                    <value>Sattari</value>
                </Data>
                <Data name="village">
                    <value>Velus</value>
                </Data>
            </ExtendedData>
            <Point id="25375">
                <coordinates>74.14632,15.53725,0.0</coordinates>
            </Point>
        </Placemark>
        <Placemark id="25391">
            <ExtendedData>
                <Data name="direction">
                    <value>https://maps.google.com?q=15.54112,74.14605&amp;t=h</value>
                </Data>
                <Data name="id">
                    <value>2828</value>
                </Data>
                <Data name="Sr.No">
                    <value>2828</value>
                </Data>
                <Data name="Reg No">
                    <value>1668/Sattari</value>
                </Data>
                <Data name="Category">
                    <value>agricultural</value>
                </Data>
                <Data name="Type Of Well">
                    <value>Bore well</value>
                </Data>
                <Data name="Applicant Name">
                    <value>Harishchandra Gurav</value>
                </Data>
                <Data name="Applicant Address">
                    <value>Velus, Valpoi, sattari Goa.</value>
                </Data>
                <Data name="latitude">
                    <value>15.54112</value>
                </Data>
                <Data name="longitude">
                    <value>74.14605</value>
                </Data>
                <Data name="taluka">
                    <value>Sattari</value>
                </Data>
                <Data name="village">
                    <value>Velus</value>
                </Data>
            </ExtendedData>
            <Point id="25390">
                <coordinates>74.14605,15.54112,0.0</coordinates>
            </Point>
        </Placemark>
        <Placemark id="25406">
            <ExtendedData>
                <Data name="direction">
                    <value>https://maps.google.com?q=15.54364,74.15352&amp;t=h</value>
                </Data>
                <Data name="id">
                    <value>3229</value>
                </Data>
                <Data name="Sr.No">
                    <value>3229</value>
                </Data>
                <Data name="Reg No">
                    <value>262/sattari</value>
                </Data>
                <Data name="Category">
                    <value>irrigation</value>
                </Data>
                <Data name="Type Of Well">
                    <value>Open Well</value>
                </Data>
                <Data name="Applicant Name">
                    <value>Surekha a. Katkar</value>
                </Data>
                <Data name="Applicant Address">
                    <value>velus sattari goa.</value>
                </Data>
                <Data name="latitude">
                    <value>15.54364</value>
                </Data>
                <Data name="longitude">
                    <value>74.15352</value>
                </Data>
                <Data name="taluka">
                    <value>Sattari</value>
                </Data>
                <Data name="village">
                    <value>Velus</value>
                </Data>
            </ExtendedData>
            <Point id="25405">
                <coordinates>74.15352,15.54364,0.0</coordinates>
            </Point>
        </Placemark>
        <Placemark id="25421">
            <ExtendedData>
                <Data name="direction">
                    <value>https://maps.google.com?q=15.53866,74.13937&amp;t=h</value>
                </Data>
                <Data name="id">
                    <value>3230</value>
                </Data>
                <Data name="Sr.No">
                    <value>3230</value>
                </Data>
                <Data name="Reg No">
                    <value>1670/sattari</value>
                </Data>
                <Data name="Category">
                    <value>agricultural</value>
                </Data>
                <Data name="Type Of Well">
                    <value>Bore well</value>
                </Data>
                <Data name="Applicant Name">
                    <value>Executive Engineer, W.D.III, W.R.D, Ponda- Goa. (B.win in the field of Shri Ibrahim Aga )</value>
                </Data>
                <Data name="Applicant Address">
                    <value>velus sattari goa.</value>
                </Data>
                <Data name="latitude">
                    <value>15.53866</value>
                </Data>
                <Data name="longitude">
                    <value>74.13937</value>
                </Data>
                <Data name="taluka">
                    <value>Sattari</value>
                </Data>
                <Data name="village">
                    <value>Velus</value>
                </Data>
            </ExtendedData>
            <Point id="25420">
                <coordinates>74.13937,15.53866,0.0</coordinates>
            </Point>
        </Placemark>
    </Document>
</kml>
