<?xml version="1.0" encoding="UTF-8"?>
<kml xmlns="http://www.opengis.net/kml/2.2" xmlns:gx="http://www.google.com/kml/ext/2.2">
    <Document id="13641">
        <Placemark id="13643">
            <ExtendedData>
                <Data name="direction">
                    <value>https://maps.google.com?q=15.251613,74.120324&amp;t=h</value>
                </Data>
                <Data name="id">
                    <value>4455</value>
                </Data>
                <Data name="Sr.No">
                    <value>4455</value>
                </Data>
                <Data name="Reg No">
                    <value>11/Quepem</value>
                </Data>
                <Data name="Category">
                    <value>agricultural</value>
                </Data>
                <Data name="Type Of Well">
                    <value>Open Well</value>
                </Data>
                <Data name="Applicant Name">
                    <value>TUKARAM SAWANT DESSAI</value>
                </Data>
                <Data name="Applicant Address">
                    <value>H.no:553, Pongirwal, Kakoda, Curchorem</value>
                </Data>
                <Data name="latitude">
                    <value>15.251613</value>
                </Data>
                <Data name="longitude">
                    <value>74.120324</value>
                </Data>
                <Data name="taluka">
                    <value>Quepem</value>
                </Data>
                <Data name="village">
                    <value>Cacora</value>
                </Data>
            </ExtendedData>
            <Point id="13642">
                <coordinates>74.120324,15.251613,0.0</coordinates>
            </Point>
        </Placemark>
        <Placemark id="13658">
            <ExtendedData>
                <Data name="direction">
                    <value>https://maps.google.com?q=15.242913,74.104527&amp;t=h</value>
                </Data>
                <Data name="id">
                    <value>4539</value>
                </Data>
                <Data name="Sr.No">
                    <value>4539</value>
                </Data>
                <Data name="Reg No">
                    <value>27/QUEPEM</value>
                </Data>
                <Data name="Category">
                    <value>agricultural</value>
                </Data>
                <Data name="Type Of Well">
                    <value>Open Well</value>
                </Data>
                <Data name="Applicant Name">
                    <value>SHRI. SATYAWAN GOPINATH PRABHU DESSAI</value>
                </Data>
                <Data name="Applicant Address">
                    <value>H.no:1102, Ghotmorad, Cacora, Quepem</value>
                </Data>
                <Data name="latitude">
                    <value>15.242913</value>
                </Data>
                <Data name="longitude">
                    <value>74.104527</value>
                </Data>
                <Data name="taluka">
                    <value>Quepem</value>
                </Data>
                <Data name="village">
                    <value>Cacora</value>
                </Data>
            </ExtendedData>
            <Point id="13657">
                <coordinates>74.104527,15.242913,0.0</coordinates>
            </Point>
        </Placemark>
        <Placemark id="13673">
            <ExtendedData>
                <Data name="direction">
                    <value>https://maps.google.com?q=15.239433,74.138828&amp;t=h</value>
                </Data>
                <Data name="id">
                    <value>4564</value>
                </Data>
                <Data name="Sr.No">
                    <value>4564</value>
                </Data>
                <Data name="Reg No">
                    <value>33/QUEPEM</value>
                </Data>
                <Data name="Category">
                    <value>agricultural</value>
                </Data>
                <Data name="Type Of Well">
                    <value>Open Well</value>
                </Data>
                <Data name="Applicant Name">
                    <value>FLORY GONSALVES E DINIZ</value>
                </Data>
                <Data name="Applicant Address">
                    <value>H.no:887, Cariamoddi, Curchorem</value>
                </Data>
                <Data name="latitude">
                    <value>15.239433</value>
                </Data>
                <Data name="longitude">
                    <value>74.138828</value>
                </Data>
                <Data name="taluka">
                    <value>Quepem</value>
                </Data>
                <Data name="village">
                    <value>Cacora</value>
                </Data>
            </ExtendedData>
            <Point id="13672">
                <coordinates>74.138828,15.239433,0.0</coordinates>
            </Point>
        </Placemark>
        <Placemark id="13688">
            <ExtendedData>
                <Data name="direction">
                    <value>https://maps.google.com?q=15.225017,74.100352&amp;t=h</value>
                </Data>
                <Data name="id">
                    <value>4582</value>
                </Data>
                <Data name="Sr.No">
                    <value>4582</value>
                </Data>
                <Data name="Reg No">
                    <value>61/QUEPEM</value>
                </Data>
                <Data name="Category">
                    <value>agricultural</value>
                </Data>
                <Data name="Type Of Well">
                    <value>Open Well</value>
                </Data>
                <Data name="Applicant Name">
                    <value>MARIANO ANTONIO COSTA</value>
                </Data>
                <Data name="Applicant Address">
                    <value>H.no:995/1,Zariwada,Kakoda, Quepem</value>
                </Data>
                <Data name="latitude">
                    <value>15.225017</value>
                </Data>
                <Data name="longitude">
                    <value>74.100352</value>
                </Data>
                <Data name="taluka">
                    <value>Quepem</value>
                </Data>
                <Data name="village">
                    <value>Cacora</value>
                </Data>
            </ExtendedData>
            <Point id="13687">
                <coordinates>74.100352,15.225017,0.0</coordinates>
            </Point>
        </Placemark>
        <Placemark id="13703">
            <ExtendedData>
                <Data name="direction">
                    <value>https://maps.google.com?q=15.238715,74.131885&amp;t=h</value>
                </Data>
                <Data name="id">
                    <value>4586</value>
                </Data>
                <Data name="Sr.No">
                    <value>4586</value>
                </Data>
                <Data name="Reg No">
                    <value>30/QUEPEM</value>
                </Data>
                <Data name="Category">
                    <value>agricultural</value>
                </Data>
                <Data name="Type Of Well">
                    <value>Open Well</value>
                </Data>
                <Data name="Applicant Name">
                    <value>SMT.SALONI SUBHASCHANDRA NAGZARKAR</value>
                </Data>
                <Data name="Applicant Address">
                    <value>H.no:401/A,First Pavlem, Chinchinim, Salcete</value>
                </Data>
                <Data name="latitude">
                    <value>15.238715</value>
                </Data>
                <Data name="longitude">
                    <value>74.131885</value>
                </Data>
                <Data name="taluka">
                    <value>Quepem</value>
                </Data>
                <Data name="village">
                    <value>Cacora</value>
                </Data>
            </ExtendedData>
            <Point id="13702">
                <coordinates>74.131885,15.238715,0.0</coordinates>
            </Point>
        </Placemark>
    </Document>
</kml>
