<?xml version="1.0" encoding="UTF-8"?>
<kml xmlns="http://www.opengis.net/kml/2.2" xmlns:gx="http://www.google.com/kml/ext/2.2">
    <Document id="14049">
        <Placemark id="14051">
            <ExtendedData>
                <Data name="direction">
                    <value>https://maps.google.com?q=15.132139,73.998514&amp;t=h</value>
                </Data>
                <Data name="id">
                    <value>4567</value>
                </Data>
                <Data name="Sr.No">
                    <value>4567</value>
                </Data>
                <Data name="Reg No">
                    <value>29/QUEPEM</value>
                </Data>
                <Data name="Category">
                    <value>agricultural</value>
                </Data>
                <Data name="Type Of Well">
                    <value>Open Well</value>
                </Data>
                <Data name="Applicant Name">
                    <value>DR.RAJENDRA MANOHAR TAMBA</value>
                </Data>
                <Data name="Applicant Address">
                    <value>R/O.B-16-A,La Campala Colony Miramar,Panaji</value>
                </Data>
                <Data name="latitude">
                    <value>15.132139</value>
                </Data>
                <Data name="longitude">
                    <value>73.998514</value>
                </Data>
                <Data name="taluka">
                    <value>Quepem</value>
                </Data>
                <Data name="village">
                    <value>Fatorpa</value>
                </Data>
            </ExtendedData>
            <Point id="14050">
                <coordinates>73.998514,15.132139,0.0</coordinates>
            </Point>
        </Placemark>
        <Placemark id="14066">
            <ExtendedData>
                <Data name="direction">
                    <value>https://maps.google.com?q=15.139594,74.002132&amp;t=h</value>
                </Data>
                <Data name="id">
                    <value>4570</value>
                </Data>
                <Data name="Sr.No">
                    <value>4570</value>
                </Data>
                <Data name="Reg No">
                    <value>87</value>
                </Data>
                <Data name="Category">
                    <value>agricultural</value>
                </Data>
                <Data name="Type Of Well">
                    <value>Open Well</value>
                </Data>
                <Data name="Applicant Name">
                    <value>SHRI.NABHESH PRAKASH NAIK</value>
                </Data>
                <Data name="Applicant Address">
                    <value>H.no:686,Pitru Smruti Bhiunsa Cuncolim</value>
                </Data>
                <Data name="latitude">
                    <value>15.139594</value>
                </Data>
                <Data name="longitude">
                    <value>74.002132</value>
                </Data>
                <Data name="taluka">
                    <value>Quepem</value>
                </Data>
                <Data name="village">
                    <value>Fatorpa</value>
                </Data>
            </ExtendedData>
            <Point id="14065">
                <coordinates>74.002132,15.139594,0.0</coordinates>
            </Point>
        </Placemark>
        <Placemark id="14081">
            <ExtendedData>
                <Data name="direction">
                    <value>https://maps.google.com?q=15.144792,73.999996&amp;t=h</value>
                </Data>
                <Data name="id">
                    <value>4576</value>
                </Data>
                <Data name="Sr.No">
                    <value>4576</value>
                </Data>
                <Data name="Reg No">
                    <value>24/QUEPEM</value>
                </Data>
                <Data name="Category">
                    <value>agricultural</value>
                </Data>
                <Data name="Type Of Well">
                    <value>Bore well</value>
                </Data>
                <Data name="Applicant Name">
                    <value>SHRI. RAGHOBA GANESH DESSAI</value>
                </Data>
                <Data name="Applicant Address">
                    <value>BOMDAMOLL, FATORPA</value>
                </Data>
                <Data name="latitude">
                    <value>15.144792</value>
                </Data>
                <Data name="longitude">
                    <value>73.999996</value>
                </Data>
                <Data name="taluka">
                    <value>Quepem</value>
                </Data>
                <Data name="village">
                    <value>Fatorpa</value>
                </Data>
            </ExtendedData>
            <Point id="14080">
                <coordinates>73.999996,15.144792,0.0</coordinates>
            </Point>
        </Placemark>
        <Placemark id="14096">
            <ExtendedData>
                <Data name="direction">
                    <value>https://maps.google.com?q=15.143758,73.999397&amp;t=h</value>
                </Data>
                <Data name="id">
                    <value>4577</value>
                </Data>
                <Data name="Sr.No">
                    <value>4577</value>
                </Data>
                <Data name="Reg No">
                    <value>4/QUEPEM</value>
                </Data>
                <Data name="Category">
                    <value>agricultural</value>
                </Data>
                <Data name="Type Of Well">
                    <value>Open Well</value>
                </Data>
                <Data name="Applicant Name">
                    <value>SHRI.RAGHOBA GANESH DESSAI</value>
                </Data>
                <Data name="Applicant Address">
                    <value>BOMDAMOLL, FATORPA</value>
                </Data>
                <Data name="latitude">
                    <value>15.143758</value>
                </Data>
                <Data name="longitude">
                    <value>73.999397</value>
                </Data>
                <Data name="taluka">
                    <value>Quepem</value>
                </Data>
                <Data name="village">
                    <value>Fatorpa</value>
                </Data>
            </ExtendedData>
            <Point id="14095">
                <coordinates>73.999397,15.143758,0.0</coordinates>
            </Point>
        </Placemark>
        <Placemark id="14111">
            <ExtendedData>
                <Data name="direction">
                    <value>https://maps.google.com?q=15.130854,73.99725&amp;t=h</value>
                </Data>
                <Data name="id">
                    <value>4600</value>
                </Data>
                <Data name="Sr.No">
                    <value>4600</value>
                </Data>
                <Data name="Reg No">
                    <value>89/Quepem</value>
                </Data>
                <Data name="Category">
                    <value>agricultural</value>
                </Data>
                <Data name="Type Of Well">
                    <value>Open Well</value>
                </Data>
                <Data name="Applicant Name">
                    <value>DR.RAJENDRA MANOHAR TAMBA</value>
                </Data>
                <Data name="Applicant Address">
                    <value>B-16-A,LA CAMPALA COLONY,MIRAMAR, PANAJI</value>
                </Data>
                <Data name="latitude">
                    <value>15.130854</value>
                </Data>
                <Data name="longitude">
                    <value>73.99725</value>
                </Data>
                <Data name="taluka">
                    <value>Quepem</value>
                </Data>
                <Data name="village">
                    <value>Fatorpa</value>
                </Data>
            </ExtendedData>
            <Point id="14110">
                <coordinates>73.99725,15.130854,0.0</coordinates>
            </Point>
        </Placemark>
    </Document>
</kml>
