<?xml version="1.0" encoding="UTF-8"?>
<kml xmlns="http://www.opengis.net/kml/2.2" xmlns:gx="http://www.google.com/kml/ext/2.2">
    <Document id="15277">
        <Placemark id="15279">
            <ExtendedData>
                <Data name="direction">
                    <value>https://maps.google.com?q=15.04625,74.04409&amp;t=h</value>
                </Data>
                <Data name="id">
                    <value>2692</value>
                </Data>
                <Data name="name">
                    <value>Mandar Tali; Gulem</value>
                </Data>
                <Data name="taluka">
                    <value>Canacona</value>
                </Data>
                <Data name="syno">
                    <value>114</value>
                </Data>
                <Data name="subdiv">
                    <value>1</value>
                </Data>
                <Data name="village">
                    <value>Canacona</value>
                </Data>
                <Data name="latitude">
                    <value>15.04625</value>
                </Data>
                <Data name="longitude">
                    <value>74.04409</value>
                </Data>
                <Data name="photo_1">
                    <value>DCIM/20220524115141350.jpg</value>
                </Data>
                <Data name="photo_2">
                    <value>DCIM/20220524115153862.jpg</value>
                </Data>
                <Data name="constituency">
                    <value>40 - Canacona</value>
                </Data>
                <Data name="status">
                    <value>Completed</value>
                </Data>
                <Data name="panchayat">
                    <value>Shristhal</value>
                </Data>
                <Data name="wb_type">
                    <value>Tank</value>
                </Data>
                <Data name="owner_type">
                    <value>Private / Public</value>
                </Data>
                <Data name="purpose">
                    <value>Irrigation</value>
                </Data>
                <Data name="construction">
                    <value>Man Made</value>
                </Data>
                <Data name="condition">
                    <value>Good</value>
                </Data>
                <Data name="print_order">
                    <value>090</value>
                </Data>
                <Data name="wb_id">
                    <value>Ca/Cana/04</value>
                </Data>
                <Data name="storage_capacity">
                    <value>405.0</value>
                </Data>
                <Data name="wb_surface_id">
                    <value>2067</value>
                </Data>
                <Data name="created_at">
                    <value>2020-03-26 07:41:42</value>
                </Data>
                <Data name="updated_at">
                    <value>2023-07-22 14:03:14.307690</value>
                </Data>
                <Data name="book_id">
                    <value>1</value>
                </Data>
                <Data name="owners">
                    <value>Bhikri Janu Velip
Dholo Molu Velip
Fondu Babu Velip
Ganesh P. Gaonkar
Gopal G. Gaonkar
Govind B. Gaonkar
Govind Bhiso Velip
Janaki Govind Gaonkar
Jiblo Gaonkar
Jiva Janu Gaonkar
Jorgo Govind Velip
Kalso Paik Gaonkar
Kalu Panglo Gaonkar
Konkan Railway Corporation Ltd.
Kuiro Panglo Velip
Kuiro Panto Gaonkar
Kuiro Thulo Gaonkar
Kuiro Thulo Velip
Kusht K. R. Gaonkar
Kusht Panto Gaonkar
Lokmo Bodko Gaonkar
Molu Panglo Velip
Ram Kuiro Velip
Shanu Panto Velip
Sukdo D. Gaonkar
Sukdo Panglo Gaonkar
Sukdo Tolu Gaonkar
Thulo N. Gaonkar
Vithoba Gaonkar
Vithoba Govind Gaonkar
Yendo Omno Gaonkar</value>
                </Data>
                <Data name="label_x">
                    <value>989231.0</value>
                </Data>
                <Data name="label_y">
                    <value>967910.95013963</value>
                </Data>
            </ExtendedData>
            <Point id="15278">
                <coordinates>74.044087818,15.04624613,0.0</coordinates>
            </Point>
        </Placemark>
        <Placemark id="15311">
            <ExtendedData>
                <Data name="direction">
                    <value>https://maps.google.com?q=15.02315,74.07624&amp;t=h</value>
                </Data>
                <Data name="id">
                    <value>2768</value>
                </Data>
                <Data name="name">
                    <value>Mallikarjun Temple Tank (Shristhal)</value>
                </Data>
                <Data name="taluka">
                    <value>Canacona</value>
                </Data>
                <Data name="syno">
                    <value>1</value>
                </Data>
                <Data name="subdiv">
                    <value>3</value>
                </Data>
                <Data name="village">
                    <value>Canacona</value>
                </Data>
                <Data name="latitude">
                    <value>15.02315</value>
                </Data>
                <Data name="longitude">
                    <value>74.07624</value>
                </Data>
                <Data name="photo_1">
                    <value>DCIM/20220514120006974.jpg</value>
                </Data>
                <Data name="photo_2">
                    <value>DCIM/20220514120149083.jpg</value>
                </Data>
                <Data name="constituency">
                    <value>40 - Canacona</value>
                </Data>
                <Data name="status">
                    <value>Completed</value>
                </Data>
                <Data name="panchayat">
                    <value>Shristhal</value>
                </Data>
                <Data name="wb_type">
                    <value>Temple Tank</value>
                </Data>
                <Data name="owner_type">
                    <value>Private / Public</value>
                </Data>
                <Data name="purpose">
                    <value>Storage</value>
                </Data>
                <Data name="construction">
                    <value>Man Made</value>
                </Data>
                <Data name="condition">
                    <value>Good</value>
                </Data>
                <Data name="print_order">
                    <value>078</value>
                </Data>
                <Data name="wb_id">
                    <value>Ca/Cana/01</value>
                </Data>
                <Data name="storage_capacity">
                    <value>3322.0</value>
                </Data>
                <Data name="wb_surface_id">
                    <value>1776</value>
                </Data>
                <Data name="created_at">
                    <value>2020-03-30 14:12:01</value>
                </Data>
                <Data name="updated_at">
                    <value>2023-07-22 14:03:14.307690</value>
                </Data>
                <Data name="book_id">
                    <value>1</value>
                </Data>
                <Data name="owners">
                    <value>Mallikarjun Devasthan
The Director, Directorate of Education, Panaji Goa</value>
                </Data>
                <Data name="label_x">
                    <value>1028783.0</value>
                </Data>
                <Data name="label_y">
                    <value>967287.021208286</value>
                </Data>
            </ExtendedData>
            <Point id="15310">
                <coordinates>74.076243462,15.023149954,0.0</coordinates>
            </Point>
        </Placemark>
        <Placemark id="15343">
            <ExtendedData>
                <Data name="direction">
                    <value>https://maps.google.com?q=15.03016,74.0393&amp;t=h</value>
                </Data>
                <Data name="id">
                    <value>587</value>
                </Data>
                <Data name="name">
                    <value>Chapoli Palem; Pal</value>
                </Data>
                <Data name="taluka">
                    <value>Canacona</value>
                </Data>
                <Data name="syno">
                    <value>88</value>
                </Data>
                <Data name="subdiv">
                    <value>5</value>
                </Data>
                <Data name="village">
                    <value>Canacona</value>
                </Data>
                <Data name="latitude">
                    <value>15.03016</value>
                </Data>
                <Data name="longitude">
                    <value>74.0393</value>
                </Data>
                <Data name="photo_1">
                    <value>DCIM/20220523081701117.jpg</value>
                </Data>
                <Data name="photo_2">
                    <value>DCIM/20220523081707325.jpg</value>
                </Data>
                <Data name="constituency">
                    <value>40 - Canacona</value>
                </Data>
                <Data name="status">
                    <value>Completed</value>
                </Data>
                <Data name="panchayat">
                    <value>Shristhal</value>
                </Data>
                <Data name="wb_type">
                    <value>Pond</value>
                </Data>
                <Data name="owner_type">
                    <value>Private / Public</value>
                </Data>
                <Data name="purpose">
                    <value>Storage</value>
                </Data>
                <Data name="construction">
                    <value>Natural</value>
                </Data>
                <Data name="condition">
                    <value>Needs Maintenance</value>
                </Data>
                <Data name="print_order">
                    <value>010</value>
                </Data>
                <Data name="wb_id">
                    <value>Ca/Cana/02</value>
                </Data>
                <Data name="storage_capacity">
                    <value>2740.0</value>
                </Data>
                <Data name="wb_surface_id">
                    <value>488</value>
                </Data>
                <Data name="created_at">
                    <value>2020-02-28 15:24:34</value>
                </Data>
                <Data name="updated_at">
                    <value>2023-07-22 14:03:14.307690</value>
                </Data>
                <Data name="book_id">
                    <value>1</value>
                </Data>
                <Data name="owners">
                    <value>Anant N. N.Gaonkar  1/9
Government of Goa, Irrigation Department
Kashinath R. N.Gaonkar  1/9
Laxman Nilu Gaunkar  1/3
Madhukar Ganaba Naik Gaunkar
Premanand Bhojro Gaonkar  1/3
Shaba Ganaba Naik Gaunkar
Shitabai R. N.Gaonkar  1/9</value>
                </Data>
                <Data name="label_x">
                    <value>989231.0</value>
                </Data>
                <Data name="label_y">
                    <value>965660.95013963</value>
                </Data>
            </ExtendedData>
            <Point id="15342">
                <coordinates>74.039303981,15.030160253,0.0</coordinates>
            </Point>
        </Placemark>
        <Placemark id="15375">
            <ExtendedData>
                <Data name="direction">
                    <value>https://maps.google.com?q=15.03374,74.07357&amp;t=h</value>
                </Data>
                <Data name="id">
                    <value>3036</value>
                </Data>
                <Data name="name">
                    <value>Matvol</value>
                </Data>
                <Data name="taluka">
                    <value>Canacona</value>
                </Data>
                <Data name="syno">
                    <value>120</value>
                </Data>
                <Data name="subdiv">
                    <value>12</value>
                </Data>
                <Data name="village">
                    <value>Canacona</value>
                </Data>
                <Data name="latitude">
                    <value>15.03374</value>
                </Data>
                <Data name="longitude">
                    <value>74.07357</value>
                </Data>
                <Data name="photo_1">
                    <value>DCIM/20220524104453532.jpg</value>
                </Data>
                <Data name="photo_2">
                    <value>DCIM/20220524104514345.jpg</value>
                </Data>
                <Data name="constituency">
                    <value>40 - Canacona</value>
                </Data>
                <Data name="status">
                    <value>Completed</value>
                </Data>
                <Data name="panchayat">
                    <value>Shristhal</value>
                </Data>
                <Data name="wb_type">
                    <value>Tank</value>
                </Data>
                <Data name="owner_type">
                    <value>Private</value>
                </Data>
                <Data name="purpose">
                    <value>Irrigation</value>
                </Data>
                <Data name="construction">
                    <value>Man Made</value>
                </Data>
                <Data name="condition">
                    <value>Needs Maintenance</value>
                </Data>
                <Data name="print_order">
                    <value>089</value>
                </Data>
                <Data name="wb_id">
                    <value>Ca/Cana/03</value>
                </Data>
                <Data name="storage_capacity">
                    <value>543.0</value>
                </Data>
                <Data name="wb_surface_id">
                    <value>2073</value>
                </Data>
                <Data name="created_at">
                    <value>2020-06-05 09:36:39</value>
                </Data>
                <Data name="updated_at">
                    <value>2023-07-22 14:03:14.307690</value>
                </Data>
                <Data name="book_id">
                    <value>1</value>
                </Data>
                <Data name="owners">
                    <value>Mallikarjun Devasthan
Paik Purso Gaonkar</value>
                </Data>
                <Data name="label_x">
                    <value>1028783.0</value>
                </Data>
                <Data name="label_y">
                    <value>967787.021208286</value>
                </Data>
            </ExtendedData>
            <Point id="15374">
                <coordinates>74.073572698,15.033739144,0.0</coordinates>
            </Point>
        </Placemark>
        <Placemark id="15407">
            <ExtendedData>
                <Data name="direction">
                    <value>https://maps.google.com?q=14.99952,74.06613&amp;t=h</value>
                </Data>
                <Data name="id">
                    <value>3064</value>
                </Data>
                <Data name="name">
                    <value>Kondibagh; Konibag</value>
                </Data>
                <Data name="taluka">
                    <value>Canacona</value>
                </Data>
                <Data name="syno">
                    <value>30</value>
                </Data>
                <Data name="subdiv">
                    <value>15</value>
                </Data>
                <Data name="village">
                    <value>Canacona</value>
                </Data>
                <Data name="latitude">
                    <value>14.99952</value>
                </Data>
                <Data name="longitude">
                    <value>74.06613</value>
                </Data>
                <Data name="photo_1">
                    <value>DCIM/20220523095451515.jpg</value>
                </Data>
                <Data name="photo_2">
                    <value>DCIM/20220523095457908.jpg</value>
                </Data>
                <Data name="constituency">
                    <value>40 - Canacona</value>
                </Data>
                <Data name="status">
                    <value>Completed</value>
                </Data>
                <Data name="panchayat">
                    <value>Shristhal</value>
                </Data>
                <Data name="wb_type">
                    <value>Pond</value>
                </Data>
                <Data name="owner_type">
                    <value>Private</value>
                </Data>
                <Data name="purpose">
                    <value>Irrigation</value>
                </Data>
                <Data name="construction">
                    <value>Man Made</value>
                </Data>
                <Data name="condition">
                    <value>Good</value>
                </Data>
                <Data name="print_order">
                    <value>011</value>
                </Data>
                <Data name="wb_id">
                    <value>Ca/Cana/06</value>
                </Data>
                <Data name="storage_capacity">
                    <value>117.0</value>
                </Data>
                <Data name="wb_surface_id">
                    <value>2130</value>
                </Data>
                <Data name="created_at">
                    <value>2020-06-05 11:36:41</value>
                </Data>
                <Data name="updated_at">
                    <value>2023-07-22 14:03:14.307690</value>
                </Data>
                <Data name="book_id">
                    <value>1</value>
                </Data>
                <Data name="owners">
                    <value>Nagesh Sadanand Kenkare</value>
                </Data>
                <Data name="label_x">
                    <value>989231.0</value>
                </Data>
                <Data name="label_y">
                    <value>961660.95013963</value>
                </Data>
            </ExtendedData>
            <Point id="15406">
                <coordinates>74.066133957,14.999521614,0.0</coordinates>
            </Point>
        </Placemark>
        <Placemark id="15439">
            <ExtendedData>
                <Data name="direction">
                    <value>https://maps.google.com?q=15.03837,74.02718&amp;t=h</value>
                </Data>
                <Data name="id">
                    <value>3047</value>
                </Data>
                <Data name="name">
                    <value>Gulem; Morod</value>
                </Data>
                <Data name="taluka">
                    <value>Canacona</value>
                </Data>
                <Data name="syno">
                    <value>107</value>
                </Data>
                <Data name="subdiv">
                    <value>4</value>
                </Data>
                <Data name="village">
                    <value>Canacona</value>
                </Data>
                <Data name="latitude">
                    <value>15.03837</value>
                </Data>
                <Data name="longitude">
                    <value>74.02718</value>
                </Data>
                <Data name="photo_1">
                    <value>DCIM/20220513150157666.jpg</value>
                </Data>
                <Data name="photo_2">
                    <value>DCIM/20220513150250620.jpg</value>
                </Data>
                <Data name="constituency">
                    <value>40 - Canacona</value>
                </Data>
                <Data name="status">
                    <value>Completed</value>
                </Data>
                <Data name="panchayat">
                    <value>Shristhal</value>
                </Data>
                <Data name="wb_type">
                    <value>Tank</value>
                </Data>
                <Data name="owner_type">
                    <value>Private</value>
                </Data>
                <Data name="purpose">
                    <value>Irrigation</value>
                </Data>
                <Data name="construction">
                    <value>Man Made</value>
                </Data>
                <Data name="condition">
                    <value>Good</value>
                </Data>
                <Data name="print_order">
                    <value>091</value>
                </Data>
                <Data name="wb_id">
                    <value>Ca/Cana/05</value>
                </Data>
                <Data name="storage_capacity">
                    <value>377.0</value>
                </Data>
                <Data name="wb_surface_id">
                    <value>2068</value>
                </Data>
                <Data name="created_at">
                    <value>2020-06-05 10:06:39</value>
                </Data>
                <Data name="updated_at">
                    <value>2023-07-22 14:03:14.307690</value>
                </Data>
                <Data name="book_id">
                    <value>1</value>
                </Data>
                <Data name="owners">
                    <value>Mallikarjun Devasthan</value>
                </Data>
                <Data name="label_x">
                    <value>989231.0</value>
                </Data>
                <Data name="label_y">
                    <value>966410.95013963</value>
                </Data>
            </ExtendedData>
            <Point id="15438">
                <coordinates>74.027179255,15.038365419,0.0</coordinates>
            </Point>
        </Placemark>
    </Document>
</kml>
