<?xml version="1.0" encoding="UTF-8"?>
<kml xmlns="http://www.opengis.net/kml/2.2" xmlns:gx="http://www.google.com/kml/ext/2.2">
    <Document id="44191">
        <Placemark id="44193">
            <ExtendedData>
                <Data name="direction">
                    <value>https://maps.google.com?q=15.2637,73.93303&amp;t=h</value>
                </Data>
                <Data name="id">
                    <value>3820</value>
                </Data>
                <Data name="name">
                    <value>Adsulim Tolem</value>
                </Data>
                <Data name="taluka">
                    <value>Salcete</value>
                </Data>
                <Data name="syno">
                    <value>6</value>
                </Data>
                <Data name="subdiv">
                    <value>2</value>
                </Data>
                <Data name="village">
                    <value>Adsulim</value>
                </Data>
                <Data name="latitude">
                    <value>15.2637</value>
                </Data>
                <Data name="longitude">
                    <value>73.93303</value>
                </Data>
                <Data name="photo_1">
                    <value>DCIM/20210824082335296.jpg</value>
                </Data>
                <Data name="photo_2">
                    <value>DCIM/20210824082342300.jpg</value>
                </Data>
                <Data name="constituency">
                    <value>32 - Benaulim</value>
                </Data>
                <Data name="status">
                    <value>Completed</value>
                </Data>
                <Data name="panchayat">
                    <value>Benaulim</value>
                </Data>
                <Data name="wb_type">
                    <value>Pond</value>
                </Data>
                <Data name="owner_type">
                    <value>Private</value>
                </Data>
                <Data name="purpose">
                    <value>Irrigation</value>
                </Data>
                <Data name="construction">
                    <value>Natural</value>
                </Data>
                <Data name="condition">
                    <value>Needs Maintenance</value>
                </Data>
                <Data name="print_order">
                    <value>009</value>
                </Data>
                <Data name="wb_id">
                    <value>Sc/Adsu/01</value>
                </Data>
                <Data name="storage_capacity">
                    <value>617.0</value>
                </Data>
                <Data name="wb_surface_id">
                    <value>2512</value>
                </Data>
                <Data name="created_at">
                    <value>2021-08-24 00:00:00</value>
                </Data>
                <Data name="updated_at">
                    <value>2023-07-22 14:03:14.307690</value>
                </Data>
                <Data name="book_id">
                    <value>1</value>
                </Data>
                <Data name="owners">
                    <value>Joao Philip De Piedade Silva</value>
                </Data>
                <Data name="label_x">
                    <value>1008337.0</value>
                </Data>
                <Data name="label_y">
                    <value>982233.156424282</value>
                </Data>
            </ExtendedData>
            <Point id="44192">
                <coordinates>73.933030672,15.263697983,0.0</coordinates>
            </Point>
        </Placemark>
    </Document>
</kml>
