<?xml version="1.0" encoding="UTF-8"?>
<kml xmlns="http://www.opengis.net/kml/2.2" xmlns:gx="http://www.google.com/kml/ext/2.2">
    <Document id="44453">
        <Placemark id="44455">
            <ExtendedData>
                <Data name="direction">
                    <value>https://maps.google.com?q=15.18015,73.98512&amp;t=h</value>
                </Data>
                <Data name="id">
                    <value>2497</value>
                </Data>
                <Data name="name">
                    <value>Bandem Tollem; talem</value>
                </Data>
                <Data name="taluka">
                    <value>Salcete</value>
                </Data>
                <Data name="syno">
                    <value>82</value>
                </Data>
                <Data name="subdiv">
                    <value>1-57</value>
                </Data>
                <Data name="village">
                    <value>Assolna</value>
                </Data>
                <Data name="latitude">
                    <value>15.18015</value>
                </Data>
                <Data name="longitude">
                    <value>73.98512</value>
                </Data>
                <Data name="photo_1">
                    <value>DCIM/20210819181601412.jpg</value>
                </Data>
                <Data name="photo_2">
                    <value>DCIM/20210819181613025.jpg</value>
                </Data>
                <Data name="constituency">
                    <value>35 - Velim</value>
                </Data>
                <Data name="status">
                    <value>Completed</value>
                </Data>
                <Data name="panchayat">
                    <value>Assolna</value>
                </Data>
                <Data name="wb_type">
                    <value>Lake</value>
                </Data>
                <Data name="owner_type">
                    <value>Public</value>
                </Data>
                <Data name="purpose">
                    <value>Irrigation</value>
                </Data>
                <Data name="construction">
                    <value>Natural/Man Made</value>
                </Data>
                <Data name="condition">
                    <value>Needs Maintenance</value>
                </Data>
                <Data name="print_order">
                    <value>004</value>
                </Data>
                <Data name="wb_id">
                    <value>Sc/Asso/01</value>
                </Data>
                <Data name="storage_capacity">
                    <value>257050.0</value>
                </Data>
                <Data name="wb_surface_id">
                    <value>1210</value>
                </Data>
                <Data name="created_at">
                    <value>2020-03-26 07:23:07</value>
                </Data>
                <Data name="updated_at">
                    <value>2025-01-04 15:04:29.048938</value>
                </Data>
                <Data name="book_id">
                    <value>1</value>
                </Data>
                <Data name="owners">
                    <value>Communidade of Assolna
The Executive Engineer Works Div. XIV Water Resources Department Gogol-Margao</value>
                </Data>
                <Data name="label_x">
                    <value>1008337.0</value>
                </Data>
                <Data name="label_y">
                    <value>974883.156424282</value>
                </Data>
            </ExtendedData>
            <Point id="44454">
                <coordinates>73.985115574,15.180153367,0.0</coordinates>
            </Point>
        </Placemark>
        <Placemark id="44487">
            <ExtendedData>
                <Data name="direction">
                    <value>https://maps.google.com?q=15.17192,73.96864&amp;t=h</value>
                </Data>
                <Data name="id">
                    <value>3954</value>
                </Data>
                <Data name="name">
                    <value>ILLim</value>
                </Data>
                <Data name="taluka">
                    <value>Salcete</value>
                </Data>
                <Data name="syno">
                    <value>138</value>
                </Data>
                <Data name="subdiv">
                    <value>44</value>
                </Data>
                <Data name="village">
                    <value>Assolna</value>
                </Data>
                <Data name="latitude">
                    <value>15.17192</value>
                </Data>
                <Data name="longitude">
                    <value>73.96864</value>
                </Data>
                <Data name="photo_1">
                    <value>DCIM/20211101103100907.jpg</value>
                </Data>
                <Data name="photo_2">
                    <value>DCIM/20211101103115268.jpg</value>
                </Data>
                <Data name="constituency">
                    <value>35 - Velim</value>
                </Data>
                <Data name="status">
                    <value>Completed</value>
                </Data>
                <Data name="panchayat">
                    <value>Assolna</value>
                </Data>
                <Data name="wb_type">
                    <value>Pond</value>
                </Data>
                <Data name="owner_type">
                    <value>Private</value>
                </Data>
                <Data name="purpose">
                    <value>Irrigation</value>
                </Data>
                <Data name="construction">
                    <value>Natural</value>
                </Data>
                <Data name="condition">
                    <value>Needs Maintenance</value>
                </Data>
                <Data name="print_order">
                    <value>021</value>
                </Data>
                <Data name="wb_id">
                    <value>Sc/Asso/10</value>
                </Data>
                <Data name="storage_capacity">
                    <value>370.0</value>
                </Data>
                <Data name="wb_surface_id">
                    <value>2625</value>
                </Data>
                <Data name="created_at">
                    <value>2021-11-01 00:00:00</value>
                </Data>
                <Data name="updated_at">
                    <value>2023-07-22 14:03:14.307690</value>
                </Data>
                <Data name="book_id">
                    <value>1</value>
                </Data>
                <Data name="owners">
                    <value>Antonio Wilson Fernandes
Caetano Filipe Teofilo Fernandes
Joao Benedito Fernandes
Silvestre Francisco Fernandes
Thommy Clifton Fernandes</value>
                </Data>
                <Data name="label_x">
                    <value>987637.0</value>
                </Data>
                <Data name="label_y">
                    <value>974633.192006791</value>
                </Data>
            </ExtendedData>
            <Point id="44486">
                <coordinates>73.968641321,15.171915107,0.0</coordinates>
            </Point>
        </Placemark>
        <Placemark id="44519">
            <ExtendedData>
                <Data name="direction">
                    <value>https://maps.google.com?q=15.1785,73.97448&amp;t=h</value>
                </Data>
                <Data name="id">
                    <value>1285</value>
                </Data>
                <Data name="name">
                    <value>Modvollem Tollem, Modolam Tolem; Moddorachem Torem</value>
                </Data>
                <Data name="taluka">
                    <value>Salcete</value>
                </Data>
                <Data name="syno">
                    <value>99</value>
                </Data>
                <Data name="subdiv">
                    <value>48</value>
                </Data>
                <Data name="village">
                    <value>Assolna</value>
                </Data>
                <Data name="latitude">
                    <value>15.1785</value>
                </Data>
                <Data name="longitude">
                    <value>73.97448</value>
                </Data>
                <Data name="photo_1">
                    <value>DCIM/20210825153506486.jpg</value>
                </Data>
                <Data name="photo_2">
                    <value>DCIM/20210825153515401.jpg</value>
                </Data>
                <Data name="constituency">
                    <value>35 - Velim</value>
                </Data>
                <Data name="status">
                    <value>Completed</value>
                </Data>
                <Data name="panchayat">
                    <value>Assolna</value>
                </Data>
                <Data name="wb_type">
                    <value>Pond</value>
                </Data>
                <Data name="owner_type">
                    <value>Communidade</value>
                </Data>
                <Data name="purpose">
                    <value>Irrigation</value>
                </Data>
                <Data name="construction">
                    <value>Natural/Man Made</value>
                </Data>
                <Data name="condition">
                    <value>Good</value>
                </Data>
                <Data name="print_order">
                    <value>015</value>
                </Data>
                <Data name="wb_id">
                    <value>Sc/Asso/04</value>
                </Data>
                <Data name="storage_capacity">
                    <value>1330.0</value>
                </Data>
                <Data name="wb_surface_id">
                    <value>866</value>
                </Data>
                <Data name="created_at">
                    <value>2020-02-28 15:24:34</value>
                </Data>
                <Data name="updated_at">
                    <value>2025-01-04 15:04:29.048938</value>
                </Data>
                <Data name="book_id">
                    <value>1</value>
                </Data>
                <Data name="owners">
                    <value>Communidade of Assolna</value>
                </Data>
                <Data name="label_x">
                    <value>1008337.0</value>
                </Data>
                <Data name="label_y">
                    <value>974183.156424282</value>
                </Data>
            </ExtendedData>
            <Point id="44518">
                <coordinates>73.974476509,15.178501645,0.0</coordinates>
            </Point>
        </Placemark>
        <Placemark id="44551">
            <ExtendedData>
                <Data name="direction">
                    <value>https://maps.google.com?q=15.17793,73.96476&amp;t=h</value>
                </Data>
                <Data name="id">
                    <value>1283</value>
                </Data>
                <Data name="name">
                    <value>Khondapoi</value>
                </Data>
                <Data name="taluka">
                    <value>Salcete</value>
                </Data>
                <Data name="syno">
                    <value>164</value>
                </Data>
                <Data name="subdiv">
                    <value>5</value>
                </Data>
                <Data name="village">
                    <value>Assolna</value>
                </Data>
                <Data name="latitude">
                    <value>15.17793</value>
                </Data>
                <Data name="longitude">
                    <value>73.96476</value>
                </Data>
                <Data name="photo_1">
                    <value>DCIM/20210825162126641.jpg</value>
                </Data>
                <Data name="photo_2">
                    <value>DCIM/20210825162138297.jpg</value>
                </Data>
                <Data name="constituency">
                    <value>35 - Velim</value>
                </Data>
                <Data name="status">
                    <value>Completed</value>
                </Data>
                <Data name="panchayat">
                    <value>Assolna</value>
                </Data>
                <Data name="wb_type">
                    <value>Pond</value>
                </Data>
                <Data name="owner_type">
                    <value>Private</value>
                </Data>
                <Data name="purpose">
                    <value>Irrigation</value>
                </Data>
                <Data name="construction">
                    <value>Natural</value>
                </Data>
                <Data name="condition">
                    <value>Good</value>
                </Data>
                <Data name="print_order">
                    <value>016</value>
                </Data>
                <Data name="wb_id">
                    <value>Sc/Asso/05</value>
                </Data>
                <Data name="storage_capacity">
                    <value>1105.0</value>
                </Data>
                <Data name="wb_surface_id">
                    <value>856</value>
                </Data>
                <Data name="created_at">
                    <value>2020-02-28 15:24:34</value>
                </Data>
                <Data name="updated_at">
                    <value>2023-07-22 14:03:14.307690</value>
                </Data>
                <Data name="book_id">
                    <value>1</value>
                </Data>
                <Data name="owners">
                    <value>Domingos Savio Monteiro Clovis Da Costa</value>
                </Data>
                <Data name="label_x">
                    <value>987637.0</value>
                </Data>
                <Data name="label_y">
                    <value>976033.192006791</value>
                </Data>
            </ExtendedData>
            <Point id="44550">
                <coordinates>73.964762687,15.177930534,0.0</coordinates>
            </Point>
        </Placemark>
        <Placemark id="44583">
            <ExtendedData>
                <Data name="direction">
                    <value>https://maps.google.com?q=15.17646,73.96616&amp;t=h</value>
                </Data>
                <Data name="id">
                    <value>1298</value>
                </Data>
                <Data name="name">
                    <value>--</value>
                </Data>
                <Data name="taluka">
                    <value>Salcete</value>
                </Data>
                <Data name="syno">
                    <value>0</value>
                </Data>
                <Data name="subdiv">
                    <value>South of 143</value>
                </Data>
                <Data name="village">
                    <value>Assolna</value>
                </Data>
                <Data name="latitude">
                    <value>15.17646</value>
                </Data>
                <Data name="longitude">
                    <value>73.96616</value>
                </Data>
                <Data name="photo_1">
                    <value>DCIM/20210825161456209.jpg</value>
                </Data>
                <Data name="photo_2">
                    <value>DCIM/20210825161521133.jpg</value>
                </Data>
                <Data name="constituency">
                    <value>35 - Velim</value>
                </Data>
                <Data name="status">
                    <value>Completed</value>
                </Data>
                <Data name="panchayat">
                    <value>Assolna</value>
                </Data>
                <Data name="wb_type">
                    <value>Pond</value>
                </Data>
                <Data name="owner_type">
                    <value>Public</value>
                </Data>
                <Data name="purpose">
                    <value>Irrigation</value>
                </Data>
                <Data name="construction">
                    <value>Natural</value>
                </Data>
                <Data name="condition">
                    <value>Good</value>
                </Data>
                <Data name="print_order">
                    <value>014</value>
                </Data>
                <Data name="wb_id">
                    <value>Sc/Asso/03</value>
                </Data>
                <Data name="storage_capacity">
                    <value>2388.0</value>
                </Data>
                <Data name="wb_surface_id">
                    <value>861</value>
                </Data>
                <Data name="created_at">
                    <value>2020-02-28 15:24:34</value>
                </Data>
                <Data name="updated_at">
                    <value>2023-07-22 14:03:14.307690</value>
                </Data>
                <Data name="book_id">
                    <value>1</value>
                </Data>
                <Data name="owners">
                    <value>Govt. of Goa</value>
                </Data>
                <Data name="label_x">
                    <value>987637.0</value>
                </Data>
                <Data name="label_y">
                    <value>975333.192006791</value>
                </Data>
            </ExtendedData>
            <Point id="44582">
                <coordinates>73.966158368,15.176462626,0.0</coordinates>
            </Point>
        </Placemark>
        <Placemark id="44615">
            <ExtendedData>
                <Data name="direction">
                    <value>https://maps.google.com?q=15.17909,73.97358&amp;t=h</value>
                </Data>
                <Data name="id">
                    <value>3830</value>
                </Data>
                <Data name="name">
                    <value>Estrada</value>
                </Data>
                <Data name="taluka">
                    <value>Salcete</value>
                </Data>
                <Data name="syno">
                    <value>104</value>
                </Data>
                <Data name="subdiv">
                    <value>2</value>
                </Data>
                <Data name="village">
                    <value>Assolna</value>
                </Data>
                <Data name="latitude">
                    <value>15.17909</value>
                </Data>
                <Data name="longitude">
                    <value>73.97358</value>
                </Data>
                <Data name="photo_1">
                    <value>DCIM/20210825100301561.jpg</value>
                </Data>
                <Data name="photo_2">
                    <value>DCIM/20210825100308862.jpg</value>
                </Data>
                <Data name="constituency">
                    <value>35 - Velim</value>
                </Data>
                <Data name="status">
                    <value>Completed</value>
                </Data>
                <Data name="panchayat">
                    <value>Assolna</value>
                </Data>
                <Data name="wb_type">
                    <value>Pond</value>
                </Data>
                <Data name="owner_type">
                    <value>Private / Public</value>
                </Data>
                <Data name="purpose">
                    <value>Irrigation</value>
                </Data>
                <Data name="construction">
                    <value>Natural</value>
                </Data>
                <Data name="condition">
                    <value>Needs Maintenance</value>
                </Data>
                <Data name="print_order">
                    <value>017</value>
                </Data>
                <Data name="wb_id">
                    <value>Sc/Asso/06</value>
                </Data>
                <Data name="storage_capacity">
                    <value>562.0</value>
                </Data>
                <Data name="wb_surface_id">
                    <value>2519</value>
                </Data>
                <Data name="created_at">
                    <value>2021-08-25 00:00:00</value>
                </Data>
                <Data name="updated_at">
                    <value>2023-07-22 14:03:14.307690</value>
                </Data>
                <Data name="book_id">
                    <value>1</value>
                </Data>
                <Data name="owners">
                    <value>Antonio Enquerio Graciano Fernandes
Government of Goa, The Director of Sports and Youth Affairs, Panaji</value>
                </Data>
                <Data name="label_x">
                    <value>1008337.0</value>
                </Data>
                <Data name="label_y">
                    <value>974533.156424282</value>
                </Data>
            </ExtendedData>
            <Point id="44614">
                <coordinates>73.973577807,15.179091848,0.0</coordinates>
            </Point>
        </Placemark>
        <Placemark id="44647">
            <ExtendedData>
                <Data name="direction">
                    <value>https://maps.google.com?q=15.17846,73.96552&amp;t=h</value>
                </Data>
                <Data name="id">
                    <value>1282</value>
                </Data>
                <Data name="name">
                    <value>Khondapoi</value>
                </Data>
                <Data name="taluka">
                    <value>Salcete</value>
                </Data>
                <Data name="syno">
                    <value>165</value>
                </Data>
                <Data name="subdiv">
                    <value>29</value>
                </Data>
                <Data name="village">
                    <value>Assolna</value>
                </Data>
                <Data name="latitude">
                    <value>15.17846</value>
                </Data>
                <Data name="longitude">
                    <value>73.96552</value>
                </Data>
                <Data name="photo_1">
                    <value>DCIM/20220106165811235.jpg</value>
                </Data>
                <Data name="photo_2">
                    <value>DCIM/20220106165820726.jpg</value>
                </Data>
                <Data name="constituency">
                    <value>35 - Velim</value>
                </Data>
                <Data name="status">
                    <value>Completed</value>
                </Data>
                <Data name="panchayat">
                    <value>Assolna</value>
                </Data>
                <Data name="wb_type">
                    <value>Pond</value>
                </Data>
                <Data name="owner_type">
                    <value>Communidade</value>
                </Data>
                <Data name="purpose">
                    <value>Irrigation</value>
                </Data>
                <Data name="construction">
                    <value>Natural</value>
                </Data>
                <Data name="condition">
                    <value>Good</value>
                </Data>
                <Data name="print_order">
                    <value>023</value>
                </Data>
                <Data name="wb_id">
                    <value>Sc/Asso/12</value>
                </Data>
                <Data name="storage_capacity">
                    <value>287.0</value>
                </Data>
                <Data name="wb_surface_id">
                    <value>857</value>
                </Data>
                <Data name="created_at">
                    <value>2020-02-28 15:24:34</value>
                </Data>
                <Data name="updated_at">
                    <value>2023-07-22 14:03:14.307690</value>
                </Data>
                <Data name="book_id">
                    <value>1</value>
                </Data>
                <Data name="owners">
                    <value>Communidade of Assolna</value>
                </Data>
                <Data name="label_x">
                    <value>987637.0</value>
                </Data>
                <Data name="label_y">
                    <value>976383.192006791</value>
                </Data>
            </ExtendedData>
            <Point id="44646">
                <coordinates>73.965520887,15.178457335,0.0</coordinates>
            </Point>
        </Placemark>
        <Placemark id="44679">
            <ExtendedData>
                <Data name="direction">
                    <value>https://maps.google.com?q=15.17672,73.97618&amp;t=h</value>
                </Data>
                <Data name="id">
                    <value>3831</value>
                </Data>
                <Data name="name">
                    <value>Piniaro</value>
                </Data>
                <Data name="taluka">
                    <value>Salcete</value>
                </Data>
                <Data name="syno">
                    <value>117</value>
                </Data>
                <Data name="subdiv">
                    <value>17-19</value>
                </Data>
                <Data name="village">
                    <value>Assolna</value>
                </Data>
                <Data name="latitude">
                    <value>15.17672</value>
                </Data>
                <Data name="longitude">
                    <value>73.97618</value>
                </Data>
                <Data name="photo_1">
                    <value>DCIM/20210825153751231.jpg</value>
                </Data>
                <Data name="photo_2">
                    <value>DCIM/20210825153759420.jpg</value>
                </Data>
                <Data name="constituency">
                    <value>35 - Velim</value>
                </Data>
                <Data name="status">
                    <value>Completed</value>
                </Data>
                <Data name="panchayat">
                    <value>Assolna</value>
                </Data>
                <Data name="wb_type">
                    <value>Pond</value>
                </Data>
                <Data name="owner_type">
                    <value>Communidade / Pvt</value>
                </Data>
                <Data name="purpose">
                    <value>Irrigation</value>
                </Data>
                <Data name="construction">
                    <value>Natural</value>
                </Data>
                <Data name="condition">
                    <value>Needs Maintenance</value>
                </Data>
                <Data name="print_order">
                    <value>018</value>
                </Data>
                <Data name="wb_id">
                    <value>Sc/Asso/07</value>
                </Data>
                <Data name="storage_capacity">
                    <value>436.0</value>
                </Data>
                <Data name="wb_surface_id">
                    <value>2518</value>
                </Data>
                <Data name="created_at">
                    <value>2021-08-25 00:00:00</value>
                </Data>
                <Data name="updated_at">
                    <value>2023-07-22 14:03:14.307690</value>
                </Data>
                <Data name="book_id">
                    <value>1</value>
                </Data>
                <Data name="owners">
                    <value>Communidade of Assolna
Gilmota Paes
Shri. Manuel Cardozo</value>
                </Data>
                <Data name="label_x">
                    <value>1008337.0</value>
                </Data>
                <Data name="label_y">
                    <value>973833.156424282</value>
                </Data>
            </ExtendedData>
            <Point id="44678">
                <coordinates>73.976176224,15.176718209,0.0</coordinates>
            </Point>
        </Placemark>
        <Placemark id="44711">
            <ExtendedData>
                <Data name="direction">
                    <value>https://maps.google.com?q=15.17593,73.96693&amp;t=h</value>
                </Data>
                <Data name="id">
                    <value>1299</value>
                </Data>
                <Data name="name">
                    <value>--</value>
                </Data>
                <Data name="taluka">
                    <value>Salcete</value>
                </Data>
                <Data name="syno">
                    <value>0</value>
                </Data>
                <Data name="subdiv">
                    <value>South of 142</value>
                </Data>
                <Data name="village">
                    <value>Assolna</value>
                </Data>
                <Data name="latitude">
                    <value>15.17593</value>
                </Data>
                <Data name="longitude">
                    <value>73.96693</value>
                </Data>
                <Data name="photo_1">
                    <value>DCIM/20210825161142217.jpg</value>
                </Data>
                <Data name="photo_2">
                    <value>DCIM/20210825161243186.jpg</value>
                </Data>
                <Data name="constituency">
                    <value>35 - Velim</value>
                </Data>
                <Data name="status">
                    <value>Completed</value>
                </Data>
                <Data name="panchayat">
                    <value>Assolna</value>
                </Data>
                <Data name="wb_type">
                    <value>Tank</value>
                </Data>
                <Data name="owner_type">
                    <value>Public</value>
                </Data>
                <Data name="purpose">
                    <value>Irrigation</value>
                </Data>
                <Data name="construction">
                    <value>Natural</value>
                </Data>
                <Data name="condition">
                    <value>Good</value>
                </Data>
                <Data name="print_order">
                    <value>155</value>
                </Data>
                <Data name="wb_id">
                    <value>Sc/Asso/02</value>
                </Data>
                <Data name="storage_capacity">
                    <value>3409.0</value>
                </Data>
                <Data name="wb_surface_id">
                    <value>862</value>
                </Data>
                <Data name="created_at">
                    <value>2020-02-28 15:24:34</value>
                </Data>
                <Data name="updated_at">
                    <value>2023-07-22 14:03:14.307690</value>
                </Data>
                <Data name="book_id">
                    <value>1</value>
                </Data>
                <Data name="owners">
                    <value>Govt. of Goa</value>
                </Data>
                <Data name="label_x">
                    <value>987637.0</value>
                </Data>
                <Data name="label_y">
                    <value>974983.192006791</value>
                </Data>
            </ExtendedData>
            <Point id="44710">
                <coordinates>73.9669342,15.175930485,0.0</coordinates>
            </Point>
        </Placemark>
        <Placemark id="44743">
            <ExtendedData>
                <Data name="direction">
                    <value>https://maps.google.com?q=15.17573,73.97689&amp;t=h</value>
                </Data>
                <Data name="id">
                    <value>1286</value>
                </Data>
                <Data name="name">
                    <value>Piniaro</value>
                </Data>
                <Data name="taluka">
                    <value>Salcete</value>
                </Data>
                <Data name="syno">
                    <value>117</value>
                </Data>
                <Data name="subdiv">
                    <value>62</value>
                </Data>
                <Data name="village">
                    <value>Assolna</value>
                </Data>
                <Data name="latitude">
                    <value>15.17573</value>
                </Data>
                <Data name="longitude">
                    <value>73.97689</value>
                </Data>
                <Data name="photo_1">
                    <value>DCIM/20210825154146400.jpg</value>
                </Data>
                <Data name="photo_2">
                    <value>DCIM/20210825154154478.jpg</value>
                </Data>
                <Data name="constituency">
                    <value>35 - Velim</value>
                </Data>
                <Data name="status">
                    <value>Completed</value>
                </Data>
                <Data name="panchayat">
                    <value>Assolna</value>
                </Data>
                <Data name="wb_type">
                    <value>Pond</value>
                </Data>
                <Data name="owner_type">
                    <value>Communidade</value>
                </Data>
                <Data name="purpose">
                    <value>Irrigation</value>
                </Data>
                <Data name="construction">
                    <value>Natural/Man Made</value>
                </Data>
                <Data name="condition">
                    <value>Good</value>
                </Data>
                <Data name="print_order">
                    <value>022</value>
                </Data>
                <Data name="wb_id">
                    <value>Sc/Asso/11</value>
                </Data>
                <Data name="storage_capacity">
                    <value>333.0</value>
                </Data>
                <Data name="wb_surface_id">
                    <value>867</value>
                </Data>
                <Data name="created_at">
                    <value>2020-02-28 15:24:34</value>
                </Data>
                <Data name="updated_at">
                    <value>2023-07-22 14:03:14.307690</value>
                </Data>
                <Data name="book_id">
                    <value>1</value>
                </Data>
                <Data name="owners">
                    <value>Communidade of Assolna</value>
                </Data>
                <Data name="label_x">
                    <value>1008337.0</value>
                </Data>
                <Data name="label_y">
                    <value>973483.156424282</value>
                </Data>
            </ExtendedData>
            <Point id="44742">
                <coordinates>73.976885152,15.175734115,0.0</coordinates>
            </Point>
        </Placemark>
        <Placemark id="44775">
            <ExtendedData>
                <Data name="direction">
                    <value>https://maps.google.com?q=15.18386,73.97505&amp;t=h</value>
                </Data>
                <Data name="id">
                    <value>3950</value>
                </Data>
                <Data name="name">
                    <value>Namas Tela -Mal Or Docon</value>
                </Data>
                <Data name="taluka">
                    <value>Salcete</value>
                </Data>
                <Data name="syno">
                    <value>46</value>
                </Data>
                <Data name="subdiv">
                    <value>5</value>
                </Data>
                <Data name="village">
                    <value>Assolna</value>
                </Data>
                <Data name="latitude">
                    <value>15.18386</value>
                </Data>
                <Data name="longitude">
                    <value>73.97505</value>
                </Data>
                <Data name="photo_1">
                    <value>DCIM/20211101043750348.jpg</value>
                </Data>
                <Data name="photo_2">
                    <value>DCIM/20211101100758798.jpg</value>
                </Data>
                <Data name="constituency">
                    <value>35 - Velim</value>
                </Data>
                <Data name="status">
                    <value>Completed</value>
                </Data>
                <Data name="panchayat">
                    <value>Assolna</value>
                </Data>
                <Data name="wb_type">
                    <value>Pond</value>
                </Data>
                <Data name="owner_type">
                    <value>Communidade</value>
                </Data>
                <Data name="purpose">
                    <value>Storage</value>
                </Data>
                <Data name="construction">
                    <value>Natural</value>
                </Data>
                <Data name="condition">
                    <value>Needs Maintenance</value>
                </Data>
                <Data name="print_order">
                    <value>020</value>
                </Data>
                <Data name="wb_id">
                    <value>Sc/Asso/09</value>
                </Data>
                <Data name="storage_capacity">
                    <value>380.0</value>
                </Data>
                <Data name="wb_surface_id">
                    <value>2624</value>
                </Data>
                <Data name="created_at">
                    <value>2021-11-01 00:00:00</value>
                </Data>
                <Data name="updated_at">
                    <value>2023-07-22 14:03:14.307690</value>
                </Data>
                <Data name="book_id">
                    <value>1</value>
                </Data>
                <Data name="owners">
                    <value>Communidade Of Assolna</value>
                </Data>
                <Data name="label_x">
                    <value>1008337.0</value>
                </Data>
                <Data name="label_y">
                    <value>975233.156424282</value>
                </Data>
            </ExtendedData>
            <Point id="44774">
                <coordinates>73.975051775,15.183857387,0.0</coordinates>
            </Point>
        </Placemark>
        <Placemark id="44807">
            <ExtendedData>
                <Data name="direction">
                    <value>https://maps.google.com?q=15.17855,73.96768&amp;t=h</value>
                </Data>
                <Data name="id">
                    <value>1280</value>
                </Data>
                <Data name="name">
                    <value>Chandloa Xeth</value>
                </Data>
                <Data name="taluka">
                    <value>Salcete</value>
                </Data>
                <Data name="syno">
                    <value>170</value>
                </Data>
                <Data name="subdiv">
                    <value>1</value>
                </Data>
                <Data name="village">
                    <value>Assolna</value>
                </Data>
                <Data name="latitude">
                    <value>15.17855</value>
                </Data>
                <Data name="longitude">
                    <value>73.96768</value>
                </Data>
                <Data name="photo_1">
                    <value>DCIM/20210825160416562.jpg</value>
                </Data>
                <Data name="photo_2">
                    <value>DCIM/20210825160351205.jpg</value>
                </Data>
                <Data name="constituency">
                    <value>35 - Velim</value>
                </Data>
                <Data name="status">
                    <value>Completed</value>
                </Data>
                <Data name="panchayat">
                    <value>Assolna</value>
                </Data>
                <Data name="wb_type">
                    <value>Pond</value>
                </Data>
                <Data name="owner_type">
                    <value>Communidade</value>
                </Data>
                <Data name="purpose">
                    <value>Irrigation</value>
                </Data>
                <Data name="construction">
                    <value>Natural</value>
                </Data>
                <Data name="condition">
                    <value>Needs Maintenance</value>
                </Data>
                <Data name="print_order">
                    <value>019</value>
                </Data>
                <Data name="wb_id">
                    <value>Sc/Asso/08</value>
                </Data>
                <Data name="storage_capacity">
                    <value>430.0</value>
                </Data>
                <Data name="wb_surface_id">
                    <value>859</value>
                </Data>
                <Data name="created_at">
                    <value>2020-02-28 15:24:34</value>
                </Data>
                <Data name="updated_at">
                    <value>2023-07-22 14:03:14.307690</value>
                </Data>
                <Data name="book_id">
                    <value>1</value>
                </Data>
                <Data name="owners">
                    <value>Communidade Of Assolna</value>
                </Data>
                <Data name="label_x">
                    <value>987637.0</value>
                </Data>
                <Data name="label_y">
                    <value>975683.192006791</value>
                </Data>
            </ExtendedData>
            <Point id="44806">
                <coordinates>73.967677326,15.178545956,0.0</coordinates>
            </Point>
        </Placemark>
    </Document>
</kml>
