<?xml version="1.0" encoding="UTF-8"?>
<kml xmlns="http://www.opengis.net/kml/2.2" xmlns:gx="http://www.google.com/kml/ext/2.2">
    <Document id="52789">
        <Placemark id="52791">
            <ExtendedData>
                <Data name="direction">
                    <value>https://maps.google.com?q=15.25023,74.04581&amp;t=h</value>
                </Data>
                <Data name="id">
                    <value>1543</value>
                </Data>
                <Data name="name">
                    <value>Godya Tollem; Bhairi-Morod</value>
                </Data>
                <Data name="taluka">
                    <value>Salcete</value>
                </Data>
                <Data name="syno">
                    <value>7</value>
                </Data>
                <Data name="subdiv">
                    <value>1</value>
                </Data>
                <Data name="village">
                    <value>Cavorim</value>
                </Data>
                <Data name="latitude">
                    <value>15.25023</value>
                </Data>
                <Data name="longitude">
                    <value>74.04581</value>
                </Data>
                <Data name="photo_1">
                    <value>DCIM/20211106125624531.jpg</value>
                </Data>
                <Data name="photo_2">
                    <value>DCIM/20211106125640732.jpg</value>
                </Data>
                <Data name="constituency">
                    <value>34 - Cuncolim</value>
                </Data>
                <Data name="status">
                    <value>Completed</value>
                </Data>
                <Data name="panchayat">
                    <value>Chandor-Cavorim</value>
                </Data>
                <Data name="wb_type">
                    <value>Pond</value>
                </Data>
                <Data name="owner_type">
                    <value>Communidade</value>
                </Data>
                <Data name="purpose">
                    <value>Storage</value>
                </Data>
                <Data name="construction">
                    <value>Natural</value>
                </Data>
                <Data name="condition">
                    <value>Needs Maintenance</value>
                </Data>
                <Data name="print_order">
                    <value>114</value>
                </Data>
                <Data name="wb_id">
                    <value>Sc/Cavo/03</value>
                </Data>
                <Data name="storage_capacity">
                    <value>2693.0</value>
                </Data>
                <Data name="wb_surface_id">
                    <value>1360</value>
                </Data>
                <Data name="created_at">
                    <value>2020-02-28 15:24:34</value>
                </Data>
                <Data name="updated_at">
                    <value>2023-07-22 14:03:14.307690</value>
                </Data>
                <Data name="book_id">
                    <value>2</value>
                </Data>
                <Data name="owners">
                    <value>Communidade of Cavorim</value>
                </Data>
                <Data name="label_x">
                    <value>1008338.0</value>
                </Data>
                <Data name="label_y">
                    <value>985433.156424282</value>
                </Data>
            </ExtendedData>
            <Point id="52790">
                <coordinates>74.045814735,15.250231222,0.0</coordinates>
            </Point>
        </Placemark>
        <Placemark id="52823">
            <ExtendedData>
                <Data name="direction">
                    <value>https://maps.google.com?q=15.25675,74.0414&amp;t=h</value>
                </Data>
                <Data name="id">
                    <value>4135</value>
                </Data>
                <Data name="name">
                    <value>Biczon Lake; Chal</value>
                </Data>
                <Data name="taluka">
                    <value>Salcete</value>
                </Data>
                <Data name="syno">
                    <value>22</value>
                </Data>
                <Data name="subdiv">
                    <value>1</value>
                </Data>
                <Data name="village">
                    <value>Cavorim</value>
                </Data>
                <Data name="latitude">
                    <value>15.25675</value>
                </Data>
                <Data name="longitude">
                    <value>74.0414</value>
                </Data>
                <Data name="photo_1">
                    <value>DCIM/20211221091414615.jpg</value>
                </Data>
                <Data name="photo_2">
                    <value>DCIM/20211221091433519.jpg</value>
                </Data>
                <Data name="constituency">
                    <value>34 - Cuncolim</value>
                </Data>
                <Data name="status">
                    <value>Completed</value>
                </Data>
                <Data name="panchayat">
                    <value>Chandor-Cavorim</value>
                </Data>
                <Data name="wb_type">
                    <value>Pond</value>
                </Data>
                <Data name="owner_type">
                    <value>Communidade</value>
                </Data>
                <Data name="purpose">
                    <value>Irrigation</value>
                </Data>
                <Data name="construction">
                    <value>Natural/Man Made</value>
                </Data>
                <Data name="condition">
                    <value>Needs Maintenance</value>
                </Data>
                <Data name="print_order">
                    <value>113</value>
                </Data>
                <Data name="wb_id">
                    <value>Sc/Cavo/02</value>
                </Data>
                <Data name="storage_capacity">
                    <value>18936.0</value>
                </Data>
                <Data name="wb_surface_id">
                    <value>2872</value>
                </Data>
                <Data name="created_at">
                    <value>2021-11-28 02:26:33.991755</value>
                </Data>
                <Data name="updated_at">
                    <value>2023-07-22 14:03:14.307690</value>
                </Data>
                <Data name="book_id">
                    <value>2</value>
                </Data>
                <Data name="owners">
                    <value>Communidade of Cavorim</value>
                </Data>
                <Data name="label_x">
                    <value>1008338.0</value>
                </Data>
                <Data name="label_y">
                    <value>986133.156424282</value>
                </Data>
            </ExtendedData>
            <Point id="52822">
                <coordinates>74.041403552,15.256754764,0.0</coordinates>
            </Point>
        </Placemark>
        <Placemark id="52855">
            <ExtendedData>
                <Data name="direction">
                    <value>https://maps.google.com?q=15.25244,74.03251&amp;t=h</value>
                </Data>
                <Data name="id">
                    <value>1542</value>
                </Data>
                <Data name="name">
                    <value>Voilem Tollem, Bindimol; Anthod</value>
                </Data>
                <Data name="taluka">
                    <value>Salcete</value>
                </Data>
                <Data name="syno">
                    <value>83</value>
                </Data>
                <Data name="subdiv">
                    <value>1</value>
                </Data>
                <Data name="village">
                    <value>Cavorim</value>
                </Data>
                <Data name="latitude">
                    <value>15.25244</value>
                </Data>
                <Data name="longitude">
                    <value>74.03251</value>
                </Data>
                <Data name="photo_1">
                    <value>DCIM/20211106125459713.jpg</value>
                </Data>
                <Data name="photo_2">
                    <value>DCIM/20211106125506654.jpg</value>
                </Data>
                <Data name="constituency">
                    <value>34 - Cuncolim</value>
                </Data>
                <Data name="status">
                    <value>Completed</value>
                </Data>
                <Data name="panchayat">
                    <value>Chandor-Cavorim</value>
                </Data>
                <Data name="wb_type">
                    <value>Lake</value>
                </Data>
                <Data name="owner_type">
                    <value>Communidade / Pvt</value>
                </Data>
                <Data name="purpose">
                    <value>Irrigation</value>
                </Data>
                <Data name="construction">
                    <value>Natural</value>
                </Data>
                <Data name="condition">
                    <value>Needs Maintenance</value>
                </Data>
                <Data name="print_order">
                    <value>004</value>
                </Data>
                <Data name="wb_id">
                    <value>Sc/Cavo/01</value>
                </Data>
                <Data name="storage_capacity">
                    <value>341606.0</value>
                </Data>
                <Data name="wb_surface_id">
                    <value>1735</value>
                </Data>
                <Data name="created_at">
                    <value>2020-02-28 15:24:34</value>
                </Data>
                <Data name="updated_at">
                    <value>2023-07-22 14:03:14.307690</value>
                </Data>
                <Data name="book_id">
                    <value>2</value>
                </Data>
                <Data name="owners">
                    <value>Alvaro Braganza Pereira
Communidade of Cavorim</value>
                </Data>
                <Data name="label_x">
                    <value>1008338.0</value>
                </Data>
                <Data name="label_y">
                    <value>985783.156424282</value>
                </Data>
            </ExtendedData>
            <Point id="52854">
                <coordinates>74.032507098,15.252443689,0.0</coordinates>
            </Point>
        </Placemark>
        <Placemark id="52887">
            <ExtendedData>
                <Data name="direction">
                    <value>https://maps.google.com?q=15.24518,74.03555&amp;t=h</value>
                </Data>
                <Data name="id">
                    <value>3703</value>
                </Data>
                <Data name="name">
                    <value>Dewne Mol</value>
                </Data>
                <Data name="taluka">
                    <value>Salcete</value>
                </Data>
                <Data name="syno">
                    <value>124</value>
                </Data>
                <Data name="subdiv">
                    <value>1</value>
                </Data>
                <Data name="village">
                    <value>Cavorim</value>
                </Data>
                <Data name="latitude">
                    <value>15.24518</value>
                </Data>
                <Data name="longitude">
                    <value>74.03555</value>
                </Data>
                <Data name="photo_1">
                    <value>DCIM/20211106125533992.jpg</value>
                </Data>
                <Data name="photo_2">
                    <value>DCIM/20211106125539760.jpg</value>
                </Data>
                <Data name="constituency">
                    <value>34 - Cuncolim</value>
                </Data>
                <Data name="status">
                    <value>Completed</value>
                </Data>
                <Data name="panchayat">
                    <value>Chandor-Cavorim</value>
                </Data>
                <Data name="wb_type">
                    <value>Pond</value>
                </Data>
                <Data name="owner_type">
                    <value>Private</value>
                </Data>
                <Data name="purpose">
                    <value>Irrigation</value>
                </Data>
                <Data name="construction">
                    <value>Man Made</value>
                </Data>
                <Data name="condition">
                    <value>Good</value>
                </Data>
                <Data name="print_order">
                    <value>115</value>
                </Data>
                <Data name="wb_id">
                    <value>Sc/Cavo/04</value>
                </Data>
                <Data name="storage_capacity">
                    <value>1939.0</value>
                </Data>
                <Data name="wb_surface_id">
                    <value>2278</value>
                </Data>
                <Data name="created_at">
                    <value>2021-03-14 16:01:11</value>
                </Data>
                <Data name="updated_at">
                    <value>2023-07-22 14:03:14.307690</value>
                </Data>
                <Data name="book_id">
                    <value>2</value>
                </Data>
                <Data name="owners">
                    <value>Alwyn Carlos Braganca Pereira
Bruno Braganza Pereira</value>
                </Data>
                <Data name="label_x">
                    <value>1008338.0</value>
                </Data>
                <Data name="label_y">
                    <value>985083.156424282</value>
                </Data>
            </ExtendedData>
            <Point id="52886">
                <coordinates>74.035545652,15.245182419,0.0</coordinates>
            </Point>
        </Placemark>
    </Document>
</kml>
