<?xml version="1.0" encoding="UTF-8"?>
<kml xmlns="http://www.opengis.net/kml/2.2" xmlns:gx="http://www.google.com/kml/ext/2.2">
    <Document id="56091">
        <Placemark id="56093">
            <ExtendedData>
                <Data name="direction">
                    <value>https://maps.google.com?q=15.1862,73.99736&amp;t=h</value>
                </Data>
                <Data name="id">
                    <value>1677</value>
                </Data>
                <Data name="name">
                    <value>Poilem Arc; Kazupato</value>
                </Data>
                <Data name="taluka">
                    <value>Salcete</value>
                </Data>
                <Data name="syno">
                    <value>49</value>
                </Data>
                <Data name="subdiv">
                    <value>18</value>
                </Data>
                <Data name="village">
                    <value>Cuncolim</value>
                </Data>
                <Data name="latitude">
                    <value>15.1862</value>
                </Data>
                <Data name="longitude">
                    <value>73.99736</value>
                </Data>
                <Data name="photo_1">
                    <value>DCIM/20210819182320952.jpg</value>
                </Data>
                <Data name="photo_2">
                    <value>DCIM/20210819182352426.jpg</value>
                </Data>
                <Data name="constituency">
                    <value>34 - Cuncolim</value>
                </Data>
                <Data name="status">
                    <value>Completed</value>
                </Data>
                <Data name="panchayat">
                    <value>Cuncolim</value>
                </Data>
                <Data name="wb_type">
                    <value>Pond</value>
                </Data>
                <Data name="owner_type">
                    <value>Public</value>
                </Data>
                <Data name="purpose">
                    <value>Irrigation</value>
                </Data>
                <Data name="construction">
                    <value>Natural</value>
                </Data>
                <Data name="condition">
                    <value>Needs Maintenance</value>
                </Data>
                <Data name="print_order">
                    <value>080</value>
                </Data>
                <Data name="wb_id">
                    <value>Sc/Cunc/10</value>
                </Data>
                <Data name="storage_capacity">
                    <value>799.0</value>
                </Data>
                <Data name="wb_surface_id">
                    <value>895</value>
                </Data>
                <Data name="created_at">
                    <value>2020-02-28 15:24:34</value>
                </Data>
                <Data name="updated_at">
                    <value>2023-07-22 14:07:46.074167</value>
                </Data>
                <Data name="book_id">
                    <value>3</value>
                </Data>
                <Data name="owners">
                    <value>Court Receiver</value>
                </Data>
                <Data name="label_x">
                    <value>987639.0</value>
                </Data>
                <Data name="label_y">
                    <value>975079.730834663</value>
                </Data>
            </ExtendedData>
            <Point id="56092">
                <coordinates>73.997362039,15.186204173,0.0</coordinates>
            </Point>
        </Placemark>
        <Placemark id="56125">
            <ExtendedData>
                <Data name="direction">
                    <value>https://maps.google.com?q=15.19301,73.99711&amp;t=h</value>
                </Data>
                <Data name="id">
                    <value>3812</value>
                </Data>
                <Data name="name">
                    <value>Uskini Bandh</value>
                </Data>
                <Data name="taluka">
                    <value>Salcete</value>
                </Data>
                <Data name="syno">
                    <value>71</value>
                </Data>
                <Data name="subdiv">
                    <value>41-42</value>
                </Data>
                <Data name="village">
                    <value>Cuncolim</value>
                </Data>
                <Data name="latitude">
                    <value>15.19301</value>
                </Data>
                <Data name="longitude">
                    <value>73.99711</value>
                </Data>
                <Data name="photo_1">
                    <value>DCIM/20210819131505444.jpg</value>
                </Data>
                <Data name="photo_2">
                    <value>DCIM/20210819184627369.jpg</value>
                </Data>
                <Data name="constituency">
                    <value>34 - Cuncolim</value>
                </Data>
                <Data name="status">
                    <value>Completed</value>
                </Data>
                <Data name="panchayat">
                    <value>Cuncolim</value>
                </Data>
                <Data name="wb_type">
                    <value>Pond</value>
                </Data>
                <Data name="owner_type">
                    <value>Private</value>
                </Data>
                <Data name="purpose">
                    <value>Storage</value>
                </Data>
                <Data name="construction">
                    <value>Natural</value>
                </Data>
                <Data name="condition">
                    <value>Needs Maintenance</value>
                </Data>
                <Data name="print_order">
                    <value>086</value>
                </Data>
                <Data name="wb_id">
                    <value>Sc/Cunc/16</value>
                </Data>
                <Data name="storage_capacity">
                    <value>295.0</value>
                </Data>
                <Data name="wb_surface_id">
                    <value>2525</value>
                </Data>
                <Data name="created_at">
                    <value>2021-08-19 00:00:00</value>
                </Data>
                <Data name="updated_at">
                    <value>2023-07-22 14:07:46.074167</value>
                </Data>
                <Data name="book_id">
                    <value>3</value>
                </Data>
                <Data name="owners">
                    <value>Anil Shabu Dessai</value>
                </Data>
                <Data name="label_x">
                    <value>987639.0</value>
                </Data>
                <Data name="label_y">
                    <value>977179.730834663</value>
                </Data>
            </ExtendedData>
            <Point id="56124">
                <coordinates>73.997114558,15.193011313,0.0</coordinates>
            </Point>
        </Placemark>
        <Placemark id="56157">
            <ExtendedData>
                <Data name="direction">
                    <value>https://maps.google.com?q=15.18744,73.99731&amp;t=h</value>
                </Data>
                <Data name="id">
                    <value>1674</value>
                </Data>
                <Data name="name">
                    <value>Dusro Arc; Bensul Pato</value>
                </Data>
                <Data name="taluka">
                    <value>Salcete</value>
                </Data>
                <Data name="syno">
                    <value>56</value>
                </Data>
                <Data name="subdiv">
                    <value>7</value>
                </Data>
                <Data name="village">
                    <value>Cuncolim</value>
                </Data>
                <Data name="latitude">
                    <value>15.18744</value>
                </Data>
                <Data name="longitude">
                    <value>73.99731</value>
                </Data>
                <Data name="photo_1">
                    <value>DCIM/20210819182540164.jpg</value>
                </Data>
                <Data name="photo_2">
                    <value>DCIM/20210819182548767.jpg</value>
                </Data>
                <Data name="constituency">
                    <value>34 - Cuncolim</value>
                </Data>
                <Data name="status">
                    <value>Completed</value>
                </Data>
                <Data name="panchayat">
                    <value>Cuncolim</value>
                </Data>
                <Data name="wb_type">
                    <value>Pond</value>
                </Data>
                <Data name="owner_type">
                    <value>Public</value>
                </Data>
                <Data name="purpose">
                    <value>Irrigation</value>
                </Data>
                <Data name="construction">
                    <value>Natural</value>
                </Data>
                <Data name="condition">
                    <value>Good</value>
                </Data>
                <Data name="print_order">
                    <value>082</value>
                </Data>
                <Data name="wb_id">
                    <value>Sc/Cunc/12</value>
                </Data>
                <Data name="storage_capacity">
                    <value>544.0</value>
                </Data>
                <Data name="wb_surface_id">
                    <value>894</value>
                </Data>
                <Data name="created_at">
                    <value>2020-02-28 15:24:34</value>
                </Data>
                <Data name="updated_at">
                    <value>2023-07-22 14:07:46.074167</value>
                </Data>
                <Data name="book_id">
                    <value>3</value>
                </Data>
                <Data name="owners">
                    <value>Court Receiver</value>
                </Data>
                <Data name="label_x">
                    <value>987639.0</value>
                </Data>
                <Data name="label_y">
                    <value>975429.730834663</value>
                </Data>
            </ExtendedData>
            <Point id="56156">
                <coordinates>73.99730644,15.187438755,0.0</coordinates>
            </Point>
        </Placemark>
        <Placemark id="56189">
            <ExtendedData>
                <Data name="direction">
                    <value>https://maps.google.com?q=15.16929,74.00365&amp;t=h</value>
                </Data>
                <Data name="id">
                    <value>2500</value>
                </Data>
                <Data name="name">
                    <value>Jirmim Tollem; Galya Morod,Galya Morod.</value>
                </Data>
                <Data name="taluka">
                    <value>Salcete</value>
                </Data>
                <Data name="syno">
                    <value>522</value>
                </Data>
                <Data name="subdiv">
                    <value>4-9</value>
                </Data>
                <Data name="village">
                    <value>Cuncolim</value>
                </Data>
                <Data name="latitude">
                    <value>15.16929</value>
                </Data>
                <Data name="longitude">
                    <value>74.00365</value>
                </Data>
                <Data name="photo_1">
                    <value>DCIM/20211210082605581.jpg</value>
                </Data>
                <Data name="photo_2">
                    <value>DCIM/20211210082717817.jpg</value>
                </Data>
                <Data name="constituency">
                    <value>34 - Cuncolim</value>
                </Data>
                <Data name="status">
                    <value>Completed</value>
                </Data>
                <Data name="panchayat">
                    <value>Cuncolim</value>
                </Data>
                <Data name="wb_type">
                    <value>Lake</value>
                </Data>
                <Data name="owner_type">
                    <value>Private</value>
                </Data>
                <Data name="purpose">
                    <value>Irrigation</value>
                </Data>
                <Data name="construction">
                    <value>Man Made</value>
                </Data>
                <Data name="condition">
                    <value>Dry</value>
                </Data>
                <Data name="print_order">
                    <value>006</value>
                </Data>
                <Data name="wb_id">
                    <value>Sc/Cunc/02</value>
                </Data>
                <Data name="storage_capacity">
                    <value>12893.0</value>
                </Data>
                <Data name="wb_surface_id">
                    <value>881</value>
                </Data>
                <Data name="created_at">
                    <value>2020-03-26 07:23:08</value>
                </Data>
                <Data name="updated_at">
                    <value>2023-07-22 14:07:46.074167</value>
                </Data>
                <Data name="book_id">
                    <value>3</value>
                </Data>
                <Data name="owners">
                    <value>Abel Fernandes
Agapito Fernandes
Agapito Lourenco
Romao Fernandes
Wilfrado Lourenco
Wilfredo Lourenco</value>
                </Data>
                <Data name="label_x">
                    <value>1008339.0</value>
                </Data>
                <Data name="label_y">
                    <value>974171.673307794</value>
                </Data>
            </ExtendedData>
            <Point id="56188">
                <coordinates>74.003647149,15.169291786,0.0</coordinates>
            </Point>
        </Placemark>
        <Placemark id="56221">
            <ExtendedData>
                <Data name="direction">
                    <value>https://maps.google.com?q=15.17584,73.98329&amp;t=h</value>
                </Data>
                <Data name="id">
                    <value>1682</value>
                </Data>
                <Data name="name">
                    <value>Murida</value>
                </Data>
                <Data name="taluka">
                    <value>Salcete</value>
                </Data>
                <Data name="syno">
                    <value>620</value>
                </Data>
                <Data name="subdiv">
                    <value>1</value>
                </Data>
                <Data name="village">
                    <value>Cuncolim</value>
                </Data>
                <Data name="latitude">
                    <value>15.17584</value>
                </Data>
                <Data name="longitude">
                    <value>73.98329</value>
                </Data>
                <Data name="photo_1">
                    <value>DCIM/20210825155143417.jpg</value>
                </Data>
                <Data name="photo_2">
                    <value>DCIM/20210825155151665.jpg</value>
                </Data>
                <Data name="constituency">
                    <value>34 - Cuncolim</value>
                </Data>
                <Data name="status">
                    <value>Completed</value>
                </Data>
                <Data name="panchayat">
                    <value>Cuncolim</value>
                </Data>
                <Data name="wb_type">
                    <value>Tank</value>
                </Data>
                <Data name="owner_type">
                    <value>Private</value>
                </Data>
                <Data name="purpose">
                    <value>Fish Farming</value>
                </Data>
                <Data name="construction">
                    <value>Natural/Man Made</value>
                </Data>
                <Data name="condition">
                    <value>Good</value>
                </Data>
                <Data name="print_order">
                    <value>151</value>
                </Data>
                <Data name="wb_id">
                    <value>Sc/Cunc/07</value>
                </Data>
                <Data name="storage_capacity">
                    <value>2749.0</value>
                </Data>
                <Data name="wb_surface_id">
                    <value>1212</value>
                </Data>
                <Data name="created_at">
                    <value>2020-02-28 15:24:34</value>
                </Data>
                <Data name="updated_at">
                    <value>2023-07-22 14:07:46.074167</value>
                </Data>
                <Data name="book_id">
                    <value>3</value>
                </Data>
                <Data name="owners">
                    <value>Cedric Lawrence Gomes
Edwin Almeida
Nafisha Tiana Almeida e Gomes</value>
                </Data>
                <Data name="label_x">
                    <value>987639.0</value>
                </Data>
                <Data name="label_y">
                    <value>974729.730834663</value>
                </Data>
            </ExtendedData>
            <Point id="56220">
                <coordinates>73.983285388,15.175840731,0.0</coordinates>
            </Point>
        </Placemark>
        <Placemark id="56253">
            <ExtendedData>
                <Data name="direction">
                    <value>https://maps.google.com?q=15.19193,73.99742&amp;t=h</value>
                </Data>
                <Data name="id">
                    <value>1671</value>
                </Data>
                <Data name="name">
                    <value>Dusrem Arc; Peda Xet or Amble gall</value>
                </Data>
                <Data name="taluka">
                    <value>Salcete</value>
                </Data>
                <Data name="syno">
                    <value>154</value>
                </Data>
                <Data name="subdiv">
                    <value>17</value>
                </Data>
                <Data name="village">
                    <value>Cuncolim</value>
                </Data>
                <Data name="latitude">
                    <value>15.19193</value>
                </Data>
                <Data name="longitude">
                    <value>73.99742</value>
                </Data>
                <Data name="photo_1">
                    <value>DCIM/20210819183749891.jpg</value>
                </Data>
                <Data name="photo_2">
                    <value>DCIM/20210819183757962.jpg</value>
                </Data>
                <Data name="constituency">
                    <value>34 - Cuncolim</value>
                </Data>
                <Data name="status">
                    <value>Completed</value>
                </Data>
                <Data name="panchayat">
                    <value>Cuncolim</value>
                </Data>
                <Data name="wb_type">
                    <value>Lake</value>
                </Data>
                <Data name="owner_type">
                    <value>Private</value>
                </Data>
                <Data name="purpose">
                    <value>Irrigation</value>
                </Data>
                <Data name="construction">
                    <value>Natural</value>
                </Data>
                <Data name="condition">
                    <value>Good</value>
                </Data>
                <Data name="print_order">
                    <value>007</value>
                </Data>
                <Data name="wb_id">
                    <value>Sc/Cunc/04</value>
                </Data>
                <Data name="storage_capacity">
                    <value>4605.0</value>
                </Data>
                <Data name="wb_surface_id">
                    <value>890</value>
                </Data>
                <Data name="created_at">
                    <value>2020-02-28 15:24:34</value>
                </Data>
                <Data name="updated_at">
                    <value>2023-07-22 14:07:46.074167</value>
                </Data>
                <Data name="book_id">
                    <value>3</value>
                </Data>
                <Data name="owners">
                    <value>Lubina Saldanha</value>
                </Data>
                <Data name="label_x">
                    <value>987639.0</value>
                </Data>
                <Data name="label_y">
                    <value>976829.730834663</value>
                </Data>
            </ExtendedData>
            <Point id="56252">
                <coordinates>73.997423553,15.191931509,0.0</coordinates>
            </Point>
        </Placemark>
        <Placemark id="56285">
            <ExtendedData>
                <Data name="direction">
                    <value>https://maps.google.com?q=15.17556,73.98653&amp;t=h</value>
                </Data>
                <Data name="id">
                    <value>1684</value>
                </Data>
                <Data name="name">
                    <value>Quesarxete</value>
                </Data>
                <Data name="taluka">
                    <value>Salcete</value>
                </Data>
                <Data name="syno">
                    <value>624</value>
                </Data>
                <Data name="subdiv">
                    <value>1</value>
                </Data>
                <Data name="village">
                    <value>Cuncolim</value>
                </Data>
                <Data name="latitude">
                    <value>15.17556</value>
                </Data>
                <Data name="longitude">
                    <value>73.98653</value>
                </Data>
                <Data name="photo_1">
                    <value>DCIM/20210819175256374.jpg</value>
                </Data>
                <Data name="photo_2">
                    <value>DCIM/20210819175311979.jpg</value>
                </Data>
                <Data name="constituency">
                    <value>34 - Cuncolim</value>
                </Data>
                <Data name="status">
                    <value>Completed</value>
                </Data>
                <Data name="panchayat">
                    <value>Cuncolim</value>
                </Data>
                <Data name="wb_type">
                    <value>Pond</value>
                </Data>
                <Data name="owner_type">
                    <value>Public</value>
                </Data>
                <Data name="purpose">
                    <value>Irrigation</value>
                </Data>
                <Data name="construction">
                    <value>Natural</value>
                </Data>
                <Data name="condition">
                    <value>Good</value>
                </Data>
                <Data name="print_order">
                    <value>084</value>
                </Data>
                <Data name="wb_id">
                    <value>Sc/Cunc/14</value>
                </Data>
                <Data name="storage_capacity">
                    <value>523.0</value>
                </Data>
                <Data name="wb_surface_id">
                    <value>1211</value>
                </Data>
                <Data name="created_at">
                    <value>2020-02-28 15:24:34</value>
                </Data>
                <Data name="updated_at">
                    <value>2023-07-22 14:07:46.074167</value>
                </Data>
                <Data name="book_id">
                    <value>3</value>
                </Data>
                <Data name="owners">
                    <value>Court Receiver</value>
                </Data>
                <Data name="label_x">
                    <value>987639.0</value>
                </Data>
                <Data name="label_y">
                    <value>974379.730834663</value>
                </Data>
            </ExtendedData>
            <Point id="56284">
                <coordinates>73.986525507,15.175561917,0.0</coordinates>
            </Point>
        </Placemark>
        <Placemark id="56317">
            <ExtendedData>
                <Data name="direction">
                    <value>https://maps.google.com?q=15.1718,73.99383&amp;t=h</value>
                </Data>
                <Data name="id">
                    <value>1685</value>
                </Data>
                <Data name="name">
                    <value>Kumra Tollem; Tolem</value>
                </Data>
                <Data name="taluka">
                    <value>Salcete</value>
                </Data>
                <Data name="syno">
                    <value>581</value>
                </Data>
                <Data name="subdiv">
                    <value>1</value>
                </Data>
                <Data name="village">
                    <value>Cuncolim</value>
                </Data>
                <Data name="latitude">
                    <value>15.1718</value>
                </Data>
                <Data name="longitude">
                    <value>73.99383</value>
                </Data>
                <Data name="photo_1">
                    <value>DCIM/20210819174511768.jpg</value>
                </Data>
                <Data name="photo_2">
                    <value>DCIM/20210819174648453.jpg</value>
                </Data>
                <Data name="constituency">
                    <value>34 - Cuncolim</value>
                </Data>
                <Data name="status">
                    <value>Completed</value>
                </Data>
                <Data name="panchayat">
                    <value>Cuncolim</value>
                </Data>
                <Data name="wb_type">
                    <value>Pond</value>
                </Data>
                <Data name="owner_type">
                    <value>Private</value>
                </Data>
                <Data name="purpose">
                    <value>Irrigation</value>
                </Data>
                <Data name="construction">
                    <value>Natural</value>
                </Data>
                <Data name="condition">
                    <value>Good</value>
                </Data>
                <Data name="print_order">
                    <value>078</value>
                </Data>
                <Data name="wb_id">
                    <value>Sc/Cunc/08</value>
                </Data>
                <Data name="storage_capacity">
                    <value>2261.0</value>
                </Data>
                <Data name="wb_surface_id">
                    <value>880</value>
                </Data>
                <Data name="created_at">
                    <value>2020-02-28 15:24:34</value>
                </Data>
                <Data name="updated_at">
                    <value>2023-07-22 14:07:46.074167</value>
                </Data>
                <Data name="book_id">
                    <value>3</value>
                </Data>
                <Data name="owners">
                    <value>Govind Dessai and Others
Laximan Uttam Dessai
Mathura Dessai
Pandurang Dulba Dessai
Sarvesh Dessai
Shamba Dessai</value>
                </Data>
                <Data name="label_x">
                    <value>987639.0</value>
                </Data>
                <Data name="label_y">
                    <value>973679.730834663</value>
                </Data>
            </ExtendedData>
            <Point id="56316">
                <coordinates>73.993825608,15.171802738,0.0</coordinates>
            </Point>
        </Placemark>
        <Placemark id="56349">
            <ExtendedData>
                <Data name="direction">
                    <value>https://maps.google.com?q=15.17366,73.98293&amp;t=h</value>
                </Data>
                <Data name="id">
                    <value>1683</value>
                </Data>
                <Data name="name">
                    <value>Virlem</value>
                </Data>
                <Data name="taluka">
                    <value>Salcete</value>
                </Data>
                <Data name="syno">
                    <value>618</value>
                </Data>
                <Data name="subdiv">
                    <value>17,20,21</value>
                </Data>
                <Data name="village">
                    <value>Cuncolim</value>
                </Data>
                <Data name="latitude">
                    <value>15.17366</value>
                </Data>
                <Data name="longitude">
                    <value>73.98293</value>
                </Data>
                <Data name="photo_1">
                    <value>DCIM/20210819175726945.jpg</value>
                </Data>
                <Data name="photo_2">
                    <value>DCIM/20210819175736100.jpg</value>
                </Data>
                <Data name="constituency">
                    <value>34 - Cuncolim</value>
                </Data>
                <Data name="status">
                    <value>Completed</value>
                </Data>
                <Data name="panchayat">
                    <value>Cuncolim</value>
                </Data>
                <Data name="wb_type">
                    <value>Tank</value>
                </Data>
                <Data name="owner_type">
                    <value>Private</value>
                </Data>
                <Data name="purpose">
                    <value>Storage</value>
                </Data>
                <Data name="construction">
                    <value>Man Made</value>
                </Data>
                <Data name="condition">
                    <value>Needs Maintenance</value>
                </Data>
                <Data name="print_order">
                    <value>150</value>
                </Data>
                <Data name="wb_id">
                    <value>Sc/Cunc/06</value>
                </Data>
                <Data name="storage_capacity">
                    <value>3034.0</value>
                </Data>
                <Data name="wb_surface_id">
                    <value>1208</value>
                </Data>
                <Data name="created_at">
                    <value>2020-02-28 15:24:34</value>
                </Data>
                <Data name="updated_at">
                    <value>2023-07-22 14:07:46.074167</value>
                </Data>
                <Data name="book_id">
                    <value>3</value>
                </Data>
                <Data name="owners">
                    <value>Bruno Dias
Crecencia Dias
Ferdinando Viegas
Joaquina Dias
Nolasco Viegas
Saude Viegas
Veverly D`Souza</value>
                </Data>
                <Data name="label_x">
                    <value>987639.0</value>
                </Data>
                <Data name="label_y">
                    <value>974029.730834663</value>
                </Data>
            </ExtendedData>
            <Point id="56348">
                <coordinates>73.982928808,15.173655161,0.0</coordinates>
            </Point>
        </Placemark>
        <Placemark id="56381">
            <ExtendedData>
                <Data name="direction">
                    <value>https://maps.google.com?q=15.1897,73.9971&amp;t=h</value>
                </Data>
                <Data name="id">
                    <value>1672</value>
                </Data>
                <Data name="name">
                    <value>Tisro Arc</value>
                </Data>
                <Data name="taluka">
                    <value>Salcete</value>
                </Data>
                <Data name="syno">
                    <value>58</value>
                </Data>
                <Data name="subdiv">
                    <value>9</value>
                </Data>
                <Data name="village">
                    <value>Cuncolim</value>
                </Data>
                <Data name="latitude">
                    <value>15.1897</value>
                </Data>
                <Data name="longitude">
                    <value>73.9971</value>
                </Data>
                <Data name="photo_1">
                    <value>DCIM/20210819182910141.jpg</value>
                </Data>
                <Data name="photo_2">
                    <value>DCIM/20210819182918469.jpg</value>
                </Data>
                <Data name="constituency">
                    <value>34 - Cuncolim</value>
                </Data>
                <Data name="status">
                    <value>Completed</value>
                </Data>
                <Data name="panchayat">
                    <value>Cuncolim</value>
                </Data>
                <Data name="wb_type">
                    <value>Pond</value>
                </Data>
                <Data name="owner_type">
                    <value>Public</value>
                </Data>
                <Data name="purpose">
                    <value>Irrigation</value>
                </Data>
                <Data name="construction">
                    <value>Natural</value>
                </Data>
                <Data name="condition">
                    <value>Good</value>
                </Data>
                <Data name="print_order">
                    <value>083</value>
                </Data>
                <Data name="wb_id">
                    <value>Sc/Cunc/13</value>
                </Data>
                <Data name="storage_capacity">
                    <value>533.0</value>
                </Data>
                <Data name="wb_surface_id">
                    <value>892</value>
                </Data>
                <Data name="created_at">
                    <value>2020-02-28 15:24:34</value>
                </Data>
                <Data name="updated_at">
                    <value>2023-07-22 14:07:46.074167</value>
                </Data>
                <Data name="book_id">
                    <value>3</value>
                </Data>
                <Data name="owners">
                    <value>Court Receiver</value>
                </Data>
                <Data name="label_x">
                    <value>987639.0</value>
                </Data>
                <Data name="label_y">
                    <value>976479.730834663</value>
                </Data>
            </ExtendedData>
            <Point id="56380">
                <coordinates>73.99709961,15.18969878,0.0</coordinates>
            </Point>
        </Placemark>
        <Placemark id="56413">
            <ExtendedData>
                <Data name="direction">
                    <value>https://maps.google.com?q=15.16307,74.01082&amp;t=h</value>
                </Data>
                <Data name="id">
                    <value>1686</value>
                </Data>
                <Data name="name">
                    <value>Naya Bandh</value>
                </Data>
                <Data name="taluka">
                    <value>Salcete</value>
                </Data>
                <Data name="syno">
                    <value>457</value>
                </Data>
                <Data name="subdiv">
                    <value>1-8</value>
                </Data>
                <Data name="village">
                    <value>Cuncolim</value>
                </Data>
                <Data name="latitude">
                    <value>15.16307</value>
                </Data>
                <Data name="longitude">
                    <value>74.01082</value>
                </Data>
                <Data name="photo_1">
                    <value>DCIM/20210819173019843.jpg</value>
                </Data>
                <Data name="photo_2">
                    <value>DCIM/20210819173205363.jpg</value>
                </Data>
                <Data name="constituency">
                    <value>34 - Cuncolim</value>
                </Data>
                <Data name="status">
                    <value>Completed</value>
                </Data>
                <Data name="panchayat">
                    <value>Cuncolim</value>
                </Data>
                <Data name="wb_type">
                    <value>Lake</value>
                </Data>
                <Data name="owner_type">
                    <value>Private</value>
                </Data>
                <Data name="purpose">
                    <value>Irrigation</value>
                </Data>
                <Data name="construction">
                    <value>Man Made</value>
                </Data>
                <Data name="condition">
                    <value>Needs Maintenance</value>
                </Data>
                <Data name="print_order">
                    <value>005</value>
                </Data>
                <Data name="wb_id">
                    <value>Sc/Cunc/01</value>
                </Data>
                <Data name="storage_capacity">
                    <value>131804.0</value>
                </Data>
                <Data name="wb_surface_id">
                    <value>897</value>
                </Data>
                <Data name="created_at">
                    <value>2020-02-28 15:24:34</value>
                </Data>
                <Data name="updated_at">
                    <value>2023-07-22 14:07:46.074167</value>
                </Data>
                <Data name="book_id">
                    <value>3</value>
                </Data>
                <Data name="owners">
                    <value>Datta Krishna Auddy
Datta Krishna Audi
Dr. Faustino A.S Coutinho
Geeta Subhash Kamat
Gokuldas Anant Sinai Auddy
Harichandra Krishna Auddy
Harichandra Krishna Audi
Laximikant Damu Sinai Audi 3/8
Madhukar Krishna Auddy
Madhukar Krishna Audi
Radhabai Vasant Audi  2/8
Satish Krishna Auddy
Satish Krishna Audi
Shripad Gopal Sinai Auddy
Vaman Krishna Auaddy
Vaman Krishna Auddy
Vaman Krishna Audi</value>
                </Data>
                <Data name="label_x">
                    <value>1008339.0</value>
                </Data>
                <Data name="label_y">
                    <value>973821.673307794</value>
                </Data>
            </ExtendedData>
            <Point id="56412">
                <coordinates>74.010913764,15.162948683,0.0</coordinates>
            </Point>
        </Placemark>
        <Placemark id="56445">
            <ExtendedData>
                <Data name="direction">
                    <value>https://maps.google.com?q=15.1891,73.99711&amp;t=h</value>
                </Data>
                <Data name="id">
                    <value>3811</value>
                </Data>
                <Data name="name">
                    <value>Bensula</value>
                </Data>
                <Data name="taluka">
                    <value>Salcete</value>
                </Data>
                <Data name="syno">
                    <value>57</value>
                </Data>
                <Data name="subdiv">
                    <value>4</value>
                </Data>
                <Data name="village">
                    <value>Cuncolim</value>
                </Data>
                <Data name="latitude">
                    <value>15.1891</value>
                </Data>
                <Data name="longitude">
                    <value>73.99711</value>
                </Data>
                <Data name="photo_1">
                    <value>DCIM/20210819130119227.jpg</value>
                </Data>
                <Data name="photo_2">
                    <value>DCIM/20210819130127809.jpg</value>
                </Data>
                <Data name="constituency">
                    <value>34 - Cuncolim</value>
                </Data>
                <Data name="status">
                    <value>Completed</value>
                </Data>
                <Data name="panchayat">
                    <value>Cuncolim</value>
                </Data>
                <Data name="wb_type">
                    <value>Pond</value>
                </Data>
                <Data name="owner_type">
                    <value>Public</value>
                </Data>
                <Data name="purpose">
                    <value>Irrigation</value>
                </Data>
                <Data name="construction">
                    <value>Natural</value>
                </Data>
                <Data name="condition">
                    <value>Good</value>
                </Data>
                <Data name="print_order">
                    <value>087</value>
                </Data>
                <Data name="wb_id">
                    <value>Sc/Cunc/17</value>
                </Data>
                <Data name="storage_capacity">
                    <value>284.0</value>
                </Data>
                <Data name="wb_surface_id">
                    <value>2538</value>
                </Data>
                <Data name="created_at">
                    <value>2021-08-19 00:00:00</value>
                </Data>
                <Data name="updated_at">
                    <value>2023-07-22 14:07:46.074167</value>
                </Data>
                <Data name="book_id">
                    <value>3</value>
                </Data>
                <Data name="owners">
                    <value>Court Receiver</value>
                </Data>
                <Data name="label_x">
                    <value>987639.0</value>
                </Data>
                <Data name="label_y">
                    <value>976129.730834663</value>
                </Data>
            </ExtendedData>
            <Point id="56444">
                <coordinates>73.997108554,15.189103632,0.0</coordinates>
            </Point>
        </Placemark>
        <Placemark id="56477">
            <ExtendedData>
                <Data name="direction">
                    <value>https://maps.google.com?q=15.18898,74.01178&amp;t=h</value>
                </Data>
                <Data name="id">
                    <value>1675</value>
                </Data>
                <Data name="name">
                    <value>Foddca Bandh; Bhailem</value>
                </Data>
                <Data name="taluka">
                    <value>Salcete</value>
                </Data>
                <Data name="syno">
                    <value>204</value>
                </Data>
                <Data name="subdiv">
                    <value>13</value>
                </Data>
                <Data name="village">
                    <value>Cuncolim</value>
                </Data>
                <Data name="latitude">
                    <value>15.18898</value>
                </Data>
                <Data name="longitude">
                    <value>74.01178</value>
                </Data>
                <Data name="photo_1">
                    <value>DCIM/20210823172647819.jpg</value>
                </Data>
                <Data name="photo_2">
                    <value>DCIM/20210823172655333.jpg</value>
                </Data>
                <Data name="constituency">
                    <value>34 - Cuncolim</value>
                </Data>
                <Data name="status">
                    <value>Completed</value>
                </Data>
                <Data name="panchayat">
                    <value>Cuncolim</value>
                </Data>
                <Data name="wb_type">
                    <value>Pond</value>
                </Data>
                <Data name="owner_type">
                    <value>Public</value>
                </Data>
                <Data name="purpose">
                    <value>Storage</value>
                </Data>
                <Data name="construction">
                    <value>Natural</value>
                </Data>
                <Data name="condition">
                    <value>Needs Maintenance</value>
                </Data>
                <Data name="print_order">
                    <value>081</value>
                </Data>
                <Data name="wb_id">
                    <value>Sc/Cunc/11</value>
                </Data>
                <Data name="storage_capacity">
                    <value>792.0</value>
                </Data>
                <Data name="wb_surface_id">
                    <value>1366</value>
                </Data>
                <Data name="created_at">
                    <value>2020-02-28 15:24:34</value>
                </Data>
                <Data name="updated_at">
                    <value>2023-07-22 14:07:46.074167</value>
                </Data>
                <Data name="book_id">
                    <value>3</value>
                </Data>
                <Data name="owners">
                    <value>Government</value>
                </Data>
                <Data name="label_x">
                    <value>1008339.0</value>
                </Data>
                <Data name="label_y">
                    <value>975221.673307794</value>
                </Data>
            </ExtendedData>
            <Point id="56476">
                <coordinates>74.011779533,15.188982206,0.0</coordinates>
            </Point>
        </Placemark>
        <Placemark id="56509">
            <ExtendedData>
                <Data name="direction">
                    <value>https://maps.google.com?q=15.18799,73.99718&amp;t=h</value>
                </Data>
                <Data name="id">
                    <value>1673</value>
                </Data>
                <Data name="name">
                    <value>Bensul Pato</value>
                </Data>
                <Data name="taluka">
                    <value>Salcete</value>
                </Data>
                <Data name="syno">
                    <value>56</value>
                </Data>
                <Data name="subdiv">
                    <value>2</value>
                </Data>
                <Data name="village">
                    <value>Cuncolim</value>
                </Data>
                <Data name="latitude">
                    <value>15.18799</value>
                </Data>
                <Data name="longitude">
                    <value>73.99718</value>
                </Data>
                <Data name="photo_1">
                    <value>DCIM/20210819182713840.jpg</value>
                </Data>
                <Data name="photo_2">
                    <value>DCIM/20210819182722004.jpg</value>
                </Data>
                <Data name="constituency">
                    <value>34 - Cuncolim</value>
                </Data>
                <Data name="status">
                    <value>Completed</value>
                </Data>
                <Data name="panchayat">
                    <value>Cuncolim</value>
                </Data>
                <Data name="wb_type">
                    <value>Pond</value>
                </Data>
                <Data name="owner_type">
                    <value>Public</value>
                </Data>
                <Data name="purpose">
                    <value>Irrigation</value>
                </Data>
                <Data name="construction">
                    <value>Natural</value>
                </Data>
                <Data name="condition">
                    <value>Good</value>
                </Data>
                <Data name="print_order">
                    <value>085</value>
                </Data>
                <Data name="wb_id">
                    <value>Sc/Cunc/15</value>
                </Data>
                <Data name="storage_capacity">
                    <value>514.0</value>
                </Data>
                <Data name="wb_surface_id">
                    <value>893</value>
                </Data>
                <Data name="created_at">
                    <value>2020-02-28 15:24:34</value>
                </Data>
                <Data name="updated_at">
                    <value>2023-07-22 14:07:46.074167</value>
                </Data>
                <Data name="book_id">
                    <value>3</value>
                </Data>
                <Data name="owners">
                    <value>Court Receiver</value>
                </Data>
                <Data name="label_x">
                    <value>987639.0</value>
                </Data>
                <Data name="label_y">
                    <value>975779.730834663</value>
                </Data>
            </ExtendedData>
            <Point id="56508">
                <coordinates>73.997182184,15.187989034,0.0</coordinates>
            </Point>
        </Placemark>
        <Placemark id="56541">
            <ExtendedData>
                <Data name="direction">
                    <value>https://maps.google.com?q=15.2083,74.00283&amp;t=h</value>
                </Data>
                <Data name="id">
                    <value>1668</value>
                </Data>
                <Data name="name">
                    <value>Vanieta Grande</value>
                </Data>
                <Data name="taluka">
                    <value>Salcete</value>
                </Data>
                <Data name="syno">
                    <value>102</value>
                </Data>
                <Data name="subdiv">
                    <value>11</value>
                </Data>
                <Data name="village">
                    <value>Cuncolim</value>
                </Data>
                <Data name="latitude">
                    <value>15.2083</value>
                </Data>
                <Data name="longitude">
                    <value>74.00283</value>
                </Data>
                <Data name="photo_1">
                    <value>DCIM/20210824162523412.jpg</value>
                </Data>
                <Data name="photo_2">
                    <value>DCIM/20210824162532539.jpg</value>
                </Data>
                <Data name="constituency">
                    <value>34 - Cuncolim</value>
                </Data>
                <Data name="status">
                    <value>Completed</value>
                </Data>
                <Data name="panchayat">
                    <value>Cuncolim</value>
                </Data>
                <Data name="wb_type">
                    <value>Pond</value>
                </Data>
                <Data name="owner_type">
                    <value>Private</value>
                </Data>
                <Data name="purpose">
                    <value>Irrigation</value>
                </Data>
                <Data name="construction">
                    <value>Natural</value>
                </Data>
                <Data name="condition">
                    <value>Good</value>
                </Data>
                <Data name="print_order">
                    <value>079</value>
                </Data>
                <Data name="wb_id">
                    <value>Sc/Cunc/09</value>
                </Data>
                <Data name="storage_capacity">
                    <value>1582.0</value>
                </Data>
                <Data name="wb_surface_id">
                    <value>1368</value>
                </Data>
                <Data name="created_at">
                    <value>2020-02-28 15:24:34</value>
                </Data>
                <Data name="updated_at">
                    <value>2023-07-22 14:07:46.074167</value>
                </Data>
                <Data name="book_id">
                    <value>3</value>
                </Data>
                <Data name="owners">
                    <value>Clyde Pererira
Deucendente Gomes
Eunice Pererira
Gracy Gomes
Grinole Pereira
Olivia Gomes
Patrocina Gomes
Pedru Ruzario Gomes
Pompcia Gomes</value>
                </Data>
                <Data name="label_x">
                    <value>1008339.0</value>
                </Data>
                <Data name="label_y">
                    <value>980121.673307794</value>
                </Data>
            </ExtendedData>
            <Point id="56540">
                <coordinates>74.002827702,15.208298441,0.0</coordinates>
            </Point>
        </Placemark>
        <Placemark id="56573">
            <ExtendedData>
                <Data name="direction">
                    <value>https://maps.google.com?q=15.18212,74.0085&amp;t=h</value>
                </Data>
                <Data name="id">
                    <value>5803</value>
                </Data>
                <Data name="name">
                    <value>Nengya Moddi</value>
                </Data>
                <Data name="taluka">
                    <value>Salcete</value>
                </Data>
                <Data name="syno">
                    <value>239</value>
                </Data>
                <Data name="subdiv">
                    <value>1-2</value>
                </Data>
                <Data name="village">
                    <value>Cuncolim</value>
                </Data>
                <Data name="latitude">
                    <value>15.18212</value>
                </Data>
                <Data name="longitude">
                    <value>74.0085</value>
                </Data>
                <Data name="photo_1">
                    <value>DCIM/5803_1.jpg</value>
                </Data>
                <Data name="photo_2">
                    <value>DCIM/5803_2.jpg</value>
                </Data>
                <Data name="constituency">
                    <value>34 - Cuncolim</value>
                </Data>
                <Data name="status">
                    <value>Completed</value>
                </Data>
                <Data name="panchayat">
                    <value>Cuncolim</value>
                </Data>
                <Data name="wb_type">
                    <value>Pond</value>
                </Data>
                <Data name="owner_type">
                    <value>Private</value>
                </Data>
                <Data name="purpose">
                    <value>Storage</value>
                </Data>
                <Data name="construction">
                    <value>Natural</value>
                </Data>
                <Data name="condition">
                    <value>Needs Maintenance</value>
                </Data>
                <Data name="print_order">
                    <value>077</value>
                </Data>
                <Data name="wb_id">
                    <value>Sc/Cunc/05</value>
                </Data>
                <Data name="storage_capacity">
                    <value>3097.0</value>
                </Data>
                <Data name="wb_surface_id">
                    <value>5306</value>
                </Data>
                <Data name="created_at">
                    <value>2022-11-01 00:00:00</value>
                </Data>
                <Data name="updated_at">
                    <value>2023-07-22 14:07:46.074167</value>
                </Data>
                <Data name="book_id">
                    <value>3</value>
                </Data>
                <Data name="owners">
                    <value>Prakash Narshim Sinai Talaualikar
Vaikunth Krishna Sinai Talaulikar</value>
                </Data>
                <Data name="label_x">
                    <value>1008339.0</value>
                </Data>
                <Data name="label_y">
                    <value>974871.673307794</value>
                </Data>
            </ExtendedData>
            <Point id="56572">
                <coordinates>74.00849924,15.182115528,0.0</coordinates>
            </Point>
        </Placemark>
    </Document>
</kml>
