<?xml version="1.0" encoding="UTF-8"?>
<kml xmlns="http://www.opengis.net/kml/2.2" xmlns:gx="http://www.google.com/kml/ext/2.2">
    <Document id="56605">
        <Placemark id="56607">
            <ExtendedData>
                <Data name="direction">
                    <value>https://maps.google.com?q=15.29659,74.04201&amp;t=h</value>
                </Data>
                <Data name="id">
                    <value>1691</value>
                </Data>
                <Data name="name">
                    <value>Colamb Tollem; Kum Talem,Kum Talem.,Kuutolem</value>
                </Data>
                <Data name="taluka">
                    <value>Salcete</value>
                </Data>
                <Data name="syno">
                    <value>126</value>
                </Data>
                <Data name="subdiv">
                    <value>2-7</value>
                </Data>
                <Data name="village">
                    <value>Curtorim</value>
                </Data>
                <Data name="latitude">
                    <value>15.29659</value>
                </Data>
                <Data name="longitude">
                    <value>74.04201</value>
                </Data>
                <Data name="photo_1">
                    <value>DCIM/20210804165755397.jpg</value>
                </Data>
                <Data name="photo_2">
                    <value>DCIM/20210804165806154.jpg</value>
                </Data>
                <Data name="constituency">
                    <value>29 - Curtorim</value>
                </Data>
                <Data name="status">
                    <value>Completed</value>
                </Data>
                <Data name="panchayat">
                    <value>Curtorim</value>
                </Data>
                <Data name="wb_type">
                    <value>Lake</value>
                </Data>
                <Data name="owner_type">
                    <value>Communidade</value>
                </Data>
                <Data name="purpose">
                    <value>Irrigation</value>
                </Data>
                <Data name="construction">
                    <value>Natural</value>
                </Data>
                <Data name="condition">
                    <value>Needs Maintenance</value>
                </Data>
                <Data name="print_order">
                    <value>012</value>
                </Data>
                <Data name="wb_id">
                    <value>Sc/Curt/06</value>
                </Data>
                <Data name="storage_capacity">
                    <value>26596.0</value>
                </Data>
                <Data name="wb_surface_id">
                    <value>1344</value>
                </Data>
                <Data name="created_at">
                    <value>2020-02-28 15:24:34</value>
                </Data>
                <Data name="updated_at">
                    <value>2023-07-22 14:03:14.307690</value>
                </Data>
                <Data name="book_id">
                    <value>3</value>
                </Data>
                <Data name="owners">
                    <value>Commundiade
Communidade</value>
                </Data>
                <Data name="label_x">
                    <value>1008339.0</value>
                </Data>
                <Data name="label_y">
                    <value>994821.673307794</value>
                </Data>
            </ExtendedData>
            <Point id="56606">
                <coordinates>74.042008058,15.296585313,0.0</coordinates>
            </Point>
        </Placemark>
        <Placemark id="56639">
            <ExtendedData>
                <Data name="direction">
                    <value>https://maps.google.com?q=15.28165,74.03459&amp;t=h</value>
                </Data>
                <Data name="id">
                    <value>1703</value>
                </Data>
                <Data name="name">
                    <value>Agshau Vitabag</value>
                </Data>
                <Data name="taluka">
                    <value>Salcete</value>
                </Data>
                <Data name="syno">
                    <value>241</value>
                </Data>
                <Data name="subdiv">
                    <value>2</value>
                </Data>
                <Data name="village">
                    <value>Curtorim</value>
                </Data>
                <Data name="latitude">
                    <value>15.28165</value>
                </Data>
                <Data name="longitude">
                    <value>74.03459</value>
                </Data>
                <Data name="photo_1">
                    <value>DCIM/20210804172435038.jpg</value>
                </Data>
                <Data name="photo_2">
                    <value>DCIM/20210804172444730.jpg</value>
                </Data>
                <Data name="constituency">
                    <value>29 - Curtorim</value>
                </Data>
                <Data name="status">
                    <value>Completed</value>
                </Data>
                <Data name="panchayat">
                    <value>Curtorim</value>
                </Data>
                <Data name="wb_type">
                    <value>Pond</value>
                </Data>
                <Data name="owner_type">
                    <value>Private</value>
                </Data>
                <Data name="purpose">
                    <value>Irrigation</value>
                </Data>
                <Data name="construction">
                    <value>Natural/Man Made</value>
                </Data>
                <Data name="condition">
                    <value>Good</value>
                </Data>
                <Data name="print_order">
                    <value>090</value>
                </Data>
                <Data name="wb_id">
                    <value>Sc/Curt/12</value>
                </Data>
                <Data name="storage_capacity">
                    <value>289.0</value>
                </Data>
                <Data name="wb_surface_id">
                    <value>1347</value>
                </Data>
                <Data name="created_at">
                    <value>2020-02-28 15:24:34</value>
                </Data>
                <Data name="updated_at">
                    <value>2023-07-22 14:03:14.307690</value>
                </Data>
                <Data name="book_id">
                    <value>3</value>
                </Data>
                <Data name="owners">
                    <value>Francisco Xavier Peixote
Joaquim Castanha
Jose Paulo Sarto Menezes</value>
                </Data>
                <Data name="label_x">
                    <value>1008339.0</value>
                </Data>
                <Data name="label_y">
                    <value>993071.673307794</value>
                </Data>
            </ExtendedData>
            <Point id="56638">
                <coordinates>74.034591764,15.281652529,0.0</coordinates>
            </Point>
        </Placemark>
        <Placemark id="56671">
            <ExtendedData>
                <Data name="direction">
                    <value>https://maps.google.com?q=15.29412,74.03663&amp;t=h</value>
                </Data>
                <Data name="id">
                    <value>1690</value>
                </Data>
                <Data name="name">
                    <value>Maitollem / Communidade Lake; Cabicira Da Maitalem</value>
                </Data>
                <Data name="taluka">
                    <value>Salcete</value>
                </Data>
                <Data name="syno">
                    <value>133</value>
                </Data>
                <Data name="subdiv">
                    <value>3</value>
                </Data>
                <Data name="village">
                    <value>Curtorim</value>
                </Data>
                <Data name="latitude">
                    <value>15.29412</value>
                </Data>
                <Data name="longitude">
                    <value>74.03663</value>
                </Data>
                <Data name="photo_1">
                    <value>DCIM/20210804171016805.jpg</value>
                </Data>
                <Data name="photo_2">
                    <value>DCIM/20210804171035983.jpg</value>
                </Data>
                <Data name="constituency">
                    <value>29 - Curtorim</value>
                </Data>
                <Data name="status">
                    <value>Completed</value>
                </Data>
                <Data name="panchayat">
                    <value>Curtorim</value>
                </Data>
                <Data name="wb_type">
                    <value>Lake</value>
                </Data>
                <Data name="owner_type">
                    <value>Communidade</value>
                </Data>
                <Data name="purpose">
                    <value>Irrigation</value>
                </Data>
                <Data name="construction">
                    <value>Natural</value>
                </Data>
                <Data name="condition">
                    <value>Good</value>
                </Data>
                <Data name="print_order">
                    <value>009</value>
                </Data>
                <Data name="wb_id">
                    <value>Sc/Curt/02</value>
                </Data>
                <Data name="storage_capacity">
                    <value>326173.0</value>
                </Data>
                <Data name="wb_surface_id">
                    <value>1342</value>
                </Data>
                <Data name="created_at">
                    <value>2020-02-28 15:24:34</value>
                </Data>
                <Data name="updated_at">
                    <value>2023-07-22 14:03:14.307690</value>
                </Data>
                <Data name="book_id">
                    <value>3</value>
                </Data>
                <Data name="owners">
                    <value>Communidade</value>
                </Data>
                <Data name="label_x">
                    <value>1008339.0</value>
                </Data>
                <Data name="label_y">
                    <value>995521.673307794</value>
                </Data>
            </ExtendedData>
            <Point id="56670">
                <coordinates>74.036627102,15.294118017,0.0</coordinates>
            </Point>
        </Placemark>
        <Placemark id="56703">
            <ExtendedData>
                <Data name="direction">
                    <value>https://maps.google.com?q=15.28631,74.03526&amp;t=h</value>
                </Data>
                <Data name="id">
                    <value>4716</value>
                </Data>
                <Data name="name">
                    <value>Gud Tollem; Guttolem, Guttolem Bando</value>
                </Data>
                <Data name="taluka">
                    <value>Salcete</value>
                </Data>
                <Data name="syno">
                    <value>177</value>
                </Data>
                <Data name="subdiv">
                    <value>10-42</value>
                </Data>
                <Data name="village">
                    <value>Curtorim</value>
                </Data>
                <Data name="latitude">
                    <value>15.28631</value>
                </Data>
                <Data name="longitude">
                    <value>74.03526</value>
                </Data>
                <Data name="photo_1">
                    <value>DCIM/20220620165505012.jpg</value>
                </Data>
                <Data name="photo_2">
                    <value>DCIM/20220620165527136.jpg</value>
                </Data>
                <Data name="constituency">
                    <value>29 - Curtorim</value>
                </Data>
                <Data name="status">
                    <value>Completed</value>
                </Data>
                <Data name="panchayat">
                    <value>Curtorim</value>
                </Data>
                <Data name="wb_type">
                    <value>Tank</value>
                </Data>
                <Data name="owner_type">
                    <value>Private</value>
                </Data>
                <Data name="purpose">
                    <value>Irrigation</value>
                </Data>
                <Data name="construction">
                    <value>Natural/Man Made</value>
                </Data>
                <Data name="condition">
                    <value>Needs Maintenance</value>
                </Data>
                <Data name="print_order">
                    <value>152</value>
                </Data>
                <Data name="wb_id">
                    <value>Sc/Curt/05</value>
                </Data>
                <Data name="storage_capacity">
                    <value>27571.0</value>
                </Data>
                <Data name="wb_surface_id">
                    <value>3825</value>
                </Data>
                <Data name="created_at">
                    <value>2022-04-12 00:00:00</value>
                </Data>
                <Data name="updated_at">
                    <value>2023-07-22 14:03:14.307690</value>
                </Data>
                <Data name="book_id">
                    <value>3</value>
                </Data>
                <Data name="owners">
                    <value>Andre Manuel D'Costa
Mari Costa
Quiteria Vaz
Francisco Barracho
Lodovico Costa
Wonedulfo Manuel Da Cunha e Costa
Maria do Carmo Patricia Da Costa
Joaquim Filomena do Costa
Armano D'Costa
Drobny Joseph Fernandes
Walter Anthony Manuel Faleiro74058
Maria Raveela Aurelia Luis
Anton Paes
Rubertina D'Costa e Fernandes
Claudina Menezes e Fernandes
Olga Viegas</value>
                </Data>
                <Data name="label_x">
                    <value>1008339.0</value>
                </Data>
                <Data name="label_y">
                    <value>994121.673307794</value>
                </Data>
            </ExtendedData>
            <Point id="56702">
                <coordinates>74.035256291,15.286312445,0.0</coordinates>
            </Point>
        </Placemark>
        <Placemark id="56735">
            <ExtendedData>
                <Data name="direction">
                    <value>https://maps.google.com?q=15.28935,74.01931&amp;t=h</value>
                </Data>
                <Data name="id">
                    <value>1700</value>
                </Data>
                <Data name="name">
                    <value>Angdi Tollem; Tale</value>
                </Data>
                <Data name="taluka">
                    <value>Salcete</value>
                </Data>
                <Data name="syno">
                    <value>586</value>
                </Data>
                <Data name="subdiv">
                    <value>1-26</value>
                </Data>
                <Data name="village">
                    <value>Curtorim</value>
                </Data>
                <Data name="latitude">
                    <value>15.28935</value>
                </Data>
                <Data name="longitude">
                    <value>74.01931</value>
                </Data>
                <Data name="photo_1">
                    <value>DCIM/20210804175812314.jpg</value>
                </Data>
                <Data name="photo_2">
                    <value>DCIM/20210804175823366.jpg</value>
                </Data>
                <Data name="constituency">
                    <value>29 - Curtorim</value>
                </Data>
                <Data name="status">
                    <value>Completed</value>
                </Data>
                <Data name="panchayat">
                    <value>Curtorim</value>
                </Data>
                <Data name="wb_type">
                    <value>Lake</value>
                </Data>
                <Data name="owner_type">
                    <value>Communidade</value>
                </Data>
                <Data name="purpose">
                    <value>Irrigation</value>
                </Data>
                <Data name="construction">
                    <value>Natural</value>
                </Data>
                <Data name="condition">
                    <value>Good</value>
                </Data>
                <Data name="print_order">
                    <value>010</value>
                </Data>
                <Data name="wb_id">
                    <value>Sc/Curt/03</value>
                </Data>
                <Data name="storage_capacity">
                    <value>310070.0</value>
                </Data>
                <Data name="wb_surface_id">
                    <value>1338</value>
                </Data>
                <Data name="created_at">
                    <value>2020-02-28 15:24:34</value>
                </Data>
                <Data name="updated_at">
                    <value>2024-12-18 17:10:20.165161</value>
                </Data>
                <Data name="book_id">
                    <value>3</value>
                </Data>
                <Data name="owners">
                    <value>Communidade</value>
                </Data>
                <Data name="label_x">
                    <value>1008339.0</value>
                </Data>
                <Data name="label_y">
                    <value>996571.673307794</value>
                </Data>
            </ExtendedData>
            <Point id="56734">
                <coordinates>74.0187658,15.289458429,0.0</coordinates>
            </Point>
        </Placemark>
        <Placemark id="56767">
            <ExtendedData>
                <Data name="direction">
                    <value>https://maps.google.com?q=15.2978,74.0053&amp;t=h</value>
                </Data>
                <Data name="id">
                    <value>1696</value>
                </Data>
                <Data name="name">
                    <value>Sonbem Tollem; Tolem</value>
                </Data>
                <Data name="taluka">
                    <value>Salcete</value>
                </Data>
                <Data name="syno">
                    <value>504</value>
                </Data>
                <Data name="subdiv">
                    <value>5</value>
                </Data>
                <Data name="village">
                    <value>Curtorim</value>
                </Data>
                <Data name="latitude">
                    <value>15.2978</value>
                </Data>
                <Data name="longitude">
                    <value>74.0053</value>
                </Data>
                <Data name="photo_1">
                    <value>DCIM/20210804182903848.jpg</value>
                </Data>
                <Data name="photo_2">
                    <value>DCIM/20210804182913187.jpg</value>
                </Data>
                <Data name="constituency">
                    <value>29 - Curtorim</value>
                </Data>
                <Data name="status">
                    <value>Completed</value>
                </Data>
                <Data name="panchayat">
                    <value>Curtorim</value>
                </Data>
                <Data name="wb_type">
                    <value>Lake</value>
                </Data>
                <Data name="owner_type">
                    <value>Communidade</value>
                </Data>
                <Data name="purpose">
                    <value>Irrigation</value>
                </Data>
                <Data name="construction">
                    <value>Natural</value>
                </Data>
                <Data name="condition">
                    <value>Needs Maintenance</value>
                </Data>
                <Data name="print_order">
                    <value>011</value>
                </Data>
                <Data name="wb_id">
                    <value>Sc/Curt/04</value>
                </Data>
                <Data name="storage_capacity">
                    <value>261962.0</value>
                </Data>
                <Data name="wb_surface_id">
                    <value>1334</value>
                </Data>
                <Data name="created_at">
                    <value>2020-02-28 15:24:34</value>
                </Data>
                <Data name="updated_at">
                    <value>2023-07-22 14:03:14.307690</value>
                </Data>
                <Data name="book_id">
                    <value>3</value>
                </Data>
                <Data name="owners">
                    <value>Communidade</value>
                </Data>
                <Data name="label_x">
                    <value>1008339.0</value>
                </Data>
                <Data name="label_y">
                    <value>998671.673307794</value>
                </Data>
            </ExtendedData>
            <Point id="56766">
                <coordinates>74.005301832,15.297803103,0.0</coordinates>
            </Point>
        </Placemark>
        <Placemark id="56799">
            <ExtendedData>
                <Data name="direction">
                    <value>https://maps.google.com?q=15.29456,74.00424&amp;t=h</value>
                </Data>
                <Data name="id">
                    <value>2475</value>
                </Data>
                <Data name="name">
                    <value>Baida,Jin Wado</value>
                </Data>
                <Data name="taluka">
                    <value>Salcete</value>
                </Data>
                <Data name="syno">
                    <value>495</value>
                </Data>
                <Data name="subdiv">
                    <value>7-9</value>
                </Data>
                <Data name="village">
                    <value>Curtorim</value>
                </Data>
                <Data name="latitude">
                    <value>15.29456</value>
                </Data>
                <Data name="longitude">
                    <value>74.00424</value>
                </Data>
                <Data name="photo_1">
                    <value>DCIM/20220106180336572.jpg</value>
                </Data>
                <Data name="photo_2">
                    <value>DCIM/20220106180348033.jpg</value>
                </Data>
                <Data name="constituency">
                    <value>29 - Curtorim</value>
                </Data>
                <Data name="status">
                    <value>Completed</value>
                </Data>
                <Data name="panchayat">
                    <value>Curtorim</value>
                </Data>
                <Data name="wb_type">
                    <value>Tank</value>
                </Data>
                <Data name="owner_type">
                    <value>Private</value>
                </Data>
                <Data name="purpose">
                    <value>Irrigation</value>
                </Data>
                <Data name="construction">
                    <value>Man Made</value>
                </Data>
                <Data name="condition">
                    <value>Needs Maintenance</value>
                </Data>
                <Data name="print_order">
                    <value>154</value>
                </Data>
                <Data name="wb_id">
                    <value>Sc/Curt/08</value>
                </Data>
                <Data name="storage_capacity">
                    <value>5806.0</value>
                </Data>
                <Data name="wb_surface_id">
                    <value>1337</value>
                </Data>
                <Data name="created_at">
                    <value>2020-02-28 15:24:34</value>
                </Data>
                <Data name="updated_at">
                    <value>2023-07-22 14:03:14.307690</value>
                </Data>
                <Data name="book_id">
                    <value>3</value>
                </Data>
                <Data name="owners">
                    <value>Filomena Cabral e Pereira alias Filomena Pereira
Manuel do Veigas Coutinho
Onofre Gomes Pereira
Prakash Gomes Pereira
Sanjiv Jose Da Costa
Savia Gomes Pereira
Sunil Jesus Da Costa
Venancio Pereira</value>
                </Data>
                <Data name="label_x">
                    <value>1008339.0</value>
                </Data>
                <Data name="label_y">
                    <value>998321.673307794</value>
                </Data>
            </ExtendedData>
            <Point id="56798">
                <coordinates>74.004236962,15.294562195,0.0</coordinates>
            </Point>
        </Placemark>
        <Placemark id="56831">
            <ExtendedData>
                <Data name="direction">
                    <value>https://maps.google.com?q=15.27829,74.01977&amp;t=h</value>
                </Data>
                <Data name="id">
                    <value>5073</value>
                </Data>
                <Data name="name">
                    <value>Motoy</value>
                </Data>
                <Data name="taluka">
                    <value>Salcete</value>
                </Data>
                <Data name="syno">
                    <value>261</value>
                </Data>
                <Data name="subdiv">
                    <value>6,6-A</value>
                </Data>
                <Data name="village">
                    <value>Curtorim</value>
                </Data>
                <Data name="latitude">
                    <value>15.27829</value>
                </Data>
                <Data name="longitude">
                    <value>74.01977</value>
                </Data>
                <Data name="photo_1">
                    <value>DCIM/5073_1.jpg</value>
                </Data>
                <Data name="photo_2">
                    <value>DCIM/5073_2.jpg</value>
                </Data>
                <Data name="constituency">
                    <value>29 - Curtorim</value>
                </Data>
                <Data name="status">
                    <value>Completed</value>
                </Data>
                <Data name="panchayat">
                    <value>Curtorim</value>
                </Data>
                <Data name="wb_type">
                    <value>Pond</value>
                </Data>
                <Data name="owner_type">
                    <value>Private</value>
                </Data>
                <Data name="purpose">
                    <value>Storage</value>
                </Data>
                <Data name="construction">
                    <value>Natural</value>
                </Data>
                <Data name="condition">
                    <value>Needs Maintenance</value>
                </Data>
                <Data name="print_order">
                    <value>091</value>
                </Data>
                <Data name="wb_id">
                    <value>Sc/Curt/13</value>
                </Data>
                <Data name="storage_capacity">
                    <value>191.0</value>
                </Data>
                <Data name="wb_surface_id">
                    <value>5310</value>
                </Data>
                <Data name="created_at">
                    <value>2022-06-20 00:00:00</value>
                </Data>
                <Data name="updated_at">
                    <value>2023-07-22 14:03:14.307690</value>
                </Data>
                <Data name="book_id">
                    <value>3</value>
                </Data>
                <Data name="owners">
                    <value>Rosario Peresda Costa
Goa Particular Council (South) Society O f St. Vincent De Paul
Luiza Lydia D`Mello</value>
                </Data>
                <Data name="label_x">
                    <value>1008339.0</value>
                </Data>
                <Data name="label_y">
                    <value>995171.673307794</value>
                </Data>
            </ExtendedData>
            <Point id="56830">
                <coordinates>74.019766328,15.27829318,0.0</coordinates>
            </Point>
        </Placemark>
        <Placemark id="56863">
            <ExtendedData>
                <Data name="direction">
                    <value>https://maps.google.com?q=15.28126,74.02042&amp;t=h</value>
                </Data>
                <Data name="id">
                    <value>5074</value>
                </Data>
                <Data name="name">
                    <value>Pervon</value>
                </Data>
                <Data name="taluka">
                    <value>Salcete</value>
                </Data>
                <Data name="syno">
                    <value>260</value>
                </Data>
                <Data name="subdiv">
                    <value>2,4-7</value>
                </Data>
                <Data name="village">
                    <value>Curtorim</value>
                </Data>
                <Data name="latitude">
                    <value>15.28126</value>
                </Data>
                <Data name="longitude">
                    <value>74.02042</value>
                </Data>
                <Data name="photo_1">
                    <value>DCIM/20220620162249543.jpg</value>
                </Data>
                <Data name="photo_2">
                    <value>DCIM/20220620162309688.jpg</value>
                </Data>
                <Data name="constituency">
                    <value>29 - Curtorim</value>
                </Data>
                <Data name="status">
                    <value>Completed</value>
                </Data>
                <Data name="panchayat">
                    <value>Curtorim</value>
                </Data>
                <Data name="wb_type">
                    <value>Tank</value>
                </Data>
                <Data name="owner_type">
                    <value>Private</value>
                </Data>
                <Data name="purpose">
                    <value>Irrigation</value>
                </Data>
                <Data name="construction">
                    <value>Natural</value>
                </Data>
                <Data name="condition">
                    <value>Needs Maintenance</value>
                </Data>
                <Data name="print_order">
                    <value>153</value>
                </Data>
                <Data name="wb_id">
                    <value>Sc/Curt/07</value>
                </Data>
                <Data name="storage_capacity">
                    <value>11608.0</value>
                </Data>
                <Data name="wb_surface_id">
                    <value>5311</value>
                </Data>
                <Data name="created_at">
                    <value>2022-06-20 00:00:00</value>
                </Data>
                <Data name="updated_at">
                    <value>2023-07-22 14:03:14.307690</value>
                </Data>
                <Data name="book_id">
                    <value>3</value>
                </Data>
                <Data name="owners">
                    <value>Luis Ambrosio Dias
Maria Fernandes e Dias
Maria Lira Zelia Barros Pereira E. Rodrigues
Fernanda Maria Antonieta Fernandes e Melo alias Fernanda Melo Lourenco
Vielrimo D'Costa
Manuel Salvodor Menezes
Maria Menenzes</value>
                </Data>
                <Data name="label_x">
                    <value>1008339.0</value>
                </Data>
                <Data name="label_y">
                    <value>995871.673307794</value>
                </Data>
            </ExtendedData>
            <Point id="56862">
                <coordinates>74.020423134,15.281255376,0.0</coordinates>
            </Point>
        </Placemark>
        <Placemark id="56895">
            <ExtendedData>
                <Data name="direction">
                    <value>https://maps.google.com?q=15.29481,74.00075&amp;t=h</value>
                </Data>
                <Data name="id">
                    <value>1697</value>
                </Data>
                <Data name="name">
                    <value>Sim Bhat</value>
                </Data>
                <Data name="taluka">
                    <value>Salcete</value>
                </Data>
                <Data name="syno">
                    <value>499</value>
                </Data>
                <Data name="subdiv">
                    <value>7</value>
                </Data>
                <Data name="village">
                    <value>Curtorim</value>
                </Data>
                <Data name="latitude">
                    <value>15.29481</value>
                </Data>
                <Data name="longitude">
                    <value>74.00075</value>
                </Data>
                <Data name="photo_1">
                    <value>DCIM/20211206115116828.jpg</value>
                </Data>
                <Data name="photo_2">
                    <value>DCIM/20211206115130343.jpg</value>
                </Data>
                <Data name="constituency">
                    <value>29 - Curtorim</value>
                </Data>
                <Data name="status">
                    <value>Completed</value>
                </Data>
                <Data name="panchayat">
                    <value>Curtorim</value>
                </Data>
                <Data name="wb_type">
                    <value>Pond</value>
                </Data>
                <Data name="owner_type">
                    <value>Communidade</value>
                </Data>
                <Data name="purpose">
                    <value>Irrigation</value>
                </Data>
                <Data name="construction">
                    <value>Man Made</value>
                </Data>
                <Data name="condition">
                    <value>Needs Maintenance</value>
                </Data>
                <Data name="print_order">
                    <value>089</value>
                </Data>
                <Data name="wb_id">
                    <value>Sc/Curt/10</value>
                </Data>
                <Data name="storage_capacity">
                    <value>483.0</value>
                </Data>
                <Data name="wb_surface_id">
                    <value>1335</value>
                </Data>
                <Data name="created_at">
                    <value>2020-02-28 15:24:34</value>
                </Data>
                <Data name="updated_at">
                    <value>2023-07-22 14:03:14.307690</value>
                </Data>
                <Data name="book_id">
                    <value>3</value>
                </Data>
                <Data name="owners">
                    <value>Communidade</value>
                </Data>
                <Data name="label_x">
                    <value>1008339.0</value>
                </Data>
                <Data name="label_y">
                    <value>999021.673307794</value>
                </Data>
            </ExtendedData>
            <Point id="56894">
                <coordinates>74.000747169,15.294810586,0.0</coordinates>
            </Point>
        </Placemark>
        <Placemark id="56927">
            <ExtendedData>
                <Data name="direction">
                    <value>https://maps.google.com?q=15.27105,74.01823&amp;t=h</value>
                </Data>
                <Data name="id">
                    <value>1698</value>
                </Data>
                <Data name="name">
                    <value>Raitollem; Raloi Tolem</value>
                </Data>
                <Data name="taluka">
                    <value>Salcete</value>
                </Data>
                <Data name="syno">
                    <value>304</value>
                </Data>
                <Data name="subdiv">
                    <value>2</value>
                </Data>
                <Data name="village">
                    <value>Curtorim</value>
                </Data>
                <Data name="latitude">
                    <value>15.27105</value>
                </Data>
                <Data name="longitude">
                    <value>74.01823</value>
                </Data>
                <Data name="photo_1">
                    <value>DCIM/20210804152444580.jpg</value>
                </Data>
                <Data name="photo_2">
                    <value>DCIM/20210804152504837.jpg</value>
                </Data>
                <Data name="constituency">
                    <value>29 - Curtorim</value>
                </Data>
                <Data name="status">
                    <value>Completed</value>
                </Data>
                <Data name="panchayat">
                    <value>Curtorim</value>
                </Data>
                <Data name="wb_type">
                    <value>Lake</value>
                </Data>
                <Data name="owner_type">
                    <value>Communidade</value>
                </Data>
                <Data name="purpose">
                    <value>Irrigation</value>
                </Data>
                <Data name="construction">
                    <value>Natural/Man Made</value>
                </Data>
                <Data name="condition">
                    <value>Good</value>
                </Data>
                <Data name="print_order">
                    <value>008</value>
                </Data>
                <Data name="wb_id">
                    <value>Sc/Curt/01</value>
                </Data>
                <Data name="storage_capacity">
                    <value>409390.0</value>
                </Data>
                <Data name="wb_surface_id">
                    <value>1350</value>
                </Data>
                <Data name="created_at">
                    <value>2020-02-28 15:24:34</value>
                </Data>
                <Data name="updated_at">
                    <value>2023-07-22 14:03:14.307690</value>
                </Data>
                <Data name="book_id">
                    <value>3</value>
                </Data>
                <Data name="owners">
                    <value>Communidade</value>
                </Data>
                <Data name="label_x">
                    <value>1008339.0</value>
                </Data>
                <Data name="label_y">
                    <value>993421.673307794</value>
                </Data>
            </ExtendedData>
            <Point id="56926">
                <coordinates>74.01822801,15.271049267,0.0</coordinates>
            </Point>
        </Placemark>
        <Placemark id="56959">
            <ExtendedData>
                <Data name="direction">
                    <value>https://maps.google.com?q=15.28302,74.03123&amp;t=h</value>
                </Data>
                <Data name="id">
                    <value>1702</value>
                </Data>
                <Data name="name">
                    <value>Beatnillem</value>
                </Data>
                <Data name="taluka">
                    <value>Salcete</value>
                </Data>
                <Data name="syno">
                    <value>186</value>
                </Data>
                <Data name="subdiv">
                    <value>9</value>
                </Data>
                <Data name="village">
                    <value>Curtorim</value>
                </Data>
                <Data name="latitude">
                    <value>15.28302</value>
                </Data>
                <Data name="longitude">
                    <value>74.03123</value>
                </Data>
                <Data name="photo_1">
                    <value>DCIM/20210804173141313.jpg</value>
                </Data>
                <Data name="photo_2">
                    <value>DCIM/20210804173151940.jpg</value>
                </Data>
                <Data name="constituency">
                    <value>29 - Curtorim</value>
                </Data>
                <Data name="status">
                    <value>Completed</value>
                </Data>
                <Data name="panchayat">
                    <value>Curtorim</value>
                </Data>
                <Data name="wb_type">
                    <value>Pond</value>
                </Data>
                <Data name="owner_type">
                    <value>Private</value>
                </Data>
                <Data name="purpose">
                    <value>Storage</value>
                </Data>
                <Data name="construction">
                    <value>Natural</value>
                </Data>
                <Data name="condition">
                    <value>Good</value>
                </Data>
                <Data name="print_order">
                    <value>088</value>
                </Data>
                <Data name="wb_id">
                    <value>Sc/Curt/09</value>
                </Data>
                <Data name="storage_capacity">
                    <value>1040.0</value>
                </Data>
                <Data name="wb_surface_id">
                    <value>1346</value>
                </Data>
                <Data name="created_at">
                    <value>2020-02-28 15:24:34</value>
                </Data>
                <Data name="updated_at">
                    <value>2023-07-22 14:03:14.307690</value>
                </Data>
                <Data name="book_id">
                    <value>3</value>
                </Data>
                <Data name="owners">
                    <value>Caetano Francisco Vaz</value>
                </Data>
                <Data name="label_x">
                    <value>1008339.0</value>
                </Data>
                <Data name="label_y">
                    <value>993771.673307794</value>
                </Data>
            </ExtendedData>
            <Point id="56958">
                <coordinates>74.031233919,15.28302372,0.0</coordinates>
            </Point>
        </Placemark>
    </Document>
</kml>
