<?xml version="1.0" encoding="UTF-8"?>
<kml xmlns="http://www.opengis.net/kml/2.2" xmlns:gx="http://www.google.com/kml/ext/2.2">
    <Document id="57057">
        <Placemark id="57059">
            <ExtendedData>
                <Data name="direction">
                    <value>https://maps.google.com?q=15.20388,73.97193&amp;t=h</value>
                </Data>
                <Data name="id">
                    <value>1707</value>
                </Data>
                <Data name="name">
                    <value>Maynandi Batoli</value>
                </Data>
                <Data name="taluka">
                    <value>Salcete</value>
                </Data>
                <Data name="syno">
                    <value>60</value>
                </Data>
                <Data name="subdiv">
                    <value>4</value>
                </Data>
                <Data name="village">
                    <value>Deussua</value>
                </Data>
                <Data name="latitude">
                    <value>15.20388</value>
                </Data>
                <Data name="longitude">
                    <value>73.97193</value>
                </Data>
                <Data name="photo_1">
                    <value>DCIM/20210818164931485.jpg</value>
                </Data>
                <Data name="photo_2">
                    <value>DCIM/20210818164938706.jpg</value>
                </Data>
                <Data name="constituency">
                    <value>35 - Velim</value>
                </Data>
                <Data name="status">
                    <value>Completed</value>
                </Data>
                <Data name="panchayat">
                    <value>Chinchinim-Deussua</value>
                </Data>
                <Data name="wb_type">
                    <value>Pond</value>
                </Data>
                <Data name="owner_type">
                    <value>Communidade</value>
                </Data>
                <Data name="purpose">
                    <value>Irrigation</value>
                </Data>
                <Data name="construction">
                    <value>Natural</value>
                </Data>
                <Data name="condition">
                    <value>Good</value>
                </Data>
                <Data name="print_order">
                    <value>100</value>
                </Data>
                <Data name="wb_id">
                    <value>Sc/Deus/10</value>
                </Data>
                <Data name="storage_capacity">
                    <value>195.0</value>
                </Data>
                <Data name="wb_surface_id">
                    <value>1476</value>
                </Data>
                <Data name="created_at">
                    <value>2020-02-28 15:24:34</value>
                </Data>
                <Data name="updated_at">
                    <value>2023-07-22 14:03:14.307690</value>
                </Data>
                <Data name="book_id">
                    <value>3</value>
                </Data>
                <Data name="owners">
                    <value>Communidade of Deussua</value>
                </Data>
                <Data name="label_x">
                    <value>987639.0</value>
                </Data>
                <Data name="label_y">
                    <value>981729.730834663</value>
                </Data>
            </ExtendedData>
            <Point id="57058">
                <coordinates>73.971925918,15.203875615,0.0</coordinates>
            </Point>
        </Placemark>
        <Placemark id="57091">
            <ExtendedData>
                <Data name="direction">
                    <value>https://maps.google.com?q=15.20435,73.97135&amp;t=h</value>
                </Data>
                <Data name="id">
                    <value>1706</value>
                </Data>
                <Data name="name">
                    <value>Maynandi Batoli</value>
                </Data>
                <Data name="taluka">
                    <value>Salcete</value>
                </Data>
                <Data name="syno">
                    <value>60</value>
                </Data>
                <Data name="subdiv">
                    <value>3</value>
                </Data>
                <Data name="village">
                    <value>Deussua</value>
                </Data>
                <Data name="latitude">
                    <value>15.20435</value>
                </Data>
                <Data name="longitude">
                    <value>73.97135</value>
                </Data>
                <Data name="photo_1">
                    <value>DCIM/20210818164520288.jpg</value>
                </Data>
                <Data name="photo_2">
                    <value>DCIM/20210818164528653.jpg</value>
                </Data>
                <Data name="constituency">
                    <value>35 - Velim</value>
                </Data>
                <Data name="status">
                    <value>Completed</value>
                </Data>
                <Data name="panchayat">
                    <value>Chinchinim-Deussua</value>
                </Data>
                <Data name="wb_type">
                    <value>Pond</value>
                </Data>
                <Data name="owner_type">
                    <value>Communidade</value>
                </Data>
                <Data name="purpose">
                    <value>Irrigation</value>
                </Data>
                <Data name="construction">
                    <value>Natural</value>
                </Data>
                <Data name="condition">
                    <value>Needs Maintenance</value>
                </Data>
                <Data name="print_order">
                    <value>099</value>
                </Data>
                <Data name="wb_id">
                    <value>Sc/Deus/09</value>
                </Data>
                <Data name="storage_capacity">
                    <value>305.0</value>
                </Data>
                <Data name="wb_surface_id">
                    <value>1475</value>
                </Data>
                <Data name="created_at">
                    <value>2020-02-28 15:24:34</value>
                </Data>
                <Data name="updated_at">
                    <value>2023-07-22 14:03:14.307690</value>
                </Data>
                <Data name="book_id">
                    <value>3</value>
                </Data>
                <Data name="owners">
                    <value>Communidade of Deussua</value>
                </Data>
                <Data name="label_x">
                    <value>987639.0</value>
                </Data>
                <Data name="label_y">
                    <value>982079.730834663</value>
                </Data>
            </ExtendedData>
            <Point id="57090">
                <coordinates>73.971346074,15.204351341,0.0</coordinates>
            </Point>
        </Placemark>
        <Placemark id="57123">
            <ExtendedData>
                <Data name="direction">
                    <value>https://maps.google.com?q=15.21205,73.9673&amp;t=h</value>
                </Data>
                <Data name="id">
                    <value>3834</value>
                </Data>
                <Data name="name">
                    <value>Gudho</value>
                </Data>
                <Data name="taluka">
                    <value>Salcete</value>
                </Data>
                <Data name="syno">
                    <value>27</value>
                </Data>
                <Data name="subdiv">
                    <value>1</value>
                </Data>
                <Data name="village">
                    <value>Deussua</value>
                </Data>
                <Data name="latitude">
                    <value>15.21205</value>
                </Data>
                <Data name="longitude">
                    <value>73.9673</value>
                </Data>
                <Data name="photo_1">
                    <value>DCIM/20210825123549876.jpg</value>
                </Data>
                <Data name="photo_2">
                    <value>DCIM/20210825123559750.jpg</value>
                </Data>
                <Data name="constituency">
                    <value>35 - Velim</value>
                </Data>
                <Data name="status">
                    <value>Completed</value>
                </Data>
                <Data name="panchayat">
                    <value>Chinchinim-Deussua</value>
                </Data>
                <Data name="wb_type">
                    <value>Pond</value>
                </Data>
                <Data name="owner_type">
                    <value>Communidade</value>
                </Data>
                <Data name="purpose">
                    <value>Irrigation</value>
                </Data>
                <Data name="construction">
                    <value>Natural</value>
                </Data>
                <Data name="condition">
                    <value>Good</value>
                </Data>
                <Data name="print_order">
                    <value>095</value>
                </Data>
                <Data name="wb_id">
                    <value>Sc/Deus/05</value>
                </Data>
                <Data name="storage_capacity">
                    <value>1598.0</value>
                </Data>
                <Data name="wb_surface_id">
                    <value>2549</value>
                </Data>
                <Data name="created_at">
                    <value>2021-08-25 00:00:00</value>
                </Data>
                <Data name="updated_at">
                    <value>2023-07-22 14:03:14.307690</value>
                </Data>
                <Data name="book_id">
                    <value>3</value>
                </Data>
                <Data name="owners">
                    <value>Communidade of Deussua</value>
                </Data>
                <Data name="label_x">
                    <value>987639.0</value>
                </Data>
                <Data name="label_y">
                    <value>984879.730834663</value>
                </Data>
            </ExtendedData>
            <Point id="57122">
                <coordinates>73.967303796,15.21205151,0.0</coordinates>
            </Point>
        </Placemark>
        <Placemark id="57155">
            <ExtendedData>
                <Data name="direction">
                    <value>https://maps.google.com?q=15.217,73.96812&amp;t=h</value>
                </Data>
                <Data name="id">
                    <value>1711</value>
                </Data>
                <Data name="name">
                    <value>Deussa Lake; Nomas Talem</value>
                </Data>
                <Data name="taluka">
                    <value>Salcete</value>
                </Data>
                <Data name="syno">
                    <value>17</value>
                </Data>
                <Data name="subdiv">
                    <value>1</value>
                </Data>
                <Data name="village">
                    <value>Deussua</value>
                </Data>
                <Data name="latitude">
                    <value>15.217</value>
                </Data>
                <Data name="longitude">
                    <value>73.96812</value>
                </Data>
                <Data name="photo_1">
                    <value>DCIM/20210825175034893.jpg</value>
                </Data>
                <Data name="photo_2">
                    <value>DCIM/20210825174639872.jpg</value>
                </Data>
                <Data name="constituency">
                    <value>35 - Velim</value>
                </Data>
                <Data name="status">
                    <value>Completed</value>
                </Data>
                <Data name="panchayat">
                    <value>Chinchinim-Deussua</value>
                </Data>
                <Data name="wb_type">
                    <value>Lake</value>
                </Data>
                <Data name="owner_type">
                    <value>Public</value>
                </Data>
                <Data name="purpose">
                    <value>Storage</value>
                </Data>
                <Data name="construction">
                    <value>Man Made</value>
                </Data>
                <Data name="condition">
                    <value>Needs Maintenance</value>
                </Data>
                <Data name="print_order">
                    <value>013</value>
                </Data>
                <Data name="wb_id">
                    <value>Sc/Deus/01</value>
                </Data>
                <Data name="storage_capacity">
                    <value>26849.0</value>
                </Data>
                <Data name="wb_surface_id">
                    <value>1497</value>
                </Data>
                <Data name="created_at">
                    <value>2020-02-28 15:24:34</value>
                </Data>
                <Data name="updated_at">
                    <value>2023-07-22 14:03:14.307690</value>
                </Data>
                <Data name="book_id">
                    <value>3</value>
                </Data>
                <Data name="owners">
                    <value>Communidade of Deussua</value>
                </Data>
                <Data name="label_x">
                    <value>987639.0</value>
                </Data>
                <Data name="label_y">
                    <value>987679.730834663</value>
                </Data>
            </ExtendedData>
            <Point id="57154">
                <coordinates>73.96811762,15.217001628,0.0</coordinates>
            </Point>
        </Placemark>
        <Placemark id="57187">
            <ExtendedData>
                <Data name="direction">
                    <value>https://maps.google.com?q=15.21345,73.96702&amp;t=h</value>
                </Data>
                <Data name="id">
                    <value>1713</value>
                </Data>
                <Data name="name">
                    <value>Sipiancho Uddo</value>
                </Data>
                <Data name="taluka">
                    <value>Salcete</value>
                </Data>
                <Data name="syno">
                    <value>26</value>
                </Data>
                <Data name="subdiv">
                    <value>4</value>
                </Data>
                <Data name="village">
                    <value>Deussua</value>
                </Data>
                <Data name="latitude">
                    <value>15.21345</value>
                </Data>
                <Data name="longitude">
                    <value>73.96702</value>
                </Data>
                <Data name="photo_1">
                    <value>DCIM/20211221111726889.jpg</value>
                </Data>
                <Data name="photo_2">
                    <value>DCIM/20211221111738799.jpg</value>
                </Data>
                <Data name="constituency">
                    <value>35 - Velim</value>
                </Data>
                <Data name="status">
                    <value>Completed</value>
                </Data>
                <Data name="panchayat">
                    <value>Chinchinim-Deussua</value>
                </Data>
                <Data name="wb_type">
                    <value>Pond</value>
                </Data>
                <Data name="owner_type">
                    <value>Private</value>
                </Data>
                <Data name="purpose">
                    <value>Storage</value>
                </Data>
                <Data name="construction">
                    <value>Natural</value>
                </Data>
                <Data name="condition">
                    <value>Needs Maintenance</value>
                </Data>
                <Data name="print_order">
                    <value>098</value>
                </Data>
                <Data name="wb_id">
                    <value>Sc/Deus/08</value>
                </Data>
                <Data name="storage_capacity">
                    <value>386.0</value>
                </Data>
                <Data name="wb_surface_id">
                    <value>1496</value>
                </Data>
                <Data name="created_at">
                    <value>2020-02-28 15:24:34</value>
                </Data>
                <Data name="updated_at">
                    <value>2023-07-22 14:03:14.307690</value>
                </Data>
                <Data name="book_id">
                    <value>3</value>
                </Data>
                <Data name="owners">
                    <value>Prisona Furtado</value>
                </Data>
                <Data name="label_x">
                    <value>987639.0</value>
                </Data>
                <Data name="label_y">
                    <value>986279.730834663</value>
                </Data>
            </ExtendedData>
            <Point id="57186">
                <coordinates>73.967024859,15.213451276,0.0</coordinates>
            </Point>
        </Placemark>
        <Placemark id="57219">
            <ExtendedData>
                <Data name="direction">
                    <value>https://maps.google.com?q=15.2103,73.96644&amp;t=h</value>
                </Data>
                <Data name="id">
                    <value>1741</value>
                </Data>
                <Data name="name">
                    <value>Namos</value>
                </Data>
                <Data name="taluka">
                    <value>Salcete</value>
                </Data>
                <Data name="syno">
                    <value>31</value>
                </Data>
                <Data name="subdiv">
                    <value>1</value>
                </Data>
                <Data name="village">
                    <value>Deussua</value>
                </Data>
                <Data name="latitude">
                    <value>15.2103</value>
                </Data>
                <Data name="longitude">
                    <value>73.96644</value>
                </Data>
                <Data name="photo_1">
                    <value>DCIM/20210825181221792.jpg</value>
                </Data>
                <Data name="photo_2">
                    <value>DCIM/20210825181238955.jpg</value>
                </Data>
                <Data name="constituency">
                    <value>35 - Velim</value>
                </Data>
                <Data name="status">
                    <value>Completed</value>
                </Data>
                <Data name="panchayat">
                    <value>Chinchinim-Deussua</value>
                </Data>
                <Data name="wb_type">
                    <value>Tank</value>
                </Data>
                <Data name="owner_type">
                    <value>Communidade</value>
                </Data>
                <Data name="purpose">
                    <value>Irrigation</value>
                </Data>
                <Data name="construction">
                    <value>Man Made</value>
                </Data>
                <Data name="condition">
                    <value>Good</value>
                </Data>
                <Data name="print_order">
                    <value>156</value>
                </Data>
                <Data name="wb_id">
                    <value>Sc/Deus/03</value>
                </Data>
                <Data name="storage_capacity">
                    <value>3231.0</value>
                </Data>
                <Data name="wb_surface_id">
                    <value>1450</value>
                </Data>
                <Data name="created_at">
                    <value>2020-02-28 15:24:34</value>
                </Data>
                <Data name="updated_at">
                    <value>2023-07-22 14:03:14.307690</value>
                </Data>
                <Data name="book_id">
                    <value>3</value>
                </Data>
                <Data name="owners">
                    <value>Communidade of Deussua</value>
                </Data>
                <Data name="label_x">
                    <value>987639.0</value>
                </Data>
                <Data name="label_y">
                    <value>983829.730834663</value>
                </Data>
            </ExtendedData>
            <Point id="57218">
                <coordinates>73.966435083,15.210296311,0.0</coordinates>
            </Point>
        </Placemark>
        <Placemark id="57251">
            <ExtendedData>
                <Data name="direction">
                    <value>https://maps.google.com?q=15.20576,73.97185&amp;t=h</value>
                </Data>
                <Data name="id">
                    <value>1705</value>
                </Data>
                <Data name="name">
                    <value>Morator Tollem</value>
                </Data>
                <Data name="taluka">
                    <value>Salcete</value>
                </Data>
                <Data name="syno">
                    <value>47</value>
                </Data>
                <Data name="subdiv">
                    <value>7</value>
                </Data>
                <Data name="village">
                    <value>Deussua</value>
                </Data>
                <Data name="latitude">
                    <value>15.20576</value>
                </Data>
                <Data name="longitude">
                    <value>73.97185</value>
                </Data>
                <Data name="photo_1">
                    <value>DCIM/20210818163253890.jpg</value>
                </Data>
                <Data name="photo_2">
                    <value>DCIM/20210818163301656.jpg</value>
                </Data>
                <Data name="constituency">
                    <value>35 - Velim</value>
                </Data>
                <Data name="status">
                    <value>Completed</value>
                </Data>
                <Data name="panchayat">
                    <value>Chinchinim-Deussua</value>
                </Data>
                <Data name="wb_type">
                    <value>Pond</value>
                </Data>
                <Data name="owner_type">
                    <value>Communidade</value>
                </Data>
                <Data name="purpose">
                    <value>Irrigation</value>
                </Data>
                <Data name="construction">
                    <value>Natural/Man Made</value>
                </Data>
                <Data name="condition">
                    <value>Needs Maintenance</value>
                </Data>
                <Data name="print_order">
                    <value>094</value>
                </Data>
                <Data name="wb_id">
                    <value>Sc/Deus/04</value>
                </Data>
                <Data name="storage_capacity">
                    <value>1601.0</value>
                </Data>
                <Data name="wb_surface_id">
                    <value>1474</value>
                </Data>
                <Data name="created_at">
                    <value>2020-02-28 15:24:34</value>
                </Data>
                <Data name="updated_at">
                    <value>2023-07-22 14:03:14.307690</value>
                </Data>
                <Data name="book_id">
                    <value>3</value>
                </Data>
                <Data name="owners">
                    <value>Communidade of Chinchinim</value>
                </Data>
                <Data name="label_x">
                    <value>987639.0</value>
                </Data>
                <Data name="label_y">
                    <value>982429.730834663</value>
                </Data>
            </ExtendedData>
            <Point id="57250">
                <coordinates>73.971850165,15.205755932,0.0</coordinates>
            </Point>
        </Placemark>
        <Placemark id="57283">
            <ExtendedData>
                <Data name="direction">
                    <value>https://maps.google.com?q=15.21542,73.96788&amp;t=h</value>
                </Data>
                <Data name="id">
                    <value>1712</value>
                </Data>
                <Data name="name">
                    <value>Babso Bag</value>
                </Data>
                <Data name="taluka">
                    <value>Salcete</value>
                </Data>
                <Data name="syno">
                    <value>13</value>
                </Data>
                <Data name="subdiv">
                    <value>1</value>
                </Data>
                <Data name="village">
                    <value>Deussua</value>
                </Data>
                <Data name="latitude">
                    <value>15.21542</value>
                </Data>
                <Data name="longitude">
                    <value>73.96788</value>
                </Data>
                <Data name="photo_1">
                    <value>DCIM/20210825180027041.jpg</value>
                </Data>
                <Data name="photo_2">
                    <value>DCIM/20210825180035130.jpg</value>
                </Data>
                <Data name="constituency">
                    <value>35 - Velim</value>
                </Data>
                <Data name="status">
                    <value>Completed</value>
                </Data>
                <Data name="panchayat">
                    <value>Chinchinim-Deussua</value>
                </Data>
                <Data name="wb_type">
                    <value>Pond</value>
                </Data>
                <Data name="owner_type">
                    <value>Public</value>
                </Data>
                <Data name="purpose">
                    <value>Irrigation</value>
                </Data>
                <Data name="construction">
                    <value>Natural</value>
                </Data>
                <Data name="condition">
                    <value>Needs Maintenance</value>
                </Data>
                <Data name="print_order">
                    <value>093</value>
                </Data>
                <Data name="wb_id">
                    <value>Sc/Deus/02</value>
                </Data>
                <Data name="storage_capacity">
                    <value>4294.0</value>
                </Data>
                <Data name="wb_surface_id">
                    <value>1452</value>
                </Data>
                <Data name="created_at">
                    <value>2020-02-28 15:24:34</value>
                </Data>
                <Data name="updated_at">
                    <value>2023-07-22 14:03:14.307690</value>
                </Data>
                <Data name="book_id">
                    <value>3</value>
                </Data>
                <Data name="owners">
                    <value>Communidade of Deussua
Government of Goa</value>
                </Data>
                <Data name="label_x">
                    <value>987639.0</value>
                </Data>
                <Data name="label_y">
                    <value>987329.730834663</value>
                </Data>
            </ExtendedData>
            <Point id="57282">
                <coordinates>73.967878489,15.215416349,0.0</coordinates>
            </Point>
        </Placemark>
        <Placemark id="57315">
            <ExtendedData>
                <Data name="direction">
                    <value>https://maps.google.com?q=15.21432,73.965&amp;t=h</value>
                </Data>
                <Data name="id">
                    <value>1715</value>
                </Data>
                <Data name="name">
                    <value>kHADI wADI</value>
                </Data>
                <Data name="taluka">
                    <value>Salcete</value>
                </Data>
                <Data name="syno">
                    <value>86</value>
                </Data>
                <Data name="subdiv">
                    <value>12</value>
                </Data>
                <Data name="village">
                    <value>Deussua</value>
                </Data>
                <Data name="latitude">
                    <value>15.21432</value>
                </Data>
                <Data name="longitude">
                    <value>73.965</value>
                </Data>
                <Data name="photo_1">
                    <value>DCIM/20210825173845129.jpg</value>
                </Data>
                <Data name="photo_2">
                    <value>DCIM/20210825173855622.jpg</value>
                </Data>
                <Data name="constituency">
                    <value>35 - Velim</value>
                </Data>
                <Data name="status">
                    <value>Completed</value>
                </Data>
                <Data name="panchayat">
                    <value>Chinchinim-Deussua</value>
                </Data>
                <Data name="wb_type">
                    <value>Pond</value>
                </Data>
                <Data name="owner_type">
                    <value>Communidade</value>
                </Data>
                <Data name="purpose">
                    <value>Irrigation</value>
                </Data>
                <Data name="construction">
                    <value>Natural</value>
                </Data>
                <Data name="condition">
                    <value>Needs Maintenance</value>
                </Data>
                <Data name="print_order">
                    <value>096</value>
                </Data>
                <Data name="wb_id">
                    <value>Sc/Deus/06</value>
                </Data>
                <Data name="storage_capacity">
                    <value>1048.0</value>
                </Data>
                <Data name="wb_surface_id">
                    <value>1495</value>
                </Data>
                <Data name="created_at">
                    <value>2020-02-28 15:24:34</value>
                </Data>
                <Data name="updated_at">
                    <value>2023-07-22 14:03:14.307690</value>
                </Data>
                <Data name="book_id">
                    <value>3</value>
                </Data>
                <Data name="owners">
                    <value>Communidade of Deussua</value>
                </Data>
                <Data name="label_x">
                    <value>987639.0</value>
                </Data>
                <Data name="label_y">
                    <value>985929.730834663</value>
                </Data>
            </ExtendedData>
            <Point id="57314">
                <coordinates>73.965004462,15.21431716,0.0</coordinates>
            </Point>
        </Placemark>
        <Placemark id="57347">
            <ExtendedData>
                <Data name="direction">
                    <value>https://maps.google.com?q=15.21092,73.96584&amp;t=h</value>
                </Data>
                <Data name="id">
                    <value>1742</value>
                </Data>
                <Data name="name">
                    <value>Khodia Wado</value>
                </Data>
                <Data name="taluka">
                    <value>Salcete</value>
                </Data>
                <Data name="syno">
                    <value>85</value>
                </Data>
                <Data name="subdiv">
                    <value>12</value>
                </Data>
                <Data name="village">
                    <value>Deussua</value>
                </Data>
                <Data name="latitude">
                    <value>15.21092</value>
                </Data>
                <Data name="longitude">
                    <value>73.96584</value>
                </Data>
                <Data name="photo_1">
                    <value>DCIM/20210825180938716.jpg</value>
                </Data>
                <Data name="photo_2">
                    <value>DCIM/20210825180953724.jpg</value>
                </Data>
                <Data name="constituency">
                    <value>35 - Velim</value>
                </Data>
                <Data name="status">
                    <value>Completed</value>
                </Data>
                <Data name="panchayat">
                    <value>Chinchinim-Deussua</value>
                </Data>
                <Data name="wb_type">
                    <value>Pond</value>
                </Data>
                <Data name="owner_type">
                    <value>Communidade</value>
                </Data>
                <Data name="purpose">
                    <value>Storage</value>
                </Data>
                <Data name="construction">
                    <value>Natural</value>
                </Data>
                <Data name="condition">
                    <value>Needs Maintenance</value>
                </Data>
                <Data name="print_order">
                    <value>097</value>
                </Data>
                <Data name="wb_id">
                    <value>Sc/Deus/07</value>
                </Data>
                <Data name="storage_capacity">
                    <value>756.0</value>
                </Data>
                <Data name="wb_surface_id">
                    <value>1447</value>
                </Data>
                <Data name="created_at">
                    <value>2020-02-28 15:24:34</value>
                </Data>
                <Data name="updated_at">
                    <value>2023-07-22 14:03:14.307690</value>
                </Data>
                <Data name="book_id">
                    <value>3</value>
                </Data>
                <Data name="owners">
                    <value>Communidade of Deussua</value>
                </Data>
                <Data name="label_x">
                    <value>987639.0</value>
                </Data>
                <Data name="label_y">
                    <value>984179.730834663</value>
                </Data>
            </ExtendedData>
            <Point id="57346">
                <coordinates>73.965841309,15.210915327,0.0</coordinates>
            </Point>
        </Placemark>
        <Placemark id="57379">
            <ExtendedData>
                <Data name="direction">
                    <value>https://maps.google.com?q=15.20667,73.97537&amp;t=h</value>
                </Data>
                <Data name="id">
                    <value>3806</value>
                </Data>
                <Data name="name">
                    <value>Patnim Morod</value>
                </Data>
                <Data name="taluka">
                    <value>Salcete</value>
                </Data>
                <Data name="syno">
                    <value>52</value>
                </Data>
                <Data name="subdiv">
                    <value>4</value>
                </Data>
                <Data name="village">
                    <value>Deussua</value>
                </Data>
                <Data name="latitude">
                    <value>15.20667</value>
                </Data>
                <Data name="longitude">
                    <value>73.97537</value>
                </Data>
                <Data name="photo_1">
                    <value>DCIM/20210818105506669.jpg</value>
                </Data>
                <Data name="photo_2">
                    <value>DCIM/20210818105515482.jpg</value>
                </Data>
                <Data name="constituency">
                    <value>35 - Velim</value>
                </Data>
                <Data name="status">
                    <value>Completed</value>
                </Data>
                <Data name="panchayat">
                    <value>Chinchinim-Deussua</value>
                </Data>
                <Data name="wb_type">
                    <value>Pond</value>
                </Data>
                <Data name="owner_type">
                    <value>Private / Public</value>
                </Data>
                <Data name="purpose">
                    <value>Irrigation</value>
                </Data>
                <Data name="construction">
                    <value>Natural</value>
                </Data>
                <Data name="condition">
                    <value>Good</value>
                </Data>
                <Data name="print_order">
                    <value>101</value>
                </Data>
                <Data name="wb_id">
                    <value>Sc/Deus/11</value>
                </Data>
                <Data name="storage_capacity">
                    <value>68.0</value>
                </Data>
                <Data name="wb_surface_id">
                    <value>2537</value>
                </Data>
                <Data name="created_at">
                    <value>2021-08-18 00:00:00</value>
                </Data>
                <Data name="updated_at">
                    <value>2023-07-22 14:03:14.307690</value>
                </Data>
                <Data name="book_id">
                    <value>3</value>
                </Data>
                <Data name="owners">
                    <value>Government of Goa, The Executive Engineer, Work Division XIV, Water Resources Department, Gogal, Margao
Jose Milaagres Cardoso
Mary Xaverina Cardoz</value>
                </Data>
                <Data name="label_x">
                    <value>987639.0</value>
                </Data>
                <Data name="label_y">
                    <value>983479.730834663</value>
                </Data>
            </ExtendedData>
            <Point id="57378">
                <coordinates>73.975374449,15.206674309,0.0</coordinates>
            </Point>
        </Placemark>
    </Document>
</kml>
