<?xml version="1.0" encoding="UTF-8"?>
<kml xmlns="http://www.opengis.net/kml/2.2" xmlns:gx="http://www.google.com/kml/ext/2.2">
    <Document id="57411">
        <Placemark id="57413">
            <ExtendedData>
                <Data name="direction">
                    <value>https://maps.google.com?q=15.24877,73.99532&amp;t=h</value>
                </Data>
                <Data name="id">
                    <value>1743</value>
                </Data>
                <Data name="name">
                    <value>Pali Lake; Cashew Ran Pali</value>
                </Data>
                <Data name="taluka">
                    <value>Salcete</value>
                </Data>
                <Data name="syno">
                    <value>31</value>
                </Data>
                <Data name="subdiv">
                    <value>0</value>
                </Data>
                <Data name="village">
                    <value>Dicarpale</value>
                </Data>
                <Data name="latitude">
                    <value>15.24877</value>
                </Data>
                <Data name="longitude">
                    <value>73.99532</value>
                </Data>
                <Data name="photo_1">
                    <value>DCIM/20211106110904904.jpg</value>
                </Data>
                <Data name="photo_2">
                    <value>DCIM/20211106110909756.jpg</value>
                </Data>
                <Data name="constituency">
                    <value>35 - Velim</value>
                </Data>
                <Data name="status">
                    <value>Completed</value>
                </Data>
                <Data name="panchayat">
                    <value>Davorlim,Dicarpale</value>
                </Data>
                <Data name="wb_type">
                    <value>Lake</value>
                </Data>
                <Data name="owner_type">
                    <value>Public</value>
                </Data>
                <Data name="purpose">
                    <value>Storage</value>
                </Data>
                <Data name="construction">
                    <value>Natural/Man Made</value>
                </Data>
                <Data name="condition">
                    <value>Good</value>
                </Data>
                <Data name="print_order">
                    <value>014</value>
                </Data>
                <Data name="wb_id">
                    <value>Sc/Dica/01</value>
                </Data>
                <Data name="storage_capacity">
                    <value>113100.0</value>
                </Data>
                <Data name="wb_surface_id">
                    <value>1727</value>
                </Data>
                <Data name="created_at">
                    <value>2020-02-28 15:24:34</value>
                </Data>
                <Data name="updated_at">
                    <value>2023-07-22 14:03:14.307690</value>
                </Data>
                <Data name="book_id">
                    <value>3</value>
                </Data>
                <Data name="owners">
                    <value>Government of Goa, The Executive Engineer, Works Division VI (Roads South), P. W. D., Fatorda, Margao
Government of India Centaral Military Ar ea                                     M</value>
                </Data>
                <Data name="label_x">
                    <value>1008339.0</value>
                </Data>
                <Data name="label_y">
                    <value>992371.673307794</value>
                </Data>
            </ExtendedData>
            <Point id="57412">
                <coordinates>73.9953164,15.248774909,0.0</coordinates>
            </Point>
        </Placemark>
        <Placemark id="57445">
            <ExtendedData>
                <Data name="direction">
                    <value>https://maps.google.com?q=15.25548,73.99791&amp;t=h</value>
                </Data>
                <Data name="id">
                    <value>3801</value>
                </Data>
                <Data name="name">
                    <value>Fonda Pasholem</value>
                </Data>
                <Data name="taluka">
                    <value>Salcete</value>
                </Data>
                <Data name="syno">
                    <value>11</value>
                </Data>
                <Data name="subdiv">
                    <value>5-12</value>
                </Data>
                <Data name="village">
                    <value>Dicarpale</value>
                </Data>
                <Data name="latitude">
                    <value>15.25548</value>
                </Data>
                <Data name="longitude">
                    <value>73.99791</value>
                </Data>
                <Data name="photo_1">
                    <value>DCIM/20210817044038470.jpg</value>
                </Data>
                <Data name="photo_2">
                    <value>DCIM/20210817044049392.jpg</value>
                </Data>
                <Data name="constituency">
                    <value>35 - Velim</value>
                </Data>
                <Data name="status">
                    <value>Completed</value>
                </Data>
                <Data name="panchayat">
                    <value>Davorlim,Dicarpale</value>
                </Data>
                <Data name="wb_type">
                    <value>Pond</value>
                </Data>
                <Data name="owner_type">
                    <value>Public</value>
                </Data>
                <Data name="purpose">
                    <value>Irrigation</value>
                </Data>
                <Data name="construction">
                    <value>Natural</value>
                </Data>
                <Data name="condition">
                    <value>Needs Maintenance</value>
                </Data>
                <Data name="print_order">
                    <value>102</value>
                </Data>
                <Data name="wb_id">
                    <value>Sc/Dica/02</value>
                </Data>
                <Data name="storage_capacity">
                    <value>5559.0</value>
                </Data>
                <Data name="wb_surface_id">
                    <value>2551</value>
                </Data>
                <Data name="created_at">
                    <value>2021-08-17 00:00:00</value>
                </Data>
                <Data name="updated_at">
                    <value>2023-07-22 14:03:14.307690</value>
                </Data>
                <Data name="book_id">
                    <value>3</value>
                </Data>
                <Data name="owners">
                    <value>Communidade
Communidade of Dicarpale
Government of Goa, The Executive Engineer, Works Division XIII, Water Resources Department, Gogal, Margao, Goa</value>
                </Data>
                <Data name="label_x">
                    <value>1008339.0</value>
                </Data>
                <Data name="label_y">
                    <value>992721.673307794</value>
                </Data>
            </ExtendedData>
            <Point id="57444">
                <coordinates>73.997906973,15.255476539,0.0</coordinates>
            </Point>
        </Placemark>
    </Document>
</kml>
