<?xml version="1.0" encoding="UTF-8"?>
<kml xmlns="http://www.opengis.net/kml/2.2" xmlns:gx="http://www.google.com/kml/ext/2.2">
    <Document id="60921">
        <Placemark id="60923">
            <ExtendedData>
                <Data name="direction">
                    <value>https://maps.google.com?q=15.37055,73.93505&amp;t=h</value>
                </Data>
                <Data name="id">
                    <value>3771</value>
                </Data>
                <Data name="name">
                    <value>Communidade of Nagoa</value>
                </Data>
                <Data name="taluka">
                    <value>Salcete</value>
                </Data>
                <Data name="syno">
                    <value>30</value>
                </Data>
                <Data name="subdiv">
                    <value>0</value>
                </Data>
                <Data name="village">
                    <value>Nagoa</value>
                </Data>
                <Data name="latitude">
                    <value>15.37055</value>
                </Data>
                <Data name="longitude">
                    <value>73.93505</value>
                </Data>
                <Data name="photo_1">
                    <value>DCIM/20210804110606577.jpg</value>
                </Data>
                <Data name="photo_2">
                    <value>DCIM/20210804110615873.jpg</value>
                </Data>
                <Data name="constituency">
                    <value>28 - Nuvem</value>
                </Data>
                <Data name="status">
                    <value>Completed</value>
                </Data>
                <Data name="panchayat">
                    <value>Nagoa</value>
                </Data>
                <Data name="wb_type">
                    <value>Tank</value>
                </Data>
                <Data name="owner_type">
                    <value>Public</value>
                </Data>
                <Data name="purpose">
                    <value>Storage</value>
                </Data>
                <Data name="construction">
                    <value>Man Made</value>
                </Data>
                <Data name="condition">
                    <value>Good</value>
                </Data>
                <Data name="print_order">
                    <value>138</value>
                </Data>
                <Data name="wb_id">
                    <value>Sc/Nago/01</value>
                </Data>
                <Data name="storage_capacity">
                    <value>4618.0</value>
                </Data>
                <Data name="wb_surface_id">
                    <value>2472</value>
                </Data>
                <Data name="created_at">
                    <value>2021-08-04 00:00:00</value>
                </Data>
                <Data name="updated_at">
                    <value>2023-07-22 14:03:14.307690</value>
                </Data>
                <Data name="book_id">
                    <value>4</value>
                </Data>
                <Data name="owners">
                    <value>Goa Daman Diu Industrial Development Cor poration
Government of India</value>
                </Data>
                <Data name="label_x">
                    <value>987636.0</value>
                </Data>
                <Data name="label_y">
                    <value>1001124.91938089</value>
                </Data>
            </ExtendedData>
            <Point id="60922">
                <coordinates>73.935051223,15.370552883,0.0</coordinates>
            </Point>
        </Placemark>
        <Placemark id="60955">
            <ExtendedData>
                <Data name="direction">
                    <value>https://maps.google.com?q=15.34825,73.91429&amp;t=h</value>
                </Data>
                <Data name="id">
                    <value>1842</value>
                </Data>
                <Data name="name">
                    <value>Borlo</value>
                </Data>
                <Data name="taluka">
                    <value>Salcete</value>
                </Data>
                <Data name="syno">
                    <value>77</value>
                </Data>
                <Data name="subdiv">
                    <value>6</value>
                </Data>
                <Data name="village">
                    <value>Nagoa</value>
                </Data>
                <Data name="latitude">
                    <value>15.34825</value>
                </Data>
                <Data name="longitude">
                    <value>73.91429</value>
                </Data>
                <Data name="photo_1">
                    <value>DCIM/20210811094749253.jpg</value>
                </Data>
                <Data name="photo_2">
                    <value>DCIM/20210811094758766.jpg</value>
                </Data>
                <Data name="constituency">
                    <value>28 - Nuvem</value>
                </Data>
                <Data name="status">
                    <value>Completed</value>
                </Data>
                <Data name="panchayat">
                    <value>Nagoa</value>
                </Data>
                <Data name="wb_type">
                    <value>Lake</value>
                </Data>
                <Data name="owner_type">
                    <value>Communidade</value>
                </Data>
                <Data name="purpose">
                    <value>Irrigation</value>
                </Data>
                <Data name="construction">
                    <value>Natural</value>
                </Data>
                <Data name="condition">
                    <value>Good</value>
                </Data>
                <Data name="print_order">
                    <value>010</value>
                </Data>
                <Data name="wb_id">
                    <value>Sc/Nago/03</value>
                </Data>
                <Data name="storage_capacity">
                    <value>2989.0</value>
                </Data>
                <Data name="wb_surface_id">
                    <value>1097</value>
                </Data>
                <Data name="created_at">
                    <value>2020-02-28 15:24:34</value>
                </Data>
                <Data name="updated_at">
                    <value>2023-07-22 14:03:14.307690</value>
                </Data>
                <Data name="book_id">
                    <value>4</value>
                </Data>
                <Data name="owners">
                    <value>Communidade of Nagoa</value>
                </Data>
                <Data name="label_x">
                    <value>987636.0</value>
                </Data>
                <Data name="label_y">
                    <value>999024.91938089</value>
                </Data>
            </ExtendedData>
            <Point id="60954">
                <coordinates>73.914287997,15.348246506,0.0</coordinates>
            </Point>
        </Placemark>
        <Placemark id="60987">
            <ExtendedData>
                <Data name="direction">
                    <value>https://maps.google.com?q=15.35488,73.91671&amp;t=h</value>
                </Data>
                <Data name="id">
                    <value>1843</value>
                </Data>
                <Data name="name">
                    <value>Hodli Khand; Bitorli Boni</value>
                </Data>
                <Data name="taluka">
                    <value>Salcete</value>
                </Data>
                <Data name="syno">
                    <value>104</value>
                </Data>
                <Data name="subdiv">
                    <value>2</value>
                </Data>
                <Data name="village">
                    <value>Nagoa</value>
                </Data>
                <Data name="latitude">
                    <value>15.35488</value>
                </Data>
                <Data name="longitude">
                    <value>73.91671</value>
                </Data>
                <Data name="photo_1">
                    <value>DCIM/20210811100124590.jpg</value>
                </Data>
                <Data name="photo_2">
                    <value>DCIM/20210811100218793.jpg</value>
                </Data>
                <Data name="constituency">
                    <value>28 - Nuvem</value>
                </Data>
                <Data name="status">
                    <value>Completed</value>
                </Data>
                <Data name="panchayat">
                    <value>Nagoa</value>
                </Data>
                <Data name="wb_type">
                    <value>Pond</value>
                </Data>
                <Data name="owner_type">
                    <value>Public</value>
                </Data>
                <Data name="purpose">
                    <value>Irrigation</value>
                </Data>
                <Data name="construction">
                    <value>Natural/Man Made</value>
                </Data>
                <Data name="condition">
                    <value>Good</value>
                </Data>
                <Data name="print_order">
                    <value>064</value>
                </Data>
                <Data name="wb_id">
                    <value>Sc/Nago/04</value>
                </Data>
                <Data name="storage_capacity">
                    <value>1757.0</value>
                </Data>
                <Data name="wb_surface_id">
                    <value>1098</value>
                </Data>
                <Data name="created_at">
                    <value>2020-02-28 15:24:34</value>
                </Data>
                <Data name="updated_at">
                    <value>2023-07-22 14:03:14.307690</value>
                </Data>
                <Data name="book_id">
                    <value>4</value>
                </Data>
                <Data name="owners">
                    <value>Communidade of Nagoa
The Executive Engineer, Works Div, IX (PHE) Public Works Department Fatorda Margao-Goa.</value>
                </Data>
                <Data name="label_x">
                    <value>987636.0</value>
                </Data>
                <Data name="label_y">
                    <value>999724.91938089</value>
                </Data>
            </ExtendedData>
            <Point id="60986">
                <coordinates>73.916711901,15.354879216,0.0</coordinates>
            </Point>
        </Placemark>
        <Placemark id="61019">
            <ExtendedData>
                <Data name="direction">
                    <value>https://maps.google.com?q=15.37032,73.93576&amp;t=h</value>
                </Data>
                <Data name="id">
                    <value>3772</value>
                </Data>
                <Data name="name">
                    <value>Communidade of Nagoa</value>
                </Data>
                <Data name="taluka">
                    <value>Salcete</value>
                </Data>
                <Data name="syno">
                    <value>30</value>
                </Data>
                <Data name="subdiv">
                    <value>0</value>
                </Data>
                <Data name="village">
                    <value>Nagoa</value>
                </Data>
                <Data name="latitude">
                    <value>15.37032</value>
                </Data>
                <Data name="longitude">
                    <value>73.93576</value>
                </Data>
                <Data name="photo_1">
                    <value>DCIM/20210804110930639.jpg</value>
                </Data>
                <Data name="photo_2">
                    <value>DCIM/20210804110939850.jpg</value>
                </Data>
                <Data name="constituency">
                    <value>28 - Nuvem</value>
                </Data>
                <Data name="status">
                    <value>Completed</value>
                </Data>
                <Data name="panchayat">
                    <value>Nagoa</value>
                </Data>
                <Data name="wb_type">
                    <value>Tank</value>
                </Data>
                <Data name="owner_type">
                    <value>Public</value>
                </Data>
                <Data name="purpose">
                    <value>Storage</value>
                </Data>
                <Data name="construction">
                    <value>Man Made</value>
                </Data>
                <Data name="condition">
                    <value>Good</value>
                </Data>
                <Data name="print_order">
                    <value>139</value>
                </Data>
                <Data name="wb_id">
                    <value>Sc/Nago/05</value>
                </Data>
                <Data name="storage_capacity">
                    <value>1525.0</value>
                </Data>
                <Data name="wb_surface_id">
                    <value>2473</value>
                </Data>
                <Data name="created_at">
                    <value>2021-08-04 00:00:00</value>
                </Data>
                <Data name="updated_at">
                    <value>2023-07-22 14:03:14.307690</value>
                </Data>
                <Data name="book_id">
                    <value>4</value>
                </Data>
                <Data name="owners">
                    <value>Goa Daman Diu Industrial Development Cor poration
Government of India</value>
                </Data>
                <Data name="label_x">
                    <value>987636.0</value>
                </Data>
                <Data name="label_y">
                    <value>1000774.91938089</value>
                </Data>
            </ExtendedData>
            <Point id="61018">
                <coordinates>73.935757683,15.370318871,0.0</coordinates>
            </Point>
        </Placemark>
        <Placemark id="61051">
            <ExtendedData>
                <Data name="direction">
                    <value>https://maps.google.com?q=15.34816,73.92097&amp;t=h</value>
                </Data>
                <Data name="id">
                    <value>3798</value>
                </Data>
                <Data name="name">
                    <value>Gangne Band Ganguim</value>
                </Data>
                <Data name="taluka">
                    <value>Salcete</value>
                </Data>
                <Data name="syno">
                    <value>83</value>
                </Data>
                <Data name="subdiv">
                    <value>5</value>
                </Data>
                <Data name="village">
                    <value>Nagoa</value>
                </Data>
                <Data name="latitude">
                    <value>15.34816</value>
                </Data>
                <Data name="longitude">
                    <value>73.92097</value>
                </Data>
                <Data name="photo_1">
                    <value>DCIM/20210811041108899.jpg</value>
                </Data>
                <Data name="photo_2">
                    <value>DCIM/20210811041117612.jpg</value>
                </Data>
                <Data name="constituency">
                    <value>28 - Nuvem</value>
                </Data>
                <Data name="status">
                    <value>Completed</value>
                </Data>
                <Data name="panchayat">
                    <value>Nagoa</value>
                </Data>
                <Data name="wb_type">
                    <value>Pond</value>
                </Data>
                <Data name="owner_type">
                    <value>Communidade</value>
                </Data>
                <Data name="purpose">
                    <value>Irrigation</value>
                </Data>
                <Data name="construction">
                    <value>Natural</value>
                </Data>
                <Data name="condition">
                    <value>Good</value>
                </Data>
                <Data name="print_order">
                    <value>065</value>
                </Data>
                <Data name="wb_id">
                    <value>Sc/Nago/06</value>
                </Data>
                <Data name="storage_capacity">
                    <value>940.0</value>
                </Data>
                <Data name="wb_surface_id">
                    <value>2546</value>
                </Data>
                <Data name="created_at">
                    <value>2021-08-11 00:00:00</value>
                </Data>
                <Data name="updated_at">
                    <value>2023-07-22 14:03:14.307690</value>
                </Data>
                <Data name="book_id">
                    <value>4</value>
                </Data>
                <Data name="owners">
                    <value>Communidade of Nagoa</value>
                </Data>
                <Data name="label_x">
                    <value>987636.0</value>
                </Data>
                <Data name="label_y">
                    <value>999374.91938089</value>
                </Data>
            </ExtendedData>
            <Point id="61050">
                <coordinates>73.920969512,15.348164053,0.0</coordinates>
            </Point>
        </Placemark>
        <Placemark id="61083">
            <ExtendedData>
                <Data name="direction">
                    <value>https://maps.google.com?q=15.35424,73.92287&amp;t=h</value>
                </Data>
                <Data name="id">
                    <value>1844</value>
                </Data>
                <Data name="name">
                    <value>Dhakti Khand; Tollem</value>
                </Data>
                <Data name="taluka">
                    <value>Salcete</value>
                </Data>
                <Data name="syno">
                    <value>91</value>
                </Data>
                <Data name="subdiv">
                    <value>8</value>
                </Data>
                <Data name="village">
                    <value>Nagoa</value>
                </Data>
                <Data name="latitude">
                    <value>15.35424</value>
                </Data>
                <Data name="longitude">
                    <value>73.92287</value>
                </Data>
                <Data name="photo_1">
                    <value>DCIM/20210809163006650.jpg</value>
                </Data>
                <Data name="photo_2">
                    <value>DCIM/20210809163014957.jpg</value>
                </Data>
                <Data name="constituency">
                    <value>28 - Nuvem</value>
                </Data>
                <Data name="status">
                    <value>Completed</value>
                </Data>
                <Data name="panchayat">
                    <value>Nagoa</value>
                </Data>
                <Data name="wb_type">
                    <value>Pond</value>
                </Data>
                <Data name="owner_type">
                    <value>Communidade</value>
                </Data>
                <Data name="purpose">
                    <value>Irrigation</value>
                </Data>
                <Data name="construction">
                    <value>Natural</value>
                </Data>
                <Data name="condition">
                    <value>Needs Maintenance</value>
                </Data>
                <Data name="print_order">
                    <value>063</value>
                </Data>
                <Data name="wb_id">
                    <value>Sc/Nago/02</value>
                </Data>
                <Data name="storage_capacity">
                    <value>3842.0</value>
                </Data>
                <Data name="wb_surface_id">
                    <value>1099</value>
                </Data>
                <Data name="created_at">
                    <value>2020-02-28 15:24:34</value>
                </Data>
                <Data name="updated_at">
                    <value>2023-07-22 14:03:14.307690</value>
                </Data>
                <Data name="book_id">
                    <value>4</value>
                </Data>
                <Data name="owners">
                    <value>Communidade of Nagoa</value>
                </Data>
                <Data name="label_x">
                    <value>987636.0</value>
                </Data>
                <Data name="label_y">
                    <value>1000074.91938089</value>
                </Data>
            </ExtendedData>
            <Point id="61082">
                <coordinates>73.92286547,15.354236511,0.0</coordinates>
            </Point>
        </Placemark>
    </Document>
</kml>
