<?xml version="1.0" encoding="UTF-8"?>
<kml xmlns="http://www.opengis.net/kml/2.2" xmlns:gx="http://www.google.com/kml/ext/2.2">
    <Document id="64865">
        <Placemark id="64867">
            <ExtendedData>
                <Data name="direction">
                    <value>https://maps.google.com?q=15.21548,74.0375&amp;t=h</value>
                </Data>
                <Data name="id">
                    <value>2000</value>
                </Data>
                <Data name="name">
                    <value>Chandreshwar Bhoothnath Temple Tank</value>
                </Data>
                <Data name="taluka">
                    <value>Salcete</value>
                </Data>
                <Data name="syno">
                    <value>87</value>
                </Data>
                <Data name="subdiv">
                    <value>14</value>
                </Data>
                <Data name="village">
                    <value>Paroda</value>
                </Data>
                <Data name="latitude">
                    <value>15.21548</value>
                </Data>
                <Data name="longitude">
                    <value>74.0375</value>
                </Data>
                <Data name="photo_1">
                    <value>DCIM/20210817115444139.jpg</value>
                </Data>
                <Data name="photo_2">
                    <value>DCIM/20210817115521713.jpg</value>
                </Data>
                <Data name="constituency">
                    <value>34 - Cuncolim</value>
                </Data>
                <Data name="status">
                    <value>Completed</value>
                </Data>
                <Data name="panchayat">
                    <value>Paroda</value>
                </Data>
                <Data name="wb_type">
                    <value>Temple Tank</value>
                </Data>
                <Data name="owner_type">
                    <value>Public</value>
                </Data>
                <Data name="purpose">
                    <value>Storage</value>
                </Data>
                <Data name="construction">
                    <value>Man Made</value>
                </Data>
                <Data name="condition">
                    <value>Good</value>
                </Data>
                <Data name="print_order">
                    <value>142</value>
                </Data>
                <Data name="wb_id">
                    <value>Sc/Paro/01</value>
                </Data>
                <Data name="storage_capacity">
                    <value>367.0</value>
                </Data>
                <Data name="wb_surface_id">
                    <value>1363</value>
                </Data>
                <Data name="created_at">
                    <value>2020-02-28 15:24:34</value>
                </Data>
                <Data name="updated_at">
                    <value>2023-07-22 14:03:14.307690</value>
                </Data>
                <Data name="book_id">
                    <value>5</value>
                </Data>
                <Data name="owners">
                    <value>Govt. of Goa</value>
                </Data>
                <Data name="label_x">
                    <value>1008335.0</value>
                </Data>
                <Data name="label_y">
                    <value>981848.087559794</value>
                </Data>
            </ExtendedData>
            <Point id="64866">
                <coordinates>74.037496444,15.215479593,0.0</coordinates>
            </Point>
        </Placemark>
    </Document>
</kml>
