<?xml version="1.0" encoding="UTF-8"?>
<kml xmlns="http://www.opengis.net/kml/2.2" xmlns:gx="http://www.google.com/kml/ext/2.2">
    <Document id="66507">
        <Placemark id="66509">
            <ExtendedData>
                <Data name="direction">
                    <value>https://maps.google.com?q=15.26459,73.9204&amp;t=h</value>
                </Data>
                <Data name="id">
                    <value>3854</value>
                </Data>
                <Data name="name">
                    <value>Adampoi</value>
                </Data>
                <Data name="taluka">
                    <value>Salcete</value>
                </Data>
                <Data name="syno">
                    <value>14</value>
                </Data>
                <Data name="subdiv">
                    <value>5</value>
                </Data>
                <Data name="village">
                    <value>Sernabatim</value>
                </Data>
                <Data name="latitude">
                    <value>15.26459</value>
                </Data>
                <Data name="longitude">
                    <value>73.9204</value>
                </Data>
                <Data name="photo_1">
                    <value>DCIM/20210915114326308.jpg</value>
                </Data>
                <Data name="photo_2">
                    <value>DCIM/20210915114335751.jpg</value>
                </Data>
                <Data name="constituency">
                    <value>32 - Benaulim</value>
                </Data>
                <Data name="status">
                    <value>Completed</value>
                </Data>
                <Data name="panchayat">
                    <value>Colva</value>
                </Data>
                <Data name="wb_type">
                    <value>Pond</value>
                </Data>
                <Data name="owner_type">
                    <value>Private / Public</value>
                </Data>
                <Data name="purpose">
                    <value>Irrigation</value>
                </Data>
                <Data name="construction">
                    <value>Natural/Man Made</value>
                </Data>
                <Data name="condition">
                    <value>Needs Maintenance</value>
                </Data>
                <Data name="print_order">
                    <value>110</value>
                </Data>
                <Data name="wb_id">
                    <value>Sc/Sern/07</value>
                </Data>
                <Data name="storage_capacity">
                    <value>161.0</value>
                </Data>
                <Data name="wb_surface_id">
                    <value>2557</value>
                </Data>
                <Data name="created_at">
                    <value>2021-09-15 00:00:00</value>
                </Data>
                <Data name="updated_at">
                    <value>2023-07-22 14:03:14.307690</value>
                </Data>
                <Data name="book_id">
                    <value>5</value>
                </Data>
                <Data name="owners">
                    <value>Antonio Olinto Modestino D'Silva
Joao De Deus Oscar Aderito D'Silva
Luis Eugenio Gracy D'Silva
Maria Olimpia Merces D'Silva
Mrs Maria Aldevina Dulce Antao e Silva
The Executive Engineer, W.D VI (R and B), P.W.D., Fatorda Margao Goa.</value>
                </Data>
                <Data name="label_x">
                    <value>987635.0</value>
                </Data>
                <Data name="label_y">
                    <value>986215.516376814</value>
                </Data>
            </ExtendedData>
            <Point id="66508">
                <coordinates>73.920404127,15.264590911,0.0</coordinates>
            </Point>
        </Placemark>
        <Placemark id="66541">
            <ExtendedData>
                <Data name="direction">
                    <value>https://maps.google.com?q=15.26763,73.92239&amp;t=h</value>
                </Data>
                <Data name="id">
                    <value>2053</value>
                </Data>
                <Data name="name">
                    <value>Xeva</value>
                </Data>
                <Data name="taluka">
                    <value>Salcete</value>
                </Data>
                <Data name="syno">
                    <value>24</value>
                </Data>
                <Data name="subdiv">
                    <value>5</value>
                </Data>
                <Data name="village">
                    <value>Sernabatim</value>
                </Data>
                <Data name="latitude">
                    <value>15.26763</value>
                </Data>
                <Data name="longitude">
                    <value>73.92239</value>
                </Data>
                <Data name="photo_1">
                    <value>DCIM/20211220085849841.jpg</value>
                </Data>
                <Data name="photo_2">
                    <value>DCIM/20211220085859254.jpg</value>
                </Data>
                <Data name="constituency">
                    <value>32 - Benaulim</value>
                </Data>
                <Data name="status">
                    <value>Completed</value>
                </Data>
                <Data name="panchayat">
                    <value>Colva</value>
                </Data>
                <Data name="wb_type">
                    <value>Pond</value>
                </Data>
                <Data name="owner_type">
                    <value>Private</value>
                </Data>
                <Data name="purpose">
                    <value>Storage</value>
                </Data>
                <Data name="construction">
                    <value>Natural</value>
                </Data>
                <Data name="condition">
                    <value>Needs Maintenance</value>
                </Data>
                <Data name="print_order">
                    <value>105</value>
                </Data>
                <Data name="wb_id">
                    <value>Sc/Sern/02</value>
                </Data>
                <Data name="storage_capacity">
                    <value>1123.0</value>
                </Data>
                <Data name="wb_surface_id">
                    <value>981</value>
                </Data>
                <Data name="created_at">
                    <value>2020-02-28 15:24:34</value>
                </Data>
                <Data name="updated_at">
                    <value>2023-07-22 14:03:14.307690</value>
                </Data>
                <Data name="book_id">
                    <value>5</value>
                </Data>
                <Data name="owners">
                    <value>Jose Joaquim Audifacio Francisco COsta D ias
Viola Isabella Fernandes e Dias alias Vi ola Isabella Dias</value>
                </Data>
                <Data name="label_x">
                    <value>987635.0</value>
                </Data>
                <Data name="label_y">
                    <value>986565.516376814</value>
                </Data>
            </ExtendedData>
            <Point id="66540">
                <coordinates>73.922392926,15.267625007,0.0</coordinates>
            </Point>
        </Placemark>
        <Placemark id="66573">
            <ExtendedData>
                <Data name="direction">
                    <value>https://maps.google.com?q=15.26803,73.92133&amp;t=h</value>
                </Data>
                <Data name="id">
                    <value>2054</value>
                </Data>
                <Data name="name">
                    <value>Pad-Bandh</value>
                </Data>
                <Data name="taluka">
                    <value>Salcete</value>
                </Data>
                <Data name="syno">
                    <value>25</value>
                </Data>
                <Data name="subdiv">
                    <value>5</value>
                </Data>
                <Data name="village">
                    <value>Sernabatim</value>
                </Data>
                <Data name="latitude">
                    <value>15.26803</value>
                </Data>
                <Data name="longitude">
                    <value>73.92133</value>
                </Data>
                <Data name="photo_1">
                    <value>DCIM/20211220090246814.jpg</value>
                </Data>
                <Data name="photo_2">
                    <value>DCIM/20211220090258107.jpg</value>
                </Data>
                <Data name="constituency">
                    <value>32 - Benaulim</value>
                </Data>
                <Data name="status">
                    <value>Completed</value>
                </Data>
                <Data name="panchayat">
                    <value>Colva</value>
                </Data>
                <Data name="wb_type">
                    <value>Pond</value>
                </Data>
                <Data name="owner_type">
                    <value>Private</value>
                </Data>
                <Data name="purpose">
                    <value>Irrigation</value>
                </Data>
                <Data name="construction">
                    <value>Natural</value>
                </Data>
                <Data name="condition">
                    <value>Needs Maintenance</value>
                </Data>
                <Data name="print_order">
                    <value>108</value>
                </Data>
                <Data name="wb_id">
                    <value>Sc/Sern/05</value>
                </Data>
                <Data name="storage_capacity">
                    <value>283.0</value>
                </Data>
                <Data name="wb_surface_id">
                    <value>980</value>
                </Data>
                <Data name="created_at">
                    <value>2020-02-28 15:24:34</value>
                </Data>
                <Data name="updated_at">
                    <value>2023-07-22 14:03:14.307690</value>
                </Data>
                <Data name="book_id">
                    <value>5</value>
                </Data>
                <Data name="owners">
                    <value>Dr Juse Menino Mascarenhas</value>
                </Data>
                <Data name="label_x">
                    <value>987635.0</value>
                </Data>
                <Data name="label_y">
                    <value>986915.516376814</value>
                </Data>
            </ExtendedData>
            <Point id="66572">
                <coordinates>73.921326764,15.268025512,0.0</coordinates>
            </Point>
        </Placemark>
        <Placemark id="66605">
            <ExtendedData>
                <Data name="direction">
                    <value>https://maps.google.com?q=15.2629,73.92076&amp;t=h</value>
                </Data>
                <Data name="id">
                    <value>2052</value>
                </Data>
                <Data name="name">
                    <value>Adamjoi</value>
                </Data>
                <Data name="taluka">
                    <value>Salcete</value>
                </Data>
                <Data name="syno">
                    <value>8</value>
                </Data>
                <Data name="subdiv">
                    <value>6</value>
                </Data>
                <Data name="village">
                    <value>Sernabatim</value>
                </Data>
                <Data name="latitude">
                    <value>15.2629</value>
                </Data>
                <Data name="longitude">
                    <value>73.92076</value>
                </Data>
                <Data name="photo_1">
                    <value>DCIM/20211220093512137.jpg</value>
                </Data>
                <Data name="photo_2">
                    <value>DCIM/20211220093528070.jpg</value>
                </Data>
                <Data name="constituency">
                    <value>32 - Benaulim</value>
                </Data>
                <Data name="status">
                    <value>Completed</value>
                </Data>
                <Data name="panchayat">
                    <value>Colva</value>
                </Data>
                <Data name="wb_type">
                    <value>Pond</value>
                </Data>
                <Data name="owner_type">
                    <value>Private</value>
                </Data>
                <Data name="purpose">
                    <value>Irrigation</value>
                </Data>
                <Data name="construction">
                    <value>Natural</value>
                </Data>
                <Data name="condition">
                    <value>Needs Maintenance</value>
                </Data>
                <Data name="print_order">
                    <value>112</value>
                </Data>
                <Data name="wb_id">
                    <value>Sc/Sern/09</value>
                </Data>
                <Data name="storage_capacity">
                    <value>135.0</value>
                </Data>
                <Data name="wb_surface_id">
                    <value>977</value>
                </Data>
                <Data name="created_at">
                    <value>2020-02-28 15:24:34</value>
                </Data>
                <Data name="updated_at">
                    <value>2023-07-22 14:03:14.307690</value>
                </Data>
                <Data name="book_id">
                    <value>5</value>
                </Data>
                <Data name="owners">
                    <value>Anand Narayan Katkar 1/3
Upendra Narayan Katkar 2/3</value>
                </Data>
                <Data name="label_x">
                    <value>987635.0</value>
                </Data>
                <Data name="label_y">
                    <value>985165.516376814</value>
                </Data>
            </ExtendedData>
            <Point id="66604">
                <coordinates>73.920762267,15.262898571,0.0</coordinates>
            </Point>
        </Placemark>
        <Placemark id="66637">
            <ExtendedData>
                <Data name="direction">
                    <value>https://maps.google.com?q=15.26188,73.9207&amp;t=h</value>
                </Data>
                <Data name="id">
                    <value>3706</value>
                </Data>
                <Data name="name">
                    <value>Adampoi.</value>
                </Data>
                <Data name="taluka">
                    <value>Salcete</value>
                </Data>
                <Data name="syno">
                    <value>9</value>
                </Data>
                <Data name="subdiv">
                    <value>5</value>
                </Data>
                <Data name="village">
                    <value>Sernabatim</value>
                </Data>
                <Data name="latitude">
                    <value>15.26188</value>
                </Data>
                <Data name="longitude">
                    <value>73.9207</value>
                </Data>
                <Data name="photo_1">
                    <value>DCIM/20211220093740066.jpg</value>
                </Data>
                <Data name="photo_2">
                    <value>DCIM/20211220093817793.jpg</value>
                </Data>
                <Data name="constituency">
                    <value>32 - Benaulim</value>
                </Data>
                <Data name="status">
                    <value>Completed</value>
                </Data>
                <Data name="panchayat">
                    <value>Colva</value>
                </Data>
                <Data name="wb_type">
                    <value>Pond</value>
                </Data>
                <Data name="owner_type">
                    <value>Private</value>
                </Data>
                <Data name="purpose">
                    <value>Storage</value>
                </Data>
                <Data name="construction">
                    <value>Natural</value>
                </Data>
                <Data name="condition">
                    <value>Needs Maintenance</value>
                </Data>
                <Data name="print_order">
                    <value>111</value>
                </Data>
                <Data name="wb_id">
                    <value>Sc/Sern/08</value>
                </Data>
                <Data name="storage_capacity">
                    <value>142.0</value>
                </Data>
                <Data name="wb_surface_id">
                    <value>2225</value>
                </Data>
                <Data name="created_at">
                    <value>2021-03-24 05:06:20.212692</value>
                </Data>
                <Data name="updated_at">
                    <value>2023-07-22 14:03:14.307690</value>
                </Data>
                <Data name="book_id">
                    <value>5</value>
                </Data>
                <Data name="owners">
                    <value>Wellington Retreats and Resorts (India) Private Limited</value>
                </Data>
                <Data name="label_x">
                    <value>987635.0</value>
                </Data>
                <Data name="label_y">
                    <value>984815.516376814</value>
                </Data>
            </ExtendedData>
            <Point id="66636">
                <coordinates>73.920699413,15.261884165,0.0</coordinates>
            </Point>
        </Placemark>
        <Placemark id="66669">
            <ExtendedData>
                <Data name="direction">
                    <value>https://maps.google.com?q=15.26512,73.9237&amp;t=h</value>
                </Data>
                <Data name="id">
                    <value>3707</value>
                </Data>
                <Data name="name">
                    <value>Camargoli</value>
                </Data>
                <Data name="taluka">
                    <value>Salcete</value>
                </Data>
                <Data name="syno">
                    <value>3</value>
                </Data>
                <Data name="subdiv">
                    <value>9</value>
                </Data>
                <Data name="village">
                    <value>Sernabatim</value>
                </Data>
                <Data name="latitude">
                    <value>15.26512</value>
                </Data>
                <Data name="longitude">
                    <value>73.9237</value>
                </Data>
                <Data name="photo_1">
                    <value>DCIM/20220105153943692.jpg</value>
                </Data>
                <Data name="photo_2">
                    <value>DCIM/20220105153955811.jpg</value>
                </Data>
                <Data name="constituency">
                    <value>32 - Benaulim</value>
                </Data>
                <Data name="status">
                    <value>Completed</value>
                </Data>
                <Data name="panchayat">
                    <value>Colva</value>
                </Data>
                <Data name="wb_type">
                    <value>Pond</value>
                </Data>
                <Data name="owner_type">
                    <value>Communidade</value>
                </Data>
                <Data name="purpose">
                    <value>Storage</value>
                </Data>
                <Data name="construction">
                    <value>Natural</value>
                </Data>
                <Data name="condition">
                    <value>Needs Maintenance</value>
                </Data>
                <Data name="print_order">
                    <value>107</value>
                </Data>
                <Data name="wb_id">
                    <value>Sc/Sern/04</value>
                </Data>
                <Data name="storage_capacity">
                    <value>297.0</value>
                </Data>
                <Data name="wb_surface_id">
                    <value>2226</value>
                </Data>
                <Data name="created_at">
                    <value>2021-03-24 05:06:20.212692</value>
                </Data>
                <Data name="updated_at">
                    <value>2023-07-22 14:03:14.307690</value>
                </Data>
                <Data name="book_id">
                    <value>5</value>
                </Data>
                <Data name="owners">
                    <value>Communidade</value>
                </Data>
                <Data name="label_x">
                    <value>987635.0</value>
                </Data>
                <Data name="label_y">
                    <value>985515.516376814</value>
                </Data>
            </ExtendedData>
            <Point id="66668">
                <coordinates>73.923695798,15.265120934,0.0</coordinates>
            </Point>
        </Placemark>
        <Placemark id="66701">
            <ExtendedData>
                <Data name="direction">
                    <value>https://maps.google.com?q=15.26761,73.91904&amp;t=h</value>
                </Data>
                <Data name="id">
                    <value>2055</value>
                </Data>
                <Data name="name">
                    <value>Praya</value>
                </Data>
                <Data name="taluka">
                    <value>Salcete</value>
                </Data>
                <Data name="syno">
                    <value>27</value>
                </Data>
                <Data name="subdiv">
                    <value>2</value>
                </Data>
                <Data name="village">
                    <value>Sernabatim</value>
                </Data>
                <Data name="latitude">
                    <value>15.26761</value>
                </Data>
                <Data name="longitude">
                    <value>73.91904</value>
                </Data>
                <Data name="photo_1">
                    <value>DCIM/20211220095417279.jpg</value>
                </Data>
                <Data name="photo_2">
                    <value>DCIM/20211220095426476.jpg</value>
                </Data>
                <Data name="constituency">
                    <value>32 - Benaulim</value>
                </Data>
                <Data name="status">
                    <value>Completed</value>
                </Data>
                <Data name="panchayat">
                    <value>Colva</value>
                </Data>
                <Data name="wb_type">
                    <value>Pond</value>
                </Data>
                <Data name="owner_type">
                    <value>Private</value>
                </Data>
                <Data name="purpose">
                    <value>Storage</value>
                </Data>
                <Data name="construction">
                    <value>Natural</value>
                </Data>
                <Data name="condition">
                    <value>Needs Maintenance</value>
                </Data>
                <Data name="print_order">
                    <value>109</value>
                </Data>
                <Data name="wb_id">
                    <value>Sc/Sern/06</value>
                </Data>
                <Data name="storage_capacity">
                    <value>176.0</value>
                </Data>
                <Data name="wb_surface_id">
                    <value>979</value>
                </Data>
                <Data name="created_at">
                    <value>2020-02-28 15:24:34</value>
                </Data>
                <Data name="updated_at">
                    <value>2023-07-22 14:03:14.307690</value>
                </Data>
                <Data name="book_id">
                    <value>5</value>
                </Data>
                <Data name="owners">
                    <value>Wilton D'Costa</value>
                </Data>
                <Data name="label_x">
                    <value>987635.0</value>
                </Data>
                <Data name="label_y">
                    <value>987265.516376814</value>
                </Data>
            </ExtendedData>
            <Point id="66700">
                <coordinates>73.919040103,15.267607489,0.0</coordinates>
            </Point>
        </Placemark>
        <Placemark id="66733">
            <ExtendedData>
                <Data name="direction">
                    <value>https://maps.google.com?q=15.27313,73.9245&amp;t=h</value>
                </Data>
                <Data name="id">
                    <value>3708</value>
                </Data>
                <Data name="name">
                    <value>Model Ghal</value>
                </Data>
                <Data name="taluka">
                    <value>Salcete</value>
                </Data>
                <Data name="syno">
                    <value>56</value>
                </Data>
                <Data name="subdiv">
                    <value>2</value>
                </Data>
                <Data name="village">
                    <value>Sernabatim</value>
                </Data>
                <Data name="latitude">
                    <value>15.27313</value>
                </Data>
                <Data name="longitude">
                    <value>73.9245</value>
                </Data>
                <Data name="photo_1">
                    <value>DCIM/20220105105211876.jpg</value>
                </Data>
                <Data name="photo_2">
                    <value>DCIM/20220105105224982.jpg</value>
                </Data>
                <Data name="constituency">
                    <value>32 - Benaulim</value>
                </Data>
                <Data name="status">
                    <value>Completed</value>
                </Data>
                <Data name="panchayat">
                    <value>Colva</value>
                </Data>
                <Data name="wb_type">
                    <value>Pond</value>
                </Data>
                <Data name="owner_type">
                    <value>Private</value>
                </Data>
                <Data name="purpose">
                    <value>Storage</value>
                </Data>
                <Data name="construction">
                    <value>Natural</value>
                </Data>
                <Data name="condition">
                    <value>Needs Maintenance</value>
                </Data>
                <Data name="print_order">
                    <value>113</value>
                </Data>
                <Data name="wb_id">
                    <value>Sc/Sern/10</value>
                </Data>
                <Data name="storage_capacity">
                    <value>108.0</value>
                </Data>
                <Data name="wb_surface_id">
                    <value>2227</value>
                </Data>
                <Data name="created_at">
                    <value>2021-03-24 05:01:21.019284</value>
                </Data>
                <Data name="updated_at">
                    <value>2023-07-22 14:03:14.307690</value>
                </Data>
                <Data name="book_id">
                    <value>5</value>
                </Data>
                <Data name="owners">
                    <value>Delenie Alvynia Barretto
Demelsa Epifania Barretto</value>
                </Data>
                <Data name="label_x">
                    <value>987635.0</value>
                </Data>
                <Data name="label_y">
                    <value>987615.516376814</value>
                </Data>
            </ExtendedData>
            <Point id="66732">
                <coordinates>73.924499198,15.273125373,0.0</coordinates>
            </Point>
        </Placemark>
        <Placemark id="66765">
            <ExtendedData>
                <Data name="direction">
                    <value>https://maps.google.com?q=15.26325,73.92242&amp;t=h</value>
                </Data>
                <Data name="id">
                    <value>2051</value>
                </Data>
                <Data name="name">
                    <value>Sernabatim Tollem; Tolem</value>
                </Data>
                <Data name="taluka">
                    <value>Salcete</value>
                </Data>
                <Data name="syno">
                    <value>5</value>
                </Data>
                <Data name="subdiv">
                    <value>4</value>
                </Data>
                <Data name="village">
                    <value>Sernabatim</value>
                </Data>
                <Data name="latitude">
                    <value>15.26325</value>
                </Data>
                <Data name="longitude">
                    <value>73.92242</value>
                </Data>
                <Data name="photo_1">
                    <value>DCIM/20210915113944774.jpg</value>
                </Data>
                <Data name="photo_2">
                    <value>DCIM/20210915113953869.jpg</value>
                </Data>
                <Data name="constituency">
                    <value>32 - Benaulim</value>
                </Data>
                <Data name="status">
                    <value>Completed</value>
                </Data>
                <Data name="panchayat">
                    <value>Colva</value>
                </Data>
                <Data name="wb_type">
                    <value>Lake</value>
                </Data>
                <Data name="owner_type">
                    <value>Public</value>
                </Data>
                <Data name="purpose">
                    <value>Irrigation</value>
                </Data>
                <Data name="construction">
                    <value>Natural</value>
                </Data>
                <Data name="condition">
                    <value>Needs Maintenance</value>
                </Data>
                <Data name="print_order">
                    <value>007</value>
                </Data>
                <Data name="wb_id">
                    <value>Sc/Sern/01</value>
                </Data>
                <Data name="storage_capacity">
                    <value>12151.0</value>
                </Data>
                <Data name="wb_surface_id">
                    <value>978</value>
                </Data>
                <Data name="created_at">
                    <value>2020-02-28 15:24:34</value>
                </Data>
                <Data name="updated_at">
                    <value>2023-07-22 14:03:14.307690</value>
                </Data>
                <Data name="book_id">
                    <value>5</value>
                </Data>
                <Data name="owners">
                    <value>Communidade
The Executive Engineer, W.D VI (R and B), P.W.D., Fatorda Margao Goa.</value>
                </Data>
                <Data name="label_x">
                    <value>987635.0</value>
                </Data>
                <Data name="label_y">
                    <value>984465.516376814</value>
                </Data>
            </ExtendedData>
            <Point id="66764">
                <coordinates>73.922418892,15.263247906,0.0</coordinates>
            </Point>
        </Placemark>
        <Placemark id="66797">
            <ExtendedData>
                <Data name="direction">
                    <value>https://maps.google.com?q=15.26407,73.9201&amp;t=h</value>
                </Data>
                <Data name="id">
                    <value>3855</value>
                </Data>
                <Data name="name">
                    <value>Adampoi</value>
                </Data>
                <Data name="taluka">
                    <value>Salcete</value>
                </Data>
                <Data name="syno">
                    <value>14</value>
                </Data>
                <Data name="subdiv">
                    <value>9</value>
                </Data>
                <Data name="village">
                    <value>Sernabatim</value>
                </Data>
                <Data name="latitude">
                    <value>15.26407</value>
                </Data>
                <Data name="longitude">
                    <value>73.9201</value>
                </Data>
                <Data name="photo_1">
                    <value>DCIM/20210915114935738.jpg</value>
                </Data>
                <Data name="photo_2">
                    <value>DCIM/20210915114946333.jpg</value>
                </Data>
                <Data name="constituency">
                    <value>32 - Benaulim</value>
                </Data>
                <Data name="status">
                    <value>Completed</value>
                </Data>
                <Data name="panchayat">
                    <value>Colva</value>
                </Data>
                <Data name="wb_type">
                    <value>Pond</value>
                </Data>
                <Data name="owner_type">
                    <value>Private</value>
                </Data>
                <Data name="purpose">
                    <value>Irrigation</value>
                </Data>
                <Data name="construction">
                    <value>Natural</value>
                </Data>
                <Data name="condition">
                    <value>Needs Maintenance</value>
                </Data>
                <Data name="print_order">
                    <value>106</value>
                </Data>
                <Data name="wb_id">
                    <value>Sc/Sern/03</value>
                </Data>
                <Data name="storage_capacity">
                    <value>379.0</value>
                </Data>
                <Data name="wb_surface_id">
                    <value>2556</value>
                </Data>
                <Data name="created_at">
                    <value>2021-09-15 00:00:00</value>
                </Data>
                <Data name="updated_at">
                    <value>2023-07-22 14:03:14.307690</value>
                </Data>
                <Data name="book_id">
                    <value>5</value>
                </Data>
                <Data name="owners">
                    <value>Antonio Olinto Modestino D'Silva
Joao De Deus Oscar Aderita D'Silva
Luis Eugenio Gracy D'Silva
Maria Aldevina Dules Antao e Silva</value>
                </Data>
                <Data name="label_x">
                    <value>987635.0</value>
                </Data>
                <Data name="label_y">
                    <value>985865.516376814</value>
                </Data>
            </ExtendedData>
            <Point id="66796">
                <coordinates>73.920099268,15.264068321,0.0</coordinates>
            </Point>
        </Placemark>
    </Document>
</kml>
