<?xml version="1.0" encoding="UTF-8"?>
<kml xmlns="http://www.opengis.net/kml/2.2" xmlns:gx="http://www.google.com/kml/ext/2.2">
    <Document id="69397">
        <Placemark id="69399">
            <ExtendedData>
                <Data name="direction">
                    <value>https://maps.google.com?q=15.27359,73.9299&amp;t=h</value>
                </Data>
                <Data name="id">
                    <value>4246</value>
                </Data>
                <Data name="name">
                    <value>Gulset</value>
                </Data>
                <Data name="taluka">
                    <value>Salcete</value>
                </Data>
                <Data name="syno">
                    <value>25</value>
                </Data>
                <Data name="subdiv">
                    <value>3</value>
                </Data>
                <Data name="village">
                    <value>Vanelim</value>
                </Data>
                <Data name="latitude">
                    <value>15.27359</value>
                </Data>
                <Data name="longitude">
                    <value>73.9299</value>
                </Data>
                <Data name="photo_1">
                    <value>DCIM/20211220054850447.jpg</value>
                </Data>
                <Data name="photo_2">
                    <value>DCIM/20211220054859466.jpg</value>
                </Data>
                <Data name="constituency">
                    <value>32 - Benaulim</value>
                </Data>
                <Data name="status">
                    <value>Completed</value>
                </Data>
                <Data name="panchayat">
                    <value>Colva</value>
                </Data>
                <Data name="wb_type">
                    <value>Pond</value>
                </Data>
                <Data name="owner_type">
                    <value>Private</value>
                </Data>
                <Data name="purpose">
                    <value>Irrigation</value>
                </Data>
                <Data name="construction">
                    <value>Natural</value>
                </Data>
                <Data name="condition">
                    <value>Needs Maintenance</value>
                </Data>
                <Data name="print_order">
                    <value>064</value>
                </Data>
                <Data name="wb_id">
                    <value>Sc/Vane/08</value>
                </Data>
                <Data name="storage_capacity">
                    <value>212.0</value>
                </Data>
                <Data name="wb_surface_id">
                    <value>2962</value>
                </Data>
                <Data name="created_at">
                    <value>2021-12-20 00:00:00</value>
                </Data>
                <Data name="updated_at">
                    <value>2023-07-22 14:03:14.307690</value>
                </Data>
                <Data name="book_id">
                    <value>6</value>
                </Data>
                <Data name="owners">
                    <value>Luis Caetano Antonio Clemente Misquita alias Clemente Mesquita
Maria Felecidade Filomena Costa Alvares
Sandra Carmen Vas
Vicente De Paula Antonio Clemente Mesquita alias Paulo Clemente Mesquita</value>
                </Data>
                <Data name="label_x">
                    <value>1008334.0</value>
                </Data>
                <Data name="label_y">
                    <value>996763.801375261</value>
                </Data>
            </ExtendedData>
            <Point id="69398">
                <coordinates>73.929900907,15.273594513,0.0</coordinates>
            </Point>
        </Placemark>
        <Placemark id="69431">
            <ExtendedData>
                <Data name="direction">
                    <value>https://maps.google.com?q=15.2706,73.92597&amp;t=h</value>
                </Data>
                <Data name="id">
                    <value>2164</value>
                </Data>
                <Data name="name">
                    <value>--</value>
                </Data>
                <Data name="taluka">
                    <value>Salcete</value>
                </Data>
                <Data name="syno">
                    <value>52</value>
                </Data>
                <Data name="subdiv">
                    <value>5</value>
                </Data>
                <Data name="village">
                    <value>Vanelim</value>
                </Data>
                <Data name="latitude">
                    <value>15.2706</value>
                </Data>
                <Data name="longitude">
                    <value>73.92597</value>
                </Data>
                <Data name="photo_1">
                    <value>DCIM/20220105152305729.jpg</value>
                </Data>
                <Data name="photo_2">
                    <value>DCIM/20220105152313381.jpg</value>
                </Data>
                <Data name="constituency">
                    <value>32 - Benaulim</value>
                </Data>
                <Data name="status">
                    <value>Completed</value>
                </Data>
                <Data name="panchayat">
                    <value>Colva</value>
                </Data>
                <Data name="wb_type">
                    <value>Pond</value>
                </Data>
                <Data name="owner_type">
                    <value>Communidade</value>
                </Data>
                <Data name="purpose">
                    <value>Storage</value>
                </Data>
                <Data name="construction">
                    <value>Natural/Man Made</value>
                </Data>
                <Data name="condition">
                    <value>Needs Maintenance</value>
                </Data>
                <Data name="print_order">
                    <value>059</value>
                </Data>
                <Data name="wb_id">
                    <value>Sc/Vane/03</value>
                </Data>
                <Data name="storage_capacity">
                    <value>1482.0</value>
                </Data>
                <Data name="wb_surface_id">
                    <value>983</value>
                </Data>
                <Data name="created_at">
                    <value>2020-02-28 15:24:34</value>
                </Data>
                <Data name="updated_at">
                    <value>2023-07-22 14:03:14.307690</value>
                </Data>
                <Data name="book_id">
                    <value>6</value>
                </Data>
                <Data name="owners">
                    <value>Communidade</value>
                </Data>
                <Data name="label_x">
                    <value>987634.0</value>
                </Data>
                <Data name="label_y">
                    <value>1000877.595217547</value>
                </Data>
            </ExtendedData>
            <Point id="69430">
                <coordinates>73.925973501,15.270598103,0.0</coordinates>
            </Point>
        </Placemark>
        <Placemark id="69463">
            <ExtendedData>
                <Data name="direction">
                    <value>https://maps.google.com?q=15.27998,73.92813&amp;t=h</value>
                </Data>
                <Data name="id">
                    <value>4152</value>
                </Data>
                <Data name="name">
                    <value>--</value>
                </Data>
                <Data name="taluka">
                    <value>Salcete</value>
                </Data>
                <Data name="syno">
                    <value>0</value>
                </Data>
                <Data name="subdiv">
                    <value>South of 14</value>
                </Data>
                <Data name="village">
                    <value>Vanelim</value>
                </Data>
                <Data name="latitude">
                    <value>15.27998</value>
                </Data>
                <Data name="longitude">
                    <value>73.92813</value>
                </Data>
                <Data name="photo_1">
                    <value>DCIM/20211220113305483.jpg</value>
                </Data>
                <Data name="photo_2">
                    <value>DCIM/20211220113215179.jpg</value>
                </Data>
                <Data name="constituency">
                    <value>32 - Benaulim</value>
                </Data>
                <Data name="status">
                    <value>Completed</value>
                </Data>
                <Data name="panchayat">
                    <value>Colva</value>
                </Data>
                <Data name="wb_type">
                    <value>Pond</value>
                </Data>
                <Data name="owner_type">
                    <value>Public</value>
                </Data>
                <Data name="purpose">
                    <value>Storage</value>
                </Data>
                <Data name="construction">
                    <value>Natural</value>
                </Data>
                <Data name="condition">
                    <value>Needs Maintenance</value>
                </Data>
                <Data name="print_order">
                    <value>062</value>
                </Data>
                <Data name="wb_id">
                    <value>Sc/Vane/06</value>
                </Data>
                <Data name="storage_capacity">
                    <value>445.0</value>
                </Data>
                <Data name="wb_surface_id">
                    <value>2889</value>
                </Data>
                <Data name="created_at">
                    <value>2021-11-28 08:32:03.235810</value>
                </Data>
                <Data name="updated_at">
                    <value>2023-07-22 14:03:14.307690</value>
                </Data>
                <Data name="book_id">
                    <value>6</value>
                </Data>
                <Data name="owners">
                    <value>Govt. of Goa</value>
                </Data>
                <Data name="label_x">
                    <value>1008334.0</value>
                </Data>
                <Data name="label_y">
                    <value>997463.801375261</value>
                </Data>
            </ExtendedData>
            <Point id="69462">
                <coordinates>73.928132089,15.279977803,0.0</coordinates>
            </Point>
        </Placemark>
        <Placemark id="69495">
            <ExtendedData>
                <Data name="direction">
                    <value>https://maps.google.com?q=15.27415,73.92515&amp;t=h</value>
                </Data>
                <Data name="id">
                    <value>2162</value>
                </Data>
                <Data name="name">
                    <value>Bangara Bhat</value>
                </Data>
                <Data name="taluka">
                    <value>Salcete</value>
                </Data>
                <Data name="syno">
                    <value>59</value>
                </Data>
                <Data name="subdiv">
                    <value>1</value>
                </Data>
                <Data name="village">
                    <value>Vanelim</value>
                </Data>
                <Data name="latitude">
                    <value>15.27415</value>
                </Data>
                <Data name="longitude">
                    <value>73.92515</value>
                </Data>
                <Data name="photo_1">
                    <value>DCIM/20220105105547348.jpg</value>
                </Data>
                <Data name="photo_2">
                    <value>DCIM/20220105105554909.jpg</value>
                </Data>
                <Data name="constituency">
                    <value>32 - Benaulim</value>
                </Data>
                <Data name="status">
                    <value>Completed</value>
                </Data>
                <Data name="panchayat">
                    <value>Colva</value>
                </Data>
                <Data name="wb_type">
                    <value>Pond</value>
                </Data>
                <Data name="owner_type">
                    <value>Private</value>
                </Data>
                <Data name="purpose">
                    <value>Storage</value>
                </Data>
                <Data name="construction">
                    <value>Natural</value>
                </Data>
                <Data name="condition">
                    <value>Needs Maintenance</value>
                </Data>
                <Data name="print_order">
                    <value>067</value>
                </Data>
                <Data name="wb_id">
                    <value>Sc/Vane/11</value>
                </Data>
                <Data name="storage_capacity">
                    <value>117.0</value>
                </Data>
                <Data name="wb_surface_id">
                    <value>998</value>
                </Data>
                <Data name="created_at">
                    <value>2020-02-28 15:24:34</value>
                </Data>
                <Data name="updated_at">
                    <value>2023-07-22 14:03:14.307690</value>
                </Data>
                <Data name="book_id">
                    <value>6</value>
                </Data>
                <Data name="owners">
                    <value>Fernando Aluisio das Angustias Fernandes</value>
                </Data>
                <Data name="label_x">
                    <value>987634.0</value>
                </Data>
                <Data name="label_y">
                    <value>1001577.595217547</value>
                </Data>
            </ExtendedData>
            <Point id="69494">
                <coordinates>73.925147413,15.274149421,0.0</coordinates>
            </Point>
        </Placemark>
        <Placemark id="69527">
            <ExtendedData>
                <Data name="direction">
                    <value>https://maps.google.com?q=15.27001,73.92526&amp;t=h</value>
                </Data>
                <Data name="id">
                    <value>2166</value>
                </Data>
                <Data name="name">
                    <value>Gallialo</value>
                </Data>
                <Data name="taluka">
                    <value>Salcete</value>
                </Data>
                <Data name="syno">
                    <value>50</value>
                </Data>
                <Data name="subdiv">
                    <value>4</value>
                </Data>
                <Data name="village">
                    <value>Vanelim</value>
                </Data>
                <Data name="latitude">
                    <value>15.27001</value>
                </Data>
                <Data name="longitude">
                    <value>73.92526</value>
                </Data>
                <Data name="photo_1">
                    <value>DCIM/20220105151911661.jpg</value>
                </Data>
                <Data name="photo_2">
                    <value>DCIM/20220105151922148.jpg</value>
                </Data>
                <Data name="constituency">
                    <value>32 - Benaulim</value>
                </Data>
                <Data name="status">
                    <value>Completed</value>
                </Data>
                <Data name="panchayat">
                    <value>Colva</value>
                </Data>
                <Data name="wb_type">
                    <value>Pond</value>
                </Data>
                <Data name="owner_type">
                    <value>Public</value>
                </Data>
                <Data name="purpose">
                    <value>Storage</value>
                </Data>
                <Data name="construction">
                    <value>Natural</value>
                </Data>
                <Data name="condition">
                    <value>Needs Maintenance</value>
                </Data>
                <Data name="print_order">
                    <value>066</value>
                </Data>
                <Data name="wb_id">
                    <value>Sc/Vane/10</value>
                </Data>
                <Data name="storage_capacity">
                    <value>147.0</value>
                </Data>
                <Data name="wb_surface_id">
                    <value>984</value>
                </Data>
                <Data name="created_at">
                    <value>2020-02-28 15:24:34</value>
                </Data>
                <Data name="updated_at">
                    <value>2023-07-22 14:03:14.307690</value>
                </Data>
                <Data name="book_id">
                    <value>6</value>
                </Data>
                <Data name="owners">
                    <value>Communidade
The Executive Engineer, W.D VI (R and B), P.W.D., Fatorda Margao Goa</value>
                </Data>
                <Data name="label_x">
                    <value>987634.0</value>
                </Data>
                <Data name="label_y">
                    <value>999477.595217547</value>
                </Data>
            </ExtendedData>
            <Point id="69526">
                <coordinates>73.925264463,15.270010886,0.0</coordinates>
            </Point>
        </Placemark>
        <Placemark id="69559">
            <ExtendedData>
                <Data name="direction">
                    <value>https://maps.google.com?q=15.27315,73.92498&amp;t=h</value>
                </Data>
                <Data name="id">
                    <value>2163</value>
                </Data>
                <Data name="name">
                    <value>Bangra Bhat</value>
                </Data>
                <Data name="taluka">
                    <value>Salcete</value>
                </Data>
                <Data name="syno">
                    <value>59</value>
                </Data>
                <Data name="subdiv">
                    <value>2</value>
                </Data>
                <Data name="village">
                    <value>Vanelim</value>
                </Data>
                <Data name="latitude">
                    <value>15.27315</value>
                </Data>
                <Data name="longitude">
                    <value>73.92498</value>
                </Data>
                <Data name="photo_1">
                    <value>DCIM/20220105105324083.jpg</value>
                </Data>
                <Data name="photo_2">
                    <value>DCIM/20220105105335931.jpg</value>
                </Data>
                <Data name="constituency">
                    <value>32 - Benaulim</value>
                </Data>
                <Data name="status">
                    <value>Completed</value>
                </Data>
                <Data name="panchayat">
                    <value>Colva</value>
                </Data>
                <Data name="wb_type">
                    <value>Pond</value>
                </Data>
                <Data name="owner_type">
                    <value>Private</value>
                </Data>
                <Data name="purpose">
                    <value>Storage</value>
                </Data>
                <Data name="construction">
                    <value>Natural</value>
                </Data>
                <Data name="condition">
                    <value>Needs Maintenance</value>
                </Data>
                <Data name="print_order">
                    <value>065</value>
                </Data>
                <Data name="wb_id">
                    <value>Sc/Vane/09</value>
                </Data>
                <Data name="storage_capacity">
                    <value>149.0</value>
                </Data>
                <Data name="wb_surface_id">
                    <value>997</value>
                </Data>
                <Data name="created_at">
                    <value>2020-02-28 15:24:34</value>
                </Data>
                <Data name="updated_at">
                    <value>2023-07-22 14:03:14.307690</value>
                </Data>
                <Data name="book_id">
                    <value>6</value>
                </Data>
                <Data name="owners">
                    <value>Francisco Xavier Silva</value>
                </Data>
                <Data name="label_x">
                    <value>987634.0</value>
                </Data>
                <Data name="label_y">
                    <value>999827.595217547</value>
                </Data>
            </ExtendedData>
            <Point id="69558">
                <coordinates>73.924977191,15.273151903,0.0</coordinates>
            </Point>
        </Placemark>
        <Placemark id="69591">
            <ExtendedData>
                <Data name="direction">
                    <value>https://maps.google.com?q=15.27369,73.92503&amp;t=h</value>
                </Data>
                <Data name="id">
                    <value>4308</value>
                </Data>
                <Data name="name">
                    <value>Bangara Bhat,Bangra Bhat</value>
                </Data>
                <Data name="taluka">
                    <value>Salcete</value>
                </Data>
                <Data name="syno">
                    <value>59</value>
                </Data>
                <Data name="subdiv">
                    <value>1-3</value>
                </Data>
                <Data name="village">
                    <value>Vanelim</value>
                </Data>
                <Data name="latitude">
                    <value>15.27369</value>
                </Data>
                <Data name="longitude">
                    <value>73.92503</value>
                </Data>
                <Data name="photo_1">
                    <value>DCIM/20220105105421154.jpg</value>
                </Data>
                <Data name="photo_2">
                    <value>DCIM/20220105105437191.jpg</value>
                </Data>
                <Data name="constituency">
                    <value>32 - Benaulim</value>
                </Data>
                <Data name="status">
                    <value>Completed</value>
                </Data>
                <Data name="panchayat">
                    <value>Colva</value>
                </Data>
                <Data name="wb_type">
                    <value>Pond</value>
                </Data>
                <Data name="owner_type">
                    <value>Private / Public</value>
                </Data>
                <Data name="purpose">
                    <value>Natural Collection</value>
                </Data>
                <Data name="construction">
                    <value>Natural</value>
                </Data>
                <Data name="condition">
                    <value>Needs Maintenance</value>
                </Data>
                <Data name="print_order">
                    <value>060</value>
                </Data>
                <Data name="wb_id">
                    <value>Sc/Vane/04</value>
                </Data>
                <Data name="storage_capacity">
                    <value>729.0</value>
                </Data>
                <Data name="wb_surface_id">
                    <value>3278</value>
                </Data>
                <Data name="created_at">
                    <value>2022-01-05 00:00:00</value>
                </Data>
                <Data name="updated_at">
                    <value>2023-07-22 14:03:14.307690</value>
                </Data>
                <Data name="book_id">
                    <value>6</value>
                </Data>
                <Data name="owners">
                    <value>Akar Creations Pvt. Ltd.
Fernando Aluisio das Angustias Fernandes
Francisco Xavier Silva
The Executive Engineer, W.D VI (R and B), P.W.D., Fatorda Margao Goa</value>
                </Data>
                <Data name="label_x">
                    <value>987634.0</value>
                </Data>
                <Data name="label_y">
                    <value>1000527.595217547</value>
                </Data>
            </ExtendedData>
            <Point id="69590">
                <coordinates>73.925029215,15.273693731,0.0</coordinates>
            </Point>
        </Placemark>
        <Placemark id="69623">
            <ExtendedData>
                <Data name="direction">
                    <value>https://maps.google.com?q=15.27183,73.93082&amp;t=h</value>
                </Data>
                <Data name="id">
                    <value>1399</value>
                </Data>
                <Data name="name">
                    <value>Galint</value>
                </Data>
                <Data name="taluka">
                    <value>Salcete</value>
                </Data>
                <Data name="syno">
                    <value>37</value>
                </Data>
                <Data name="subdiv">
                    <value>1-10</value>
                </Data>
                <Data name="village">
                    <value>Vanelim</value>
                </Data>
                <Data name="latitude">
                    <value>15.27183</value>
                </Data>
                <Data name="longitude">
                    <value>73.93082</value>
                </Data>
                <Data name="photo_1">
                    <value>DCIM/20211208090454874.jpg</value>
                </Data>
                <Data name="photo_2">
                    <value>DCIM/20211208090639192.jpg</value>
                </Data>
                <Data name="constituency">
                    <value>32 - Benaulim</value>
                </Data>
                <Data name="status">
                    <value>Completed</value>
                </Data>
                <Data name="panchayat">
                    <value>Colva</value>
                </Data>
                <Data name="wb_type">
                    <value>Pond</value>
                </Data>
                <Data name="owner_type">
                    <value>Public</value>
                </Data>
                <Data name="purpose">
                    <value>Natural Collection</value>
                </Data>
                <Data name="construction">
                    <value>Natural</value>
                </Data>
                <Data name="condition">
                    <value>Needs Maintenance</value>
                </Data>
                <Data name="print_order">
                    <value>057</value>
                </Data>
                <Data name="wb_id">
                    <value>Sc/Vane/01</value>
                </Data>
                <Data name="storage_capacity">
                    <value>16797.0</value>
                </Data>
                <Data name="wb_surface_id">
                    <value>990</value>
                </Data>
                <Data name="created_at">
                    <value>2020-02-28 15:24:34</value>
                </Data>
                <Data name="updated_at">
                    <value>2023-07-22 14:03:14.307690</value>
                </Data>
                <Data name="book_id">
                    <value>6</value>
                </Data>
                <Data name="owners">
                    <value>Antonia Fernandes
Communidade
Maria Aldevina Dulce Antao e Silva</value>
                </Data>
                <Data name="label_x">
                    <value>1008334.0</value>
                </Data>
                <Data name="label_y">
                    <value>996413.801375261</value>
                </Data>
            </ExtendedData>
            <Point id="69622">
                <coordinates>73.930823582,15.271828328,0.0</coordinates>
            </Point>
        </Placemark>
        <Placemark id="69655">
            <ExtendedData>
                <Data name="direction">
                    <value>https://maps.google.com?q=15.27079,73.92488&amp;t=h</value>
                </Data>
                <Data name="id">
                    <value>2165</value>
                </Data>
                <Data name="name">
                    <value>Gallialo</value>
                </Data>
                <Data name="taluka">
                    <value>Salcete</value>
                </Data>
                <Data name="syno">
                    <value>51</value>
                </Data>
                <Data name="subdiv">
                    <value>2</value>
                </Data>
                <Data name="village">
                    <value>Vanelim</value>
                </Data>
                <Data name="latitude">
                    <value>15.27079</value>
                </Data>
                <Data name="longitude">
                    <value>73.92488</value>
                </Data>
                <Data name="photo_1">
                    <value>DCIM/20210915120520167.jpg</value>
                </Data>
                <Data name="photo_2">
                    <value>DCIM/20210915120529291.jpg</value>
                </Data>
                <Data name="constituency">
                    <value>32 - Benaulim</value>
                </Data>
                <Data name="status">
                    <value>Completed</value>
                </Data>
                <Data name="panchayat">
                    <value>Colva</value>
                </Data>
                <Data name="wb_type">
                    <value>Pond</value>
                </Data>
                <Data name="owner_type">
                    <value>Public</value>
                </Data>
                <Data name="purpose">
                    <value>Storage</value>
                </Data>
                <Data name="construction">
                    <value>Natural</value>
                </Data>
                <Data name="condition">
                    <value>Needs Maintenance</value>
                </Data>
                <Data name="print_order">
                    <value>063</value>
                </Data>
                <Data name="wb_id">
                    <value>Sc/Vane/07</value>
                </Data>
                <Data name="storage_capacity">
                    <value>247.0</value>
                </Data>
                <Data name="wb_surface_id">
                    <value>982</value>
                </Data>
                <Data name="created_at">
                    <value>2020-02-28 15:24:34</value>
                </Data>
                <Data name="updated_at">
                    <value>2023-07-22 14:03:14.307690</value>
                </Data>
                <Data name="book_id">
                    <value>6</value>
                </Data>
                <Data name="owners">
                    <value>Communidade
The Executive Engineer, W.D VI (R and B), P.W.D., Fatorda Margao Goa</value>
                </Data>
                <Data name="label_x">
                    <value>987634.0</value>
                </Data>
                <Data name="label_y">
                    <value>999127.595217547</value>
                </Data>
            </ExtendedData>
            <Point id="69654">
                <coordinates>73.924879787,15.270788517,0.0</coordinates>
            </Point>
        </Placemark>
        <Placemark id="69687">
            <ExtendedData>
                <Data name="direction">
                    <value>https://maps.google.com?q=15.27445,73.9299&amp;t=h</value>
                </Data>
                <Data name="id">
                    <value>2171</value>
                </Data>
                <Data name="name">
                    <value>Modvolachi Toloy</value>
                </Data>
                <Data name="taluka">
                    <value>Salcete</value>
                </Data>
                <Data name="syno">
                    <value>25</value>
                </Data>
                <Data name="subdiv">
                    <value>1</value>
                </Data>
                <Data name="village">
                    <value>Vanelim</value>
                </Data>
                <Data name="latitude">
                    <value>15.27445</value>
                </Data>
                <Data name="longitude">
                    <value>73.9299</value>
                </Data>
                <Data name="photo_1">
                    <value>DCIM/20211220112233438.jpg</value>
                </Data>
                <Data name="photo_2">
                    <value>DCIM/20211220111651130.jpg</value>
                </Data>
                <Data name="constituency">
                    <value>32 - Benaulim</value>
                </Data>
                <Data name="status">
                    <value>Completed</value>
                </Data>
                <Data name="panchayat">
                    <value>Colva</value>
                </Data>
                <Data name="wb_type">
                    <value>Pond</value>
                </Data>
                <Data name="owner_type">
                    <value>Communidade</value>
                </Data>
                <Data name="purpose">
                    <value>Irrigation</value>
                </Data>
                <Data name="construction">
                    <value>Natural/Man Made</value>
                </Data>
                <Data name="condition">
                    <value>Needs Maintenance</value>
                </Data>
                <Data name="print_order">
                    <value>061</value>
                </Data>
                <Data name="wb_id">
                    <value>Sc/Vane/05</value>
                </Data>
                <Data name="storage_capacity">
                    <value>458.0</value>
                </Data>
                <Data name="wb_surface_id">
                    <value>995</value>
                </Data>
                <Data name="created_at">
                    <value>2020-02-28 15:24:34</value>
                </Data>
                <Data name="updated_at">
                    <value>2023-07-22 14:03:14.307690</value>
                </Data>
                <Data name="book_id">
                    <value>6</value>
                </Data>
                <Data name="owners">
                    <value>Communidade</value>
                </Data>
                <Data name="label_x">
                    <value>1008334.0</value>
                </Data>
                <Data name="label_y">
                    <value>997113.801375261</value>
                </Data>
            </ExtendedData>
            <Point id="69686">
                <coordinates>73.929896122,15.274445284,0.0</coordinates>
            </Point>
        </Placemark>
        <Placemark id="69719">
            <ExtendedData>
                <Data name="direction">
                    <value>https://maps.google.com?q=15.28592,73.92801&amp;t=h</value>
                </Data>
                <Data name="id">
                    <value>3713</value>
                </Data>
                <Data name="name">
                    <value>Shetoli</value>
                </Data>
                <Data name="taluka">
                    <value>Salcete</value>
                </Data>
                <Data name="syno">
                    <value>10</value>
                </Data>
                <Data name="subdiv">
                    <value>25</value>
                </Data>
                <Data name="village">
                    <value>Vanelim</value>
                </Data>
                <Data name="latitude">
                    <value>15.28592</value>
                </Data>
                <Data name="longitude">
                    <value>73.92801</value>
                </Data>
                <Data name="photo_1">
                    <value>DCIM/20210915123948408.jpg</value>
                </Data>
                <Data name="photo_2">
                    <value>DCIM/20210915123957868.jpg</value>
                </Data>
                <Data name="constituency">
                    <value>32 - Benaulim</value>
                </Data>
                <Data name="status">
                    <value>Completed</value>
                </Data>
                <Data name="panchayat">
                    <value>Colva</value>
                </Data>
                <Data name="wb_type">
                    <value>Pond</value>
                </Data>
                <Data name="owner_type">
                    <value>Communidade</value>
                </Data>
                <Data name="purpose">
                    <value>Irrigation</value>
                </Data>
                <Data name="construction">
                    <value>Natural</value>
                </Data>
                <Data name="condition">
                    <value>Needs Maintenance</value>
                </Data>
                <Data name="print_order">
                    <value>058</value>
                </Data>
                <Data name="wb_id">
                    <value>Sc/Vane/02</value>
                </Data>
                <Data name="storage_capacity">
                    <value>1714.0</value>
                </Data>
                <Data name="wb_surface_id">
                    <value>2230</value>
                </Data>
                <Data name="created_at">
                    <value>2021-03-24 05:47:44</value>
                </Data>
                <Data name="updated_at">
                    <value>2023-07-22 14:03:14.307690</value>
                </Data>
                <Data name="book_id">
                    <value>6</value>
                </Data>
                <Data name="owners">
                    <value>Communidade</value>
                </Data>
                <Data name="label_x">
                    <value>1008334.0</value>
                </Data>
                <Data name="label_y">
                    <value>997813.801375261</value>
                </Data>
            </ExtendedData>
            <Point id="69718">
                <coordinates>73.928008035,15.285917266,0.0</coordinates>
            </Point>
        </Placemark>
    </Document>
</kml>
