<?xml version="1.0" encoding="UTF-8"?>
<kml xmlns="http://www.opengis.net/kml/2.2" xmlns:gx="http://www.google.com/kml/ext/2.2">
    <Document id="72089">
        <Placemark id="72091">
            <ExtendedData>
                <Data name="direction">
                    <value>https://maps.google.com?q=15.15273,73.96467&amp;t=h</value>
                </Data>
                <Data name="id">
                    <value>2202</value>
                </Data>
                <Data name="name">
                    <value>Bandvottem Tollem; Banote</value>
                </Data>
                <Data name="taluka">
                    <value>Salcete</value>
                </Data>
                <Data name="syno">
                    <value>392</value>
                </Data>
                <Data name="subdiv">
                    <value>6</value>
                </Data>
                <Data name="village">
                    <value>Velim</value>
                </Data>
                <Data name="latitude">
                    <value>15.15273</value>
                </Data>
                <Data name="longitude">
                    <value>73.96467</value>
                </Data>
                <Data name="photo_1">
                    <value>DCIM/20210819162442730.jpg</value>
                </Data>
                <Data name="photo_2">
                    <value>DCIM/20210819162452703.jpg</value>
                </Data>
                <Data name="constituency">
                    <value>35 - Velim</value>
                </Data>
                <Data name="status">
                    <value>Completed</value>
                </Data>
                <Data name="panchayat">
                    <value>Velim</value>
                </Data>
                <Data name="wb_type">
                    <value>Tank</value>
                </Data>
                <Data name="owner_type">
                    <value>Communidade</value>
                </Data>
                <Data name="purpose">
                    <value>Irrigation</value>
                </Data>
                <Data name="construction">
                    <value>Man Made</value>
                </Data>
                <Data name="condition">
                    <value>Needs Maintenance</value>
                </Data>
                <Data name="print_order">
                    <value>161</value>
                </Data>
                <Data name="wb_id">
                    <value>Sc/Veli/01</value>
                </Data>
                <Data name="storage_capacity">
                    <value>7326.0</value>
                </Data>
                <Data name="wb_surface_id">
                    <value>875</value>
                </Data>
                <Data name="created_at">
                    <value>2020-02-28 15:24:34</value>
                </Data>
                <Data name="updated_at">
                    <value>2023-07-22 14:03:14.307690</value>
                </Data>
                <Data name="book_id">
                    <value>6</value>
                </Data>
                <Data name="owners">
                    <value>Communidade</value>
                </Data>
                <Data name="label_x">
                    <value>1008334.0</value>
                </Data>
                <Data name="label_y">
                    <value>974363.801375261</value>
                </Data>
            </ExtendedData>
            <Point id="72090">
                <coordinates>73.964671969,15.152733994,0.0</coordinates>
            </Point>
        </Placemark>
        <Placemark id="72123">
            <ExtendedData>
                <Data name="direction">
                    <value>https://maps.google.com?q=15.16448,73.9679&amp;t=h</value>
                </Data>
                <Data name="id">
                    <value>3809</value>
                </Data>
                <Data name="name">
                    <value>Pato</value>
                </Data>
                <Data name="taluka">
                    <value>Salcete</value>
                </Data>
                <Data name="syno">
                    <value>208</value>
                </Data>
                <Data name="subdiv">
                    <value>2</value>
                </Data>
                <Data name="village">
                    <value>Velim</value>
                </Data>
                <Data name="latitude">
                    <value>15.16448</value>
                </Data>
                <Data name="longitude">
                    <value>73.9679</value>
                </Data>
                <Data name="photo_1">
                    <value>DCIM/20210819163933683.jpg</value>
                </Data>
                <Data name="photo_2">
                    <value>DCIM/20210819163941347.jpg</value>
                </Data>
                <Data name="constituency">
                    <value>35 - Velim</value>
                </Data>
                <Data name="status">
                    <value>Completed</value>
                </Data>
                <Data name="panchayat">
                    <value>Velim</value>
                </Data>
                <Data name="wb_type">
                    <value>Pond</value>
                </Data>
                <Data name="owner_type">
                    <value>Communidade</value>
                </Data>
                <Data name="purpose">
                    <value>Irrigation</value>
                </Data>
                <Data name="construction">
                    <value>Natural</value>
                </Data>
                <Data name="condition">
                    <value>Needs Maintenance</value>
                </Data>
                <Data name="print_order">
                    <value>141</value>
                </Data>
                <Data name="wb_id">
                    <value>Sc/Veli/05</value>
                </Data>
                <Data name="storage_capacity">
                    <value>94.0</value>
                </Data>
                <Data name="wb_surface_id">
                    <value>2517</value>
                </Data>
                <Data name="created_at">
                    <value>2021-08-19 00:00:00</value>
                </Data>
                <Data name="updated_at">
                    <value>2023-07-22 14:03:14.307690</value>
                </Data>
                <Data name="book_id">
                    <value>6</value>
                </Data>
                <Data name="owners">
                    <value>Communidade</value>
                </Data>
                <Data name="label_x">
                    <value>1008334.0</value>
                </Data>
                <Data name="label_y">
                    <value>975763.801375261</value>
                </Data>
            </ExtendedData>
            <Point id="72122">
                <coordinates>73.967897449,15.164476886,0.0</coordinates>
            </Point>
        </Placemark>
        <Placemark id="72155">
            <ExtendedData>
                <Data name="direction">
                    <value>https://maps.google.com?q=15.16101,73.97581&amp;t=h</value>
                </Data>
                <Data name="id">
                    <value>2212</value>
                </Data>
                <Data name="name">
                    <value>--</value>
                </Data>
                <Data name="taluka">
                    <value>Salcete</value>
                </Data>
                <Data name="syno">
                    <value>0</value>
                </Data>
                <Data name="subdiv">
                    <value>South of 262</value>
                </Data>
                <Data name="village">
                    <value>Velim</value>
                </Data>
                <Data name="latitude">
                    <value>15.16101</value>
                </Data>
                <Data name="longitude">
                    <value>73.97581</value>
                </Data>
                <Data name="photo_1">
                    <value>DCIM/20210819154603487.jpg</value>
                </Data>
                <Data name="photo_2">
                    <value>DCIM/20210819154635366.jpg</value>
                </Data>
                <Data name="constituency">
                    <value>35 - Velim</value>
                </Data>
                <Data name="status">
                    <value>Completed</value>
                </Data>
                <Data name="panchayat">
                    <value>Velim</value>
                </Data>
                <Data name="wb_type">
                    <value>Pond</value>
                </Data>
                <Data name="owner_type">
                    <value>Public</value>
                </Data>
                <Data name="purpose">
                    <value>Irrigation</value>
                </Data>
                <Data name="construction">
                    <value>Natural</value>
                </Data>
                <Data name="condition">
                    <value>Needs Maintenance</value>
                </Data>
                <Data name="print_order">
                    <value>140</value>
                </Data>
                <Data name="wb_id">
                    <value>Sc/Veli/02</value>
                </Data>
                <Data name="storage_capacity">
                    <value>1758.0</value>
                </Data>
                <Data name="wb_surface_id">
                    <value>878</value>
                </Data>
                <Data name="created_at">
                    <value>2020-02-28 15:24:34</value>
                </Data>
                <Data name="updated_at">
                    <value>2023-07-22 14:03:14.307690</value>
                </Data>
                <Data name="book_id">
                    <value>6</value>
                </Data>
                <Data name="owners">
                    <value>Govt. of Goa</value>
                </Data>
                <Data name="label_x">
                    <value>1008334.0</value>
                </Data>
                <Data name="label_y">
                    <value>975413.801375261</value>
                </Data>
            </ExtendedData>
            <Point id="72154">
                <coordinates>73.975805301,15.161010236,0.0</coordinates>
            </Point>
        </Placemark>
        <Placemark id="72187">
            <ExtendedData>
                <Data name="direction">
                    <value>https://maps.google.com?q=15.15923,73.97882&amp;t=h</value>
                </Data>
                <Data name="id">
                    <value>4151</value>
                </Data>
                <Data name="name">
                    <value>Jirmin Tollem</value>
                </Data>
                <Data name="taluka">
                    <value>Salcete</value>
                </Data>
                <Data name="syno">
                    <value>0</value>
                </Data>
                <Data name="subdiv">
                    <value>North of 274</value>
                </Data>
                <Data name="village">
                    <value>Velim</value>
                </Data>
                <Data name="latitude">
                    <value>15.15923</value>
                </Data>
                <Data name="longitude">
                    <value>73.97882</value>
                </Data>
                <Data name="photo_1">
                    <value>DCIM/20211210080311637.jpg</value>
                </Data>
                <Data name="photo_2">
                    <value>DCIM/20211210080341880.jpg</value>
                </Data>
                <Data name="constituency">
                    <value>35 - Velim</value>
                </Data>
                <Data name="status">
                    <value>Completed</value>
                </Data>
                <Data name="panchayat">
                    <value>Velim</value>
                </Data>
                <Data name="wb_type">
                    <value>Tank</value>
                </Data>
                <Data name="owner_type">
                    <value>Public</value>
                </Data>
                <Data name="purpose">
                    <value>Irrigation</value>
                </Data>
                <Data name="construction">
                    <value>Man Made</value>
                </Data>
                <Data name="condition">
                    <value>Needs Maintenance</value>
                </Data>
                <Data name="print_order">
                    <value>162</value>
                </Data>
                <Data name="wb_id">
                    <value>Sc/Veli/03</value>
                </Data>
                <Data name="storage_capacity">
                    <value>1288.0</value>
                </Data>
                <Data name="wb_surface_id">
                    <value>2888</value>
                </Data>
                <Data name="created_at">
                    <value>2021-11-28 08:18:45.608759</value>
                </Data>
                <Data name="updated_at">
                    <value>2023-07-22 14:03:14.307690</value>
                </Data>
                <Data name="book_id">
                    <value>6</value>
                </Data>
                <Data name="owners">
                    <value>Govt. of Goa</value>
                </Data>
                <Data name="label_x">
                    <value>1008334.0</value>
                </Data>
                <Data name="label_y">
                    <value>975063.801375261</value>
                </Data>
            </ExtendedData>
            <Point id="72186">
                <coordinates>73.978816947,15.159232066,0.0</coordinates>
            </Point>
        </Placemark>
    </Document>
</kml>
