<?xml version="1.0" encoding="UTF-8"?>
<kml xmlns="http://www.opengis.net/kml/2.2" xmlns:gx="http://www.google.com/kml/ext/2.2">
    <Document id="1192">
        <Placemark id="1194">
            <ExtendedData>
                <Data name="id">
                    <value>23</value>
                </Data>
                <Data name="taluka">
                    <value>Canacona</value>
                </Data>
                <Data name="village">
                    <value>Agonda</value>
                </Data>
                <Data name="lg_code">
                    <value>627023</value>
                </Data>
                <Data name="dslr_code">
                    <value>00035300</value>
                </Data>
            </ExtendedData>
            <Polygon id="1193">
                <outerBoundaryIs>
                    <LinearRing id="1197">
                        <coordinates>74.008517004,15.066770769,0.0 74.009091082,15.066158097,0.0 74.00972305,15.065555074,0.0 74.010900152,15.065347634,0.0 74.010879818,15.065282645,0.0 74.010632301,15.064359739,0.0 74.011561174,15.062091403,0.0 74.011709256,15.061384651,0.0 74.011830413,15.060455777,0.0 74.012241002,15.059971147,0.0 74.013089104,15.05957402,0.0 74.013917014,15.058153786,0.0 74.014293948,15.057312415,0.0 74.014879542,15.055091195,0.0 74.014771847,15.054653682,0.0 74.014893004,15.054095011,0.0 74.015088202,15.054007509,0.0 74.017733473,15.054020971,0.0 74.017168072,15.053859427,0.0 74.016178619,15.053031518,0.0 74.015512253,15.051557436,0.0 74.015148781,15.051288197,0.0 74.015195898,15.050904532,0.0 74.014832425,15.050635293,0.0 74.014630496,15.049726612,0.0 74.014940121,15.048434266,0.0 74.0152834,15.047909251,0.0 74.015263207,15.046213046,0.0 74.016044,15.04533802,0.0 74.017349808,15.044557228,0.0 74.017652701,15.043473542,0.0 74.018675809,15.041696566,0.0 74.018716195,15.040087864,0.0 74.01833926,15.039509001,0.0 74.018332529,15.039246493,0.0 74.018763311,15.039091681,0.0 74.018899177,15.038814521,0.0 74.019315251,15.038102228,0.0 74.020015272,15.036991618,0.0 74.020647983,15.036581029,0.0 74.020849912,15.036217557,0.0 74.020452785,15.035847354,0.0 74.019268134,15.034952135,0.0 74.018527727,15.03485117,0.0 74.017511351,15.03526849,0.0 74.016057462,15.035046368,0.0 74.015343979,15.034252114,0.0 74.015115126,15.033518438,0.0 74.015094933,15.032865534,0.0 74.013984323,15.030674604,0.0 74.013354978,15.029934197,0.0 74.012904003,15.029651497,0.0 74.013055449,15.029345237,0.0 74.013550176,15.02915677,0.0 74.013533348,15.028446653,0.0 74.01312949,15.028207704,0.0 74.012725632,15.02887407,0.0 74.012103017,15.028648582,0.0 74.011318859,15.028614927,0.0 74.010231808,15.028392805,0.0 74.00972362,15.027807211,0.0 74.009494767,15.027130749,0.0 74.00927601,15.026848048,0.0 74.008565893,15.026723525,0.0 74.008020684,15.026134565,0.0 74.008111553,15.025034052,0.0 74.008734167,15.024983569,0.0 74.009016868,15.024660483,0.0 74.008734167,15.024445092,0.0 74.007939913,15.024310472,0.0 74.007808659,15.023761898,0.0 74.007448552,15.023489294,0.0 74.007300471,15.023105629,0.0 74.006883151,15.022718598,0.0 74.007078349,15.022378684,0.0 74.007509131,15.021910882,0.0 74.00774808,15.021614719,0.0 74.007741349,15.021210861,0.0 74.007610095,15.020611805,0.0 74.007256719,15.020150733,0.0 74.007000943,15.01974351,0.0 74.006869689,15.019046855,0.0 74.006836034,15.018101153,0.0 74.006141061,15.017619048,0.0 74.005424213,15.016609402,0.0 74.004566015,15.016114676,0.0 74.003192897,15.016235834,0.0 74.00241547,15.017083936,0.0 74.001870261,15.019052744,0.0 74.001345246,15.019274866,0.0 74.000487047,15.018335896,0.0 73.999315859,15.018749851,0.0 73.998084091,15.020466248,0.0 73.99797303,15.02100136,0.0 73.99766004,15.021728304,0.0 73.996912903,15.021698015,0.0 73.996165765,15.021041746,0.0 73.996196054,15.020193643,0.0 73.995277277,15.019850364,0.0 73.995014769,15.018941683,0.0 73.994227246,15.019183998,0.0 73.992551234,15.017972424,0.0 73.991794,15.017932038,0.0 73.991420432,15.019204191,0.0 73.990117989,15.01989075,0.0 73.988886222,15.020950877,0.0 73.9886641,15.023575955,0.0 73.988694389,15.024858205,0.0 73.987684744,15.025817368,0.0 73.987179921,15.025352931,0.0 73.986230854,15.025342835,0.0 73.985796707,15.025847658,0.0 73.985927961,15.026443348,0.0 73.987603972,15.02666547,0.0 73.987624165,15.027018846,0.0 73.986513555,15.027887141,0.0 73.985746225,15.028997751,0.0 73.986392398,15.029260259,0.0 73.987472718,15.029209777,0.0 73.988169374,15.029351127,0.0 73.989759469,15.030455245,0.0 73.990123037,15.032551703,0.0 73.989698986,15.034490222,0.0 73.9865287,15.04121446,0.0 73.983782464,15.047332911,0.0 73.981339123,15.051411879,0.0 73.980026584,15.05211863,0.0 73.979608063,15.05311229,0.0 73.979858921,15.053421038,0.0 73.979880903,15.053839191,0.0 73.979723844,15.05399994,0.0 73.979641832,15.054327985,0.0 73.979784977,15.054801864,0.0 73.98001049,15.054982274,0.0 73.980313322,15.054988717,0.0 73.980506619,15.054937172,0.0 73.98082878,15.054801864,0.0 73.981144499,15.054672999,0.0 73.981395785,15.054608567,0.0 73.981924129,15.054441043,0.0 73.982761749,15.054363724,0.0 73.983215997,15.054424935,0.0 73.983686353,15.054631118,0.0 73.984002071,15.055217452,0.0 73.984382222,15.055655592,0.0 73.985764295,15.056129169,0.0 73.986270088,15.056106618,0.0 73.987040054,15.056067959,0.0 73.987687599,15.056332131,0.0 73.988164398,15.056667179,0.0 73.988354314,15.057285211,0.0 73.988388083,15.057811048,0.0 73.988725777,15.058717995,0.0 73.98885603,15.059394587,0.0 73.989024876,15.059937308,0.0 73.989150305,15.060144748,0.0 73.98945936,15.060929971,0.0 73.989420918,15.061099757,0.0 73.989396793,15.061206308,0.0 73.989372271,15.061314617,0.0 73.989393079,15.061400299,0.0 73.989367393,15.061741554,0.0 73.989485586,15.061893516,0.0 73.989714735,15.062421765,0.0 73.989931823,15.062776342,0.0 73.990580676,15.063208107,0.0 73.991239178,15.063613339,0.0 73.991752954,15.063955856,0.0 73.992078586,15.064580588,0.0 73.992295675,15.064913457,0.0 73.992688846,15.065248738,0.0 73.992973473,15.065376579,0.0 73.993103726,15.065316277,0.0 73.993634387,15.065263211,0.0 73.993844239,15.065104012,0.0 73.993921426,15.064988232,0.0 73.994823549,15.064621594,0.0 73.995554413,15.064614358,0.0 73.996065777,15.064652951,0.0 73.996683273,15.064546819,0.0 73.997184988,15.064373148,0.0 73.997223582,15.063647108,0.0 73.997102977,15.063278058,0.0 73.997023378,15.062901771,0.0 73.997252527,15.062631617,0.0 73.997756655,15.062441061,0.0 73.998526112,15.062409704,0.0 73.998837272,15.062814936,0.0 73.999238233,15.063003506,0.0 73.999324515,15.063044085,0.0 73.99954018,15.063016767,0.0 73.999686329,15.062998255,0.0 74.000224226,15.062925892,0.0 74.000431666,15.063053733,0.0 74.00043649,15.063524091,0.0 74.000393073,15.0640644,0.0 74.00043649,15.064459984,0.0 74.001632889,15.064744611,0.0 74.002665265,15.064754259,0.0 74.003220046,15.064459984,0.0 74.003654223,15.063919675,0.0 74.004329609,15.063331124,0.0 74.004522577,15.06323464,0.0 74.004966402,15.063475849,0.0 74.005347513,15.063943796,0.0 74.005608019,15.064662599,0.0 74.005627316,15.064952051,0.0 74.006090438,15.06513537,0.0 74.00678512,15.065236678,0.0 74.007031154,15.065323513,0.0 74.007161407,15.06560814,0.0 74.006490845,15.06679489,0.0 74.006780296,15.067074693,0.0 74.007267539,15.067277309,0.0 74.007687243,15.067204946,0.0 74.008517004,15.066770769,0.0</coordinates>
                    </LinearRing>
                </outerBoundaryIs>
            </Polygon>
        </Placemark>
    </Document>
</kml>
