<?xml version="1.0" encoding="UTF-8"?>
<kml xmlns="http://www.opengis.net/kml/2.2" xmlns:gx="http://www.google.com/kml/ext/2.2">
    <Document id="1290">
        <Placemark id="1292">
            <ExtendedData>
                <Data name="id">
                    <value>25</value>
                </Data>
                <Data name="taluka">
                    <value>Canacona</value>
                </Data>
                <Data name="village">
                    <value>Nagorcem-Palolem</value>
                </Data>
                <Data name="lg_code">
                    <value>924820</value>
                </Data>
                <Data name="dslr_code">
                    <value>00036100</value>
                </Data>
            </ExtendedData>
            <Polygon id="1291">
                <outerBoundaryIs>
                    <LinearRing id="1295">
                        <coordinates>74.063678878,15.006520087,0.0 74.063792463,15.005929444,0.0 74.064087785,15.005285796,0.0 74.063928766,15.004308964,0.0 74.064579987,15.003597164,0.0 74.064549697,15.002847502,0.0 74.063996917,15.002332583,0.0 74.064322527,15.001325462,0.0 74.064080212,15.000469787,0.0 74.064102929,14.998909885,0.0 74.064035749,14.997365892,0.0 74.062086264,14.995978662,0.0 74.058782476,14.995011428,0.0 74.058037582,14.993584463,0.0 74.058504262,14.991179263,0.0 74.057893988,14.990586938,0.0 74.056278555,14.986907341,0.0 74.052841274,14.985264985,0.0 74.048811667,14.987795829,0.0 74.045634649,14.988774063,0.0 74.042278139,14.988217637,0.0 74.039917813,14.98537268,0.0 74.03902035,14.984080334,0.0 74.038354132,14.984711747,0.0 74.037786207,14.986835788,0.0 74.037025187,14.989732208,0.0 74.035525863,14.993014818,0.0 74.034685334,14.99376448,0.0 74.034673975,14.994741312,0.0 74.034117408,14.996217918,0.0 74.03234548,14.998455545,0.0 74.030482685,14.99955732,0.0 74.029096946,14.999114338,0.0 74.027881586,14.997944412,0.0 74.02708649,14.99787626,0.0 74.026757093,14.999034829,0.0 74.02891521,15.000147963,0.0 74.028778908,15.001204304,0.0 74.027892944,15.0019994,0.0 74.026609433,15.001681362,0.0 74.025041958,15.001601852,0.0 74.024439957,15.002544608,0.0 74.024383165,15.003282911,0.0 74.025132826,15.003532799,0.0 74.026348187,15.003510082,0.0 74.026484489,15.004963971,0.0 74.02663215,15.006315634,0.0 74.025007883,15.008439675,0.0 74.023281389,15.009859489,0.0 74.021202782,15.011097567,0.0 74.018578966,15.01206304,0.0 74.015455375,15.012415154,0.0 74.015228205,15.011801794,0.0 74.014978318,15.01137585,0.0 74.013865184,15.010296792,0.0 74.012871314,15.01030815,0.0 74.012320426,15.011256586,0.0 74.012229558,15.01214255,0.0 74.011139141,15.012886532,0.0 74.009935139,15.013641873,0.0 74.008157532,15.015220706,0.0 74.007652078,15.016504218,0.0 74.006836034,15.018101153,0.0 74.006869689,15.019046855,0.0 74.007000943,15.01974351,0.0 74.007256719,15.020150733,0.0 74.007610095,15.020611805,0.0 74.007741349,15.021210861,0.0 74.00774808,15.021614719,0.0 74.007509131,15.021910882,0.0 74.007078349,15.022378684,0.0 74.006883151,15.022718598,0.0 74.007300471,15.023105629,0.0 74.007448552,15.023489294,0.0 74.007808659,15.023761898,0.0 74.007939913,15.024310472,0.0 74.008734167,15.024445092,0.0 74.009016868,15.024660483,0.0 74.008734167,15.024983569,0.0 74.008111553,15.025034052,0.0 74.008020684,15.026134565,0.0 74.008565893,15.026723525,0.0 74.00927601,15.026848048,0.0 74.009494767,15.027130749,0.0 74.00972362,15.027807211,0.0 74.010231808,15.028392805,0.0 74.011318859,15.028614927,0.0 74.012103017,15.028648582,0.0 74.012725632,15.02887407,0.0 74.01312949,15.028207704,0.0 74.013533348,15.028446653,0.0 74.013550176,15.02915677,0.0 74.013055449,15.029345237,0.0 74.012904003,15.029651497,0.0 74.013354978,15.029934197,0.0 74.013984323,15.030674604,0.0 74.01404692,15.030483705,0.0 74.014146307,15.030168506,0.0 74.014848641,15.030138217,0.0 74.014867572,15.02886985,0.0 74.016188946,15.028733547,0.0 74.016325248,15.027128211,0.0 74.016643286,15.027298589,0.0 74.016548632,15.02807854,0.0 74.016821236,15.028676755,0.0 74.016802305,15.029437775,0.0 74.017037048,15.02945292,0.0 74.017313438,15.028930428,0.0 74.01725286,15.028650252,0.0 74.022439913,15.028479874,0.0 74.022769309,15.029388555,0.0 74.022458844,15.02980882,0.0 74.021909849,15.030335097,0.0 74.02202722,15.030653136,0.0 74.02189849,15.031474735,0.0 74.021974214,15.031554244,0.0 74.022292252,15.0311832,0.0 74.022636794,15.031046897,0.0 74.023265298,15.031088545,0.0 74.02393545,15.030842444,0.0 74.024897137,15.029691449,0.0 74.02655548,15.029028869,0.0 74.026824298,15.028657824,0.0 74.027070399,15.029044013,0.0 74.027555029,15.029089447,0.0 74.028285759,15.02968009,0.0 74.028213822,15.03029345,0.0 74.027486878,15.031251351,0.0 74.028058589,15.031535313,0.0 74.02861137,15.031364936,0.0 74.030769487,15.033659355,0.0 74.03105345,15.033507908,0.0 74.03153808,15.033572273,0.0 74.031663023,15.033428398,0.0 74.031833401,15.033462474,0.0 74.031822042,15.033610135,0.0 74.032136295,15.033170939,0.0 74.032340748,15.033295883,0.0 74.034271694,15.032762033,0.0 74.034627594,15.032902121,0.0 74.035748301,15.032731743,0.0 74.036043622,15.032690095,0.0 74.035979257,15.032205466,0.0 74.036338943,15.031796559,0.0 74.036354088,15.031058256,0.0 74.036126918,15.030781866,0.0 74.035820238,15.02945292,0.0 74.036217786,15.029081875,0.0 74.036338943,15.02866161,0.0 74.035642288,15.028457157,0.0 74.036301082,15.027832439,0.0 74.035839169,15.027525759,0.0 74.035585496,15.026049153,0.0 74.03511601,15.025662963,0.0 74.034684387,15.025644033,0.0 74.034381493,15.025447152,0.0 74.034267908,15.025568309,0.0 74.034021807,15.025038245,0.0 74.034275481,15.024621767,0.0 74.034525368,15.024780786,0.0 74.035184162,15.024856509,0.0 74.036244289,15.024822434,0.0 74.036963661,15.024334018,0.0 74.037031813,15.024076558,0.0 74.037599738,15.024281011,0.0 74.037868556,15.024095489,0.0 74.037630027,15.02314516,0.0 74.03862579,15.022675675,0.0 74.038610646,15.022244052,0.0 74.040208409,15.021630692,0.0 74.040125114,15.021127132,0.0 74.041003505,15.020597068,0.0 74.042177218,15.020650074,0.0 74.041999268,15.021407308,0.0 74.042196149,15.022221335,0.0 74.04274893,15.022486367,0.0 74.043184339,15.022380354,0.0 74.043710617,15.0219298,0.0 74.044751814,15.022323561,0.0 74.046516169,15.02194873,0.0 74.047761819,15.021657195,0.0 74.048738651,15.021823787,0.0 74.048772726,15.022668103,0.0 74.048912815,15.023141374,0.0 74.049957798,15.024156068,0.0 74.05019254,15.024754283,0.0 74.050654453,15.023769878,0.0 74.050646881,15.023179236,0.0 74.051760015,15.022331134,0.0 74.052592972,15.020725798,0.0 74.053236621,15.020173017,0.0 74.053865125,15.017931604,0.0 74.053600093,15.017325817,0.0 74.053403212,15.016894193,0.0 74.054834385,15.016523149,0.0 74.055765783,15.0173031,0.0 74.056969785,15.017681717,0.0 74.057143949,15.017212232,0.0 74.057711874,15.016614017,0.0 74.05847668,15.016061236,0.0 74.058749285,15.015175272,0.0 74.059559525,15.014720932,0.0 74.060877112,15.014599774,0.0 74.060672659,15.014122717,0.0 74.061929668,15.013562364,0.0 74.062603606,15.012259921,0.0 74.064814729,15.011782864,0.0 74.064663283,15.010533427,0.0 74.064458829,15.009950357,0.0 74.063951483,15.009647464,0.0 74.06381518,15.009283991,0.0 74.064140791,15.008594908,0.0 74.064239231,15.007996693,0.0 74.064102929,15.007277321,0.0 74.063678878,15.006520087,0.0</coordinates>
                    </LinearRing>
                </outerBoundaryIs>
            </Polygon>
        </Placemark>
    </Document>
</kml>
